<?xml version="1.0" encoding="UTF-8"?><osm version="0.6" generator="import_postcodes.py" upload="false">
  <node id="-1" lat="51.739726537357164" lon="-0.3174923118332497">
    <tag k="addr:postcode" v="AL1 1AR"/>
    <tag k="removemelater" v="yes"/>
  </node>
  <node id="-2" lat="51.749722738366565" lon="-0.34069106832724605">
    <tag k="addr:postcode" v="AL1 1BU"/>
    <tag k="removemelater" v="yes"/>
  </node>
  <node id="-3" lat="51.75009099166849" lon="-0.339388231499509">
    <tag k="addr:postcode" v="AL1 1EX"/>
    <tag k="removemelater" v="yes"/>
  </node>
  <node id="-4" lat="51.74885219609133" lon="-0.3408098882967415">
    <tag k="addr:postcode" v="AL1 1HE"/>
    <tag k="removemelater" v="yes"/>
  </node>
  <node id="-5" lat="51.74432493008643" lon="-0.3366881492973264">
    <tag k="addr:postcode" v="AL1 1HH"/>
    <tag k="removemelater" v="yes"/>
  </node>
  <node id="-6" lat="51.74623328051566" lon="-0.33619797121501627">
    <tag k="addr:postcode" v="AL1 1HJ"/>
    <tag k="removemelater" v="yes"/>
  </node>
  <node id="-7" lat="51.749535607004006" lon="-0.334454108659383">
    <tag k="addr:postcode" v="AL1 1LJ"/>
    <tag k="removemelater" v="yes"/>
  </node>
  <node id="-8" lat="51.75087145448457" lon="-0.33925819707333404">
    <tag k="addr:postcode" v="AL1 1LZ"/>
    <tag k="removemelater" v="yes"/>
  </node>
  <node id="-9" lat="51.75068394880078" lon="-0.33935199752528017">
    <tag k="addr:postcode" v="AL1 1NQ"/>
    <tag k="removemelater" v="yes"/>
  </node>
  <node id="-10" lat="51.749307887470955" lon="-0.3348826004285312">
    <tag k="addr:postcode" v="AL1 1NX"/>
    <tag k="removemelater" v="yes"/>
  </node>
  <node id="-11" lat="51.749615132471845" lon="-0.335624617878473">
    <tag k="addr:postcode" v="AL1 1QL"/>
    <tag k="removemelater" v="yes"/>
  </node>
  <node id="-12" lat="51.74696032980392" lon="-0.33166611397497187">
    <tag k="addr:postcode" v="AL1 1QU"/>
    <tag k="removemelater" v="yes"/>
  </node>
  <node id="-13" lat="51.7478463377585" lon="-0.33708031274438893">
    <tag k="addr:postcode" v="AL1 1RL"/>
    <tag k="removemelater" v="yes"/>
  </node>
  <node id="-14" lat="51.73577334491396" lon="-0.31646605650205456">
    <tag k="addr:postcode" v="AL1 1UF"/>
    <tag k="removemelater" v="yes"/>
  </node>
  <node id="-15" lat="51.74765007896673" lon="-0.30197286891281594">
    <tag k="addr:postcode" v="AL1 1WZ"/>
    <tag k="removemelater" v="yes"/>
  </node>
  <node id="-16" lat="51.7378525201649" lon="-0.3438197559818121">
    <tag k="addr:postcode" v="AL1 2PB"/>
    <tag k="removemelater" v="yes"/>
  </node>
  <node id="-17" lat="51.74428929957136" lon="-0.342440055340225">
    <tag k="addr:postcode" v="AL1 2PS"/>
    <tag k="removemelater" v="yes"/>
  </node>
  <node id="-18" lat="51.74765007896673" lon="-0.30197286891281594">
    <tag k="addr:postcode" v="AL1 2WA"/>
    <tag k="removemelater" v="yes"/>
  </node>
  <node id="-19" lat="51.74765007896673" lon="-0.30197286891281594">
    <tag k="addr:postcode" v="AL1 2ZY"/>
    <tag k="removemelater" v="yes"/>
  </node>
  <node id="-20" lat="51.74862949497004" lon="-0.3314307787993285">
    <tag k="addr:postcode" v="AL1 3AS"/>
    <tag k="removemelater" v="yes"/>
  </node>
  <node id="-21" lat="51.75433681969519" lon="-0.33378487763151143">
    <tag k="addr:postcode" v="AL1 3DE"/>
    <tag k="removemelater" v="yes"/>
  </node>
  <node id="-22" lat="51.75342014378649" lon="-0.33826644874249856">
    <tag k="addr:postcode" v="AL1 3EB"/>
    <tag k="removemelater" v="yes"/>
  </node>
  <node id="-23" lat="51.75499427428839" lon="-0.3363975993215067">
    <tag k="addr:postcode" v="AL1 3FH"/>
    <tag k="removemelater" v="yes"/>
  </node>
  <node id="-24" lat="51.74778000081719" lon="-0.326073188963624">
    <tag k="addr:postcode" v="AL1 3GW"/>
    <tag k="removemelater" v="yes"/>
  </node>
  <node id="-25" lat="51.75099803482651" lon="-0.3373991822571552">
    <tag k="addr:postcode" v="AL1 3JQ"/>
    <tag k="removemelater" v="yes"/>
  </node>
  <node id="-26" lat="51.75281497702036" lon="-0.3348984995440311">
    <tag k="addr:postcode" v="AL1 3LQ"/>
    <tag k="removemelater" v="yes"/>
  </node>
  <node id="-27" lat="51.75141904848006" lon="-0.3385572033475467">
    <tag k="addr:postcode" v="AL1 3LZ"/>
    <tag k="removemelater" v="yes"/>
  </node>
  <node id="-28" lat="51.747558119746074" lon="-0.3256468048530579">
    <tag k="addr:postcode" v="AL1 3NX"/>
    <tag k="removemelater" v="yes"/>
  </node>
  <node id="-29" lat="51.753769844373224" lon="-0.33438527128765505">
    <tag k="addr:postcode" v="AL1 3RW"/>
    <tag k="removemelater" v="yes"/>
  </node>
  <node id="-30" lat="51.75077101504425" lon="-0.33026532056402225">
    <tag k="addr:postcode" v="AL1 3SE"/>
    <tag k="removemelater" v="yes"/>
  </node>
  <node id="-31" lat="51.75075811900033" lon="-0.32999053897622405">
    <tag k="addr:postcode" v="AL1 3SY"/>
    <tag k="removemelater" v="yes"/>
  </node>
  <node id="-32" lat="51.75090327258634" lon="-0.33134698807927815">
    <tag k="addr:postcode" v="AL1 3TL"/>
    <tag k="removemelater" v="yes"/>
  </node>
  <node id="-33" lat="51.75139886142165" lon="-0.3320530947800235">
    <tag k="addr:postcode" v="AL1 3TU"/>
    <tag k="removemelater" v="yes"/>
  </node>
  <node id="-34" lat="51.751298240817896" lon="-0.3306660120748706">
    <tag k="addr:postcode" v="AL1 3TX"/>
    <tag k="removemelater" v="yes"/>
  </node>
  <node id="-35" lat="51.752204198089586" lon="-0.33812273721007835">
    <tag k="addr:postcode" v="AL1 3UB"/>
    <tag k="removemelater" v="yes"/>
  </node>
  <node id="-36" lat="51.753407798695584" lon="-0.3361226697252325">
    <tag k="addr:postcode" v="AL1 3UF"/>
    <tag k="removemelater" v="yes"/>
  </node>
  <node id="-37" lat="51.753246691494674" lon="-0.3336366533080664">
    <tag k="addr:postcode" v="AL1 3UU"/>
    <tag k="removemelater" v="yes"/>
  </node>
  <node id="-38" lat="51.74995189427879" lon="-0.3346416135903776">
    <tag k="addr:postcode" v="AL1 3XU"/>
    <tag k="removemelater" v="yes"/>
  </node>
  <node id="-39" lat="51.74765007896673" lon="-0.30197286891281594">
    <tag k="addr:postcode" v="AL1 3XY"/>
    <tag k="removemelater" v="yes"/>
  </node>
  <node id="-40" lat="51.74765007896673" lon="-0.30197286891281594">
    <tag k="addr:postcode" v="AL1 3YL"/>
    <tag k="removemelater" v="yes"/>
  </node>
  <node id="-41" lat="51.75332970102692" lon="-0.3280846784539795">
    <tag k="addr:postcode" v="AL1 3YT"/>
    <tag k="removemelater" v="yes"/>
  </node>
  <node id="-42" lat="51.74765007896673" lon="-0.30197286891281594">
    <tag k="addr:postcode" v="AL1 3ZJ"/>
    <tag k="removemelater" v="yes"/>
  </node>
  <node id="-43" lat="51.74765007896673" lon="-0.30197286891281594">
    <tag k="addr:postcode" v="AL1 3ZT"/>
    <tag k="removemelater" v="yes"/>
  </node>
  <node id="-44" lat="51.74765007896673" lon="-0.30197286891281594">
    <tag k="addr:postcode" v="AL1 3ZX"/>
    <tag k="removemelater" v="yes"/>
  </node>
  <node id="-45" lat="51.75905938405229" lon="-0.3288438757062403">
    <tag k="addr:postcode" v="AL1 4BY"/>
    <tag k="removemelater" v="yes"/>
  </node>
  <node id="-46" lat="51.74765007896673" lon="-0.30197286891281594">
    <tag k="addr:postcode" v="AL1 4FQ"/>
    <tag k="removemelater" v="yes"/>
  </node>
  <node id="-47" lat="51.75241930297181" lon="-0.31596306295553983">
    <tag k="addr:postcode" v="AL1 4LS"/>
    <tag k="removemelater" v="yes"/>
  </node>
  <node id="-48" lat="51.75207255301479" lon="-0.31122400520247884">
    <tag k="addr:postcode" v="AL1 4SY"/>
    <tag k="removemelater" v="yes"/>
  </node>
  <node id="-49" lat="51.76274693907465" lon="-0.3075362524216558">
    <tag k="addr:postcode" v="AL1 4UZ"/>
    <tag k="removemelater" v="yes"/>
  </node>
  <node id="-50" lat="51.74765007896673" lon="-0.30197286891281594">
    <tag k="addr:postcode" v="AL1 4WU"/>
    <tag k="removemelater" v="yes"/>
  </node>
  <node id="-51" lat="51.74765007896673" lon="-0.30197286891281594">
    <tag k="addr:postcode" v="AL1 4ZG"/>
    <tag k="removemelater" v="yes"/>
  </node>
  <node id="-52" lat="51.74765007896673" lon="-0.30197286891281594">
    <tag k="addr:postcode" v="AL1 4ZX"/>
    <tag k="removemelater" v="yes"/>
  </node>
  <node id="-53" lat="51.743147469814076" lon="-0.30712446681839334">
    <tag k="addr:postcode" v="AL1 5AE"/>
    <tag k="removemelater" v="yes"/>
  </node>
  <node id="-54" lat="51.74765007896673" lon="-0.30197286891281594">
    <tag k="addr:postcode" v="AL1 5BB"/>
    <tag k="removemelater" v="yes"/>
  </node>
  <node id="-55" lat="51.750511090472756" lon="-0.3258997885135996">
    <tag k="addr:postcode" v="AL1 5BE"/>
    <tag k="removemelater" v="yes"/>
  </node>
  <node id="-56" lat="51.74765007896673" lon="-0.30197286891281594">
    <tag k="addr:postcode" v="AL1 5FE"/>
    <tag k="removemelater" v="yes"/>
  </node>
  <node id="-57" lat="51.749639005299585" lon="-0.31521174254816164">
    <tag k="addr:postcode" v="AL1 5HT"/>
    <tag k="removemelater" v="yes"/>
  </node>
  <node id="-58" lat="51.749407149402195" lon="-0.31096124564534405">
    <tag k="addr:postcode" v="AL1 5JQ"/>
    <tag k="removemelater" v="yes"/>
  </node>
  <node id="-59" lat="51.74765007896673" lon="-0.30197286891281594">
    <tag k="addr:postcode" v="AL1 5NU"/>
    <tag k="removemelater" v="yes"/>
  </node>
  <node id="-60" lat="51.747592832124916" lon="-0.3173738895528487">
    <tag k="addr:postcode" v="AL1 5TL"/>
    <tag k="removemelater" v="yes"/>
  </node>
  <node id="-61" lat="51.746539862082024" lon="-0.3029271113832966">
    <tag k="addr:postcode" v="AL1 5UB"/>
    <tag k="removemelater" v="yes"/>
  </node>
  <node id="-62" lat="51.74765007896673" lon="-0.30197286891281594">
    <tag k="addr:postcode" v="AL1 9AH"/>
    <tag k="removemelater" v="yes"/>
  </node>
  <node id="-63" lat="51.74765007896673" lon="-0.30197286891281594">
    <tag k="addr:postcode" v="AL1 9AP"/>
    <tag k="removemelater" v="yes"/>
  </node>
  <node id="-64" lat="51.74765007896673" lon="-0.30197286891281594">
    <tag k="addr:postcode" v="AL1 9BA"/>
    <tag k="removemelater" v="yes"/>
  </node>
  <node id="-65" lat="51.74765007896673" lon="-0.30197286891281594">
    <tag k="addr:postcode" v="AL1 9BE"/>
    <tag k="removemelater" v="yes"/>
  </node>
  <node id="-66" lat="51.74765007896673" lon="-0.30197286891281594">
    <tag k="addr:postcode" v="AL1 9BG"/>
    <tag k="removemelater" v="yes"/>
  </node>
  <node id="-67" lat="51.74765007896673" lon="-0.30197286891281594">
    <tag k="addr:postcode" v="AL1 9BJ"/>
    <tag k="removemelater" v="yes"/>
  </node>
  <node id="-68" lat="51.74765007896673" lon="-0.30197286891281594">
    <tag k="addr:postcode" v="AL1 9BL"/>
    <tag k="removemelater" v="yes"/>
  </node>
  <node id="-69" lat="51.74765007896673" lon="-0.30197286891281594">
    <tag k="addr:postcode" v="AL1 9BQ"/>
    <tag k="removemelater" v="yes"/>
  </node>
  <node id="-70" lat="51.74765007896673" lon="-0.30197286891281594">
    <tag k="addr:postcode" v="AL1 9BR"/>
    <tag k="removemelater" v="yes"/>
  </node>
  <node id="-71" lat="51.74765007896673" lon="-0.30197286891281594">
    <tag k="addr:postcode" v="AL1 9DL"/>
    <tag k="removemelater" v="yes"/>
  </node>
  <node id="-72" lat="51.74765007896673" lon="-0.30197286891281594">
    <tag k="addr:postcode" v="AL1 9DS"/>
    <tag k="removemelater" v="yes"/>
  </node>
  <node id="-73" lat="51.74765007896673" lon="-0.30197286891281594">
    <tag k="addr:postcode" v="AL1 9DY"/>
    <tag k="removemelater" v="yes"/>
  </node>
  <node id="-74" lat="51.74765007896673" lon="-0.30197286891281594">
    <tag k="addr:postcode" v="AL1 9ER"/>
    <tag k="removemelater" v="yes"/>
  </node>
  <node id="-75" lat="51.74765007896673" lon="-0.30197286891281594">
    <tag k="addr:postcode" v="AL1 9FP"/>
    <tag k="removemelater" v="yes"/>
  </node>
  <node id="-76" lat="51.74765007896673" lon="-0.30197286891281594">
    <tag k="addr:postcode" v="AL1 9FQ"/>
    <tag k="removemelater" v="yes"/>
  </node>
  <node id="-77" lat="51.74765007896673" lon="-0.30197286891281594">
    <tag k="addr:postcode" v="AL1 9FX"/>
    <tag k="removemelater" v="yes"/>
  </node>
  <node id="-78" lat="51.74765007896673" lon="-0.30197286891281594">
    <tag k="addr:postcode" v="AL1 9GF"/>
    <tag k="removemelater" v="yes"/>
  </node>
  <node id="-79" lat="51.74765007896673" lon="-0.30197286891281594">
    <tag k="addr:postcode" v="AL1 9HA"/>
    <tag k="removemelater" v="yes"/>
  </node>
  <node id="-80" lat="51.74765007896673" lon="-0.30197286891281594">
    <tag k="addr:postcode" v="AL1 9HJ"/>
    <tag k="removemelater" v="yes"/>
  </node>
  <node id="-81" lat="51.74765007896673" lon="-0.30197286891281594">
    <tag k="addr:postcode" v="AL1 9HN"/>
    <tag k="removemelater" v="yes"/>
  </node>
  <node id="-82" lat="51.74765007896673" lon="-0.30197286891281594">
    <tag k="addr:postcode" v="AL1 9HP"/>
    <tag k="removemelater" v="yes"/>
  </node>
  <node id="-83" lat="51.74765007896673" lon="-0.30197286891281594">
    <tag k="addr:postcode" v="AL1 9HR"/>
    <tag k="removemelater" v="yes"/>
  </node>
  <node id="-84" lat="51.74765007896673" lon="-0.30197286891281594">
    <tag k="addr:postcode" v="AL1 9HS"/>
    <tag k="removemelater" v="yes"/>
  </node>
  <node id="-85" lat="51.74765007896673" lon="-0.30197286891281594">
    <tag k="addr:postcode" v="AL1 9HT"/>
    <tag k="removemelater" v="yes"/>
  </node>
  <node id="-86" lat="51.74765007896673" lon="-0.30197286891281594">
    <tag k="addr:postcode" v="AL1 9HU"/>
    <tag k="removemelater" v="yes"/>
  </node>
  <node id="-87" lat="51.74765007896673" lon="-0.30197286891281594">
    <tag k="addr:postcode" v="AL1 9HW"/>
    <tag k="removemelater" v="yes"/>
  </node>
  <node id="-88" lat="51.74765007896673" lon="-0.30197286891281594">
    <tag k="addr:postcode" v="AL1 9HX"/>
    <tag k="removemelater" v="yes"/>
  </node>
  <node id="-89" lat="51.74765007896673" lon="-0.30197286891281594">
    <tag k="addr:postcode" v="AL1 9JA"/>
    <tag k="removemelater" v="yes"/>
  </node>
  <node id="-90" lat="51.74765007896673" lon="-0.30197286891281594">
    <tag k="addr:postcode" v="AL1 9JB"/>
    <tag k="removemelater" v="yes"/>
  </node>
  <node id="-91" lat="51.74765007896673" lon="-0.30197286891281594">
    <tag k="addr:postcode" v="AL1 9JD"/>
    <tag k="removemelater" v="yes"/>
  </node>
  <node id="-92" lat="51.74765007896673" lon="-0.30197286891281594">
    <tag k="addr:postcode" v="AL1 9JE"/>
    <tag k="removemelater" v="yes"/>
  </node>
  <node id="-93" lat="51.74765007896673" lon="-0.30197286891281594">
    <tag k="addr:postcode" v="AL1 9JF"/>
    <tag k="removemelater" v="yes"/>
  </node>
  <node id="-94" lat="51.74765007896673" lon="-0.30197286891281594">
    <tag k="addr:postcode" v="AL1 9JG"/>
    <tag k="removemelater" v="yes"/>
  </node>
  <node id="-95" lat="51.74765007896673" lon="-0.30197286891281594">
    <tag k="addr:postcode" v="AL1 9JH"/>
    <tag k="removemelater" v="yes"/>
  </node>
  <node id="-96" lat="51.74765007896673" lon="-0.30197286891281594">
    <tag k="addr:postcode" v="AL1 9JJ"/>
    <tag k="removemelater" v="yes"/>
  </node>
  <node id="-97" lat="51.74765007896673" lon="-0.30197286891281594">
    <tag k="addr:postcode" v="AL1 9JL"/>
    <tag k="removemelater" v="yes"/>
  </node>
  <node id="-98" lat="51.74765007896673" lon="-0.30197286891281594">
    <tag k="addr:postcode" v="AL1 9JN"/>
    <tag k="removemelater" v="yes"/>
  </node>
  <node id="-99" lat="51.74765007896673" lon="-0.30197286891281594">
    <tag k="addr:postcode" v="AL1 9JQ"/>
    <tag k="removemelater" v="yes"/>
  </node>
  <node id="-100" lat="51.74765007896673" lon="-0.30197286891281594">
    <tag k="addr:postcode" v="AL1 9JS"/>
    <tag k="removemelater" v="yes"/>
  </node>
  <node id="-101" lat="51.74765007896673" lon="-0.30197286891281594">
    <tag k="addr:postcode" v="AL1 9JT"/>
    <tag k="removemelater" v="yes"/>
  </node>
  <node id="-102" lat="51.74765007896673" lon="-0.30197286891281594">
    <tag k="addr:postcode" v="AL1 9JU"/>
    <tag k="removemelater" v="yes"/>
  </node>
  <node id="-103" lat="51.74765007896673" lon="-0.30197286891281594">
    <tag k="addr:postcode" v="AL1 9JW"/>
    <tag k="removemelater" v="yes"/>
  </node>
  <node id="-104" lat="51.74765007896673" lon="-0.30197286891281594">
    <tag k="addr:postcode" v="AL1 9JX"/>
    <tag k="removemelater" v="yes"/>
  </node>
  <node id="-105" lat="51.74765007896673" lon="-0.30197286891281594">
    <tag k="addr:postcode" v="AL1 9JY"/>
    <tag k="removemelater" v="yes"/>
  </node>
  <node id="-106" lat="51.74765007896673" lon="-0.30197286891281594">
    <tag k="addr:postcode" v="AL1 9JZ"/>
    <tag k="removemelater" v="yes"/>
  </node>
  <node id="-107" lat="51.74765007896673" lon="-0.30197286891281594">
    <tag k="addr:postcode" v="AL1 9LA"/>
    <tag k="removemelater" v="yes"/>
  </node>
  <node id="-108" lat="51.74765007896673" lon="-0.30197286891281594">
    <tag k="addr:postcode" v="AL1 9LZ"/>
    <tag k="removemelater" v="yes"/>
  </node>
  <node id="-109" lat="51.74765007896673" lon="-0.30197286891281594">
    <tag k="addr:postcode" v="AL1 9NB"/>
    <tag k="removemelater" v="yes"/>
  </node>
  <node id="-110" lat="51.74765007896673" lon="-0.30197286891281594">
    <tag k="addr:postcode" v="AL1 9NF"/>
    <tag k="removemelater" v="yes"/>
  </node>
  <node id="-111" lat="51.74765007896673" lon="-0.30197286891281594">
    <tag k="addr:postcode" v="AL1 9NG"/>
    <tag k="removemelater" v="yes"/>
  </node>
  <node id="-112" lat="51.74765007896673" lon="-0.30197286891281594">
    <tag k="addr:postcode" v="AL1 9PW"/>
    <tag k="removemelater" v="yes"/>
  </node>
  <node id="-113" lat="51.74765007896673" lon="-0.30197286891281594">
    <tag k="addr:postcode" v="AL1 9QB"/>
    <tag k="removemelater" v="yes"/>
  </node>
  <node id="-114" lat="51.74765007896673" lon="-0.30197286891281594">
    <tag k="addr:postcode" v="AL1 9QG"/>
    <tag k="removemelater" v="yes"/>
  </node>
  <node id="-115" lat="51.74765007896673" lon="-0.30197286891281594">
    <tag k="addr:postcode" v="AL1 9RJ"/>
    <tag k="removemelater" v="yes"/>
  </node>
  <node id="-116" lat="51.753407798695584" lon="-0.3361226697252325">
    <tag k="addr:postcode" v="AL1 9SA"/>
    <tag k="removemelater" v="yes"/>
  </node>
  <node id="-117" lat="51.753407798695584" lon="-0.3361226697252325">
    <tag k="addr:postcode" v="AL1 9SB"/>
    <tag k="removemelater" v="yes"/>
  </node>
  <node id="-118" lat="51.74765007896673" lon="-0.30197286891281594">
    <tag k="addr:postcode" v="AL1 9SG"/>
    <tag k="removemelater" v="yes"/>
  </node>
  <node id="-119" lat="51.74765007896673" lon="-0.30197286891281594">
    <tag k="addr:postcode" v="AL1 9TG"/>
    <tag k="removemelater" v="yes"/>
  </node>
  <node id="-120" lat="51.74765007896673" lon="-0.30197286891281594">
    <tag k="addr:postcode" v="AL1 9TQ"/>
    <tag k="removemelater" v="yes"/>
  </node>
  <node id="-121" lat="51.74765007896673" lon="-0.30197286891281594">
    <tag k="addr:postcode" v="AL1 9TY"/>
    <tag k="removemelater" v="yes"/>
  </node>
  <node id="-122" lat="51.74765007896673" lon="-0.30197286891281594">
    <tag k="addr:postcode" v="AL1 9UH"/>
    <tag k="removemelater" v="yes"/>
  </node>
  <node id="-123" lat="51.74765007896673" lon="-0.30197286891281594">
    <tag k="addr:postcode" v="AL1 9UJ"/>
    <tag k="removemelater" v="yes"/>
  </node>
  <node id="-124" lat="51.74765007896673" lon="-0.30197286891281594">
    <tag k="addr:postcode" v="AL1 9UQ"/>
    <tag k="removemelater" v="yes"/>
  </node>
  <node id="-125" lat="51.74765007896673" lon="-0.30197286891281594">
    <tag k="addr:postcode" v="AL1 9UT"/>
    <tag k="removemelater" v="yes"/>
  </node>
  <node id="-126" lat="51.74765007896673" lon="-0.30197286891281594">
    <tag k="addr:postcode" v="AL1 9UW"/>
    <tag k="removemelater" v="yes"/>
  </node>
  <node id="-127" lat="51.74765007896673" lon="-0.30197286891281594">
    <tag k="addr:postcode" v="AL1 9WB"/>
    <tag k="removemelater" v="yes"/>
  </node>
  <node id="-128" lat="51.74765007896673" lon="-0.30197286891281594">
    <tag k="addr:postcode" v="AL1 9WL"/>
    <tag k="removemelater" v="yes"/>
  </node>
  <node id="-129" lat="51.74765007896673" lon="-0.30197286891281594">
    <tag k="addr:postcode" v="AL1 9WQ"/>
    <tag k="removemelater" v="yes"/>
  </node>
  <node id="-130" lat="51.74765007896673" lon="-0.30197286891281594">
    <tag k="addr:postcode" v="AL1 9WR"/>
    <tag k="removemelater" v="yes"/>
  </node>
  <node id="-131" lat="51.74765007896673" lon="-0.30197286891281594">
    <tag k="addr:postcode" v="AL1 9WS"/>
    <tag k="removemelater" v="yes"/>
  </node>
  <node id="-132" lat="51.74765007896673" lon="-0.30197286891281594">
    <tag k="addr:postcode" v="AL1 9WU"/>
    <tag k="removemelater" v="yes"/>
  </node>
  <node id="-133" lat="51.74765007896673" lon="-0.30197286891281594">
    <tag k="addr:postcode" v="AL1 9XD"/>
    <tag k="removemelater" v="yes"/>
  </node>
  <node id="-134" lat="51.74765007896673" lon="-0.30197286891281594">
    <tag k="addr:postcode" v="AL1 9XF"/>
    <tag k="removemelater" v="yes"/>
  </node>
  <node id="-135" lat="51.74765007896673" lon="-0.30197286891281594">
    <tag k="addr:postcode" v="AL1 9XJ"/>
    <tag k="removemelater" v="yes"/>
  </node>
  <node id="-136" lat="51.74765007896673" lon="-0.30197286891281594">
    <tag k="addr:postcode" v="AL1 9XP"/>
    <tag k="removemelater" v="yes"/>
  </node>
  <node id="-137" lat="51.74765007896673" lon="-0.30197286891281594">
    <tag k="addr:postcode" v="AL1 9XQ"/>
    <tag k="removemelater" v="yes"/>
  </node>
  <node id="-138" lat="51.753407798695584" lon="-0.3361226697252325">
    <tag k="addr:postcode" v="AL1 9XR"/>
    <tag k="removemelater" v="yes"/>
  </node>
  <node id="-139" lat="51.753407798695584" lon="-0.3361226697252325">
    <tag k="addr:postcode" v="AL1 9XS"/>
    <tag k="removemelater" v="yes"/>
  </node>
  <node id="-140" lat="51.753407798695584" lon="-0.3361226697252325">
    <tag k="addr:postcode" v="AL1 9XT"/>
    <tag k="removemelater" v="yes"/>
  </node>
  <node id="-141" lat="51.753407798695584" lon="-0.3361226697252325">
    <tag k="addr:postcode" v="AL1 9XU"/>
    <tag k="removemelater" v="yes"/>
  </node>
  <node id="-142" lat="51.753407798695584" lon="-0.3361226697252325">
    <tag k="addr:postcode" v="AL1 9XW"/>
    <tag k="removemelater" v="yes"/>
  </node>
  <node id="-143" lat="51.753407798695584" lon="-0.3361226697252325">
    <tag k="addr:postcode" v="AL1 9XX"/>
    <tag k="removemelater" v="yes"/>
  </node>
  <node id="-144" lat="51.753407798695584" lon="-0.3361226697252325">
    <tag k="addr:postcode" v="AL1 9XY"/>
    <tag k="removemelater" v="yes"/>
  </node>
  <node id="-145" lat="51.753407798695584" lon="-0.3361226697252325">
    <tag k="addr:postcode" v="AL1 9XZ"/>
    <tag k="removemelater" v="yes"/>
  </node>
  <node id="-146" lat="51.753407798695584" lon="-0.3361226697252325">
    <tag k="addr:postcode" v="AL1 9YA"/>
    <tag k="removemelater" v="yes"/>
  </node>
  <node id="-147" lat="51.753407798695584" lon="-0.3361226697252325">
    <tag k="addr:postcode" v="AL1 9YB"/>
    <tag k="removemelater" v="yes"/>
  </node>
  <node id="-148" lat="51.753407798695584" lon="-0.3361226697252325">
    <tag k="addr:postcode" v="AL1 9YD"/>
    <tag k="removemelater" v="yes"/>
  </node>
  <node id="-149" lat="51.753407798695584" lon="-0.3361226697252325">
    <tag k="addr:postcode" v="AL1 9YE"/>
    <tag k="removemelater" v="yes"/>
  </node>
  <node id="-150" lat="51.753407798695584" lon="-0.3361226697252325">
    <tag k="addr:postcode" v="AL1 9YF"/>
    <tag k="removemelater" v="yes"/>
  </node>
  <node id="-151" lat="51.753407798695584" lon="-0.3361226697252325">
    <tag k="addr:postcode" v="AL1 9YG"/>
    <tag k="removemelater" v="yes"/>
  </node>
  <node id="-152" lat="51.753407798695584" lon="-0.3361226697252325">
    <tag k="addr:postcode" v="AL1 9YH"/>
    <tag k="removemelater" v="yes"/>
  </node>
  <node id="-153" lat="51.753407798695584" lon="-0.3361226697252325">
    <tag k="addr:postcode" v="AL1 9YJ"/>
    <tag k="removemelater" v="yes"/>
  </node>
  <node id="-154" lat="51.753407798695584" lon="-0.3361226697252325">
    <tag k="addr:postcode" v="AL1 9YL"/>
    <tag k="removemelater" v="yes"/>
  </node>
  <node id="-155" lat="51.753407798695584" lon="-0.3361226697252325">
    <tag k="addr:postcode" v="AL1 9YN"/>
    <tag k="removemelater" v="yes"/>
  </node>
  <node id="-156" lat="51.753407798695584" lon="-0.3361226697252325">
    <tag k="addr:postcode" v="AL1 9YP"/>
    <tag k="removemelater" v="yes"/>
  </node>
  <node id="-157" lat="51.753407798695584" lon="-0.3361226697252325">
    <tag k="addr:postcode" v="AL1 9YQ"/>
    <tag k="removemelater" v="yes"/>
  </node>
  <node id="-158" lat="51.74765007896673" lon="-0.30197286891281594">
    <tag k="addr:postcode" v="AL1 9YS"/>
    <tag k="removemelater" v="yes"/>
  </node>
  <node id="-159" lat="51.74765007896673" lon="-0.30197286891281594">
    <tag k="addr:postcode" v="AL1 9YU"/>
    <tag k="removemelater" v="yes"/>
  </node>
  <node id="-160" lat="51.74765007896673" lon="-0.30197286891281594">
    <tag k="addr:postcode" v="AL1 9YZ"/>
    <tag k="removemelater" v="yes"/>
  </node>
  <node id="-161" lat="51.76800060165061" lon="-0.23194796618342434">
    <tag k="addr:postcode" v="AL10 0DA"/>
    <tag k="removemelater" v="yes"/>
  </node>
  <node id="-162" lat="51.76577476332341" lon="-0.21852819024918646">
    <tag k="addr:postcode" v="AL10 0ER"/>
    <tag k="removemelater" v="yes"/>
  </node>
  <node id="-163" lat="51.76038769313382" lon="-0.2393601903012091">
    <tag k="addr:postcode" v="AL10 0FP"/>
    <tag k="removemelater" v="yes"/>
  </node>
  <node id="-164" lat="51.76625480908367" lon="-0.2199440370498625">
    <tag k="addr:postcode" v="AL10 0HL"/>
    <tag k="removemelater" v="yes"/>
  </node>
  <node id="-165" lat="51.76350803121939" lon="-0.22680511443143045">
    <tag k="addr:postcode" v="AL10 0JL"/>
    <tag k="removemelater" v="yes"/>
  </node>
  <node id="-166" lat="51.763347550023454" lon="-0.22749249969140706">
    <tag k="addr:postcode" v="AL10 0JP"/>
    <tag k="removemelater" v="yes"/>
  </node>
  <node id="-167" lat="51.76311479904248" lon="-0.22696543538249506">
    <tag k="addr:postcode" v="AL10 0JS"/>
    <tag k="removemelater" v="yes"/>
  </node>
  <node id="-168" lat="51.76325905206598" lon="-0.22639461904548946">
    <tag k="addr:postcode" v="AL10 0JT"/>
    <tag k="removemelater" v="yes"/>
  </node>
  <node id="-169" lat="51.763191310027004" lon="-0.22667261018214538">
    <tag k="addr:postcode" v="AL10 0JU"/>
    <tag k="removemelater" v="yes"/>
  </node>
  <node id="-170" lat="51.76321564806785" lon="-0.2264977598121943">
    <tag k="addr:postcode" v="AL10 0JX"/>
    <tag k="removemelater" v="yes"/>
  </node>
  <node id="-171" lat="51.76358130973365" lon="-0.22510673656598243">
    <tag k="addr:postcode" v="AL10 0JZ"/>
    <tag k="removemelater" v="yes"/>
  </node>
  <node id="-172" lat="51.762973054235026" lon="-0.225318978702714">
    <tag k="addr:postcode" v="AL10 0LG"/>
    <tag k="removemelater" v="yes"/>
  </node>
  <node id="-173" lat="51.76268258896116" lon="-0.22633026322243474">
    <tag k="addr:postcode" v="AL10 0LJ"/>
    <tag k="removemelater" v="yes"/>
  </node>
  <node id="-174" lat="51.76230620992011" lon="-0.22701160438693982">
    <tag k="addr:postcode" v="AL10 0LR"/>
    <tag k="removemelater" v="yes"/>
  </node>
  <node id="-175" lat="51.76230620992011" lon="-0.22701160438693982">
    <tag k="addr:postcode" v="AL10 0LS"/>
    <tag k="removemelater" v="yes"/>
  </node>
  <node id="-176" lat="51.76264756339618" lon="-0.22520132143573982">
    <tag k="addr:postcode" v="AL10 0LW"/>
    <tag k="removemelater" v="yes"/>
  </node>
  <node id="-177" lat="51.76413987913623" lon="-0.2281570672420549">
    <tag k="addr:postcode" v="AL10 0NB"/>
    <tag k="removemelater" v="yes"/>
  </node>
  <node id="-178" lat="51.76426403777732" lon="-0.22625378989435885">
    <tag k="addr:postcode" v="AL10 0NE"/>
    <tag k="removemelater" v="yes"/>
  </node>
  <node id="-179" lat="51.76489879200042" lon="-0.22660570043055647">
    <tag k="addr:postcode" v="AL10 0NF"/>
    <tag k="removemelater" v="yes"/>
  </node>
  <node id="-180" lat="51.76345746358651" lon="-0.2252420169719816">
    <tag k="addr:postcode" v="AL10 0NY"/>
    <tag k="removemelater" v="yes"/>
  </node>
  <node id="-181" lat="51.760935850315335" lon="-0.2381361437153085">
    <tag k="addr:postcode" v="AL10 0SH"/>
    <tag k="removemelater" v="yes"/>
  </node>
  <node id="-182" lat="51.760271172571954" lon="-0.23878510587984267">
    <tag k="addr:postcode" v="AL10 0SJ"/>
    <tag k="removemelater" v="yes"/>
  </node>
  <node id="-183" lat="51.76341608025808" lon="-0.23383707005997514">
    <tag k="addr:postcode" v="AL10 0SP"/>
    <tag k="removemelater" v="yes"/>
  </node>
  <node id="-184" lat="51.76198418082942" lon="-0.2384865898271093">
    <tag k="addr:postcode" v="AL10 0SX"/>
    <tag k="removemelater" v="yes"/>
  </node>
  <node id="-185" lat="51.76179749829228" lon="-0.2380301464023115">
    <tag k="addr:postcode" v="AL10 0SY"/>
    <tag k="removemelater" v="yes"/>
  </node>
  <node id="-186" lat="51.76296352573093" lon="-0.23843398005278055">
    <tag k="addr:postcode" v="AL10 0XS"/>
    <tag k="removemelater" v="yes"/>
  </node>
  <node id="-187" lat="51.76296352573093" lon="-0.23843398005278055">
    <tag k="addr:postcode" v="AL10 0XU"/>
    <tag k="removemelater" v="yes"/>
  </node>
  <node id="-188" lat="51.76296352573093" lon="-0.23843398005278055">
    <tag k="addr:postcode" v="AL10 0XX"/>
    <tag k="removemelater" v="yes"/>
  </node>
  <node id="-189" lat="51.76134714059173" lon="-0.24038069311234186">
    <tag k="addr:postcode" v="AL10 0XY"/>
    <tag k="removemelater" v="yes"/>
  </node>
  <node id="-190" lat="51.76134714059173" lon="-0.24038069311234186">
    <tag k="addr:postcode" v="AL10 0YA"/>
    <tag k="removemelater" v="yes"/>
  </node>
  <node id="-191" lat="51.76134714059173" lon="-0.24038069311234186">
    <tag k="addr:postcode" v="AL10 0YB"/>
    <tag k="removemelater" v="yes"/>
  </node>
  <node id="-192" lat="51.76104353998781" lon="-0.24052291259455175">
    <tag k="addr:postcode" v="AL10 0YD"/>
    <tag k="removemelater" v="yes"/>
  </node>
  <node id="-193" lat="51.76426403777732" lon="-0.22625378989435885">
    <tag k="addr:postcode" v="AL10 1AJ"/>
    <tag k="removemelater" v="yes"/>
  </node>
  <node id="-194" lat="51.76426403777732" lon="-0.22625378989435885">
    <tag k="addr:postcode" v="AL10 1AL"/>
    <tag k="removemelater" v="yes"/>
  </node>
  <node id="-195" lat="51.76426403777732" lon="-0.22625378989435885">
    <tag k="addr:postcode" v="AL10 1AZ"/>
    <tag k="removemelater" v="yes"/>
  </node>
  <node id="-196" lat="51.76426403777732" lon="-0.22625378989435885">
    <tag k="addr:postcode" v="AL10 1DT"/>
    <tag k="removemelater" v="yes"/>
  </node>
  <node id="-197" lat="51.76426403777732" lon="-0.22625378989435885">
    <tag k="addr:postcode" v="AL10 1ES"/>
    <tag k="removemelater" v="yes"/>
  </node>
  <node id="-198" lat="51.76426403777732" lon="-0.22625378989435885">
    <tag k="addr:postcode" v="AL10 1FA"/>
    <tag k="removemelater" v="yes"/>
  </node>
  <node id="-199" lat="51.76426403777732" lon="-0.22625378989435885">
    <tag k="addr:postcode" v="AL10 1FD"/>
    <tag k="removemelater" v="yes"/>
  </node>
  <node id="-200" lat="51.76426403777732" lon="-0.22625378989435885">
    <tag k="addr:postcode" v="AL10 1FN"/>
    <tag k="removemelater" v="yes"/>
  </node>
  <node id="-201" lat="51.76426403777732" lon="-0.22625378989435885">
    <tag k="addr:postcode" v="AL10 1GA"/>
    <tag k="removemelater" v="yes"/>
  </node>
  <node id="-202" lat="51.76426403777732" lon="-0.22625378989435885">
    <tag k="addr:postcode" v="AL10 1GB"/>
    <tag k="removemelater" v="yes"/>
  </node>
  <node id="-203" lat="51.76426403777732" lon="-0.22625378989435885">
    <tag k="addr:postcode" v="AL10 1GG"/>
    <tag k="removemelater" v="yes"/>
  </node>
  <node id="-204" lat="51.76426403777732" lon="-0.22625378989435885">
    <tag k="addr:postcode" v="AL10 1GH"/>
    <tag k="removemelater" v="yes"/>
  </node>
  <node id="-205" lat="51.76426403777732" lon="-0.22625378989435885">
    <tag k="addr:postcode" v="AL10 1GL"/>
    <tag k="removemelater" v="yes"/>
  </node>
  <node id="-206" lat="51.76426403777732" lon="-0.22625378989435885">
    <tag k="addr:postcode" v="AL10 1GP"/>
    <tag k="removemelater" v="yes"/>
  </node>
  <node id="-207" lat="51.76426403777732" lon="-0.22625378989435885">
    <tag k="addr:postcode" v="AL10 1GR"/>
    <tag k="removemelater" v="yes"/>
  </node>
  <node id="-208" lat="51.76426403777732" lon="-0.22625378989435885">
    <tag k="addr:postcode" v="AL10 1GS"/>
    <tag k="removemelater" v="yes"/>
  </node>
  <node id="-209" lat="51.76426403777732" lon="-0.22625378989435885">
    <tag k="addr:postcode" v="AL10 1GX"/>
    <tag k="removemelater" v="yes"/>
  </node>
  <node id="-210" lat="51.76426403777732" lon="-0.22625378989435885">
    <tag k="addr:postcode" v="AL10 1GY"/>
    <tag k="removemelater" v="yes"/>
  </node>
  <node id="-211" lat="51.76426403777732" lon="-0.22625378989435885">
    <tag k="addr:postcode" v="AL10 1GZ"/>
    <tag k="removemelater" v="yes"/>
  </node>
  <node id="-212" lat="51.76426403777732" lon="-0.22625378989435885">
    <tag k="addr:postcode" v="AL10 1HB"/>
    <tag k="removemelater" v="yes"/>
  </node>
  <node id="-213" lat="51.76426403777732" lon="-0.22625378989435885">
    <tag k="addr:postcode" v="AL10 1HD"/>
    <tag k="removemelater" v="yes"/>
  </node>
  <node id="-214" lat="51.76426403777732" lon="-0.22625378989435885">
    <tag k="addr:postcode" v="AL10 1HE"/>
    <tag k="removemelater" v="yes"/>
  </node>
  <node id="-215" lat="51.76426403777732" lon="-0.22625378989435885">
    <tag k="addr:postcode" v="AL10 1HF"/>
    <tag k="removemelater" v="yes"/>
  </node>
  <node id="-216" lat="51.76426403777732" lon="-0.22625378989435885">
    <tag k="addr:postcode" v="AL10 1HG"/>
    <tag k="removemelater" v="yes"/>
  </node>
  <node id="-217" lat="51.762824296599035" lon="-0.2220208020990188">
    <tag k="addr:postcode" v="AL10 8AG"/>
    <tag k="removemelater" v="yes"/>
  </node>
  <node id="-218" lat="51.763472639831996" lon="-0.22327058076128553">
    <tag k="addr:postcode" v="AL10 8AQ"/>
    <tag k="removemelater" v="yes"/>
  </node>
  <node id="-219" lat="51.76511785575028" lon="-0.21849608285295927">
    <tag k="addr:postcode" v="AL10 8AX"/>
    <tag k="removemelater" v="yes"/>
  </node>
  <node id="-220" lat="51.7630554744957" lon="-0.21709915107310546">
    <tag k="addr:postcode" v="AL10 8BE"/>
    <tag k="removemelater" v="yes"/>
  </node>
  <node id="-221" lat="51.76229817487113" lon="-0.21696958256004334">
    <tag k="addr:postcode" v="AL10 8BJ"/>
    <tag k="removemelater" v="yes"/>
  </node>
  <node id="-222" lat="51.74845878884413" lon="-0.23420324210139348">
    <tag k="addr:postcode" v="AL10 8HZ"/>
    <tag k="removemelater" v="yes"/>
  </node>
  <node id="-223" lat="51.74853264105359" lon="-0.2343307421572056">
    <tag k="addr:postcode" v="AL10 8JB"/>
    <tag k="removemelater" v="yes"/>
  </node>
  <node id="-224" lat="51.761835728539936" lon="-0.2238420261035048">
    <tag k="addr:postcode" v="AL10 8TZ"/>
    <tag k="removemelater" v="yes"/>
  </node>
  <node id="-225" lat="51.761835728539936" lon="-0.2238420261035048">
    <tag k="addr:postcode" v="AL10 8UA"/>
    <tag k="removemelater" v="yes"/>
  </node>
  <node id="-226" lat="51.74325688668287" lon="-0.22019628564906865">
    <tag k="addr:postcode" v="AL10 8XB"/>
    <tag k="removemelater" v="yes"/>
  </node>
  <node id="-227" lat="51.74930096523616" lon="-0.22444966857315046">
    <tag k="addr:postcode" v="AL10 8XR"/>
    <tag k="removemelater" v="yes"/>
  </node>
  <node id="-228" lat="51.75024962391092" lon="-0.22415169665365384">
    <tag k="addr:postcode" v="AL10 8XX"/>
    <tag k="removemelater" v="yes"/>
  </node>
  <node id="-229" lat="51.76654429114098" lon="-0.21709212475336453">
    <tag k="addr:postcode" v="AL10 8YE"/>
    <tag k="removemelater" v="yes"/>
  </node>
  <node id="-230" lat="51.75287690614615" lon="-0.24220219196364806">
    <tag k="addr:postcode" v="AL10 9AB"/>
    <tag k="removemelater" v="yes"/>
  </node>
  <node id="-231" lat="51.76426403777732" lon="-0.22625378989435885">
    <tag k="addr:postcode" v="AL10 9AE"/>
    <tag k="removemelater" v="yes"/>
  </node>
  <node id="-232" lat="51.745849942709285" lon="-0.24072218589530986">
    <tag k="addr:postcode" v="AL10 9AF"/>
    <tag k="removemelater" v="yes"/>
  </node>
  <node id="-233" lat="51.78813594427776" lon="-0.26285629664091104">
    <tag k="addr:postcode" v="AL10 9BB"/>
    <tag k="removemelater" v="yes"/>
  </node>
  <node id="-234" lat="51.76924076070343" lon="-0.23608807228142642">
    <tag k="addr:postcode" v="AL10 9BW"/>
    <tag k="removemelater" v="yes"/>
  </node>
  <node id="-235" lat="51.7651795532567" lon="-0.24230403305667864">
    <tag k="addr:postcode" v="AL10 9EZ"/>
    <tag k="removemelater" v="yes"/>
  </node>
  <node id="-236" lat="51.77556175453553" lon="-0.2390595689139986">
    <tag k="addr:postcode" v="AL10 9FB"/>
    <tag k="removemelater" v="yes"/>
  </node>
  <node id="-237" lat="51.7678971651389" lon="-0.247256476667488">
    <tag k="addr:postcode" v="AL10 9GJ"/>
    <tag k="removemelater" v="yes"/>
  </node>
  <node id="-238" lat="51.76426403777732" lon="-0.22625378989435885">
    <tag k="addr:postcode" v="AL10 9HL"/>
    <tag k="removemelater" v="yes"/>
  </node>
  <node id="-239" lat="51.75412793844201" lon="-0.23388070635769692">
    <tag k="addr:postcode" v="AL10 9JG"/>
    <tag k="removemelater" v="yes"/>
  </node>
  <node id="-240" lat="51.76232606628814" lon="-0.2439074381272371">
    <tag k="addr:postcode" v="AL10 9NA"/>
    <tag k="removemelater" v="yes"/>
  </node>
  <node id="-241" lat="51.758969535294945" lon="-0.24073394467449236">
    <tag k="addr:postcode" v="AL10 9PJ"/>
    <tag k="removemelater" v="yes"/>
  </node>
  <node id="-242" lat="51.75287690614615" lon="-0.24220219196364806">
    <tag k="addr:postcode" v="AL10 9PN"/>
    <tag k="removemelater" v="yes"/>
  </node>
  <node id="-243" lat="51.763590177798655" lon="-0.24124991946872107">
    <tag k="addr:postcode" v="AL10 9RD"/>
    <tag k="removemelater" v="yes"/>
  </node>
  <node id="-244" lat="51.763590177798655" lon="-0.24124991946872107">
    <tag k="addr:postcode" v="AL10 9RE"/>
    <tag k="removemelater" v="yes"/>
  </node>
  <node id="-245" lat="51.763494457770314" lon="-0.2408623700966695">
    <tag k="addr:postcode" v="AL10 9RQ"/>
    <tag k="removemelater" v="yes"/>
  </node>
  <node id="-246" lat="51.76488409688059" lon="-0.23818531697631154">
    <tag k="addr:postcode" v="AL10 9TL"/>
    <tag k="removemelater" v="yes"/>
  </node>
  <node id="-247" lat="51.772726203109336" lon="-0.24366320919864498">
    <tag k="addr:postcode" v="AL10 9TX"/>
    <tag k="removemelater" v="yes"/>
  </node>
  <node id="-248" lat="51.76818800258002" lon="-0.2360421545204698">
    <tag k="addr:postcode" v="AL10 9UL"/>
    <tag k="removemelater" v="yes"/>
  </node>
  <node id="-249" lat="51.75301445097555" lon="-0.23577862246395276">
    <tag k="addr:postcode" v="AL10 9UX"/>
    <tag k="removemelater" v="yes"/>
  </node>
  <node id="-250" lat="51.75019113081556" lon="-0.23698966169662217">
    <tag k="addr:postcode" v="AL10 9WW"/>
    <tag k="removemelater" v="yes"/>
  </node>
  <node id="-251" lat="51.76426403777732" lon="-0.22625378989435885">
    <tag k="addr:postcode" v="AL10 9XQ"/>
    <tag k="removemelater" v="yes"/>
  </node>
  <node id="-252" lat="51.72227399344007" lon="-0.28953142040718816">
    <tag k="addr:postcode" v="AL2 1AY"/>
    <tag k="removemelater" v="yes"/>
  </node>
  <node id="-253" lat="51.71901191483276" lon="-0.28658536183063354">
    <tag k="addr:postcode" v="AL2 1BL"/>
    <tag k="removemelater" v="yes"/>
  </node>
  <node id="-254" lat="51.71145000254371" lon="-0.2712673660570386">
    <tag k="addr:postcode" v="AL2 1BU"/>
    <tag k="removemelater" v="yes"/>
  </node>
  <node id="-255" lat="51.71674429569361" lon="-0.2784774150020526">
    <tag k="addr:postcode" v="AL2 1BX"/>
    <tag k="removemelater" v="yes"/>
  </node>
  <node id="-256" lat="51.71084903168299" lon="-0.284867404547746">
    <tag k="addr:postcode" v="AL2 1DR"/>
    <tag k="removemelater" v="yes"/>
  </node>
  <node id="-257" lat="51.72847435622318" lon="-0.30725276458880724">
    <tag k="addr:postcode" v="AL2 1DW"/>
    <tag k="removemelater" v="yes"/>
  </node>
  <node id="-258" lat="51.72820730155775" lon="-0.30058743772013485">
    <tag k="addr:postcode" v="AL2 1EB"/>
    <tag k="removemelater" v="yes"/>
  </node>
  <node id="-259" lat="51.74765007896673" lon="-0.30197286891281594">
    <tag k="addr:postcode" v="AL2 1EL"/>
    <tag k="removemelater" v="yes"/>
  </node>
  <node id="-260" lat="51.72033497536248" lon="-0.30153409138818305">
    <tag k="addr:postcode" v="AL2 1FQ"/>
    <tag k="removemelater" v="yes"/>
  </node>
  <node id="-261" lat="51.7210929509242" lon="-0.28808477621138423">
    <tag k="addr:postcode" v="AL2 1HJ"/>
    <tag k="removemelater" v="yes"/>
  </node>
  <node id="-262" lat="51.72019264924129" lon="-0.30226329902188265">
    <tag k="addr:postcode" v="AL2 1LN"/>
    <tag k="removemelater" v="yes"/>
  </node>
  <node id="-263" lat="51.72055175818323" lon="-0.2910586521514958">
    <tag k="addr:postcode" v="AL2 1QR"/>
    <tag k="removemelater" v="yes"/>
  </node>
  <node id="-264" lat="51.72108999436549" lon="-0.2915885152191565">
    <tag k="addr:postcode" v="AL2 1QT"/>
    <tag k="removemelater" v="yes"/>
  </node>
  <node id="-265" lat="51.74765007896673" lon="-0.30197286891281594">
    <tag k="addr:postcode" v="AL2 1RA"/>
    <tag k="removemelater" v="yes"/>
  </node>
  <node id="-266" lat="51.722605087540096" lon="-0.2980900647848591">
    <tag k="addr:postcode" v="AL2 1RS"/>
    <tag k="removemelater" v="yes"/>
  </node>
  <node id="-267" lat="51.71868777878627" lon="-0.28532363445604053">
    <tag k="addr:postcode" v="AL2 1TN"/>
    <tag k="removemelater" v="yes"/>
  </node>
  <node id="-268" lat="51.74765007896673" lon="-0.30197286891281594">
    <tag k="addr:postcode" v="AL2 2DA"/>
    <tag k="removemelater" v="yes"/>
  </node>
  <node id="-269" lat="51.71971542029734" lon="-0.3336245514303058">
    <tag k="addr:postcode" v="AL2 2DD"/>
    <tag k="removemelater" v="yes"/>
  </node>
  <node id="-270" lat="51.72006846328613" lon="-0.33505931241522346">
    <tag k="addr:postcode" v="AL2 2DR"/>
    <tag k="removemelater" v="yes"/>
  </node>
  <node id="-271" lat="51.709031204093634" lon="-0.31647485028065064">
    <tag k="addr:postcode" v="AL2 2DY"/>
    <tag k="removemelater" v="yes"/>
  </node>
  <node id="-272" lat="51.7295754029171" lon="-0.32952602474981973">
    <tag k="addr:postcode" v="AL2 2EX"/>
    <tag k="removemelater" v="yes"/>
  </node>
  <node id="-273" lat="51.71800290405031" lon="-0.33334006157223867">
    <tag k="addr:postcode" v="AL2 2FG"/>
    <tag k="removemelater" v="yes"/>
  </node>
  <node id="-274" lat="51.72122806345173" lon="-0.34713459910374556">
    <tag k="addr:postcode" v="AL2 2FJ"/>
    <tag k="removemelater" v="yes"/>
  </node>
  <node id="-275" lat="51.72162503745801" lon="-0.33830309487091215">
    <tag k="addr:postcode" v="AL2 2JR"/>
    <tag k="removemelater" v="yes"/>
  </node>
  <node id="-276" lat="51.71958335269954" lon="-0.3350916077409931">
    <tag k="addr:postcode" v="AL2 2NJ"/>
    <tag k="removemelater" v="yes"/>
  </node>
  <node id="-277" lat="51.72241655208645" lon="-0.3389545490841085">
    <tag k="addr:postcode" v="AL2 2PW"/>
    <tag k="removemelater" v="yes"/>
  </node>
  <node id="-278" lat="51.722677473842346" lon="-0.3472554820389857">
    <tag k="addr:postcode" v="AL2 2QF"/>
    <tag k="removemelater" v="yes"/>
  </node>
  <node id="-279" lat="51.721912121951654" lon="-0.34718204395580016">
    <tag k="addr:postcode" v="AL2 2QS"/>
    <tag k="removemelater" v="yes"/>
  </node>
  <node id="-280" lat="51.72107809340502" lon="-0.34797977416022635">
    <tag k="addr:postcode" v="AL2 2QT"/>
    <tag k="removemelater" v="yes"/>
  </node>
  <node id="-281" lat="51.72013993273301" lon="-0.35096735408383517">
    <tag k="addr:postcode" v="AL2 2RE"/>
    <tag k="removemelater" v="yes"/>
  </node>
  <node id="-282" lat="51.720907977836376" lon="-0.3473923909603127">
    <tag k="addr:postcode" v="AL2 2SP"/>
    <tag k="removemelater" v="yes"/>
  </node>
  <node id="-283" lat="51.72071025376077" lon="-0.3352963355019114">
    <tag k="addr:postcode" v="AL2 2WH"/>
    <tag k="removemelater" v="yes"/>
  </node>
  <node id="-284" lat="51.74765007896673" lon="-0.30197286891281594">
    <tag k="addr:postcode" v="AL2 2ZQ"/>
    <tag k="removemelater" v="yes"/>
  </node>
  <node id="-285" lat="51.72166501242988" lon="-0.36486853310417766">
    <tag k="addr:postcode" v="AL2 3DS"/>
    <tag k="removemelater" v="yes"/>
  </node>
  <node id="-286" lat="51.72115116162358" lon="-0.3634827336546601">
    <tag k="addr:postcode" v="AL2 3EH"/>
    <tag k="removemelater" v="yes"/>
  </node>
  <node id="-287" lat="51.70266546832623" lon="-0.37397612780513023">
    <tag k="addr:postcode" v="AL2 3FG"/>
    <tag k="removemelater" v="yes"/>
  </node>
  <node id="-288" lat="51.70322829986323" lon="-0.3743611652198871">
    <tag k="addr:postcode" v="AL2 3FH"/>
    <tag k="removemelater" v="yes"/>
  </node>
  <node id="-289" lat="51.74765007896673" lon="-0.30197286891281594">
    <tag k="addr:postcode" v="AL2 3JQ"/>
    <tag k="removemelater" v="yes"/>
  </node>
  <node id="-290" lat="51.72776356692252" lon="-0.37278613820405293">
    <tag k="addr:postcode" v="AL2 3NS"/>
    <tag k="removemelater" v="yes"/>
  </node>
  <node id="-291" lat="51.72082694471985" lon="-0.368619504131433">
    <tag k="addr:postcode" v="AL2 3NY"/>
    <tag k="removemelater" v="yes"/>
  </node>
  <node id="-292" lat="51.70837072762129" lon="-0.3671571326272421">
    <tag k="addr:postcode" v="AL2 3QB"/>
    <tag k="removemelater" v="yes"/>
  </node>
  <node id="-293" lat="51.74765007896673" lon="-0.30197286891281594">
    <tag k="addr:postcode" v="AL2 3RN"/>
    <tag k="removemelater" v="yes"/>
  </node>
  <node id="-294" lat="51.71691348291422" lon="-0.35943757448131547">
    <tag k="addr:postcode" v="AL2 3RR"/>
    <tag k="removemelater" v="yes"/>
  </node>
  <node id="-295" lat="51.716110760378115" lon="-0.365068867362566">
    <tag k="addr:postcode" v="AL2 3TN"/>
    <tag k="removemelater" v="yes"/>
  </node>
  <node id="-296" lat="51.74765007896673" lon="-0.30197286891281594">
    <tag k="addr:postcode" v="AL2 3WB"/>
    <tag k="removemelater" v="yes"/>
  </node>
  <node id="-297" lat="51.74765007896673" lon="-0.30197286891281594">
    <tag k="addr:postcode" v="AL2 3YE"/>
    <tag k="removemelater" v="yes"/>
  </node>
  <node id="-298" lat="51.74765007896673" lon="-0.30197286891281594">
    <tag k="addr:postcode" v="AL2 3YZ"/>
    <tag k="removemelater" v="yes"/>
  </node>
  <node id="-299" lat="51.745383255604374" lon="-0.3543794972933439">
    <tag k="addr:postcode" v="AL3 4AE"/>
    <tag k="removemelater" v="yes"/>
  </node>
  <node id="-300" lat="51.750789569915334" lon="-0.3404636390707845">
    <tag k="addr:postcode" v="AL3 4ED"/>
    <tag k="removemelater" v="yes"/>
  </node>
  <node id="-301" lat="51.75096175980481" lon="-0.34055873885387383">
    <tag k="addr:postcode" v="AL3 4EP"/>
    <tag k="removemelater" v="yes"/>
  </node>
  <node id="-302" lat="51.74765007896673" lon="-0.30197286891281594">
    <tag k="addr:postcode" v="AL3 4HR"/>
    <tag k="removemelater" v="yes"/>
  </node>
  <node id="-303" lat="51.75265996166529" lon="-0.34174244857301334">
    <tag k="addr:postcode" v="AL3 4PA"/>
    <tag k="removemelater" v="yes"/>
  </node>
  <node id="-304" lat="51.75374750941704" lon="-0.3474544109025609">
    <tag k="addr:postcode" v="AL3 4QJ"/>
    <tag k="removemelater" v="yes"/>
  </node>
  <node id="-305" lat="51.75400328029078" lon="-0.3464598753563977">
    <tag k="addr:postcode" v="AL3 4QS"/>
    <tag k="removemelater" v="yes"/>
  </node>
  <node id="-306" lat="51.753473409921675" lon="-0.3471456784540322">
    <tag k="addr:postcode" v="AL3 4QU"/>
    <tag k="removemelater" v="yes"/>
  </node>
  <node id="-307" lat="51.7535898090808" lon="-0.3477499290148932">
    <tag k="addr:postcode" v="AL3 4QY"/>
    <tag k="removemelater" v="yes"/>
  </node>
  <node id="-308" lat="51.75608671709968" lon="-0.3501074223189561">
    <tag k="addr:postcode" v="AL3 4SX"/>
    <tag k="removemelater" v="yes"/>
  </node>
  <node id="-309" lat="51.75380099569197" lon="-0.3480609614318995">
    <tag k="addr:postcode" v="AL3 4TH"/>
    <tag k="removemelater" v="yes"/>
  </node>
  <node id="-310" lat="51.74765007896673" lon="-0.30197286891281594">
    <tag k="addr:postcode" v="AL3 4WJ"/>
    <tag k="removemelater" v="yes"/>
  </node>
  <node id="-311" lat="51.75849849059142" lon="-0.33303761565056444">
    <tag k="addr:postcode" v="AL3 5AB"/>
    <tag k="removemelater" v="yes"/>
  </node>
  <node id="-312" lat="51.752118054854215" lon="-0.34029904489574986">
    <tag k="addr:postcode" v="AL3 5EA"/>
    <tag k="removemelater" v="yes"/>
  </node>
  <node id="-313" lat="51.75474642478103" lon="-0.33985496570772256">
    <tag k="addr:postcode" v="AL3 5EP"/>
    <tag k="removemelater" v="yes"/>
  </node>
  <node id="-314" lat="51.75309968993494" lon="-0.3391329997479342">
    <tag k="addr:postcode" v="AL3 5EX"/>
    <tag k="removemelater" v="yes"/>
  </node>
  <node id="-315" lat="51.75419794279614" lon="-0.3379481338553795">
    <tag k="addr:postcode" v="AL3 5FA"/>
    <tag k="removemelater" v="yes"/>
  </node>
  <node id="-316" lat="51.75184208252627" lon="-0.3392225949580117">
    <tag k="addr:postcode" v="AL3 5FB"/>
    <tag k="removemelater" v="yes"/>
  </node>
  <node id="-317" lat="51.762270594239446" lon="-0.346085398154407">
    <tag k="addr:postcode" v="AL3 5FE"/>
    <tag k="removemelater" v="yes"/>
  </node>
  <node id="-318" lat="51.758339026317564" lon="-0.33384041828258215">
    <tag k="addr:postcode" v="AL3 5LW"/>
    <tag k="removemelater" v="yes"/>
  </node>
  <node id="-319" lat="51.751595143714766" lon="-0.33956486456031026">
    <tag k="addr:postcode" v="AL3 5SQ"/>
    <tag k="removemelater" v="yes"/>
  </node>
  <node id="-320" lat="51.75130531249887" lon="-0.3400535767885505">
    <tag k="addr:postcode" v="AL3 5SW"/>
    <tag k="removemelater" v="yes"/>
  </node>
  <node id="-321" lat="51.75924879299973" lon="-0.350528294735496">
    <tag k="addr:postcode" v="AL3 5UB"/>
    <tag k="removemelater" v="yes"/>
  </node>
  <node id="-322" lat="51.751358213754585" lon="-0.33997920038072177">
    <tag k="addr:postcode" v="AL3 5US"/>
    <tag k="removemelater" v="yes"/>
  </node>
  <node id="-323" lat="51.74765007896673" lon="-0.30197286891281594">
    <tag k="addr:postcode" v="AL3 5ZZ"/>
    <tag k="removemelater" v="yes"/>
  </node>
  <node id="-324" lat="51.749127562709816" lon="-0.3668902665475787">
    <tag k="addr:postcode" v="AL3 6AA"/>
    <tag k="removemelater" v="yes"/>
  </node>
  <node id="-325" lat="51.750627314919576" lon="-0.3654598989420071">
    <tag k="addr:postcode" v="AL3 6AB"/>
    <tag k="removemelater" v="yes"/>
  </node>
  <node id="-326" lat="51.7579041353854" lon="-0.3786143749983169">
    <tag k="addr:postcode" v="AL3 6AG"/>
    <tag k="removemelater" v="yes"/>
  </node>
  <node id="-327" lat="51.75827210189781" lon="-0.3877151126826215">
    <tag k="addr:postcode" v="AL3 6AH"/>
    <tag k="removemelater" v="yes"/>
  </node>
  <node id="-328" lat="51.75885907060351" lon="-0.38789706228992105">
    <tag k="addr:postcode" v="AL3 6AJ"/>
    <tag k="removemelater" v="yes"/>
  </node>
  <node id="-329" lat="51.74922912497044" lon="-0.40307422233445145">
    <tag k="addr:postcode" v="AL3 6AP"/>
    <tag k="removemelater" v="yes"/>
  </node>
  <node id="-330" lat="51.746337276959096" lon="-0.3954118690284049">
    <tag k="addr:postcode" v="AL3 6AR"/>
    <tag k="removemelater" v="yes"/>
  </node>
  <node id="-331" lat="51.777087542553524" lon="-0.334498040643167">
    <tag k="addr:postcode" v="AL3 6BB"/>
    <tag k="removemelater" v="yes"/>
  </node>
  <node id="-332" lat="51.781660567631306" lon="-0.3152949157736637">
    <tag k="addr:postcode" v="AL3 6JB"/>
    <tag k="removemelater" v="yes"/>
  </node>
  <node id="-333" lat="51.77714589491442" lon="-0.32342119674495395">
    <tag k="addr:postcode" v="AL3 6JE"/>
    <tag k="removemelater" v="yes"/>
  </node>
  <node id="-334" lat="51.78318323563726" lon="-0.34271116716073835">
    <tag k="addr:postcode" v="AL3 6JH"/>
    <tag k="removemelater" v="yes"/>
  </node>
  <node id="-335" lat="51.78391112369967" lon="-0.3471498208851842">
    <tag k="addr:postcode" v="AL3 6JJ"/>
    <tag k="removemelater" v="yes"/>
  </node>
  <node id="-336" lat="51.778337296549" lon="-0.3363944951492267">
    <tag k="addr:postcode" v="AL3 6JQ"/>
    <tag k="removemelater" v="yes"/>
  </node>
  <node id="-337" lat="51.778481146341406" lon="-0.34787010010333264">
    <tag k="addr:postcode" v="AL3 6JU"/>
    <tag k="removemelater" v="yes"/>
  </node>
  <node id="-338" lat="51.77257042333043" lon="-0.3585652307763593">
    <tag k="addr:postcode" v="AL3 6JX"/>
    <tag k="removemelater" v="yes"/>
  </node>
  <node id="-339" lat="51.78120273304317" lon="-0.3059613998607482">
    <tag k="addr:postcode" v="AL3 6RA"/>
    <tag k="removemelater" v="yes"/>
  </node>
  <node id="-340" lat="51.74765007896673" lon="-0.30197286891281594">
    <tag k="addr:postcode" v="AL3 6ZN"/>
    <tag k="removemelater" v="yes"/>
  </node>
  <node id="-341" lat="51.79046525979009" lon="-0.3891918883441918">
    <tag k="addr:postcode" v="AL3 7AB"/>
    <tag k="removemelater" v="yes"/>
  </node>
  <node id="-342" lat="51.7929941342208" lon="-0.39132038910536227">
    <tag k="addr:postcode" v="AL3 7AD"/>
    <tag k="removemelater" v="yes"/>
  </node>
  <node id="-343" lat="51.78746798771699" lon="-0.414106211980846">
    <tag k="addr:postcode" v="AL3 7AF"/>
    <tag k="removemelater" v="yes"/>
  </node>
  <node id="-344" lat="51.783982660943806" lon="-0.41970856937292184">
    <tag k="addr:postcode" v="AL3 7AJ"/>
    <tag k="removemelater" v="yes"/>
  </node>
  <node id="-345" lat="51.781055232972925" lon="-0.4199993091579542">
    <tag k="addr:postcode" v="AL3 7AL"/>
    <tag k="removemelater" v="yes"/>
  </node>
  <node id="-346" lat="51.79428158270074" lon="-0.3986846191279863">
    <tag k="addr:postcode" v="AL3 7GD"/>
    <tag k="removemelater" v="yes"/>
  </node>
  <node id="-347" lat="51.796790402454576" lon="-0.393418584159064">
    <tag k="addr:postcode" v="AL3 7LG"/>
    <tag k="removemelater" v="yes"/>
  </node>
  <node id="-348" lat="51.79678216244941" lon="-0.3954491378253491">
    <tag k="addr:postcode" v="AL3 7LP"/>
    <tag k="removemelater" v="yes"/>
  </node>
  <node id="-349" lat="51.79480379015396" lon="-0.40137784995561854">
    <tag k="addr:postcode" v="AL3 7NG"/>
    <tag k="removemelater" v="yes"/>
  </node>
  <node id="-350" lat="51.794330642485725" lon="-0.40030700099851396">
    <tag k="addr:postcode" v="AL3 7NQ"/>
    <tag k="removemelater" v="yes"/>
  </node>
  <node id="-351" lat="51.80069577950335" lon="-0.39626741306417823">
    <tag k="addr:postcode" v="AL3 7PQ"/>
    <tag k="removemelater" v="yes"/>
  </node>
  <node id="-352" lat="51.81450406647536" lon="-0.4192794715422295">
    <tag k="addr:postcode" v="AL3 7PU"/>
    <tag k="removemelater" v="yes"/>
  </node>
  <node id="-353" lat="51.813984365968786" lon="-0.39485274372640083">
    <tag k="addr:postcode" v="AL3 7PZ"/>
    <tag k="removemelater" v="yes"/>
  </node>
  <node id="-354" lat="51.815024370043574" lon="-0.41918872743007907">
    <tag k="addr:postcode" v="AL3 7QN"/>
    <tag k="removemelater" v="yes"/>
  </node>
  <node id="-355" lat="51.74765007896673" lon="-0.30197286891281594">
    <tag k="addr:postcode" v="AL3 7ZR"/>
    <tag k="removemelater" v="yes"/>
  </node>
  <node id="-356" lat="51.82431743761033" lon="-0.45882573851683267">
    <tag k="addr:postcode" v="AL3 8AF"/>
    <tag k="removemelater" v="yes"/>
  </node>
  <node id="-357" lat="51.82425959554794" lon="-0.45990149559141613">
    <tag k="addr:postcode" v="AL3 8BJ"/>
    <tag k="removemelater" v="yes"/>
  </node>
  <node id="-358" lat="51.819841066806966" lon="-0.4364602299494473">
    <tag k="addr:postcode" v="AL3 8BT"/>
    <tag k="removemelater" v="yes"/>
  </node>
  <node id="-359" lat="51.82023485999303" lon="-0.4369979525872818">
    <tag k="addr:postcode" v="AL3 8BU"/>
    <tag k="removemelater" v="yes"/>
  </node>
  <node id="-360" lat="51.81989105799789" lon="-0.435486381925238">
    <tag k="addr:postcode" v="AL3 8BX"/>
    <tag k="removemelater" v="yes"/>
  </node>
  <node id="-361" lat="51.819998827390584" lon="-0.4348007141456611">
    <tag k="addr:postcode" v="AL3 8EN"/>
    <tag k="removemelater" v="yes"/>
  </node>
  <node id="-362" lat="51.81973859273244" lon="-0.43214004440314546">
    <tag k="addr:postcode" v="AL3 8EP"/>
    <tag k="removemelater" v="yes"/>
  </node>
  <node id="-363" lat="51.82004424215256" lon="-0.43011264563013596">
    <tag k="addr:postcode" v="AL3 8EW"/>
    <tag k="removemelater" v="yes"/>
  </node>
  <node id="-364" lat="51.8369085204681" lon="-0.46177780933932294">
    <tag k="addr:postcode" v="AL3 8PA"/>
    <tag k="removemelater" v="yes"/>
  </node>
  <node id="-365" lat="51.84382893174428" lon="-0.4642856293587507">
    <tag k="addr:postcode" v="AL3 8QH"/>
    <tag k="removemelater" v="yes"/>
  </node>
  <node id="-366" lat="51.840977086722205" lon="-0.4676197236385724">
    <tag k="addr:postcode" v="AL3 8QL"/>
    <tag k="removemelater" v="yes"/>
  </node>
  <node id="-367" lat="51.74765007896673" lon="-0.30197286891281594">
    <tag k="addr:postcode" v="AL4 0BZ"/>
    <tag k="removemelater" v="yes"/>
  </node>
  <node id="-368" lat="51.74904567160329" lon="-0.297748358421471">
    <tag k="addr:postcode" v="AL4 0FQ"/>
    <tag k="removemelater" v="yes"/>
  </node>
  <node id="-369" lat="51.755111607944" lon="-0.2703974457563607">
    <tag k="addr:postcode" v="AL4 0HL"/>
    <tag k="removemelater" v="yes"/>
  </node>
  <node id="-370" lat="51.74719482027324" lon="-0.2997156178308674">
    <tag k="addr:postcode" v="AL4 0JQ"/>
    <tag k="removemelater" v="yes"/>
  </node>
  <node id="-371" lat="51.74765007896673" lon="-0.30197286891281594">
    <tag k="addr:postcode" v="AL4 0LF"/>
    <tag k="removemelater" v="yes"/>
  </node>
  <node id="-372" lat="51.730323304149245" lon="-0.2964389907684766">
    <tag k="addr:postcode" v="AL4 0NF"/>
    <tag k="removemelater" v="yes"/>
  </node>
  <node id="-373" lat="51.737459156590305" lon="-0.2782840974025861">
    <tag k="addr:postcode" v="AL4 0NG"/>
    <tag k="removemelater" v="yes"/>
  </node>
  <node id="-374" lat="51.74765007896673" lon="-0.30197286891281594">
    <tag k="addr:postcode" v="AL4 0WA"/>
    <tag k="removemelater" v="yes"/>
  </node>
  <node id="-375" lat="51.75157841825402" lon="-0.2925824971263617">
    <tag k="addr:postcode" v="AL4 0XR"/>
    <tag k="removemelater" v="yes"/>
  </node>
  <node id="-376" lat="51.74765007896673" lon="-0.30197286891281594">
    <tag k="addr:postcode" v="AL4 0ZE"/>
    <tag k="removemelater" v="yes"/>
  </node>
  <node id="-377" lat="51.810915220521174" lon="-0.29746370952657436">
    <tag k="addr:postcode" v="AL4 8AG"/>
    <tag k="removemelater" v="yes"/>
  </node>
  <node id="-378" lat="51.81098724649222" lon="-0.29003361752627665">
    <tag k="addr:postcode" v="AL4 8AY"/>
    <tag k="removemelater" v="yes"/>
  </node>
  <node id="-379" lat="51.81591865334563" lon="-0.29215374720305065">
    <tag k="addr:postcode" v="AL4 8DJ"/>
    <tag k="removemelater" v="yes"/>
  </node>
  <node id="-380" lat="51.80565506106382" lon="-0.30806189155699537">
    <tag k="addr:postcode" v="AL4 8EB"/>
    <tag k="removemelater" v="yes"/>
  </node>
  <node id="-381" lat="51.79922295863273" lon="-0.31600365541510256">
    <tag k="addr:postcode" v="AL4 8EG"/>
    <tag k="removemelater" v="yes"/>
  </node>
  <node id="-382" lat="51.803707919714995" lon="-0.27370166846311017">
    <tag k="addr:postcode" v="AL4 8ER"/>
    <tag k="removemelater" v="yes"/>
  </node>
  <node id="-383" lat="51.794596928255885" lon="-0.2895515651500616">
    <tag k="addr:postcode" v="AL4 8EY"/>
    <tag k="removemelater" v="yes"/>
  </node>
  <node id="-384" lat="51.74765007896673" lon="-0.30197286891281594">
    <tag k="addr:postcode" v="AL4 8XG"/>
    <tag k="removemelater" v="yes"/>
  </node>
  <node id="-385" lat="51.775546718262596" lon="-0.28548853398833124">
    <tag k="addr:postcode" v="AL4 9HF"/>
    <tag k="removemelater" v="yes"/>
  </node>
  <node id="-386" lat="51.76986920104008" lon="-0.2760220706597574">
    <tag k="addr:postcode" v="AL4 9HN"/>
    <tag k="removemelater" v="yes"/>
  </node>
  <node id="-387" lat="51.76657103830705" lon="-0.2792201091725787">
    <tag k="addr:postcode" v="AL4 9HP"/>
    <tag k="removemelater" v="yes"/>
  </node>
  <node id="-388" lat="51.77832074526486" lon="-0.2851804426500942">
    <tag k="addr:postcode" v="AL4 9HQ"/>
    <tag k="removemelater" v="yes"/>
  </node>
  <node id="-389" lat="51.77384601927654" lon="-0.30774433258498357">
    <tag k="addr:postcode" v="AL4 9LQ"/>
    <tag k="removemelater" v="yes"/>
  </node>
  <node id="-390" lat="51.79723510754083" lon="-0.3254025849187699">
    <tag k="addr:postcode" v="AL5 1AL"/>
    <tag k="removemelater" v="yes"/>
  </node>
  <node id="-391" lat="51.79749931405174" lon="-0.3440571209669621">
    <tag k="addr:postcode" v="AL5 1BT"/>
    <tag k="removemelater" v="yes"/>
  </node>
  <node id="-392" lat="51.79737022051005" lon="-0.34446790996200244">
    <tag k="addr:postcode" v="AL5 1BU"/>
    <tag k="removemelater" v="yes"/>
  </node>
  <node id="-393" lat="51.80542235231737" lon="-0.3460585485644837">
    <tag k="addr:postcode" v="AL5 1DJ"/>
    <tag k="removemelater" v="yes"/>
  </node>
  <node id="-394" lat="51.74765007896673" lon="-0.30197286891281594">
    <tag k="addr:postcode" v="AL5 1GZ"/>
    <tag k="removemelater" v="yes"/>
  </node>
  <node id="-395" lat="51.81429763813213" lon="-0.353770819409718">
    <tag k="addr:postcode" v="AL5 1PA"/>
    <tag k="removemelater" v="yes"/>
  </node>
  <node id="-396" lat="51.80770629905952" lon="-0.3473384630026345">
    <tag k="addr:postcode" v="AL5 1QN"/>
    <tag k="removemelater" v="yes"/>
  </node>
  <node id="-397" lat="51.80808088833214" lon="-0.3477599294792269">
    <tag k="addr:postcode" v="AL5 1QP"/>
    <tag k="removemelater" v="yes"/>
  </node>
  <node id="-398" lat="51.8083457961212" lon="-0.34805486157888454">
    <tag k="addr:postcode" v="AL5 1QR"/>
    <tag k="removemelater" v="yes"/>
  </node>
  <node id="-399" lat="51.80755899120688" lon="-0.3483737342363949">
    <tag k="addr:postcode" v="AL5 1QW"/>
    <tag k="removemelater" v="yes"/>
  </node>
  <node id="-400" lat="51.814114441779026" lon="-0.3535308677438376">
    <tag k="addr:postcode" v="AL5 1TE"/>
    <tag k="removemelater" v="yes"/>
  </node>
  <node id="-401" lat="51.80222730723596" lon="-0.37226757900729884">
    <tag k="addr:postcode" v="AL5 2BA"/>
    <tag k="removemelater" v="yes"/>
  </node>
  <node id="-402" lat="51.80615833927015" lon="-0.36913797282018196">
    <tag k="addr:postcode" v="AL5 2BE"/>
    <tag k="removemelater" v="yes"/>
  </node>
  <node id="-403" lat="51.805881742103445" lon="-0.369293003359019">
    <tag k="addr:postcode" v="AL5 2BG"/>
    <tag k="removemelater" v="yes"/>
  </node>
  <node id="-404" lat="51.810445047541656" lon="-0.37350920899352025">
    <tag k="addr:postcode" v="AL5 2BH"/>
    <tag k="removemelater" v="yes"/>
  </node>
  <node id="-405" lat="51.80757431795225" lon="-0.36879676083236934">
    <tag k="addr:postcode" v="AL5 2BQ"/>
    <tag k="removemelater" v="yes"/>
  </node>
  <node id="-406" lat="51.814177165898386" lon="-0.3573730731203387">
    <tag k="addr:postcode" v="AL5 2BT"/>
    <tag k="removemelater" v="yes"/>
  </node>
  <node id="-407" lat="51.81299822692689" lon="-0.3702257274390492">
    <tag k="addr:postcode" v="AL5 2DA"/>
    <tag k="removemelater" v="yes"/>
  </node>
  <node id="-408" lat="51.81370406393674" lon="-0.36213418052020385">
    <tag k="addr:postcode" v="AL5 2DG"/>
    <tag k="removemelater" v="yes"/>
  </node>
  <node id="-409" lat="51.81363769514481" lon="-0.3644722665244179">
    <tag k="addr:postcode" v="AL5 2DH"/>
    <tag k="removemelater" v="yes"/>
  </node>
  <node id="-410" lat="51.81415241273964" lon="-0.3633365550394829">
    <tag k="addr:postcode" v="AL5 2DQ"/>
    <tag k="removemelater" v="yes"/>
  </node>
  <node id="-411" lat="51.81407755480915" lon="-0.36506565572128996">
    <tag k="addr:postcode" v="AL5 2DW"/>
    <tag k="removemelater" v="yes"/>
  </node>
  <node id="-412" lat="51.81380361408499" lon="-0.36735322775882284">
    <tag k="addr:postcode" v="AL5 2DZ"/>
    <tag k="removemelater" v="yes"/>
  </node>
  <node id="-413" lat="51.81414725452955" lon="-0.37073555950245907">
    <tag k="addr:postcode" v="AL5 2EB"/>
    <tag k="removemelater" v="yes"/>
  </node>
  <node id="-414" lat="51.81416514025945" lon="-0.3571558977657521">
    <tag k="addr:postcode" v="AL5 2EJ"/>
    <tag k="removemelater" v="yes"/>
  </node>
  <node id="-415" lat="51.8083697697911" lon="-0.3555389033049314">
    <tag k="addr:postcode" v="AL5 2FL"/>
    <tag k="removemelater" v="yes"/>
  </node>
  <node id="-416" lat="51.80872865281259" lon="-0.3554823247196551">
    <tag k="addr:postcode" v="AL5 2FN"/>
    <tag k="removemelater" v="yes"/>
  </node>
  <node id="-417" lat="51.80356636088633" lon="-0.3599198834396789">
    <tag k="addr:postcode" v="AL5 2GX"/>
    <tag k="removemelater" v="yes"/>
  </node>
  <node id="-418" lat="51.8140174201546" lon="-0.3575239561920992">
    <tag k="addr:postcode" v="AL5 2HS"/>
    <tag k="removemelater" v="yes"/>
  </node>
  <node id="-419" lat="51.81382835652162" lon="-0.356863489617942">
    <tag k="addr:postcode" v="AL5 2HY"/>
    <tag k="removemelater" v="yes"/>
  </node>
  <node id="-420" lat="51.81188452803028" lon="-0.35417789819243095">
    <tag k="addr:postcode" v="AL5 2JF"/>
    <tag k="removemelater" v="yes"/>
  </node>
  <node id="-421" lat="51.80904635870574" lon="-0.3582703932718673">
    <tag k="addr:postcode" v="AL5 2JJ"/>
    <tag k="removemelater" v="yes"/>
  </node>
  <node id="-422" lat="51.80941337271256" lon="-0.3549351879562243">
    <tag k="addr:postcode" v="AL5 2JQ"/>
    <tag k="removemelater" v="yes"/>
  </node>
  <node id="-423" lat="51.80270083609014" lon="-0.3591100714060351">
    <tag k="addr:postcode" v="AL5 2JT"/>
    <tag k="removemelater" v="yes"/>
  </node>
  <node id="-424" lat="51.81308194272782" lon="-0.35557048568367294">
    <tag k="addr:postcode" v="AL5 2LX"/>
    <tag k="removemelater" v="yes"/>
  </node>
  <node id="-425" lat="51.81475856900956" lon="-0.35458096158792923">
    <tag k="addr:postcode" v="AL5 2RS"/>
    <tag k="removemelater" v="yes"/>
  </node>
  <node id="-426" lat="51.814968116484756" lon="-0.3547764378707865">
    <tag k="addr:postcode" v="AL5 2RT"/>
    <tag k="removemelater" v="yes"/>
  </node>
  <node id="-427" lat="51.81597929177259" lon="-0.35571165265004084">
    <tag k="addr:postcode" v="AL5 2RU"/>
    <tag k="removemelater" v="yes"/>
  </node>
  <node id="-428" lat="51.81548302796071" lon="-0.3549462879558331">
    <tag k="addr:postcode" v="AL5 2RY"/>
    <tag k="removemelater" v="yes"/>
  </node>
  <node id="-429" lat="51.81500947729448" lon="-0.35580498408796163">
    <tag k="addr:postcode" v="AL5 2TB"/>
    <tag k="removemelater" v="yes"/>
  </node>
  <node id="-430" lat="51.81505603552377" lon="-0.3559193518905328">
    <tag k="addr:postcode" v="AL5 2TD"/>
    <tag k="removemelater" v="yes"/>
  </node>
  <node id="-431" lat="51.815030290020275" lon="-0.3560073356063069">
    <tag k="addr:postcode" v="AL5 2TF"/>
    <tag k="removemelater" v="yes"/>
  </node>
  <node id="-432" lat="51.81472052841835" lon="-0.3570051311860772">
    <tag k="addr:postcode" v="AL5 2TG"/>
    <tag k="removemelater" v="yes"/>
  </node>
  <node id="-433" lat="51.814592413139884" lon="-0.3555590260116768">
    <tag k="addr:postcode" v="AL5 2TH"/>
    <tag k="removemelater" v="yes"/>
  </node>
  <node id="-434" lat="51.81568459829282" lon="-0.357144163171516">
    <tag k="addr:postcode" v="AL5 2TJ"/>
    <tag k="removemelater" v="yes"/>
  </node>
  <node id="-435" lat="51.81570507677111" lon="-0.35667916230734287">
    <tag k="addr:postcode" v="AL5 2TL"/>
    <tag k="removemelater" v="yes"/>
  </node>
  <node id="-436" lat="51.81484196267193" lon="-0.3560432046827819">
    <tag k="addr:postcode" v="AL5 2TQ"/>
    <tag k="removemelater" v="yes"/>
  </node>
  <node id="-437" lat="51.814373333732696" lon="-0.3546820385261586">
    <tag k="addr:postcode" v="AL5 2TR"/>
    <tag k="removemelater" v="yes"/>
  </node>
  <node id="-438" lat="51.81606421584057" lon="-0.3579283035775604">
    <tag k="addr:postcode" v="AL5 2TW"/>
    <tag k="removemelater" v="yes"/>
  </node>
  <node id="-439" lat="51.74765007896673" lon="-0.30197286891281594">
    <tag k="addr:postcode" v="AL5 2WZ"/>
    <tag k="removemelater" v="yes"/>
  </node>
  <node id="-440" lat="51.819798986592986" lon="-0.37173596852637775">
    <tag k="addr:postcode" v="AL5 3AD"/>
    <tag k="removemelater" v="yes"/>
  </node>
  <node id="-441" lat="51.82021686577631" lon="-0.3726930354047006">
    <tag k="addr:postcode" v="AL5 3AE"/>
    <tag k="removemelater" v="yes"/>
  </node>
  <node id="-442" lat="51.826640090926574" lon="-0.3813861300677281">
    <tag k="addr:postcode" v="AL5 3EF"/>
    <tag k="removemelater" v="yes"/>
  </node>
  <node id="-443" lat="51.83206464569466" lon="-0.3828751893334777">
    <tag k="addr:postcode" v="AL5 3NG"/>
    <tag k="removemelater" v="yes"/>
  </node>
  <node id="-444" lat="51.83326450801993" lon="-0.3766348985286832">
    <tag k="addr:postcode" v="AL5 3NS"/>
    <tag k="removemelater" v="yes"/>
  </node>
  <node id="-445" lat="51.74765007896673" lon="-0.30197286891281594">
    <tag k="addr:postcode" v="AL5 3ZX"/>
    <tag k="removemelater" v="yes"/>
  </node>
  <node id="-446" lat="51.82812966280653" lon="-0.3603919564105493">
    <tag k="addr:postcode" v="AL5 4BP"/>
    <tag k="removemelater" v="yes"/>
  </node>
  <node id="-447" lat="51.826281656255" lon="-0.35812272291881514">
    <tag k="addr:postcode" v="AL5 4BX"/>
    <tag k="removemelater" v="yes"/>
  </node>
  <node id="-448" lat="51.81546420846783" lon="-0.35295938676057">
    <tag k="addr:postcode" v="AL5 4EA"/>
    <tag k="removemelater" v="yes"/>
  </node>
  <node id="-449" lat="51.81520117686733" lon="-0.3547244263465332">
    <tag k="addr:postcode" v="AL5 4EE"/>
    <tag k="removemelater" v="yes"/>
  </node>
  <node id="-450" lat="51.8161749612964" lon="-0.3536298636238211">
    <tag k="addr:postcode" v="AL5 4EQ"/>
    <tag k="removemelater" v="yes"/>
  </node>
  <node id="-451" lat="51.822391392702784" lon="-0.35449151765683085">
    <tag k="addr:postcode" v="AL5 4EY"/>
    <tag k="removemelater" v="yes"/>
  </node>
  <node id="-452" lat="51.82141279620425" lon="-0.35459972151208685">
    <tag k="addr:postcode" v="AL5 4GJ"/>
    <tag k="removemelater" v="yes"/>
  </node>
  <node id="-453" lat="51.81585730634157" lon="-0.3540621745722244">
    <tag k="addr:postcode" v="AL5 4GZ"/>
    <tag k="removemelater" v="yes"/>
  </node>
  <node id="-454" lat="51.8161701786889" lon="-0.35457306816976675">
    <tag k="addr:postcode" v="AL5 4HX"/>
    <tag k="removemelater" v="yes"/>
  </node>
  <node id="-455" lat="51.81889474747519" lon="-0.3520072805511653">
    <tag k="addr:postcode" v="AL5 4QA"/>
    <tag k="removemelater" v="yes"/>
  </node>
  <node id="-456" lat="51.814772688318904" lon="-0.3543048008636506">
    <tag k="addr:postcode" v="AL5 4SD"/>
    <tag k="removemelater" v="yes"/>
  </node>
  <node id="-457" lat="51.814345319813086" lon="-0.3526810138997837">
    <tag k="addr:postcode" v="AL5 4SJ"/>
    <tag k="removemelater" v="yes"/>
  </node>
  <node id="-458" lat="51.81440355833156" lon="-0.3523452155968034">
    <tag k="addr:postcode" v="AL5 4SL"/>
    <tag k="removemelater" v="yes"/>
  </node>
  <node id="-459" lat="51.8149832600003" lon="-0.3520049008845342">
    <tag k="addr:postcode" v="AL5 4SP"/>
    <tag k="removemelater" v="yes"/>
  </node>
  <node id="-460" lat="51.815051859928545" lon="-0.3524086167333627">
    <tag k="addr:postcode" v="AL5 4SS"/>
    <tag k="removemelater" v="yes"/>
  </node>
  <node id="-461" lat="51.81556002174529" lon="-0.3527382739109827">
    <tag k="addr:postcode" v="AL5 4ST"/>
    <tag k="removemelater" v="yes"/>
  </node>
  <node id="-462" lat="51.814862874331766" lon="-0.35303934219114175">
    <tag k="addr:postcode" v="AL5 4SW"/>
    <tag k="removemelater" v="yes"/>
  </node>
  <node id="-463" lat="51.81905195206946" lon="-0.3529591444652893">
    <tag k="addr:postcode" v="AL5 4TA"/>
    <tag k="removemelater" v="yes"/>
  </node>
  <node id="-464" lat="51.82204668582981" lon="-0.35363347432784253">
    <tag k="addr:postcode" v="AL5 4TD"/>
    <tag k="removemelater" v="yes"/>
  </node>
  <node id="-465" lat="51.82661403448649" lon="-0.34462943611476266">
    <tag k="addr:postcode" v="AL5 4UN"/>
    <tag k="removemelater" v="yes"/>
  </node>
  <node id="-466" lat="51.74765007896673" lon="-0.30197286891281594">
    <tag k="addr:postcode" v="AL5 4UP"/>
    <tag k="removemelater" v="yes"/>
  </node>
  <node id="-467" lat="51.82502881131139" lon="-0.34252540469507037">
    <tag k="addr:postcode" v="AL5 4US"/>
    <tag k="removemelater" v="yes"/>
  </node>
  <node id="-468" lat="51.82620328083035" lon="-0.3441946406335098">
    <tag k="addr:postcode" v="AL5 4UT"/>
    <tag k="removemelater" v="yes"/>
  </node>
  <node id="-469" lat="51.74765007896673" lon="-0.30197286891281594">
    <tag k="addr:postcode" v="AL5 4ZJ"/>
    <tag k="removemelater" v="yes"/>
  </node>
  <node id="-470" lat="51.825693863941794" lon="-0.34250099403303597">
    <tag k="addr:postcode" v="AL5 5EQ"/>
    <tag k="removemelater" v="yes"/>
  </node>
  <node id="-471" lat="51.74765007896673" lon="-0.30197286891281594">
    <tag k="addr:postcode" v="AL5 5EU"/>
    <tag k="removemelater" v="yes"/>
  </node>
  <node id="-472" lat="51.82678847086381" lon="-0.34360723016687783">
    <tag k="addr:postcode" v="AL5 5FE"/>
    <tag k="removemelater" v="yes"/>
  </node>
  <node id="-473" lat="51.82752215988571" lon="-0.3369774332480433">
    <tag k="addr:postcode" v="AL5 5HL"/>
    <tag k="removemelater" v="yes"/>
  </node>
  <node id="-474" lat="51.82787597496358" lon="-0.3378351189063203">
    <tag k="addr:postcode" v="AL5 5HQ"/>
    <tag k="removemelater" v="yes"/>
  </node>
  <node id="-475" lat="51.8093072943893" lon="-0.34098431358627285">
    <tag k="addr:postcode" v="AL5 5TR"/>
    <tag k="removemelater" v="yes"/>
  </node>
  <node id="-476" lat="51.80943863765067" lon="-0.3413711534308106">
    <tag k="addr:postcode" v="AL5 5TW"/>
    <tag k="removemelater" v="yes"/>
  </node>
  <node id="-477" lat="51.74765007896673" lon="-0.30197286891281594">
    <tag k="addr:postcode" v="AL5 9AY"/>
    <tag k="removemelater" v="yes"/>
  </node>
  <node id="-478" lat="51.74765007896673" lon="-0.30197286891281594">
    <tag k="addr:postcode" v="AL5 9DL"/>
    <tag k="removemelater" v="yes"/>
  </node>
  <node id="-479" lat="51.74765007896673" lon="-0.30197286891281594">
    <tag k="addr:postcode" v="AL5 9ED"/>
    <tag k="removemelater" v="yes"/>
  </node>
  <node id="-480" lat="51.74765007896673" lon="-0.30197286891281594">
    <tag k="addr:postcode" v="AL5 9EL"/>
    <tag k="removemelater" v="yes"/>
  </node>
  <node id="-481" lat="51.74765007896673" lon="-0.30197286891281594">
    <tag k="addr:postcode" v="AL5 9ER"/>
    <tag k="removemelater" v="yes"/>
  </node>
  <node id="-482" lat="51.74765007896673" lon="-0.30197286891281594">
    <tag k="addr:postcode" v="AL5 9EU"/>
    <tag k="removemelater" v="yes"/>
  </node>
  <node id="-483" lat="51.74765007896673" lon="-0.30197286891281594">
    <tag k="addr:postcode" v="AL5 9EW"/>
    <tag k="removemelater" v="yes"/>
  </node>
  <node id="-484" lat="51.74765007896673" lon="-0.30197286891281594">
    <tag k="addr:postcode" v="AL5 9EY"/>
    <tag k="removemelater" v="yes"/>
  </node>
  <node id="-485" lat="51.74765007896673" lon="-0.30197286891281594">
    <tag k="addr:postcode" v="AL5 9FA"/>
    <tag k="removemelater" v="yes"/>
  </node>
  <node id="-486" lat="51.74765007896673" lon="-0.30197286891281594">
    <tag k="addr:postcode" v="AL5 9FP"/>
    <tag k="removemelater" v="yes"/>
  </node>
  <node id="-487" lat="51.74765007896673" lon="-0.30197286891281594">
    <tag k="addr:postcode" v="AL5 9FW"/>
    <tag k="removemelater" v="yes"/>
  </node>
  <node id="-488" lat="51.74765007896673" lon="-0.30197286891281594">
    <tag k="addr:postcode" v="AL5 9FX"/>
    <tag k="removemelater" v="yes"/>
  </node>
  <node id="-489" lat="51.74765007896673" lon="-0.30197286891281594">
    <tag k="addr:postcode" v="AL5 9FY"/>
    <tag k="removemelater" v="yes"/>
  </node>
  <node id="-490" lat="51.74765007896673" lon="-0.30197286891281594">
    <tag k="addr:postcode" v="AL5 9FZ"/>
    <tag k="removemelater" v="yes"/>
  </node>
  <node id="-491" lat="51.74765007896673" lon="-0.30197286891281594">
    <tag k="addr:postcode" v="AL5 9GN"/>
    <tag k="removemelater" v="yes"/>
  </node>
  <node id="-492" lat="51.74765007896673" lon="-0.30197286891281594">
    <tag k="addr:postcode" v="AL5 9GU"/>
    <tag k="removemelater" v="yes"/>
  </node>
  <node id="-493" lat="51.74765007896673" lon="-0.30197286891281594">
    <tag k="addr:postcode" v="AL5 9GX"/>
    <tag k="removemelater" v="yes"/>
  </node>
  <node id="-494" lat="51.74765007896673" lon="-0.30197286891281594">
    <tag k="addr:postcode" v="AL5 9GZ"/>
    <tag k="removemelater" v="yes"/>
  </node>
  <node id="-495" lat="51.74765007896673" lon="-0.30197286891281594">
    <tag k="addr:postcode" v="AL5 9HH"/>
    <tag k="removemelater" v="yes"/>
  </node>
  <node id="-496" lat="51.74765007896673" lon="-0.30197286891281594">
    <tag k="addr:postcode" v="AL5 9HN"/>
    <tag k="removemelater" v="yes"/>
  </node>
  <node id="-497" lat="51.812566544839896" lon="-0.15823367348230044">
    <tag k="addr:postcode" v="AL6 0JF"/>
    <tag k="removemelater" v="yes"/>
  </node>
  <node id="-498" lat="51.80448214321747" lon="-0.19589835104803277">
    <tag k="addr:postcode" v="AL6 0WG"/>
    <tag k="removemelater" v="yes"/>
  </node>
  <node id="-499" lat="51.80448214321747" lon="-0.19589835104803277">
    <tag k="addr:postcode" v="AL6 0WY"/>
    <tag k="removemelater" v="yes"/>
  </node>
  <node id="-500" lat="51.80448214321747" lon="-0.19589835104803277">
    <tag k="addr:postcode" v="AL6 0ZU"/>
    <tag k="removemelater" v="yes"/>
  </node>
  <node id="-501" lat="51.80951628237441" lon="-0.22952596382084223">
    <tag k="addr:postcode" v="AL6 9AA"/>
    <tag k="removemelater" v="yes"/>
  </node>
  <node id="-502" lat="51.812097208575196" lon="-0.22954087528788306">
    <tag k="addr:postcode" v="AL6 9AB"/>
    <tag k="removemelater" v="yes"/>
  </node>
  <node id="-503" lat="51.812655859240415" lon="-0.2260372409113378">
    <tag k="addr:postcode" v="AL6 9AJ"/>
    <tag k="removemelater" v="yes"/>
  </node>
  <node id="-504" lat="51.82192081014288" lon="-0.23401670476478198">
    <tag k="addr:postcode" v="AL6 9BG"/>
    <tag k="removemelater" v="yes"/>
  </node>
  <node id="-505" lat="51.83887870724787" lon="-0.2672037273563048">
    <tag k="addr:postcode" v="AL6 9BP"/>
    <tag k="removemelater" v="yes"/>
  </node>
  <node id="-506" lat="51.83725402440576" lon="-0.26678710213535384">
    <tag k="addr:postcode" v="AL6 9BT"/>
    <tag k="removemelater" v="yes"/>
  </node>
  <node id="-507" lat="51.83732055523213" lon="-0.26764093893717444">
    <tag k="addr:postcode" v="AL6 9BU"/>
    <tag k="removemelater" v="yes"/>
  </node>
  <node id="-508" lat="51.835921600437196" lon="-0.267897834842456">
    <tag k="addr:postcode" v="AL6 9BX"/>
    <tag k="removemelater" v="yes"/>
  </node>
  <node id="-509" lat="51.83791348617837" lon="-0.2724953211783776">
    <tag k="addr:postcode" v="AL6 9BZ"/>
    <tag k="removemelater" v="yes"/>
  </node>
  <node id="-510" lat="51.82949084502075" lon="-0.21132756078187778">
    <tag k="addr:postcode" v="AL6 9DQ"/>
    <tag k="removemelater" v="yes"/>
  </node>
  <node id="-511" lat="51.82967342739578" lon="-0.21387457139677613">
    <tag k="addr:postcode" v="AL6 9EN"/>
    <tag k="removemelater" v="yes"/>
  </node>
  <node id="-512" lat="51.82925101160524" lon="-0.2132962656202641">
    <tag k="addr:postcode" v="AL6 9ER"/>
    <tag k="removemelater" v="yes"/>
  </node>
  <node id="-513" lat="51.82994904963101" lon="-0.21248494746908209">
    <tag k="addr:postcode" v="AL6 9ES"/>
    <tag k="removemelater" v="yes"/>
  </node>
  <node id="-514" lat="51.8295329883571" lon="-0.21469283878033313">
    <tag k="addr:postcode" v="AL6 9EW"/>
    <tag k="removemelater" v="yes"/>
  </node>
  <node id="-515" lat="51.80448214321747" lon="-0.19589835104803277">
    <tag k="addr:postcode" v="AL6 9HH"/>
    <tag k="removemelater" v="yes"/>
  </node>
  <node id="-516" lat="51.80448214321747" lon="-0.19589835104803277">
    <tag k="addr:postcode" v="AL7 1AB"/>
    <tag k="removemelater" v="yes"/>
  </node>
  <node id="-517" lat="51.80028137782237" lon="-0.19463021213645101">
    <tag k="addr:postcode" v="AL7 1BS"/>
    <tag k="removemelater" v="yes"/>
  </node>
  <node id="-518" lat="51.81414216417105" lon="-0.1925529846728486">
    <tag k="addr:postcode" v="AL7 1ED"/>
    <tag k="removemelater" v="yes"/>
  </node>
  <node id="-519" lat="51.80819405980092" lon="-0.1922687282657009">
    <tag k="addr:postcode" v="AL7 1EL"/>
    <tag k="removemelater" v="yes"/>
  </node>
  <node id="-520" lat="51.80980726081464" lon="-0.18899826541189757">
    <tag k="addr:postcode" v="AL7 1FZ"/>
    <tag k="removemelater" v="yes"/>
  </node>
  <node id="-521" lat="51.79878439444563" lon="-0.1896720176494053">
    <tag k="addr:postcode" v="AL7 1GD"/>
    <tag k="removemelater" v="yes"/>
  </node>
  <node id="-522" lat="51.8054706032198" lon="-0.19761399169740926">
    <tag k="addr:postcode" v="AL7 1GH"/>
    <tag k="removemelater" v="yes"/>
  </node>
  <node id="-523" lat="51.804782327549255" lon="-0.1996431040569669">
    <tag k="addr:postcode" v="AL7 1HJ"/>
    <tag k="removemelater" v="yes"/>
  </node>
  <node id="-524" lat="51.804782327549255" lon="-0.1996431040569669">
    <tag k="addr:postcode" v="AL7 1HT"/>
    <tag k="removemelater" v="yes"/>
  </node>
  <node id="-525" lat="51.804782327549255" lon="-0.1996431040569669">
    <tag k="addr:postcode" v="AL7 1HW"/>
    <tag k="removemelater" v="yes"/>
  </node>
  <node id="-526" lat="51.800836878300686" lon="-0.19801634755852848">
    <tag k="addr:postcode" v="AL7 1HX"/>
    <tag k="removemelater" v="yes"/>
  </node>
  <node id="-527" lat="51.800213575213405" lon="-0.19431384759553896">
    <tag k="addr:postcode" v="AL7 1JU"/>
    <tag k="removemelater" v="yes"/>
  </node>
  <node id="-528" lat="51.80173401557269" lon="-0.18676913083378544">
    <tag k="addr:postcode" v="AL7 1LT"/>
    <tag k="removemelater" v="yes"/>
  </node>
  <node id="-529" lat="51.811228578745435" lon="-0.1954693770024574">
    <tag k="addr:postcode" v="AL7 1SE"/>
    <tag k="removemelater" v="yes"/>
  </node>
  <node id="-530" lat="51.80448214321747" lon="-0.19589835104803277">
    <tag k="addr:postcode" v="AL7 1SQ"/>
    <tag k="removemelater" v="yes"/>
  </node>
  <node id="-531" lat="51.80448214321747" lon="-0.19589835104803277">
    <tag k="addr:postcode" v="AL7 1SY"/>
    <tag k="removemelater" v="yes"/>
  </node>
  <node id="-532" lat="51.80448214321747" lon="-0.19589835104803277">
    <tag k="addr:postcode" v="AL7 1XN"/>
    <tag k="removemelater" v="yes"/>
  </node>
  <node id="-533" lat="51.80448214321747" lon="-0.19589835104803277">
    <tag k="addr:postcode" v="AL7 1ZR"/>
    <tag k="removemelater" v="yes"/>
  </node>
  <node id="-534" lat="51.79992344314245" lon="-0.16569601996263086">
    <tag k="addr:postcode" v="AL7 2FF"/>
    <tag k="removemelater" v="yes"/>
  </node>
  <node id="-535" lat="51.80448214321747" lon="-0.19589835104803277">
    <tag k="addr:postcode" v="AL7 2FJ"/>
    <tag k="removemelater" v="yes"/>
  </node>
  <node id="-536" lat="51.794763951887056" lon="-0.16639844893070102">
    <tag k="addr:postcode" v="AL7 2HS"/>
    <tag k="removemelater" v="yes"/>
  </node>
  <node id="-537" lat="51.79726445850815" lon="-0.20078369979727934">
    <tag k="addr:postcode" v="AL7 3EG"/>
    <tag k="removemelater" v="yes"/>
  </node>
  <node id="-538" lat="51.798336606498864" lon="-0.2026843829848387">
    <tag k="addr:postcode" v="AL7 3EQ"/>
    <tag k="removemelater" v="yes"/>
  </node>
  <node id="-539" lat="51.791143589588856" lon="-0.1793491818940007">
    <tag k="addr:postcode" v="AL7 3HR"/>
    <tag k="removemelater" v="yes"/>
  </node>
  <node id="-540" lat="51.79063201449281" lon="-0.1852278904458576">
    <tag k="addr:postcode" v="AL7 3JG"/>
    <tag k="removemelater" v="yes"/>
  </node>
  <node id="-541" lat="51.7905176327803" lon="-0.18131742062894068">
    <tag k="addr:postcode" v="AL7 3JW"/>
    <tag k="removemelater" v="yes"/>
  </node>
  <node id="-542" lat="51.79713410489516" lon="-0.1823709236872478">
    <tag k="addr:postcode" v="AL7 3NS"/>
    <tag k="removemelater" v="yes"/>
  </node>
  <node id="-543" lat="51.791678894019476" lon="-0.19423423325297487">
    <tag k="addr:postcode" v="AL7 3PP"/>
    <tag k="removemelater" v="yes"/>
  </node>
  <node id="-544" lat="51.79164606389699" lon="-0.19443855252141581">
    <tag k="addr:postcode" v="AL7 3PX"/>
    <tag k="removemelater" v="yes"/>
  </node>
  <node id="-545" lat="51.79304587741515" lon="-0.1948321759812848">
    <tag k="addr:postcode" v="AL7 3QD"/>
    <tag k="removemelater" v="yes"/>
  </node>
  <node id="-546" lat="51.79022426946414" lon="-0.17515216122039726">
    <tag k="addr:postcode" v="AL7 4AR"/>
    <tag k="removemelater" v="yes"/>
  </node>
  <node id="-547" lat="51.789661157267076" lon="-0.1829178680873244">
    <tag k="addr:postcode" v="AL7 4BA"/>
    <tag k="removemelater" v="yes"/>
  </node>
  <node id="-548" lat="51.78342353075439" lon="-0.17961651528310046">
    <tag k="addr:postcode" v="AL7 4DD"/>
    <tag k="removemelater" v="yes"/>
  </node>
  <node id="-549" lat="51.782168766838375" lon="-0.18803210745072904">
    <tag k="addr:postcode" v="AL7 4DT"/>
    <tag k="removemelater" v="yes"/>
  </node>
  <node id="-550" lat="51.78299527057736" lon="-0.18565034720798515">
    <tag k="addr:postcode" v="AL7 4EP"/>
    <tag k="removemelater" v="yes"/>
  </node>
  <node id="-551" lat="51.78673096064276" lon="-0.20171032789719115">
    <tag k="addr:postcode" v="AL7 4FH"/>
    <tag k="removemelater" v="yes"/>
  </node>
  <node id="-552" lat="51.7832058937677" lon="-0.18706268866375347">
    <tag k="addr:postcode" v="AL7 4FP"/>
    <tag k="removemelater" v="yes"/>
  </node>
  <node id="-553" lat="51.80448214321747" lon="-0.19589835104803277">
    <tag k="addr:postcode" v="AL7 4GH"/>
    <tag k="removemelater" v="yes"/>
  </node>
  <node id="-554" lat="51.783816704040724" lon="-0.18760362607360834">
    <tag k="addr:postcode" v="AL7 4JQ"/>
    <tag k="removemelater" v="yes"/>
  </node>
  <node id="-555" lat="51.7847920797326" lon="-0.1943062782017258">
    <tag k="addr:postcode" v="AL7 4JX"/>
    <tag k="removemelater" v="yes"/>
  </node>
  <node id="-556" lat="51.78496899921396" lon="-0.193530796991828">
    <tag k="addr:postcode" v="AL7 4JZ"/>
    <tag k="removemelater" v="yes"/>
  </node>
  <node id="-557" lat="51.784953854549556" lon="-0.1925455092382496">
    <tag k="addr:postcode" v="AL7 4LA"/>
    <tag k="removemelater" v="yes"/>
  </node>
  <node id="-558" lat="51.78526942044831" lon="-0.19143100787521047">
    <tag k="addr:postcode" v="AL7 4LB"/>
    <tag k="removemelater" v="yes"/>
  </node>
  <node id="-559" lat="51.783816704040724" lon="-0.18760362607360834">
    <tag k="addr:postcode" v="AL7 4LP"/>
    <tag k="removemelater" v="yes"/>
  </node>
  <node id="-560" lat="51.783816704040724" lon="-0.18760362607360834">
    <tag k="addr:postcode" v="AL7 4LR"/>
    <tag k="removemelater" v="yes"/>
  </node>
  <node id="-561" lat="51.78342353075439" lon="-0.17961651528310046">
    <tag k="addr:postcode" v="AL7 4SE"/>
    <tag k="removemelater" v="yes"/>
  </node>
  <node id="-562" lat="51.80448214321747" lon="-0.19589835104803277">
    <tag k="addr:postcode" v="AL7 9BN"/>
    <tag k="removemelater" v="yes"/>
  </node>
  <node id="-563" lat="51.80448214321747" lon="-0.19589835104803277">
    <tag k="addr:postcode" v="AL7 9DA"/>
    <tag k="removemelater" v="yes"/>
  </node>
  <node id="-564" lat="51.80448214321747" lon="-0.19589835104803277">
    <tag k="addr:postcode" v="AL7 9FQ"/>
    <tag k="removemelater" v="yes"/>
  </node>
  <node id="-565" lat="51.80448214321747" lon="-0.19589835104803277">
    <tag k="addr:postcode" v="AL7 9FZ"/>
    <tag k="removemelater" v="yes"/>
  </node>
  <node id="-566" lat="51.80448214321747" lon="-0.19589835104803277">
    <tag k="addr:postcode" v="AL7 9GA"/>
    <tag k="removemelater" v="yes"/>
  </node>
  <node id="-567" lat="51.80448214321747" lon="-0.19589835104803277">
    <tag k="addr:postcode" v="AL7 9GG"/>
    <tag k="removemelater" v="yes"/>
  </node>
  <node id="-568" lat="51.80448214321747" lon="-0.19589835104803277">
    <tag k="addr:postcode" v="AL7 9GL"/>
    <tag k="removemelater" v="yes"/>
  </node>
  <node id="-569" lat="51.80448214321747" lon="-0.19589835104803277">
    <tag k="addr:postcode" v="AL7 9GN"/>
    <tag k="removemelater" v="yes"/>
  </node>
  <node id="-570" lat="51.80448214321747" lon="-0.19589835104803277">
    <tag k="addr:postcode" v="AL7 9GP"/>
    <tag k="removemelater" v="yes"/>
  </node>
  <node id="-571" lat="51.80448214321747" lon="-0.19589835104803277">
    <tag k="addr:postcode" v="AL7 9GS"/>
    <tag k="removemelater" v="yes"/>
  </node>
  <node id="-572" lat="51.80448214321747" lon="-0.19589835104803277">
    <tag k="addr:postcode" v="AL7 9GZ"/>
    <tag k="removemelater" v="yes"/>
  </node>
  <node id="-573" lat="51.80448214321747" lon="-0.19589835104803277">
    <tag k="addr:postcode" v="AL7 9HL"/>
    <tag k="removemelater" v="yes"/>
  </node>
  <node id="-574" lat="51.80448214321747" lon="-0.19589835104803277">
    <tag k="addr:postcode" v="AL7 9HW"/>
    <tag k="removemelater" v="yes"/>
  </node>
  <node id="-575" lat="51.80448214321747" lon="-0.19589835104803277">
    <tag k="addr:postcode" v="AL7 9HX"/>
    <tag k="removemelater" v="yes"/>
  </node>
  <node id="-576" lat="51.80448214321747" lon="-0.19589835104803277">
    <tag k="addr:postcode" v="AL7 9JD"/>
    <tag k="removemelater" v="yes"/>
  </node>
  <node id="-577" lat="51.80448214321747" lon="-0.19589835104803277">
    <tag k="addr:postcode" v="AL7 9JE"/>
    <tag k="removemelater" v="yes"/>
  </node>
  <node id="-578" lat="51.80448214321747" lon="-0.19589835104803277">
    <tag k="addr:postcode" v="AL7 9JG"/>
    <tag k="removemelater" v="yes"/>
  </node>
  <node id="-579" lat="51.80448214321747" lon="-0.19589835104803277">
    <tag k="addr:postcode" v="AL7 9JH"/>
    <tag k="removemelater" v="yes"/>
  </node>
  <node id="-580" lat="51.80448214321747" lon="-0.19589835104803277">
    <tag k="addr:postcode" v="AL7 9JJ"/>
    <tag k="removemelater" v="yes"/>
  </node>
  <node id="-581" lat="51.80448214321747" lon="-0.19589835104803277">
    <tag k="addr:postcode" v="AL7 9JQ"/>
    <tag k="removemelater" v="yes"/>
  </node>
  <node id="-582" lat="51.80448214321747" lon="-0.19589835104803277">
    <tag k="addr:postcode" v="AL7 9JW"/>
    <tag k="removemelater" v="yes"/>
  </node>
  <node id="-583" lat="51.80448214321747" lon="-0.19589835104803277">
    <tag k="addr:postcode" v="AL7 9JX"/>
    <tag k="removemelater" v="yes"/>
  </node>
  <node id="-584" lat="51.80448214321747" lon="-0.19589835104803277">
    <tag k="addr:postcode" v="AL7 9JZ"/>
    <tag k="removemelater" v="yes"/>
  </node>
  <node id="-585" lat="51.80448214321747" lon="-0.19589835104803277">
    <tag k="addr:postcode" v="AL7 9LA"/>
    <tag k="removemelater" v="yes"/>
  </node>
  <node id="-586" lat="51.80448214321747" lon="-0.19589835104803277">
    <tag k="addr:postcode" v="AL7 9LB"/>
    <tag k="removemelater" v="yes"/>
  </node>
  <node id="-587" lat="51.80448214321747" lon="-0.19589835104803277">
    <tag k="addr:postcode" v="AL7 9LD"/>
    <tag k="removemelater" v="yes"/>
  </node>
  <node id="-588" lat="51.80448214321747" lon="-0.19589835104803277">
    <tag k="addr:postcode" v="AL7 9LE"/>
    <tag k="removemelater" v="yes"/>
  </node>
  <node id="-589" lat="51.80448214321747" lon="-0.19589835104803277">
    <tag k="addr:postcode" v="AL7 9LF"/>
    <tag k="removemelater" v="yes"/>
  </node>
  <node id="-590" lat="51.80448214321747" lon="-0.19589835104803277">
    <tag k="addr:postcode" v="AL7 9LT"/>
    <tag k="removemelater" v="yes"/>
  </node>
  <node id="-591" lat="51.80448214321747" lon="-0.19589835104803277">
    <tag k="addr:postcode" v="AL7 9ND"/>
    <tag k="removemelater" v="yes"/>
  </node>
  <node id="-592" lat="51.80448214321747" lon="-0.19589835104803277">
    <tag k="addr:postcode" v="AL7 9NE"/>
    <tag k="removemelater" v="yes"/>
  </node>
  <node id="-593" lat="51.80448214321747" lon="-0.19589835104803277">
    <tag k="addr:postcode" v="AL7 9NF"/>
    <tag k="removemelater" v="yes"/>
  </node>
  <node id="-594" lat="51.80448214321747" lon="-0.19589835104803277">
    <tag k="addr:postcode" v="AL7 9NJ"/>
    <tag k="removemelater" v="yes"/>
  </node>
  <node id="-595" lat="51.80448214321747" lon="-0.19589835104803277">
    <tag k="addr:postcode" v="AL7 9NN"/>
    <tag k="removemelater" v="yes"/>
  </node>
  <node id="-596" lat="51.80448214321747" lon="-0.19589835104803277">
    <tag k="addr:postcode" v="AL7 9NP"/>
    <tag k="removemelater" v="yes"/>
  </node>
  <node id="-597" lat="51.80448214321747" lon="-0.19589835104803277">
    <tag k="addr:postcode" v="AL7 9NS"/>
    <tag k="removemelater" v="yes"/>
  </node>
  <node id="-598" lat="51.80448214321747" lon="-0.19589835104803277">
    <tag k="addr:postcode" v="AL7 9NT"/>
    <tag k="removemelater" v="yes"/>
  </node>
  <node id="-599" lat="51.80448214321747" lon="-0.19589835104803277">
    <tag k="addr:postcode" v="AL7 9NU"/>
    <tag k="removemelater" v="yes"/>
  </node>
  <node id="-600" lat="51.80448214321747" lon="-0.19589835104803277">
    <tag k="addr:postcode" v="AL7 9NW"/>
    <tag k="removemelater" v="yes"/>
  </node>
  <node id="-601" lat="51.80448214321747" lon="-0.19589835104803277">
    <tag k="addr:postcode" v="AL7 9NX"/>
    <tag k="removemelater" v="yes"/>
  </node>
  <node id="-602" lat="51.80448214321747" lon="-0.19589835104803277">
    <tag k="addr:postcode" v="AL7 9NY"/>
    <tag k="removemelater" v="yes"/>
  </node>
  <node id="-603" lat="51.80448214321747" lon="-0.19589835104803277">
    <tag k="addr:postcode" v="AL7 9NZ"/>
    <tag k="removemelater" v="yes"/>
  </node>
  <node id="-604" lat="51.80448214321747" lon="-0.19589835104803277">
    <tag k="addr:postcode" v="AL7 9PA"/>
    <tag k="removemelater" v="yes"/>
  </node>
  <node id="-605" lat="51.80448214321747" lon="-0.19589835104803277">
    <tag k="addr:postcode" v="AL7 9PB"/>
    <tag k="removemelater" v="yes"/>
  </node>
  <node id="-606" lat="51.80448214321747" lon="-0.19589835104803277">
    <tag k="addr:postcode" v="AL7 9PE"/>
    <tag k="removemelater" v="yes"/>
  </node>
  <node id="-607" lat="51.80448214321747" lon="-0.19589835104803277">
    <tag k="addr:postcode" v="AL7 9PF"/>
    <tag k="removemelater" v="yes"/>
  </node>
  <node id="-608" lat="51.80419564813018" lon="-0.20538128306495582">
    <tag k="addr:postcode" v="AL7 9SA"/>
    <tag k="removemelater" v="yes"/>
  </node>
  <node id="-609" lat="51.80390218825625" lon="-0.20559600009607207">
    <tag k="addr:postcode" v="AL8 6AE"/>
    <tag k="removemelater" v="yes"/>
  </node>
  <node id="-610" lat="51.80591938571704" lon="-0.20579149285880166">
    <tag k="addr:postcode" v="AL8 6AG"/>
    <tag k="removemelater" v="yes"/>
  </node>
  <node id="-611" lat="51.80561562367906" lon="-0.20768920813070454">
    <tag k="addr:postcode" v="AL8 6AJ"/>
    <tag k="removemelater" v="yes"/>
  </node>
  <node id="-612" lat="51.802187975175784" lon="-0.20757858427410322">
    <tag k="addr:postcode" v="AL8 6AL"/>
    <tag k="removemelater" v="yes"/>
  </node>
  <node id="-613" lat="51.80448214321747" lon="-0.19589835104803277">
    <tag k="addr:postcode" v="AL8 6AN"/>
    <tag k="removemelater" v="yes"/>
  </node>
  <node id="-614" lat="51.80591938571704" lon="-0.20579149285880166">
    <tag k="addr:postcode" v="AL8 6AQ"/>
    <tag k="removemelater" v="yes"/>
  </node>
  <node id="-615" lat="51.80189015927838" lon="-0.20632856274207556">
    <tag k="addr:postcode" v="AL8 6AT"/>
    <tag k="removemelater" v="yes"/>
  </node>
  <node id="-616" lat="51.8018105259837" lon="-0.20582409002278812">
    <tag k="addr:postcode" v="AL8 6BA"/>
    <tag k="removemelater" v="yes"/>
  </node>
  <node id="-617" lat="51.80083550821405" lon="-0.20380330088400686">
    <tag k="addr:postcode" v="AL8 6BE"/>
    <tag k="removemelater" v="yes"/>
  </node>
  <node id="-618" lat="51.80147412932598" lon="-0.20794048142958654">
    <tag k="addr:postcode" v="AL8 6BH"/>
    <tag k="removemelater" v="yes"/>
  </node>
  <node id="-619" lat="51.802459266391" lon="-0.20708919168990544">
    <tag k="addr:postcode" v="AL8 6BL"/>
    <tag k="removemelater" v="yes"/>
  </node>
  <node id="-620" lat="51.80092276155673" lon="-0.20539522102194707">
    <tag k="addr:postcode" v="AL8 6BP"/>
    <tag k="removemelater" v="yes"/>
  </node>
  <node id="-621" lat="51.80145372580715" lon="-0.20778174989127798">
    <tag k="addr:postcode" v="AL8 6BQ"/>
    <tag k="removemelater" v="yes"/>
  </node>
  <node id="-622" lat="51.80113617016321" lon="-0.2064165018684107">
    <tag k="addr:postcode" v="AL8 6BW"/>
    <tag k="removemelater" v="yes"/>
  </node>
  <node id="-623" lat="51.80561562367906" lon="-0.20768920813070454">
    <tag k="addr:postcode" v="AL8 6BY"/>
    <tag k="removemelater" v="yes"/>
  </node>
  <node id="-624" lat="51.80000458096189" lon="-0.20533015722791578">
    <tag k="addr:postcode" v="AL8 6DD"/>
    <tag k="removemelater" v="yes"/>
  </node>
  <node id="-625" lat="51.804076185234955" lon="-0.2087510794187816">
    <tag k="addr:postcode" v="AL8 6DE"/>
    <tag k="removemelater" v="yes"/>
  </node>
  <node id="-626" lat="51.78522640368632" lon="-0.2210241379940619">
    <tag k="addr:postcode" v="AL8 6DF"/>
    <tag k="removemelater" v="yes"/>
  </node>
  <node id="-627" lat="51.80151773671072" lon="-0.20785172998728554">
    <tag k="addr:postcode" v="AL8 6DJ"/>
    <tag k="removemelater" v="yes"/>
  </node>
  <node id="-628" lat="51.80191894505152" lon="-0.20526863961544412">
    <tag k="addr:postcode" v="AL8 6DL"/>
    <tag k="removemelater" v="yes"/>
  </node>
  <node id="-629" lat="51.802885997929764" lon="-0.2038233307470443">
    <tag k="addr:postcode" v="AL8 6DN"/>
    <tag k="removemelater" v="yes"/>
  </node>
  <node id="-630" lat="51.80120692649159" lon="-0.20457173453513713">
    <tag k="addr:postcode" v="AL8 6HA"/>
    <tag k="removemelater" v="yes"/>
  </node>
  <node id="-631" lat="51.80266470666531" lon="-0.20758868395501012">
    <tag k="addr:postcode" v="AL8 6JL"/>
    <tag k="removemelater" v="yes"/>
  </node>
  <node id="-632" lat="51.80393636472903" lon="-0.20547860705515122">
    <tag k="addr:postcode" v="AL8 6LY"/>
    <tag k="removemelater" v="yes"/>
  </node>
  <node id="-633" lat="51.802218956811636" lon="-0.20489412660493544">
    <tag k="addr:postcode" v="AL8 6NA"/>
    <tag k="removemelater" v="yes"/>
  </node>
  <node id="-634" lat="51.80014557399474" lon="-0.2057306502421347">
    <tag k="addr:postcode" v="AL8 6NE"/>
    <tag k="removemelater" v="yes"/>
  </node>
  <node id="-635" lat="51.800702963712254" lon="-0.20572302485521812">
    <tag k="addr:postcode" v="AL8 6NS"/>
    <tag k="removemelater" v="yes"/>
  </node>
  <node id="-636" lat="51.79989064734515" lon="-0.2072926123155063">
    <tag k="addr:postcode" v="AL8 6NT"/>
    <tag k="removemelater" v="yes"/>
  </node>
  <node id="-637" lat="51.80088189210912" lon="-0.20625255105773707">
    <tag k="addr:postcode" v="AL8 6NU"/>
    <tag k="removemelater" v="yes"/>
  </node>
  <node id="-638" lat="51.80098884664116" lon="-0.20619029187245574">
    <tag k="addr:postcode" v="AL8 6NY"/>
    <tag k="removemelater" v="yes"/>
  </node>
  <node id="-639" lat="51.801179776392075" lon="-0.2063277496555083">
    <tag k="addr:postcode" v="AL8 6PA"/>
    <tag k="removemelater" v="yes"/>
  </node>
  <node id="-640" lat="51.801179776392075" lon="-0.2063277496555083">
    <tag k="addr:postcode" v="AL8 6PB"/>
    <tag k="removemelater" v="yes"/>
  </node>
  <node id="-641" lat="51.80191703785022" lon="-0.2057328383718421">
    <tag k="addr:postcode" v="AL8 6PD"/>
    <tag k="removemelater" v="yes"/>
  </node>
  <node id="-642" lat="51.80223496644562" lon="-0.2065324365663959">
    <tag k="addr:postcode" v="AL8 6PG"/>
    <tag k="removemelater" v="yes"/>
  </node>
  <node id="-643" lat="51.80255679265213" lon="-0.20699829819752824">
    <tag k="addr:postcode" v="AL8 6PH"/>
    <tag k="removemelater" v="yes"/>
  </node>
  <node id="-644" lat="51.80118935812943" lon="-0.20754567243526278">
    <tag k="addr:postcode" v="AL8 6PL"/>
    <tag k="removemelater" v="yes"/>
  </node>
  <node id="-645" lat="51.80448214321747" lon="-0.19589835104803277">
    <tag k="addr:postcode" v="AL8 6PQ"/>
    <tag k="removemelater" v="yes"/>
  </node>
  <node id="-646" lat="51.799968285635195" lon="-0.20766661635210357">
    <tag k="addr:postcode" v="AL8 6PR"/>
    <tag k="removemelater" v="yes"/>
  </node>
  <node id="-647" lat="51.80072964056867" lon="-0.20688224266984503">
    <tag k="addr:postcode" v="AL8 6PS"/>
    <tag k="removemelater" v="yes"/>
  </node>
  <node id="-648" lat="51.80031919462071" lon="-0.2059123007316449">
    <tag k="addr:postcode" v="AL8 6PZ"/>
    <tag k="removemelater" v="yes"/>
  </node>
  <node id="-649" lat="51.80058537859124" lon="-0.2103977917303963">
    <tag k="addr:postcode" v="AL8 6QJ"/>
    <tag k="removemelater" v="yes"/>
  </node>
  <node id="-650" lat="51.8008018161856" lon="-0.20571910028566298">
    <tag k="addr:postcode" v="AL8 6RD"/>
    <tag k="removemelater" v="yes"/>
  </node>
  <node id="-651" lat="51.80323911042982" lon="-0.2069277135123507">
    <tag k="addr:postcode" v="AL8 6TP"/>
    <tag k="removemelater" v="yes"/>
  </node>
  <node id="-652" lat="51.803549440603675" lon="-0.20663981712992602">
    <tag k="addr:postcode" v="AL8 6TR"/>
    <tag k="removemelater" v="yes"/>
  </node>
  <node id="-653" lat="51.803549440603675" lon="-0.20663981712992602">
    <tag k="addr:postcode" v="AL8 6TS"/>
    <tag k="removemelater" v="yes"/>
  </node>
  <node id="-654" lat="51.80031963696761" lon="-0.20594128983309531">
    <tag k="addr:postcode" v="AL8 6TU"/>
    <tag k="removemelater" v="yes"/>
  </node>
  <node id="-655" lat="51.80404045967719" lon="-0.20876700006019605">
    <tag k="addr:postcode" v="AL8 6UB"/>
    <tag k="removemelater" v="yes"/>
  </node>
  <node id="-656" lat="51.80448214321747" lon="-0.19589835104803277">
    <tag k="addr:postcode" v="AL8 6WB"/>
    <tag k="removemelater" v="yes"/>
  </node>
  <node id="-657" lat="51.80419564813018" lon="-0.20538128306495582">
    <tag k="addr:postcode" v="AL8 6WX"/>
    <tag k="removemelater" v="yes"/>
  </node>
  <node id="-658" lat="51.79070751972006" lon="-0.21305085416175046">
    <tag k="addr:postcode" v="AL8 6XE"/>
    <tag k="removemelater" v="yes"/>
  </node>
  <node id="-659" lat="51.82196419554481" lon="-0.20894128610499732">
    <tag k="addr:postcode" v="AL8 7LW"/>
    <tag k="removemelater" v="yes"/>
  </node>
  <node id="-660" lat="51.819887663902506" lon="-0.21134517441223416">
    <tag k="addr:postcode" v="AL8 7NL"/>
    <tag k="removemelater" v="yes"/>
  </node>
  <node id="-661" lat="51.8153150820587" lon="-0.20337266571543677">
    <tag k="addr:postcode" v="AL8 7RH"/>
    <tag k="removemelater" v="yes"/>
  </node>
  <node id="-662" lat="51.81498590228964" lon="-0.2036033791281351">
    <tag k="addr:postcode" v="AL8 7RL"/>
    <tag k="removemelater" v="yes"/>
  </node>
  <node id="-663" lat="51.80958719373886" lon="-0.20396310740284715">
    <tag k="addr:postcode" v="AL8 7RY"/>
    <tag k="removemelater" v="yes"/>
  </node>
  <node id="-664" lat="51.80995414769492" lon="-0.2091563259046868">
    <tag k="addr:postcode" v="AL8 7SD"/>
    <tag k="removemelater" v="yes"/>
  </node>
  <node id="-665" lat="51.801758954499654" lon="-0.2441015535614525">
    <tag k="addr:postcode" v="AL8 7XF"/>
    <tag k="removemelater" v="yes"/>
  </node>
  <node id="-666" lat="51.761620949888325" lon="-0.21382275566745543">
    <tag k="addr:postcode" v="AL9 5AS"/>
    <tag k="removemelater" v="yes"/>
  </node>
  <node id="-667" lat="51.76236335998922" lon="-0.214155733476105">
    <tag k="addr:postcode" v="AL9 5BT"/>
    <tag k="removemelater" v="yes"/>
  </node>
  <node id="-668" lat="51.77633285875523" lon="-0.2204027174482946">
    <tag k="addr:postcode" v="AL9 5JY"/>
    <tag k="removemelater" v="yes"/>
  </node>
  <node id="-669" lat="51.76426403777732" lon="-0.22625378989435885">
    <tag k="addr:postcode" v="AL9 5LD"/>
    <tag k="removemelater" v="yes"/>
  </node>
  <node id="-670" lat="51.76816691681416" lon="-0.2061294484306609">
    <tag k="addr:postcode" v="AL9 5NA"/>
    <tag k="removemelater" v="yes"/>
  </node>
  <node id="-671" lat="51.75596428285342" lon="-0.21674093674739398">
    <tag k="addr:postcode" v="AL9 5NL"/>
    <tag k="removemelater" v="yes"/>
  </node>
  <node id="-672" lat="51.75672666795784" lon="-0.21839166519658743">
    <tag k="addr:postcode" v="AL9 5NN"/>
    <tag k="removemelater" v="yes"/>
  </node>
  <node id="-673" lat="51.760424509493205" lon="-0.20965323027879237">
    <tag k="addr:postcode" v="AL9 5NQ"/>
    <tag k="removemelater" v="yes"/>
  </node>
  <node id="-674" lat="51.75687375839133" lon="-0.21919728092469484">
    <tag k="addr:postcode" v="AL9 5NW"/>
    <tag k="removemelater" v="yes"/>
  </node>
  <node id="-675" lat="51.77406088815596" lon="-0.19231399957337833">
    <tag k="addr:postcode" v="AL9 5PF"/>
    <tag k="removemelater" v="yes"/>
  </node>
  <node id="-676" lat="51.76911691394153" lon="-0.2006278003976057">
    <tag k="addr:postcode" v="AL9 5PJ"/>
    <tag k="removemelater" v="yes"/>
  </node>
  <node id="-677" lat="51.777094524990055" lon="-0.17275373419689358">
    <tag k="addr:postcode" v="AL9 5RB"/>
    <tag k="removemelater" v="yes"/>
  </node>
  <node id="-678" lat="51.76801091097094" lon="-0.1530911968218358">
    <tag k="addr:postcode" v="AL9 6AQ"/>
    <tag k="removemelater" v="yes"/>
  </node>
  <node id="-679" lat="51.73893438121946" lon="-0.1932672190565164">
    <tag k="addr:postcode" v="AL9 6BL"/>
    <tag k="removemelater" v="yes"/>
  </node>
  <node id="-680" lat="51.74591079418469" lon="-0.15726654521431635">
    <tag k="addr:postcode" v="AL9 6BN"/>
    <tag k="removemelater" v="yes"/>
  </node>
  <node id="-681" lat="51.733757503660165" lon="-0.1893463065452289">
    <tag k="addr:postcode" v="AL9 6DA"/>
    <tag k="removemelater" v="yes"/>
  </node>
  <node id="-682" lat="51.73460399192121" lon="-0.1876759736637841">
    <tag k="addr:postcode" v="AL9 6DE"/>
    <tag k="removemelater" v="yes"/>
  </node>
  <node id="-683" lat="51.73536991857487" lon="-0.18719637271200731">
    <tag k="addr:postcode" v="AL9 6DF"/>
    <tag k="removemelater" v="yes"/>
  </node>
  <node id="-684" lat="51.736458859771766" lon="-0.18725417530337235">
    <tag k="addr:postcode" v="AL9 6DG"/>
    <tag k="removemelater" v="yes"/>
  </node>
  <node id="-685" lat="51.74674650764586" lon="-0.1907970960452096">
    <tag k="addr:postcode" v="AL9 6DN"/>
    <tag k="removemelater" v="yes"/>
  </node>
  <node id="-686" lat="51.73982272783767" lon="-0.18963975993784357">
    <tag k="addr:postcode" v="AL9 6DQ"/>
    <tag k="removemelater" v="yes"/>
  </node>
  <node id="-687" lat="51.746035646811364" lon="-0.1739058821658019">
    <tag k="addr:postcode" v="AL9 6DS"/>
    <tag k="removemelater" v="yes"/>
  </node>
  <node id="-688" lat="51.74575187583353" lon="-0.17300471394584738">
    <tag k="addr:postcode" v="AL9 6EA"/>
    <tag k="removemelater" v="yes"/>
  </node>
  <node id="-689" lat="51.7402442709804" lon="-0.1889856101948136">
    <tag k="addr:postcode" v="AL9 6EG"/>
    <tag k="removemelater" v="yes"/>
  </node>
  <node id="-690" lat="51.716504571647704" lon="-0.16577284078370952">
    <tag k="addr:postcode" v="AL9 6LZ"/>
    <tag k="removemelater" v="yes"/>
  </node>
  <node id="-691" lat="51.714949949708334" lon="-0.16641478498577197">
    <tag k="addr:postcode" v="AL9 6NS"/>
    <tag k="removemelater" v="yes"/>
  </node>
  <node id="-692" lat="51.76426403777732" lon="-0.22625378989435885">
    <tag k="addr:postcode" v="AL9 6WA"/>
    <tag k="removemelater" v="yes"/>
  </node>
  <node id="-693" lat="51.76426403777732" lon="-0.22625378989435885">
    <tag k="addr:postcode" v="AL9 6ZY"/>
    <tag k="removemelater" v="yes"/>
  </node>
  <node id="-694" lat="51.76426403777732" lon="-0.22625378989435885">
    <tag k="addr:postcode" v="AL9 7DT"/>
    <tag k="removemelater" v="yes"/>
  </node>
  <node id="-695" lat="51.7401903844188" lon="-0.21721720293519747">
    <tag k="addr:postcode" v="AL9 7HB"/>
    <tag k="removemelater" v="yes"/>
  </node>
  <node id="-696" lat="51.73745851737764" lon="-0.21437015702972306">
    <tag k="addr:postcode" v="AL9 7HF"/>
    <tag k="removemelater" v="yes"/>
  </node>
  <node id="-697" lat="51.740125921041745" lon="-0.21652450745531082">
    <tag k="addr:postcode" v="AL9 7HN"/>
    <tag k="removemelater" v="yes"/>
  </node>
  <node id="-698" lat="51.73937456329516" lon="-0.21264347151712104">
    <tag k="addr:postcode" v="AL9 7HX"/>
    <tag k="removemelater" v="yes"/>
  </node>
  <node id="-699" lat="51.73929954462874" lon="-0.2118498249535557">
    <tag k="addr:postcode" v="AL9 7HZ"/>
    <tag k="removemelater" v="yes"/>
  </node>
  <node id="-700" lat="51.73745851737764" lon="-0.21437015702972306">
    <tag k="addr:postcode" v="AL9 7JB"/>
    <tag k="removemelater" v="yes"/>
  </node>
  <node id="-701" lat="51.736019728561544" lon="-0.2137751495264197">
    <tag k="addr:postcode" v="AL9 7JE"/>
    <tag k="removemelater" v="yes"/>
  </node>
  <node id="-702" lat="51.73878858293715" lon="-0.21491155142925272">
    <tag k="addr:postcode" v="AL9 7JL"/>
    <tag k="removemelater" v="yes"/>
  </node>
  <node id="-703" lat="51.73773870071099" lon="-0.2156481219909423">
    <tag k="addr:postcode" v="AL9 7LD"/>
    <tag k="removemelater" v="yes"/>
  </node>
  <node id="-704" lat="51.738064147104524" lon="-0.21457801660530967">
    <tag k="addr:postcode" v="AL9 7NT"/>
    <tag k="removemelater" v="yes"/>
  </node>
  <node id="-705" lat="51.76426403777732" lon="-0.22625378989435885">
    <tag k="addr:postcode" v="AL9 7RB"/>
    <tag k="removemelater" v="yes"/>
  </node>
  <node id="-706" lat="51.7223674953876" lon="-0.20419288793102236">
    <tag k="addr:postcode" v="AL9 7ST"/>
    <tag k="removemelater" v="yes"/>
  </node>
  <node id="-707" lat="51.71444201650168" lon="-0.2128159682664727">
    <tag k="addr:postcode" v="AL9 7TF"/>
    <tag k="removemelater" v="yes"/>
  </node>
  <node id="-708" lat="51.723512667008386" lon="-0.22451905372587488">
    <tag k="addr:postcode" v="AL9 7TH"/>
    <tag k="removemelater" v="yes"/>
  </node>
  <node id="-709" lat="51.724129235225405" lon="-0.22485687085897813">
    <tag k="addr:postcode" v="AL9 7TJ"/>
    <tag k="removemelater" v="yes"/>
  </node>
  <node id="-710" lat="51.725856758982374" lon="-0.2326804917136255">
    <tag k="addr:postcode" v="AL9 7TN"/>
    <tag k="removemelater" v="yes"/>
  </node>
  <node id="-711" lat="51.72327480813651" lon="-0.22544052459806965">
    <tag k="addr:postcode" v="AL9 7TP"/>
    <tag k="removemelater" v="yes"/>
  </node>
  <node id="-712" lat="51.72572658983882" lon="-0.23239598049514337">
    <tag k="addr:postcode" v="AL9 7TR"/>
    <tag k="removemelater" v="yes"/>
  </node>
  <node id="-713" lat="51.76426403777732" lon="-0.22625378989435885">
    <tag k="addr:postcode" v="AL9 7ZF"/>
    <tag k="removemelater" v="yes"/>
  </node>
</osm>
