<?xml version="1.0" encoding="UTF-8"?><osm version="0.6" generator="import_postcodes.py" upload="false">
  <node id="-1" lat="51.34495437607395" lon="-0.01837261760063498">
    <tag k="addr:postcode" v="CR0 0JE"/>
    <tag k="removemelater" v="yes"/>
  </node>
  <node id="-2" lat="51.3425010822445" lon="-0.014759560018414901">
    <tag k="addr:postcode" v="CR0 0JH"/>
    <tag k="removemelater" v="yes"/>
  </node>
  <node id="-3" lat="51.342848629498285" lon="-0.014572236882711488">
    <tag k="addr:postcode" v="CR0 0JJ"/>
    <tag k="removemelater" v="yes"/>
  </node>
  <node id="-4" lat="51.34177635290759" lon="-0.014977535654342808">
    <tag k="addr:postcode" v="CR0 0JL"/>
    <tag k="removemelater" v="yes"/>
  </node>
  <node id="-5" lat="51.34172237071194" lon="-0.01285482956696092">
    <tag k="addr:postcode" v="CR0 0JN"/>
    <tag k="removemelater" v="yes"/>
  </node>
  <node id="-6" lat="51.341578122877365" lon="-0.013363610006861648">
    <tag k="addr:postcode" v="CR0 0JR"/>
    <tag k="removemelater" v="yes"/>
  </node>
  <node id="-7" lat="51.34245326534511" lon="-0.01671439496775427">
    <tag k="addr:postcode" v="CR0 0JW"/>
    <tag k="removemelater" v="yes"/>
  </node>
  <node id="-8" lat="51.34225870756015" lon="-0.01956578242315751">
    <tag k="addr:postcode" v="CR0 0LF"/>
    <tag k="removemelater" v="yes"/>
  </node>
  <node id="-9" lat="51.345388805469334" lon="-0.021728360404321957">
    <tag k="addr:postcode" v="CR0 0LH"/>
    <tag k="removemelater" v="yes"/>
  </node>
  <node id="-10" lat="51.34186696428375" lon="-0.01873552344675289">
    <tag k="addr:postcode" v="CR0 0LL"/>
    <tag k="removemelater" v="yes"/>
  </node>
  <node id="-11" lat="51.345914365336945" lon="-0.012931966767224662">
    <tag k="addr:postcode" v="CR0 0NG"/>
    <tag k="removemelater" v="yes"/>
  </node>
  <node id="-12" lat="51.34592512871083" lon="-0.015688560076346024">
    <tag k="addr:postcode" v="CR0 0NU"/>
    <tag k="removemelater" v="yes"/>
  </node>
  <node id="-13" lat="51.34625859441372" lon="-0.015731594189681692">
    <tag k="addr:postcode" v="CR0 0NW"/>
    <tag k="removemelater" v="yes"/>
  </node>
  <node id="-14" lat="51.37508062026302" lon="-0.09814028003177555">
    <tag k="addr:postcode" v="CR0 0XD"/>
    <tag k="removemelater" v="yes"/>
  </node>
  <node id="-15" lat="51.37806837812679" lon="-0.1132913020875735">
    <tag k="addr:postcode" v="CR0 0ZW"/>
    <tag k="removemelater" v="yes"/>
  </node>
  <node id="-16" lat="51.36731876130065" lon="-0.10195288385691971">
    <tag k="addr:postcode" v="CR0 1AG"/>
    <tag k="removemelater" v="yes"/>
  </node>
  <node id="-17" lat="51.369070941907374" lon="-0.10519914975779537">
    <tag k="addr:postcode" v="CR0 1AR"/>
    <tag k="removemelater" v="yes"/>
  </node>
  <node id="-18" lat="51.37059401394536" lon="-0.1065155267357109">
    <tag k="addr:postcode" v="CR0 1AS"/>
    <tag k="removemelater" v="yes"/>
  </node>
  <node id="-19" lat="51.37059401394536" lon="-0.1065155267357109">
    <tag k="addr:postcode" v="CR0 1AT"/>
    <tag k="removemelater" v="yes"/>
  </node>
  <node id="-20" lat="51.36773042696011" lon="-0.0985023046258587">
    <tag k="addr:postcode" v="CR0 1BH"/>
    <tag k="removemelater" v="yes"/>
  </node>
  <node id="-21" lat="51.36985516953526" lon="-0.10087103993362272">
    <tag k="addr:postcode" v="CR0 1BW"/>
    <tag k="removemelater" v="yes"/>
  </node>
  <node id="-22" lat="51.36994820419764" lon="-0.10050801442310137">
    <tag k="addr:postcode" v="CR0 1BX"/>
    <tag k="removemelater" v="yes"/>
  </node>
  <node id="-23" lat="51.371454578516186" lon="-0.09580496242397672">
    <tag k="addr:postcode" v="CR0 1BY"/>
    <tag k="removemelater" v="yes"/>
  </node>
  <node id="-24" lat="51.36706727433085" lon="-0.09864470466001037">
    <tag k="addr:postcode" v="CR0 1BZ"/>
    <tag k="removemelater" v="yes"/>
  </node>
  <node id="-25" lat="51.36478544579028" lon="-0.09934256288585448">
    <tag k="addr:postcode" v="CR0 1DR"/>
    <tag k="removemelater" v="yes"/>
  </node>
  <node id="-26" lat="51.37494726475321" lon="-0.10267191795978199">
    <tag k="addr:postcode" v="CR0 1DW"/>
    <tag k="removemelater" v="yes"/>
  </node>
  <node id="-27" lat="51.36461799419897" lon="-0.09844447724177419">
    <tag k="addr:postcode" v="CR0 1ET"/>
    <tag k="removemelater" v="yes"/>
  </node>
  <node id="-28" lat="51.37088337959388" lon="-0.10105837174454853">
    <tag k="addr:postcode" v="CR0 1EX"/>
    <tag k="removemelater" v="yes"/>
  </node>
  <node id="-29" lat="51.373439331528424" lon="-0.10118250298408345">
    <tag k="addr:postcode" v="CR0 1FB"/>
    <tag k="removemelater" v="yes"/>
  </node>
  <node id="-30" lat="51.37304246104689" lon="-0.10221905206305336">
    <tag k="addr:postcode" v="CR0 1FG"/>
    <tag k="removemelater" v="yes"/>
  </node>
  <node id="-31" lat="51.3766933957701" lon="-0.10221175297457043">
    <tag k="addr:postcode" v="CR0 1FH"/>
    <tag k="removemelater" v="yes"/>
  </node>
  <node id="-32" lat="51.370867035207496" lon="-0.10115961927469827">
    <tag k="addr:postcode" v="CR0 1FL"/>
    <tag k="removemelater" v="yes"/>
  </node>
  <node id="-33" lat="51.37183527372792" lon="-0.10097588368012672">
    <tag k="addr:postcode" v="CR0 1FN"/>
    <tag k="removemelater" v="yes"/>
  </node>
  <node id="-34" lat="51.37143482764489" lon="-0.10123670059548372">
    <tag k="addr:postcode" v="CR0 1FQ"/>
    <tag k="removemelater" v="yes"/>
  </node>
  <node id="-35" lat="51.374725155122526" lon="-0.10450590456512797">
    <tag k="addr:postcode" v="CR0 1FR"/>
    <tag k="removemelater" v="yes"/>
  </node>
  <node id="-36" lat="51.37126771393076" lon="-0.10091316287197866">
    <tag k="addr:postcode" v="CR0 1FS"/>
    <tag k="removemelater" v="yes"/>
  </node>
  <node id="-37" lat="51.37126771393076" lon="-0.10091316287197866">
    <tag k="addr:postcode" v="CR0 1FT"/>
    <tag k="removemelater" v="yes"/>
  </node>
  <node id="-38" lat="51.36917505831152" lon="-0.09885909481365703">
    <tag k="addr:postcode" v="CR0 1FW"/>
    <tag k="removemelater" v="yes"/>
  </node>
  <node id="-39" lat="51.36917505831152" lon="-0.09885909481365703">
    <tag k="addr:postcode" v="CR0 1FX"/>
    <tag k="removemelater" v="yes"/>
  </node>
  <node id="-40" lat="51.36917505831152" lon="-0.09885909481365703">
    <tag k="addr:postcode" v="CR0 1FY"/>
    <tag k="removemelater" v="yes"/>
  </node>
  <node id="-41" lat="51.373692908969645" lon="-0.1018473169565475">
    <tag k="addr:postcode" v="CR0 1FZ"/>
    <tag k="removemelater" v="yes"/>
  </node>
  <node id="-42" lat="51.37046411881169" lon="-0.09904994260289854">
    <tag k="addr:postcode" v="CR0 1GA"/>
    <tag k="removemelater" v="yes"/>
  </node>
  <node id="-43" lat="51.36753175234603" lon="-0.09955927367928791">
    <tag k="addr:postcode" v="CR0 1GU"/>
    <tag k="removemelater" v="yes"/>
  </node>
  <node id="-44" lat="51.364021764134016" lon="-0.09550994458855452">
    <tag k="addr:postcode" v="CR0 1HQ"/>
    <tag k="removemelater" v="yes"/>
  </node>
  <node id="-45" lat="51.36430641942443" lon="-0.09587163285007565">
    <tag k="addr:postcode" v="CR0 1HR"/>
    <tag k="removemelater" v="yes"/>
  </node>
  <node id="-46" lat="51.37379052027365" lon="-0.09733165041401635">
    <tag k="addr:postcode" v="CR0 1JA"/>
    <tag k="removemelater" v="yes"/>
  </node>
  <node id="-47" lat="51.371454578516186" lon="-0.09580496242397672">
    <tag k="addr:postcode" v="CR0 1JD"/>
    <tag k="removemelater" v="yes"/>
  </node>
  <node id="-48" lat="51.3691908540176" lon="-0.09706258956091586">
    <tag k="addr:postcode" v="CR0 1JF"/>
    <tag k="removemelater" v="yes"/>
  </node>
  <node id="-49" lat="51.36991212230014" lon="-0.09717635618700171">
    <tag k="addr:postcode" v="CR0 1JH"/>
    <tag k="removemelater" v="yes"/>
  </node>
  <node id="-50" lat="51.3715422281142" lon="-0.095111683489778">
    <tag k="addr:postcode" v="CR0 1JN"/>
    <tag k="removemelater" v="yes"/>
  </node>
  <node id="-51" lat="51.36924594027883" lon="-0.09713213986663521">
    <tag k="addr:postcode" v="CR0 1JX"/>
    <tag k="removemelater" v="yes"/>
  </node>
  <node id="-52" lat="51.37532666898263" lon="-0.0966788407945212">
    <tag k="addr:postcode" v="CR0 1LE"/>
    <tag k="removemelater" v="yes"/>
  </node>
  <node id="-53" lat="51.375622219230856" lon="-0.09992830489092096">
    <tag k="addr:postcode" v="CR0 1LP"/>
    <tag k="removemelater" v="yes"/>
  </node>
  <node id="-54" lat="51.37252696769968" lon="-0.09926622409605848">
    <tag k="addr:postcode" v="CR0 1NX"/>
    <tag k="removemelater" v="yes"/>
  </node>
  <node id="-55" lat="51.37401088365088" lon="-0.09539715909677925">
    <tag k="addr:postcode" v="CR0 1PF"/>
    <tag k="removemelater" v="yes"/>
  </node>
  <node id="-56" lat="51.37422200867603" lon="-0.09455503022506992">
    <tag k="addr:postcode" v="CR0 1PJ"/>
    <tag k="removemelater" v="yes"/>
  </node>
  <node id="-57" lat="51.367898945003226" lon="-0.09891194930636515">
    <tag k="addr:postcode" v="CR0 1QN"/>
    <tag k="removemelater" v="yes"/>
  </node>
  <node id="-58" lat="51.368017535686405" lon="-0.09846167802716504">
    <tag k="addr:postcode" v="CR0 1QP"/>
    <tag k="removemelater" v="yes"/>
  </node>
  <node id="-59" lat="51.37424351454529" lon="-0.10419532571606789">
    <tag k="addr:postcode" v="CR0 1RL"/>
    <tag k="removemelater" v="yes"/>
  </node>
  <node id="-60" lat="51.370810222200475" lon="-0.10709566626677584">
    <tag k="addr:postcode" v="CR0 1RR"/>
    <tag k="removemelater" v="yes"/>
  </node>
  <node id="-61" lat="51.36866638977312" lon="-0.10242872326448887">
    <tag k="addr:postcode" v="CR0 1SH"/>
    <tag k="removemelater" v="yes"/>
  </node>
  <node id="-62" lat="51.36919203846661" lon="-0.10267996114985212">
    <tag k="addr:postcode" v="CR0 1SJ"/>
    <tag k="removemelater" v="yes"/>
  </node>
  <node id="-63" lat="51.371273386815595" lon="-0.10181807774289703">
    <tag k="addr:postcode" v="CR0 1SZ"/>
    <tag k="removemelater" v="yes"/>
  </node>
  <node id="-64" lat="51.37424359145223" lon="-0.1030889572517086">
    <tag k="addr:postcode" v="CR0 1TA"/>
    <tag k="removemelater" v="yes"/>
  </node>
  <node id="-65" lat="51.37453589398291" lon="-0.10392461464028066">
    <tag k="addr:postcode" v="CR0 1TD"/>
    <tag k="removemelater" v="yes"/>
  </node>
  <node id="-66" lat="51.375406982873145" lon="-0.1027391230083871">
    <tag k="addr:postcode" v="CR0 1TE"/>
    <tag k="removemelater" v="yes"/>
  </node>
  <node id="-67" lat="51.37479294419331" lon="-0.10313809208143544">
    <tag k="addr:postcode" v="CR0 1TH"/>
    <tag k="removemelater" v="yes"/>
  </node>
  <node id="-68" lat="51.371560581708096" lon="-0.10233779878750347">
    <tag k="addr:postcode" v="CR0 1TR"/>
    <tag k="removemelater" v="yes"/>
  </node>
  <node id="-69" lat="51.37549691290518" lon="-0.10162900915725637">
    <tag k="addr:postcode" v="CR0 1TT"/>
    <tag k="removemelater" v="yes"/>
  </node>
  <node id="-70" lat="51.37495261279754" lon="-0.10300217473447068">
    <tag k="addr:postcode" v="CR0 1TW"/>
    <tag k="removemelater" v="yes"/>
  </node>
  <node id="-71" lat="51.3744608959294" lon="-0.1048472939676388">
    <tag k="addr:postcode" v="CR0 1TX"/>
    <tag k="removemelater" v="yes"/>
  </node>
  <node id="-72" lat="51.37625188352781" lon="-0.10215816770819813">
    <tag k="addr:postcode" v="CR0 1TY"/>
    <tag k="removemelater" v="yes"/>
  </node>
  <node id="-73" lat="51.37811274495498" lon="-0.10156389580820559">
    <tag k="addr:postcode" v="CR0 1UA"/>
    <tag k="removemelater" v="yes"/>
  </node>
  <node id="-74" lat="51.374043818385275" lon="-0.10019481392765586">
    <tag k="addr:postcode" v="CR0 1UB"/>
    <tag k="removemelater" v="yes"/>
  </node>
  <node id="-75" lat="51.37826499251471" lon="-0.10263531990706916">
    <tag k="addr:postcode" v="CR0 1UF"/>
    <tag k="removemelater" v="yes"/>
  </node>
  <node id="-76" lat="51.37567027357704" lon="-0.1006734944834621">
    <tag k="addr:postcode" v="CR0 1UG"/>
    <tag k="removemelater" v="yes"/>
  </node>
  <node id="-77" lat="51.37176067662204" lon="-0.10136689571689962">
    <tag k="addr:postcode" v="CR0 1UH"/>
    <tag k="removemelater" v="yes"/>
  </node>
  <node id="-78" lat="51.372569481482664" lon="-0.1013334354723982">
    <tag k="addr:postcode" v="CR0 1UL"/>
    <tag k="removemelater" v="yes"/>
  </node>
  <node id="-79" lat="51.37667738998118" lon="-0.10011451941408625">
    <tag k="addr:postcode" v="CR0 1UP"/>
    <tag k="removemelater" v="yes"/>
  </node>
  <node id="-80" lat="51.376009016396374" lon="-0.09938063812824037">
    <tag k="addr:postcode" v="CR0 1UQ"/>
    <tag k="removemelater" v="yes"/>
  </node>
  <node id="-81" lat="51.375731127386715" lon="-0.09943525438672024">
    <tag k="addr:postcode" v="CR0 1UR"/>
    <tag k="removemelater" v="yes"/>
  </node>
  <node id="-82" lat="51.376539980986806" lon="-0.10106856958210461">
    <tag k="addr:postcode" v="CR0 1US"/>
    <tag k="removemelater" v="yes"/>
  </node>
  <node id="-83" lat="51.37551461161499" lon="-0.0999471292775952">
    <tag k="addr:postcode" v="CR0 1UT"/>
    <tag k="removemelater" v="yes"/>
  </node>
  <node id="-84" lat="51.37667738998118" lon="-0.10011451941408625">
    <tag k="addr:postcode" v="CR0 1UU"/>
    <tag k="removemelater" v="yes"/>
  </node>
  <node id="-85" lat="51.37627652087706" lon="-0.099240237140442">
    <tag k="addr:postcode" v="CR0 1UW"/>
    <tag k="removemelater" v="yes"/>
  </node>
  <node id="-86" lat="51.37563962969495" lon="-0.0993384621623182">
    <tag k="addr:postcode" v="CR0 1UX"/>
    <tag k="removemelater" v="yes"/>
  </node>
  <node id="-87" lat="51.37616337870097" lon="-0.10058123965955049">
    <tag k="addr:postcode" v="CR0 1UY"/>
    <tag k="removemelater" v="yes"/>
  </node>
  <node id="-88" lat="51.375377111357686" lon="-0.10034077856131311">
    <tag k="addr:postcode" v="CR0 1UZ"/>
    <tag k="removemelater" v="yes"/>
  </node>
  <node id="-89" lat="51.37547796613624" lon="-0.09990554028095215">
    <tag k="addr:postcode" v="CR0 1XB"/>
    <tag k="removemelater" v="yes"/>
  </node>
  <node id="-90" lat="51.375134102200924" lon="-0.09589655075422432">
    <tag k="addr:postcode" v="CR0 1XG"/>
    <tag k="removemelater" v="yes"/>
  </node>
  <node id="-91" lat="51.375134102200924" lon="-0.09589655075422432">
    <tag k="addr:postcode" v="CR0 1XN"/>
    <tag k="removemelater" v="yes"/>
  </node>
  <node id="-92" lat="51.37531639991913" lon="-0.10603330386583905">
    <tag k="addr:postcode" v="CR0 1XP"/>
    <tag k="removemelater" v="yes"/>
  </node>
  <node id="-93" lat="51.376355551494406" lon="-0.10356204641345837">
    <tag k="addr:postcode" v="CR0 1XT"/>
    <tag k="removemelater" v="yes"/>
  </node>
  <node id="-94" lat="51.3768824330176" lon="-0.10277870311516744">
    <tag k="addr:postcode" v="CR0 1XX"/>
    <tag k="removemelater" v="yes"/>
  </node>
  <node id="-95" lat="51.37368441825251" lon="-0.09799698733552732">
    <tag k="addr:postcode" v="CR0 1YD"/>
    <tag k="removemelater" v="yes"/>
  </node>
  <node id="-96" lat="51.373155338425505" lon="-0.09919709489869506">
    <tag k="addr:postcode" v="CR0 1YE"/>
    <tag k="removemelater" v="yes"/>
  </node>
  <node id="-97" lat="51.37334572079995" lon="-0.09818344195082897">
    <tag k="addr:postcode" v="CR0 1YF"/>
    <tag k="removemelater" v="yes"/>
  </node>
  <node id="-98" lat="51.3730406078165" lon="-0.09933115894588893">
    <tag k="addr:postcode" v="CR0 1YH"/>
    <tag k="removemelater" v="yes"/>
  </node>
  <node id="-99" lat="51.37806837812679" lon="-0.1132913020875735">
    <tag k="addr:postcode" v="CR0 1ZW"/>
    <tag k="removemelater" v="yes"/>
  </node>
  <node id="-100" lat="51.37455330383227" lon="-0.0988949267965364">
    <tag k="addr:postcode" v="CR0 2AA"/>
    <tag k="removemelater" v="yes"/>
  </node>
  <node id="-101" lat="51.38010500845355" lon="-0.09742905948134173">
    <tag k="addr:postcode" v="CR0 2AB"/>
    <tag k="removemelater" v="yes"/>
  </node>
  <node id="-102" lat="51.37659377704552" lon="-0.09773270647907356">
    <tag k="addr:postcode" v="CR0 2AD"/>
    <tag k="removemelater" v="yes"/>
  </node>
  <node id="-103" lat="51.38099500396382" lon="-0.09907350199331998">
    <tag k="addr:postcode" v="CR0 2AE"/>
    <tag k="removemelater" v="yes"/>
  </node>
  <node id="-104" lat="51.38153666740547" lon="-0.09864868014030972">
    <tag k="addr:postcode" v="CR0 2AF"/>
    <tag k="removemelater" v="yes"/>
  </node>
  <node id="-105" lat="51.375763479405215" lon="-0.09865799575252093">
    <tag k="addr:postcode" v="CR0 2AG"/>
    <tag k="removemelater" v="yes"/>
  </node>
  <node id="-106" lat="51.3812716452274" lon="-0.09728008639556658">
    <tag k="addr:postcode" v="CR0 2AL"/>
    <tag k="removemelater" v="yes"/>
  </node>
  <node id="-107" lat="51.38142104210059" lon="-0.09651224651799166">
    <tag k="addr:postcode" v="CR0 2AN"/>
    <tag k="removemelater" v="yes"/>
  </node>
  <node id="-108" lat="51.37886367937527" lon="-0.09740868302726759">
    <tag k="addr:postcode" v="CR0 2AP"/>
    <tag k="removemelater" v="yes"/>
  </node>
  <node id="-109" lat="51.379158353620824" lon="-0.09838798921714646">
    <tag k="addr:postcode" v="CR0 2AQ"/>
    <tag k="removemelater" v="yes"/>
  </node>
  <node id="-110" lat="51.3804238161762" lon="-0.09934146302027791">
    <tag k="addr:postcode" v="CR0 2AR"/>
    <tag k="removemelater" v="yes"/>
  </node>
  <node id="-111" lat="51.37950209114513" lon="-0.0968505187313463">
    <tag k="addr:postcode" v="CR0 2AS"/>
    <tag k="removemelater" v="yes"/>
  </node>
  <node id="-112" lat="51.3803274664773" lon="-0.09673006034349962">
    <tag k="addr:postcode" v="CR0 2AT"/>
    <tag k="removemelater" v="yes"/>
  </node>
  <node id="-113" lat="51.38154743920265" lon="-0.09488311511956345">
    <tag k="addr:postcode" v="CR0 2AU"/>
    <tag k="removemelater" v="yes"/>
  </node>
  <node id="-114" lat="51.38167768912596" lon="-0.0962572960443641">
    <tag k="addr:postcode" v="CR0 2AW"/>
    <tag k="removemelater" v="yes"/>
  </node>
  <node id="-115" lat="51.383510370562654" lon="-0.09780520101023579">
    <tag k="addr:postcode" v="CR0 2AX"/>
    <tag k="removemelater" v="yes"/>
  </node>
  <node id="-116" lat="51.38262489664856" lon="-0.1075423463003271">
    <tag k="addr:postcode" v="CR0 2AZ"/>
    <tag k="removemelater" v="yes"/>
  </node>
  <node id="-117" lat="51.37871371267641" lon="-0.09426791633595205">
    <tag k="addr:postcode" v="CR0 2BS"/>
    <tag k="removemelater" v="yes"/>
  </node>
  <node id="-118" lat="51.38201813374451" lon="-0.09562522335769924">
    <tag k="addr:postcode" v="CR0 2BU"/>
    <tag k="removemelater" v="yes"/>
  </node>
  <node id="-119" lat="51.37682965552868" lon="-0.09730622110668605">
    <tag k="addr:postcode" v="CR0 2BX"/>
    <tag k="removemelater" v="yes"/>
  </node>
  <node id="-120" lat="51.37556229854458" lon="-0.09734440148916475">
    <tag k="addr:postcode" v="CR0 2DD"/>
    <tag k="removemelater" v="yes"/>
  </node>
  <node id="-121" lat="51.38262489664856" lon="-0.1075423463003271">
    <tag k="addr:postcode" v="CR0 2DR"/>
    <tag k="removemelater" v="yes"/>
  </node>
  <node id="-122" lat="51.3782122161109" lon="-0.09605621093645178">
    <tag k="addr:postcode" v="CR0 2DU"/>
    <tag k="removemelater" v="yes"/>
  </node>
  <node id="-123" lat="51.383388629862516" lon="-0.09308210392144535">
    <tag k="addr:postcode" v="CR0 2EB"/>
    <tag k="removemelater" v="yes"/>
  </node>
  <node id="-124" lat="51.37852779652929" lon="-0.09666101463511825">
    <tag k="addr:postcode" v="CR0 2EU"/>
    <tag k="removemelater" v="yes"/>
  </node>
  <node id="-125" lat="51.37833662086346" lon="-0.09707129579398911">
    <tag k="addr:postcode" v="CR0 2EX"/>
    <tag k="removemelater" v="yes"/>
  </node>
  <node id="-126" lat="51.39167867931711" lon="-0.09466352632971095">
    <tag k="addr:postcode" v="CR0 2EY"/>
    <tag k="removemelater" v="yes"/>
  </node>
  <node id="-127" lat="51.380977662505764" lon="-0.09523729635498272">
    <tag k="addr:postcode" v="CR0 2EZ"/>
    <tag k="removemelater" v="yes"/>
  </node>
  <node id="-128" lat="51.38206175441492" lon="-0.09831076023719598">
    <tag k="addr:postcode" v="CR0 2FB"/>
    <tag k="removemelater" v="yes"/>
  </node>
  <node id="-129" lat="51.38206175441492" lon="-0.09831076023719598">
    <tag k="addr:postcode" v="CR0 2FD"/>
    <tag k="removemelater" v="yes"/>
  </node>
  <node id="-130" lat="51.38206175441492" lon="-0.09831076023719598">
    <tag k="addr:postcode" v="CR0 2FE"/>
    <tag k="removemelater" v="yes"/>
  </node>
  <node id="-131" lat="51.37982589899746" lon="-0.10406526546922762">
    <tag k="addr:postcode" v="CR0 2FF"/>
    <tag k="removemelater" v="yes"/>
  </node>
  <node id="-132" lat="51.38001206377624" lon="-0.10389950064116737">
    <tag k="addr:postcode" v="CR0 2FG"/>
    <tag k="removemelater" v="yes"/>
  </node>
  <node id="-133" lat="51.38079838693069" lon="-0.0941669553945708">
    <tag k="addr:postcode" v="CR0 2FH"/>
    <tag k="removemelater" v="yes"/>
  </node>
  <node id="-134" lat="51.39164180592981" lon="-0.09571434923601399">
    <tag k="addr:postcode" v="CR0 2FP"/>
    <tag k="removemelater" v="yes"/>
  </node>
  <node id="-135" lat="51.38008622691733" lon="-0.09461327418071681">
    <tag k="addr:postcode" v="CR0 2FQ"/>
    <tag k="removemelater" v="yes"/>
  </node>
  <node id="-136" lat="51.37968248030752" lon="-0.09909914123656437">
    <tag k="addr:postcode" v="CR0 2FR"/>
    <tag k="removemelater" v="yes"/>
  </node>
  <node id="-137" lat="51.37961597575089" lon="-0.09832591260172645">
    <tag k="addr:postcode" v="CR0 2FS"/>
    <tag k="removemelater" v="yes"/>
  </node>
  <node id="-138" lat="51.37935662916278" lon="-0.09896894129709415">
    <tag k="addr:postcode" v="CR0 2FT"/>
    <tag k="removemelater" v="yes"/>
  </node>
  <node id="-139" lat="51.38507061812709" lon="-0.1091948074260409">
    <tag k="addr:postcode" v="CR0 2FU"/>
    <tag k="removemelater" v="yes"/>
  </node>
  <node id="-140" lat="51.37918528244726" lon="-0.09949335833077781">
    <tag k="addr:postcode" v="CR0 2FW"/>
    <tag k="removemelater" v="yes"/>
  </node>
  <node id="-141" lat="51.37918528244726" lon="-0.09949335833077781">
    <tag k="addr:postcode" v="CR0 2FX"/>
    <tag k="removemelater" v="yes"/>
  </node>
  <node id="-142" lat="51.37918528244726" lon="-0.09949335833077781">
    <tag k="addr:postcode" v="CR0 2FY"/>
    <tag k="removemelater" v="yes"/>
  </node>
  <node id="-143" lat="51.3837045798835" lon="-0.09758157789206277">
    <tag k="addr:postcode" v="CR0 2FZ"/>
    <tag k="removemelater" v="yes"/>
  </node>
  <node id="-144" lat="51.38368039388982" lon="-0.09886163080547912">
    <tag k="addr:postcode" v="CR0 2GA"/>
    <tag k="removemelater" v="yes"/>
  </node>
  <node id="-145" lat="51.38359485256486" lon="-0.09857774935039443">
    <tag k="addr:postcode" v="CR0 2GB"/>
    <tag k="removemelater" v="yes"/>
  </node>
  <node id="-146" lat="51.383674669569885" lon="-0.09906306685149456">
    <tag k="addr:postcode" v="CR0 2GD"/>
    <tag k="removemelater" v="yes"/>
  </node>
  <node id="-147" lat="51.37882534853631" lon="-0.09947952732164622">
    <tag k="addr:postcode" v="CR0 2GE"/>
    <tag k="removemelater" v="yes"/>
  </node>
  <node id="-148" lat="51.37882534853631" lon="-0.09947952732164622">
    <tag k="addr:postcode" v="CR0 2GF"/>
    <tag k="removemelater" v="yes"/>
  </node>
  <node id="-149" lat="51.37882534853631" lon="-0.09947952732164622">
    <tag k="addr:postcode" v="CR0 2GG"/>
    <tag k="removemelater" v="yes"/>
  </node>
  <node id="-150" lat="51.37882534853631" lon="-0.09947952732164622">
    <tag k="addr:postcode" v="CR0 2GH"/>
    <tag k="removemelater" v="yes"/>
  </node>
  <node id="-151" lat="51.37882534853631" lon="-0.09947952732164622">
    <tag k="addr:postcode" v="CR0 2GJ"/>
    <tag k="removemelater" v="yes"/>
  </node>
  <node id="-152" lat="51.37882534853631" lon="-0.09947952732164622">
    <tag k="addr:postcode" v="CR0 2GL"/>
    <tag k="removemelater" v="yes"/>
  </node>
  <node id="-153" lat="51.38385430112791" lon="-0.09849513878005603">
    <tag k="addr:postcode" v="CR0 2GN"/>
    <tag k="removemelater" v="yes"/>
  </node>
  <node id="-154" lat="51.381087954100884" lon="-0.09593687388014598">
    <tag k="addr:postcode" v="CR0 2GP"/>
    <tag k="removemelater" v="yes"/>
  </node>
  <node id="-155" lat="51.3922608319713" lon="-0.09507056176918259">
    <tag k="addr:postcode" v="CR0 2GR"/>
    <tag k="removemelater" v="yes"/>
  </node>
  <node id="-156" lat="51.37928382928996" lon="-0.09780799006736662">
    <tag k="addr:postcode" v="CR0 2GT"/>
    <tag k="removemelater" v="yes"/>
  </node>
  <node id="-157" lat="51.37902115184049" lon="-0.1004629389703084">
    <tag k="addr:postcode" v="CR0 2GU"/>
    <tag k="removemelater" v="yes"/>
  </node>
  <node id="-158" lat="51.37903982372685" lon="-0.10050527562963833">
    <tag k="addr:postcode" v="CR0 2GW"/>
    <tag k="removemelater" v="yes"/>
  </node>
  <node id="-159" lat="51.378984972190246" lon="-0.10045006691718514">
    <tag k="addr:postcode" v="CR0 2GX"/>
    <tag k="removemelater" v="yes"/>
  </node>
  <node id="-160" lat="51.383579543955506" lon="-0.09929694958681626">
    <tag k="addr:postcode" v="CR0 2GZ"/>
    <tag k="removemelater" v="yes"/>
  </node>
  <node id="-161" lat="51.390368819260225" lon="-0.09319435632730351">
    <tag k="addr:postcode" v="CR0 2HD"/>
    <tag k="removemelater" v="yes"/>
  </node>
  <node id="-162" lat="51.389732063690886" lon="-0.09385325212008677">
    <tag k="addr:postcode" v="CR0 2HJ"/>
    <tag k="removemelater" v="yes"/>
  </node>
  <node id="-163" lat="51.38938025724311" lon="-0.09212872248501962">
    <tag k="addr:postcode" v="CR0 2HP"/>
    <tag k="removemelater" v="yes"/>
  </node>
  <node id="-164" lat="51.38403825312282" lon="-0.09763959785108457">
    <tag k="addr:postcode" v="CR0 2JA"/>
    <tag k="removemelater" v="yes"/>
  </node>
  <node id="-165" lat="51.384007918237984" lon="-0.09687916883653853">
    <tag k="addr:postcode" v="CR0 2JL"/>
    <tag k="removemelater" v="yes"/>
  </node>
  <node id="-166" lat="51.38315636930603" lon="-0.09871089259493167">
    <tag k="addr:postcode" v="CR0 2JT"/>
    <tag k="removemelater" v="yes"/>
  </node>
  <node id="-167" lat="51.39026730704005" lon="-0.09469341243462501">
    <tag k="addr:postcode" v="CR0 2LB"/>
    <tag k="removemelater" v="yes"/>
  </node>
  <node id="-168" lat="51.375020309104166" lon="-0.09498167951640378">
    <tag k="addr:postcode" v="CR0 2LX"/>
    <tag k="removemelater" v="yes"/>
  </node>
  <node id="-169" lat="51.37567960564022" lon="-0.09515547337956287">
    <tag k="addr:postcode" v="CR0 2NA"/>
    <tag k="removemelater" v="yes"/>
  </node>
  <node id="-170" lat="51.378110678858725" lon="-0.09534194382696236">
    <tag k="addr:postcode" v="CR0 2NE"/>
    <tag k="removemelater" v="yes"/>
  </node>
  <node id="-171" lat="51.378441084848134" lon="-0.09519890118681784">
    <tag k="addr:postcode" v="CR0 2NG"/>
    <tag k="removemelater" v="yes"/>
  </node>
  <node id="-172" lat="51.37759400171749" lon="-0.09619681849294988">
    <tag k="addr:postcode" v="CR0 2NH"/>
    <tag k="removemelater" v="yes"/>
  </node>
  <node id="-173" lat="51.38623482492592" lon="-0.11000914718979427">
    <tag k="addr:postcode" v="CR0 2NS"/>
    <tag k="removemelater" v="yes"/>
  </node>
  <node id="-174" lat="51.38623482492592" lon="-0.11000914718979427">
    <tag k="addr:postcode" v="CR0 2NT"/>
    <tag k="removemelater" v="yes"/>
  </node>
  <node id="-175" lat="51.37527786144116" lon="-0.0981033680287874">
    <tag k="addr:postcode" v="CR0 2NW"/>
    <tag k="removemelater" v="yes"/>
  </node>
  <node id="-176" lat="51.37905756431461" lon="-0.10049017129875672">
    <tag k="addr:postcode" v="CR0 2NX"/>
    <tag k="removemelater" v="yes"/>
  </node>
  <node id="-177" lat="51.37903982372685" lon="-0.10050527562963833">
    <tag k="addr:postcode" v="CR0 2NY"/>
    <tag k="removemelater" v="yes"/>
  </node>
  <node id="-178" lat="51.377202898520686" lon="-0.09703209662459017">
    <tag k="addr:postcode" v="CR0 2NZ"/>
    <tag k="removemelater" v="yes"/>
  </node>
  <node id="-179" lat="51.3845094502566" lon="-0.10451842679897747">
    <tag k="addr:postcode" v="CR0 2PA"/>
    <tag k="removemelater" v="yes"/>
  </node>
  <node id="-180" lat="51.38484807118961" lon="-0.1054385956987459">
    <tag k="addr:postcode" v="CR0 2PD"/>
    <tag k="removemelater" v="yes"/>
  </node>
  <node id="-181" lat="51.38976954061281" lon="-0.10503408655443171">
    <tag k="addr:postcode" v="CR0 2PR"/>
    <tag k="removemelater" v="yes"/>
  </node>
  <node id="-182" lat="51.38919415867255" lon="-0.10504348543438455">
    <tag k="addr:postcode" v="CR0 2PX"/>
    <tag k="removemelater" v="yes"/>
  </node>
  <node id="-183" lat="51.39396923066746" lon="-0.09505709501260091">
    <tag k="addr:postcode" v="CR0 2QE"/>
    <tag k="removemelater" v="yes"/>
  </node>
  <node id="-184" lat="51.387227823721965" lon="-0.10134476486309234">
    <tag k="addr:postcode" v="CR0 2QQ"/>
    <tag k="removemelater" v="yes"/>
  </node>
  <node id="-185" lat="51.37954093394661" lon="-0.10146169312280899">
    <tag k="addr:postcode" v="CR0 2RD"/>
    <tag k="removemelater" v="yes"/>
  </node>
  <node id="-186" lat="51.38650646269434" lon="-0.10956678872218398">
    <tag k="addr:postcode" v="CR0 2RH"/>
    <tag k="removemelater" v="yes"/>
  </node>
  <node id="-187" lat="51.38175312189903" lon="-0.10701784813404773">
    <tag k="addr:postcode" v="CR0 2RJ"/>
    <tag k="removemelater" v="yes"/>
  </node>
  <node id="-188" lat="51.3855388019971" lon="-0.10867249269016933">
    <tag k="addr:postcode" v="CR0 2RP"/>
    <tag k="removemelater" v="yes"/>
  </node>
  <node id="-189" lat="51.3855750972862" lon="-0.10757873004986111">
    <tag k="addr:postcode" v="CR0 2RQ"/>
    <tag k="removemelater" v="yes"/>
  </node>
  <node id="-190" lat="51.3850272534084" lon="-0.10873669882625585">
    <tag k="addr:postcode" v="CR0 2RU"/>
    <tag k="removemelater" v="yes"/>
  </node>
  <node id="-191" lat="51.38337560658964" lon="-0.10725269628300706">
    <tag k="addr:postcode" v="CR0 2SB"/>
    <tag k="removemelater" v="yes"/>
  </node>
  <node id="-192" lat="51.384818183297135" lon="-0.10804110570610818">
    <tag k="addr:postcode" v="CR0 2SL"/>
    <tag k="removemelater" v="yes"/>
  </node>
  <node id="-193" lat="51.38694519077466" lon="-0.10944810117290003">
    <tag k="addr:postcode" v="CR0 2SP"/>
    <tag k="removemelater" v="yes"/>
  </node>
  <node id="-194" lat="51.38538839881044" lon="-0.10938291509958091">
    <tag k="addr:postcode" v="CR0 2SU"/>
    <tag k="removemelater" v="yes"/>
  </node>
  <node id="-195" lat="51.38606860990259" lon="-0.10918241516506268">
    <tag k="addr:postcode" v="CR0 2SZ"/>
    <tag k="removemelater" v="yes"/>
  </node>
  <node id="-196" lat="51.37919093891904" lon="-0.10317182733946802">
    <tag k="addr:postcode" v="CR0 2TX"/>
    <tag k="removemelater" v="yes"/>
  </node>
  <node id="-197" lat="51.381084420650105" lon="-0.1051485300335816">
    <tag k="addr:postcode" v="CR0 2TY"/>
    <tag k="removemelater" v="yes"/>
  </node>
  <node id="-198" lat="51.37990824885457" lon="-0.1030415815468974">
    <tag k="addr:postcode" v="CR0 2UD"/>
    <tag k="removemelater" v="yes"/>
  </node>
  <node id="-199" lat="51.38690197508547" lon="-0.1012145289012619">
    <tag k="addr:postcode" v="CR0 2UQ"/>
    <tag k="removemelater" v="yes"/>
  </node>
  <node id="-200" lat="51.376842724797335" lon="-0.09368463835880755">
    <tag k="addr:postcode" v="CR0 2WB"/>
    <tag k="removemelater" v="yes"/>
  </node>
  <node id="-201" lat="51.376842724797335" lon="-0.09368463835880755">
    <tag k="addr:postcode" v="CR0 2WD"/>
    <tag k="removemelater" v="yes"/>
  </node>
  <node id="-202" lat="51.377202898520686" lon="-0.09703209662459017">
    <tag k="addr:postcode" v="CR0 2WE"/>
    <tag k="removemelater" v="yes"/>
  </node>
  <node id="-203" lat="51.376291967465555" lon="-0.09354945928587724">
    <tag k="addr:postcode" v="CR0 2WF"/>
    <tag k="removemelater" v="yes"/>
  </node>
  <node id="-204" lat="51.386729687976334" lon="-0.10891083634780009">
    <tag k="addr:postcode" v="CR0 2WG"/>
    <tag k="removemelater" v="yes"/>
  </node>
  <node id="-205" lat="51.376842724797335" lon="-0.09368463835880755">
    <tag k="addr:postcode" v="CR0 2WJ"/>
    <tag k="removemelater" v="yes"/>
  </node>
  <node id="-206" lat="51.38236056954091" lon="-0.10732331515274028">
    <tag k="addr:postcode" v="CR0 2WN"/>
    <tag k="removemelater" v="yes"/>
  </node>
  <node id="-207" lat="51.379158353620824" lon="-0.09838798921714646">
    <tag k="addr:postcode" v="CR0 2WR"/>
    <tag k="removemelater" v="yes"/>
  </node>
  <node id="-208" lat="51.37806837812679" lon="-0.1132913020875735">
    <tag k="addr:postcode" v="CR0 2WY"/>
    <tag k="removemelater" v="yes"/>
  </node>
  <node id="-209" lat="51.387794172570715" lon="-0.10410961193016846">
    <tag k="addr:postcode" v="CR0 2XB"/>
    <tag k="removemelater" v="yes"/>
  </node>
  <node id="-210" lat="51.38514468076679" lon="-0.10098546030386582">
    <tag k="addr:postcode" v="CR0 2XP"/>
    <tag k="removemelater" v="yes"/>
  </node>
  <node id="-211" lat="51.38626798966907" lon="-0.09816513074671324">
    <tag k="addr:postcode" v="CR0 2XQ"/>
    <tag k="removemelater" v="yes"/>
  </node>
  <node id="-212" lat="51.38656162440699" lon="-0.09852663493624479">
    <tag k="addr:postcode" v="CR0 2XT"/>
    <tag k="removemelater" v="yes"/>
  </node>
  <node id="-213" lat="51.38579243723228" lon="-0.11045853382744311">
    <tag k="addr:postcode" v="CR0 3AW"/>
    <tag k="removemelater" v="yes"/>
  </node>
  <node id="-214" lat="51.39032995615319" lon="-0.1242137978669383">
    <tag k="addr:postcode" v="CR0 3BF"/>
    <tag k="removemelater" v="yes"/>
  </node>
  <node id="-215" lat="51.38909161558344" lon="-0.12437942573498413">
    <tag k="addr:postcode" v="CR0 3BH"/>
    <tag k="removemelater" v="yes"/>
  </node>
  <node id="-216" lat="51.38974538554002" lon="-0.12308784904317106">
    <tag k="addr:postcode" v="CR0 3BT"/>
    <tag k="removemelater" v="yes"/>
  </node>
  <node id="-217" lat="51.388279397659396" lon="-0.12251543654225164">
    <tag k="addr:postcode" v="CR0 3BU"/>
    <tag k="removemelater" v="yes"/>
  </node>
  <node id="-218" lat="51.38842388659764" lon="-0.1219921018116603">
    <tag k="addr:postcode" v="CR0 3BX"/>
    <tag k="removemelater" v="yes"/>
  </node>
  <node id="-219" lat="51.37813326024541" lon="-0.1117367192850842">
    <tag k="addr:postcode" v="CR0 3BZ"/>
    <tag k="removemelater" v="yes"/>
  </node>
  <node id="-220" lat="51.38859624734175" lon="-0.12208565460325259">
    <tag k="addr:postcode" v="CR0 3EX"/>
    <tag k="removemelater" v="yes"/>
  </node>
  <node id="-221" lat="51.377810199559626" lon="-0.11177875281470268">
    <tag k="addr:postcode" v="CR0 3FB"/>
    <tag k="removemelater" v="yes"/>
  </node>
  <node id="-222" lat="51.37794156829188" lon="-0.11211821542634706">
    <tag k="addr:postcode" v="CR0 3FD"/>
    <tag k="removemelater" v="yes"/>
  </node>
  <node id="-223" lat="51.37809252903703" lon="-0.11255746100274401">
    <tag k="addr:postcode" v="CR0 3FE"/>
    <tag k="removemelater" v="yes"/>
  </node>
  <node id="-224" lat="51.38669393602788" lon="-0.11115438451039451">
    <tag k="addr:postcode" v="CR0 3FH"/>
    <tag k="removemelater" v="yes"/>
  </node>
  <node id="-225" lat="51.38537871898995" lon="-0.11715848623944142">
    <tag k="addr:postcode" v="CR0 3HH"/>
    <tag k="removemelater" v="yes"/>
  </node>
  <node id="-226" lat="51.38418509449743" lon="-0.12291294850284841">
    <tag k="addr:postcode" v="CR0 3JP"/>
    <tag k="removemelater" v="yes"/>
  </node>
  <node id="-227" lat="51.38276772158439" lon="-0.1225685528765811">
    <tag k="addr:postcode" v="CR0 3JX"/>
    <tag k="removemelater" v="yes"/>
  </node>
  <node id="-228" lat="51.38224229072707" lon="-0.10890899136539581">
    <tag k="addr:postcode" v="CR0 3LF"/>
    <tag k="removemelater" v="yes"/>
  </node>
  <node id="-229" lat="51.38702876109407" lon="-0.11128432080326128">
    <tag k="addr:postcode" v="CR0 3PE"/>
    <tag k="removemelater" v="yes"/>
  </node>
  <node id="-230" lat="51.38760808030438" lon="-0.1115191727438209">
    <tag k="addr:postcode" v="CR0 3PF"/>
    <tag k="removemelater" v="yes"/>
  </node>
  <node id="-231" lat="51.37669787696985" lon="-0.10860583765566452">
    <tag k="addr:postcode" v="CR0 3RF"/>
    <tag k="removemelater" v="yes"/>
  </node>
  <node id="-232" lat="51.37715076875593" lon="-0.11271115282522645">
    <tag k="addr:postcode" v="CR0 3RL"/>
    <tag k="removemelater" v="yes"/>
  </node>
  <node id="-233" lat="51.37639812236066" lon="-0.10897741912182789">
    <tag k="addr:postcode" v="CR0 3RN"/>
    <tag k="removemelater" v="yes"/>
  </node>
  <node id="-234" lat="51.378791316053686" lon="-0.10626348574724787">
    <tag k="addr:postcode" v="CR0 3RX"/>
    <tag k="removemelater" v="yes"/>
  </node>
  <node id="-235" lat="51.37928071159756" lon="-0.10594151777125875">
    <tag k="addr:postcode" v="CR0 3SL"/>
    <tag k="removemelater" v="yes"/>
  </node>
  <node id="-236" lat="51.378224155972354" lon="-0.10566899976218798">
    <tag k="addr:postcode" v="CR0 3SN"/>
    <tag k="removemelater" v="yes"/>
  </node>
  <node id="-237" lat="51.37882449787014" lon="-0.10442278022974961">
    <tag k="addr:postcode" v="CR0 3SQ"/>
    <tag k="removemelater" v="yes"/>
  </node>
  <node id="-238" lat="51.37843138237197" lon="-0.10624960163523132">
    <tag k="addr:postcode" v="CR0 3SR"/>
    <tag k="removemelater" v="yes"/>
  </node>
  <node id="-239" lat="51.3782312981446" lon="-0.10388687105771274">
    <tag k="addr:postcode" v="CR0 3SY"/>
    <tag k="removemelater" v="yes"/>
  </node>
  <node id="-240" lat="51.3696488459873" lon="-0.11929798028782222">
    <tag k="addr:postcode" v="CR0 4AG"/>
    <tag k="removemelater" v="yes"/>
  </node>
  <node id="-241" lat="51.36930890854177" lon="-0.10656854180638674">
    <tag k="addr:postcode" v="CR0 4BB"/>
    <tag k="removemelater" v="yes"/>
  </node>
  <node id="-242" lat="51.360453248321384" lon="-0.11898519522425953">
    <tag k="addr:postcode" v="CR0 4BD"/>
    <tag k="removemelater" v="yes"/>
  </node>
  <node id="-243" lat="51.36840088326669" lon="-0.10547104152105118">
    <tag k="addr:postcode" v="CR0 4BE"/>
    <tag k="removemelater" v="yes"/>
  </node>
  <node id="-244" lat="51.373042068207965" lon="-0.10831110072030742">
    <tag k="addr:postcode" v="CR0 4BF"/>
    <tag k="removemelater" v="yes"/>
  </node>
  <node id="-245" lat="51.36838048836544" lon="-0.10643444146141454">
    <tag k="addr:postcode" v="CR0 4BT"/>
    <tag k="removemelater" v="yes"/>
  </node>
  <node id="-246" lat="51.372816062242684" lon="-0.11605035615711887">
    <tag k="addr:postcode" v="CR0 4BW"/>
    <tag k="removemelater" v="yes"/>
  </node>
  <node id="-247" lat="51.36189043237094" lon="-0.12168429439168728">
    <tag k="addr:postcode" v="CR0 4FA"/>
    <tag k="removemelater" v="yes"/>
  </node>
  <node id="-248" lat="51.36332095649293" lon="-0.11780469572800664">
    <tag k="addr:postcode" v="CR0 4FE"/>
    <tag k="removemelater" v="yes"/>
  </node>
  <node id="-249" lat="51.363295149274066" lon="-0.11787757840245354">
    <tag k="addr:postcode" v="CR0 4FF"/>
    <tag k="removemelater" v="yes"/>
  </node>
  <node id="-250" lat="51.37361815503172" lon="-0.11504039412802702">
    <tag k="addr:postcode" v="CR0 4FG"/>
    <tag k="removemelater" v="yes"/>
  </node>
  <node id="-251" lat="51.37361815503172" lon="-0.11504039412802702">
    <tag k="addr:postcode" v="CR0 4FH"/>
    <tag k="removemelater" v="yes"/>
  </node>
  <node id="-252" lat="51.37370201568576" lon="-0.11466337671630204">
    <tag k="addr:postcode" v="CR0 4FJ"/>
    <tag k="removemelater" v="yes"/>
  </node>
  <node id="-253" lat="51.37319166039247" lon="-0.11591999332337763">
    <tag k="addr:postcode" v="CR0 4FP"/>
    <tag k="removemelater" v="yes"/>
  </node>
  <node id="-254" lat="51.37313821884249" lon="-0.11651127575406738">
    <tag k="addr:postcode" v="CR0 4FR"/>
    <tag k="removemelater" v="yes"/>
  </node>
  <node id="-255" lat="51.37319438975618" lon="-0.11497159128237085">
    <tag k="addr:postcode" v="CR0 4FS"/>
    <tag k="removemelater" v="yes"/>
  </node>
  <node id="-256" lat="51.37317017769859" lon="-0.11458464913637435">
    <tag k="addr:postcode" v="CR0 4FT"/>
    <tag k="removemelater" v="yes"/>
  </node>
  <node id="-257" lat="51.36354607837587" lon="-0.11726396092061088">
    <tag k="addr:postcode" v="CR0 4GD"/>
    <tag k="removemelater" v="yes"/>
  </node>
  <node id="-258" lat="51.361777072788804" lon="-0.12078397210100662">
    <tag k="addr:postcode" v="CR0 4GE"/>
    <tag k="removemelater" v="yes"/>
  </node>
  <node id="-259" lat="51.374031306772245" lon="-0.10831342857568835">
    <tag k="addr:postcode" v="CR0 4JB"/>
    <tag k="removemelater" v="yes"/>
  </node>
  <node id="-260" lat="51.37221131674054" lon="-0.1103280902365085">
    <tag k="addr:postcode" v="CR0 4JF"/>
    <tag k="removemelater" v="yes"/>
  </node>
  <node id="-261" lat="51.364112963400686" lon="-0.11952477616565856">
    <tag k="addr:postcode" v="CR0 4NE"/>
    <tag k="removemelater" v="yes"/>
  </node>
  <node id="-262" lat="51.367326789282195" lon="-0.1191776271200873">
    <tag k="addr:postcode" v="CR0 4NZ"/>
    <tag k="removemelater" v="yes"/>
  </node>
  <node id="-263" lat="51.373872095423636" lon="-0.10847804218729619">
    <tag k="addr:postcode" v="CR0 4RA"/>
    <tag k="removemelater" v="yes"/>
  </node>
  <node id="-264" lat="51.36038594677886" lon="-0.12151601827118151">
    <tag k="addr:postcode" v="CR0 4RD"/>
    <tag k="removemelater" v="yes"/>
  </node>
  <node id="-265" lat="51.363587576275485" lon="-0.11872749079510783">
    <tag k="addr:postcode" v="CR0 4RE"/>
    <tag k="removemelater" v="yes"/>
  </node>
  <node id="-266" lat="51.361445023140405" lon="-0.11858545424699075">
    <tag k="addr:postcode" v="CR0 4RF"/>
    <tag k="removemelater" v="yes"/>
  </node>
  <node id="-267" lat="51.354601205267286" lon="-0.11968449268529462">
    <tag k="addr:postcode" v="CR0 4RL"/>
    <tag k="removemelater" v="yes"/>
  </node>
  <node id="-268" lat="51.355297799613815" lon="-0.11882295018751425">
    <tag k="addr:postcode" v="CR0 4RN"/>
    <tag k="removemelater" v="yes"/>
  </node>
  <node id="-269" lat="51.356997816839716" lon="-0.11437260530700556">
    <tag k="addr:postcode" v="CR0 4RQ"/>
    <tag k="removemelater" v="yes"/>
  </node>
  <node id="-270" lat="51.35717857959472" lon="-0.12058436646675891">
    <tag k="addr:postcode" v="CR0 4RR"/>
    <tag k="removemelater" v="yes"/>
  </node>
  <node id="-271" lat="51.358828436738186" lon="-0.12252772995823313">
    <tag k="addr:postcode" v="CR0 4RT"/>
    <tag k="removemelater" v="yes"/>
  </node>
  <node id="-272" lat="51.360040434496256" lon="-0.12464711971688876">
    <tag k="addr:postcode" v="CR0 4RU"/>
    <tag k="removemelater" v="yes"/>
  </node>
  <node id="-273" lat="51.38802490661109" lon="-0.14039105619161663">
    <tag k="addr:postcode" v="CR0 4TE"/>
    <tag k="removemelater" v="yes"/>
  </node>
  <node id="-274" lat="51.38852283318393" lon="-0.14060083374909643">
    <tag k="addr:postcode" v="CR0 4TP"/>
    <tag k="removemelater" v="yes"/>
  </node>
  <node id="-275" lat="51.38621937501154" lon="-0.1348591436145395">
    <tag k="addr:postcode" v="CR0 4TQ"/>
    <tag k="removemelater" v="yes"/>
  </node>
  <node id="-276" lat="51.385516080556165" lon="-0.1330481409745061">
    <tag k="addr:postcode" v="CR0 4TR"/>
    <tag k="removemelater" v="yes"/>
  </node>
  <node id="-277" lat="51.37843145359381" lon="-0.13089357483004493">
    <tag k="addr:postcode" v="CR0 4TT"/>
    <tag k="removemelater" v="yes"/>
  </node>
  <node id="-278" lat="51.36069355974175" lon="-0.1221929098036959">
    <tag k="addr:postcode" v="CR0 4TU"/>
    <tag k="removemelater" v="yes"/>
  </node>
  <node id="-279" lat="51.367399344350325" lon="-0.11697662406608934">
    <tag k="addr:postcode" v="CR0 4UP"/>
    <tag k="removemelater" v="yes"/>
  </node>
  <node id="-280" lat="51.37651516165459" lon="-0.1240888560975167">
    <tag k="addr:postcode" v="CR0 4UQ"/>
    <tag k="removemelater" v="yes"/>
  </node>
  <node id="-281" lat="51.38457305615248" lon="-0.12917745297987224">
    <tag k="addr:postcode" v="CR0 4UY"/>
    <tag k="removemelater" v="yes"/>
  </node>
  <node id="-282" lat="51.35908977699836" lon="-0.1180786902335758">
    <tag k="addr:postcode" v="CR0 4WD"/>
    <tag k="removemelater" v="yes"/>
  </node>
  <node id="-283" lat="51.37457331722673" lon="-0.11571958424058737">
    <tag k="addr:postcode" v="CR0 4WF"/>
    <tag k="removemelater" v="yes"/>
  </node>
  <node id="-284" lat="51.37369427380522" lon="-0.11753733188173246">
    <tag k="addr:postcode" v="CR0 4WG"/>
    <tag k="removemelater" v="yes"/>
  </node>
  <node id="-285" lat="51.37369427380522" lon="-0.11753733188173246">
    <tag k="addr:postcode" v="CR0 4WH"/>
    <tag k="removemelater" v="yes"/>
  </node>
  <node id="-286" lat="51.37430833195753" lon="-0.11601783206369067">
    <tag k="addr:postcode" v="CR0 4WJ"/>
    <tag k="removemelater" v="yes"/>
  </node>
  <node id="-287" lat="51.37430833195753" lon="-0.11601783206369067">
    <tag k="addr:postcode" v="CR0 4WL"/>
    <tag k="removemelater" v="yes"/>
  </node>
  <node id="-288" lat="51.37430833195753" lon="-0.11601783206369067">
    <tag k="addr:postcode" v="CR0 4WN"/>
    <tag k="removemelater" v="yes"/>
  </node>
  <node id="-289" lat="51.38378120485977" lon="-0.1302732227792812">
    <tag k="addr:postcode" v="CR0 4WP"/>
    <tag k="removemelater" v="yes"/>
  </node>
  <node id="-290" lat="51.37806837812679" lon="-0.1132913020875735">
    <tag k="addr:postcode" v="CR0 4WY"/>
    <tag k="removemelater" v="yes"/>
  </node>
  <node id="-291" lat="51.37517365815848" lon="-0.12118375603359736">
    <tag k="addr:postcode" v="CR0 4XD"/>
    <tag k="removemelater" v="yes"/>
  </node>
  <node id="-292" lat="51.376903277389374" lon="-0.12081118581597707">
    <tag k="addr:postcode" v="CR0 4XG"/>
    <tag k="removemelater" v="yes"/>
  </node>
  <node id="-293" lat="51.38333158570324" lon="-0.13309392691155308">
    <tag k="addr:postcode" v="CR0 4XH"/>
    <tag k="removemelater" v="yes"/>
  </node>
  <node id="-294" lat="51.38457456883559" lon="-0.13039897477800869">
    <tag k="addr:postcode" v="CR0 4XN"/>
    <tag k="removemelater" v="yes"/>
  </node>
  <node id="-295" lat="51.3830439163115" lon="-0.12915358398206161">
    <tag k="addr:postcode" v="CR0 4XQ"/>
    <tag k="removemelater" v="yes"/>
  </node>
  <node id="-296" lat="51.37446966455396" lon="-0.11710320930450145">
    <tag k="addr:postcode" v="CR0 4XU"/>
    <tag k="removemelater" v="yes"/>
  </node>
  <node id="-297" lat="51.37915352701508" lon="-0.12936969409095306">
    <tag k="addr:postcode" v="CR0 4XX"/>
    <tag k="removemelater" v="yes"/>
  </node>
  <node id="-298" lat="51.3818535653454" lon="-0.1283829933217179">
    <tag k="addr:postcode" v="CR0 4YE"/>
    <tag k="removemelater" v="yes"/>
  </node>
  <node id="-299" lat="51.373616782025444" lon="-0.12448032813494173">
    <tag k="addr:postcode" v="CR0 4YL"/>
    <tag k="removemelater" v="yes"/>
  </node>
  <node id="-300" lat="51.37382057254244" lon="-0.12036269052138793">
    <tag k="addr:postcode" v="CR0 4YN"/>
    <tag k="removemelater" v="yes"/>
  </node>
  <node id="-301" lat="51.372394032461216" lon="-0.1295590127820283">
    <tag k="addr:postcode" v="CR0 4YX"/>
    <tag k="removemelater" v="yes"/>
  </node>
  <node id="-302" lat="51.37252895386717" lon="-0.12337535926386212">
    <tag k="addr:postcode" v="CR0 4ZS"/>
    <tag k="removemelater" v="yes"/>
  </node>
  <node id="-303" lat="51.37249813242537" lon="-0.09140820507413748">
    <tag k="addr:postcode" v="CR0 5BN"/>
    <tag k="removemelater" v="yes"/>
  </node>
  <node id="-304" lat="51.37249813242537" lon="-0.09140820507413748">
    <tag k="addr:postcode" v="CR0 5BP"/>
    <tag k="removemelater" v="yes"/>
  </node>
  <node id="-305" lat="51.36422102345558" lon="-0.07031934364412411">
    <tag k="addr:postcode" v="CR0 5HN"/>
    <tag k="removemelater" v="yes"/>
  </node>
  <node id="-306" lat="51.3738350404064" lon="-0.09122329006162083">
    <tag k="addr:postcode" v="CR0 5LE"/>
    <tag k="removemelater" v="yes"/>
  </node>
  <node id="-307" lat="51.3738350404064" lon="-0.09122329006162083">
    <tag k="addr:postcode" v="CR0 5LF"/>
    <tag k="removemelater" v="yes"/>
  </node>
  <node id="-308" lat="51.37420306988842" lon="-0.08952688046382015">
    <tag k="addr:postcode" v="CR0 5LP"/>
    <tag k="removemelater" v="yes"/>
  </node>
  <node id="-309" lat="51.374948170076706" lon="-0.08999876255293732">
    <tag k="addr:postcode" v="CR0 5PE"/>
    <tag k="removemelater" v="yes"/>
  </node>
  <node id="-310" lat="51.3746591221563" lon="-0.07837227063783106">
    <tag k="addr:postcode" v="CR0 5PN"/>
    <tag k="removemelater" v="yes"/>
  </node>
  <node id="-311" lat="51.37213018771304" lon="-0.07715632720371947">
    <tag k="addr:postcode" v="CR0 5QZ"/>
    <tag k="removemelater" v="yes"/>
  </node>
  <node id="-312" lat="51.363824193919825" lon="-0.0707957097673236">
    <tag k="addr:postcode" v="CR0 5RD"/>
    <tag k="removemelater" v="yes"/>
  </node>
  <node id="-313" lat="51.36037766359167" lon="-0.06357174566286965">
    <tag k="addr:postcode" v="CR0 5RE"/>
    <tag k="removemelater" v="yes"/>
  </node>
  <node id="-314" lat="51.35886107345402" lon="-0.06376497934540833">
    <tag k="addr:postcode" v="CR0 5RN"/>
    <tag k="removemelater" v="yes"/>
  </node>
  <node id="-315" lat="51.36232437562405" lon="-0.0687327579948176">
    <tag k="addr:postcode" v="CR0 5RQ"/>
    <tag k="removemelater" v="yes"/>
  </node>
  <node id="-316" lat="51.37454358318572" lon="-0.09110760782287107">
    <tag k="addr:postcode" v="CR0 5TT"/>
    <tag k="removemelater" v="yes"/>
  </node>
  <node id="-317" lat="51.37806837812679" lon="-0.1132913020875735">
    <tag k="addr:postcode" v="CR0 5WW"/>
    <tag k="removemelater" v="yes"/>
  </node>
  <node id="-318" lat="51.378938293765835" lon="-0.0909391481308592">
    <tag k="addr:postcode" v="CR0 6FB"/>
    <tag k="removemelater" v="yes"/>
  </node>
  <node id="-319" lat="51.37980174158842" lon="-0.07500982463969456">
    <tag k="addr:postcode" v="CR0 6FF"/>
    <tag k="removemelater" v="yes"/>
  </node>
  <node id="-320" lat="51.380911828712144" lon="-0.07470457899390558">
    <tag k="addr:postcode" v="CR0 6LA"/>
    <tag k="removemelater" v="yes"/>
  </node>
  <node id="-321" lat="51.381413065430344" lon="-0.07729900804576896">
    <tag k="addr:postcode" v="CR0 6LF"/>
    <tag k="removemelater" v="yes"/>
  </node>
  <node id="-322" lat="51.38199545450087" lon="-0.08155711516322905">
    <tag k="addr:postcode" v="CR0 6NX"/>
    <tag k="removemelater" v="yes"/>
  </node>
  <node id="-323" lat="51.38066718138803" lon="-0.08062109663932897">
    <tag k="addr:postcode" v="CR0 6NZ"/>
    <tag k="removemelater" v="yes"/>
  </node>
  <node id="-324" lat="51.3816839434301" lon="-0.089459680439012">
    <tag k="addr:postcode" v="CR0 6PB"/>
    <tag k="removemelater" v="yes"/>
  </node>
  <node id="-325" lat="51.37898429916004" lon="-0.0778031442492683">
    <tag k="addr:postcode" v="CR0 6PY"/>
    <tag k="removemelater" v="yes"/>
  </node>
  <node id="-326" lat="51.379242208526776" lon="-0.07927244863795743">
    <tag k="addr:postcode" v="CR0 6QH"/>
    <tag k="removemelater" v="yes"/>
  </node>
  <node id="-327" lat="51.379633616118504" lon="-0.07901177136326805">
    <tag k="addr:postcode" v="CR0 6QL"/>
    <tag k="removemelater" v="yes"/>
  </node>
  <node id="-328" lat="51.38033735256976" lon="-0.07586394308664829">
    <tag k="addr:postcode" v="CR0 6QU"/>
    <tag k="removemelater" v="yes"/>
  </node>
  <node id="-329" lat="51.38007270766427" lon="-0.07617681712138583">
    <tag k="addr:postcode" v="CR0 6QW"/>
    <tag k="removemelater" v="yes"/>
  </node>
  <node id="-330" lat="51.37952479495073" lon="-0.07950491023690487">
    <tag k="addr:postcode" v="CR0 6QX"/>
    <tag k="removemelater" v="yes"/>
  </node>
  <node id="-331" lat="51.379611607879376" lon="-0.07493158114153552">
    <tag k="addr:postcode" v="CR0 6RA"/>
    <tag k="removemelater" v="yes"/>
  </node>
  <node id="-332" lat="51.38068525680872" lon="-0.07514520040876685">
    <tag k="addr:postcode" v="CR0 6RH"/>
    <tag k="removemelater" v="yes"/>
  </node>
  <node id="-333" lat="51.38049297827437" lon="-0.07548378626588158">
    <tag k="addr:postcode" v="CR0 6RL"/>
    <tag k="removemelater" v="yes"/>
  </node>
  <node id="-334" lat="51.38073036816964" lon="-0.08008674635906544">
    <tag k="addr:postcode" v="CR0 6RZ"/>
    <tag k="removemelater" v="yes"/>
  </node>
  <node id="-335" lat="51.37569233225393" lon="-0.09041322322057394">
    <tag k="addr:postcode" v="CR0 6SR"/>
    <tag k="removemelater" v="yes"/>
  </node>
  <node id="-336" lat="51.379992162451074" lon="-0.07346422007325026">
    <tag k="addr:postcode" v="CR0 7AA"/>
    <tag k="removemelater" v="yes"/>
  </node>
  <node id="-337" lat="51.373603604721545" lon="-0.05311398106754271">
    <tag k="addr:postcode" v="CR0 8BB"/>
    <tag k="removemelater" v="yes"/>
  </node>
  <node id="-338" lat="51.34681750553967" lon="-0.03233626391315115">
    <tag k="addr:postcode" v="CR0 9AW"/>
    <tag k="removemelater" v="yes"/>
  </node>
  <node id="-339" lat="51.3578093299981" lon="-0.022342349041112753">
    <tag k="addr:postcode" v="CR0 9AZ"/>
    <tag k="removemelater" v="yes"/>
  </node>
  <node id="-340" lat="51.38706257949582" lon="-0.11059305385613992">
    <tag k="addr:postcode" v="CR0 9BH"/>
    <tag k="removemelater" v="yes"/>
  </node>
  <node id="-341" lat="51.38706257949582" lon="-0.11059305385613992">
    <tag k="addr:postcode" v="CR0 9BJ"/>
    <tag k="removemelater" v="yes"/>
  </node>
  <node id="-342" lat="51.377488715650806" lon="-0.0974656948918051">
    <tag k="addr:postcode" v="CR0 9BL"/>
    <tag k="removemelater" v="yes"/>
  </node>
  <node id="-343" lat="51.375935649856906" lon="-0.0976306686380641">
    <tag k="addr:postcode" v="CR0 9BN"/>
    <tag k="removemelater" v="yes"/>
  </node>
  <node id="-344" lat="51.35438316750925" lon="-0.020752062251563154">
    <tag k="addr:postcode" v="CR0 9DY"/>
    <tag k="removemelater" v="yes"/>
  </node>
  <node id="-345" lat="51.354706929616725" lon="-0.020221060853904228">
    <tag k="addr:postcode" v="CR0 9DZ"/>
    <tag k="removemelater" v="yes"/>
  </node>
  <node id="-346" lat="51.35658725282974" lon="-0.015486375664247837">
    <tag k="addr:postcode" v="CR0 9EF"/>
    <tag k="removemelater" v="yes"/>
  </node>
  <node id="-347" lat="51.343162634105965" lon="-0.03639839595668985">
    <tag k="addr:postcode" v="CR0 9HG"/>
    <tag k="removemelater" v="yes"/>
  </node>
  <node id="-348" lat="51.36848461164837" lon="-0.09842796171439801">
    <tag k="addr:postcode" v="CR0 9WW"/>
    <tag k="removemelater" v="yes"/>
  </node>
  <node id="-349" lat="51.36848461164837" lon="-0.09842796171439801">
    <tag k="addr:postcode" v="CR0 9WX"/>
    <tag k="removemelater" v="yes"/>
  </node>
  <node id="-350" lat="51.36848461164837" lon="-0.09842796171439801">
    <tag k="addr:postcode" v="CR0 9WY"/>
    <tag k="removemelater" v="yes"/>
  </node>
  <node id="-351" lat="51.37657815794299" lon="-0.09566420004380459">
    <tag k="addr:postcode" v="CR0 9XF"/>
    <tag k="removemelater" v="yes"/>
  </node>
  <node id="-352" lat="51.369818240373455" lon="-0.09914852786306033">
    <tag k="addr:postcode" v="CR0 9XP"/>
    <tag k="removemelater" v="yes"/>
  </node>
  <node id="-353" lat="51.36868454695902" lon="-0.0980030458798991">
    <tag k="addr:postcode" v="CR0 9XS"/>
    <tag k="removemelater" v="yes"/>
  </node>
  <node id="-354" lat="51.37716120939954" lon="-0.09834143233179046">
    <tag k="addr:postcode" v="CR0 9YA"/>
    <tag k="removemelater" v="yes"/>
  </node>
  <node id="-355" lat="51.347323082737596" lon="-0.10165914474373064">
    <tag k="addr:postcode" v="CR2 0RY"/>
    <tag k="removemelater" v="yes"/>
  </node>
  <node id="-356" lat="51.37806837812679" lon="-0.1132913020875735">
    <tag k="addr:postcode" v="CR2 0WS"/>
    <tag k="removemelater" v="yes"/>
  </node>
  <node id="-357" lat="51.34202320151765" lon="-0.07721054074125824">
    <tag k="addr:postcode" v="CR2 0YE"/>
    <tag k="removemelater" v="yes"/>
  </node>
  <node id="-358" lat="51.37806837812679" lon="-0.1132913020875735">
    <tag k="addr:postcode" v="CR2 0ZA"/>
    <tag k="removemelater" v="yes"/>
  </node>
  <node id="-359" lat="51.37806837812679" lon="-0.1132913020875735">
    <tag k="addr:postcode" v="CR2 1AU"/>
    <tag k="removemelater" v="yes"/>
  </node>
  <node id="-360" lat="51.37806837812679" lon="-0.1132913020875735">
    <tag k="addr:postcode" v="CR2 1FH"/>
    <tag k="removemelater" v="yes"/>
  </node>
  <node id="-361" lat="51.37806837812679" lon="-0.1132913020875735">
    <tag k="addr:postcode" v="CR2 1FJ"/>
    <tag k="removemelater" v="yes"/>
  </node>
  <node id="-362" lat="51.37806837812679" lon="-0.1132913020875735">
    <tag k="addr:postcode" v="CR2 1FS"/>
    <tag k="removemelater" v="yes"/>
  </node>
  <node id="-363" lat="51.37806837812679" lon="-0.1132913020875735">
    <tag k="addr:postcode" v="CR2 1FU"/>
    <tag k="removemelater" v="yes"/>
  </node>
  <node id="-364" lat="51.37806837812679" lon="-0.1132913020875735">
    <tag k="addr:postcode" v="CR2 1GT"/>
    <tag k="removemelater" v="yes"/>
  </node>
  <node id="-365" lat="51.37806837812679" lon="-0.1132913020875735">
    <tag k="addr:postcode" v="CR2 1JS"/>
    <tag k="removemelater" v="yes"/>
  </node>
  <node id="-366" lat="51.37806837812679" lon="-0.1132913020875735">
    <tag k="addr:postcode" v="CR2 1JX"/>
    <tag k="removemelater" v="yes"/>
  </node>
  <node id="-367" lat="51.37806837812679" lon="-0.1132913020875735">
    <tag k="addr:postcode" v="CR2 1LJ"/>
    <tag k="removemelater" v="yes"/>
  </node>
  <node id="-368" lat="51.37806837812679" lon="-0.1132913020875735">
    <tag k="addr:postcode" v="CR2 1LQ"/>
    <tag k="removemelater" v="yes"/>
  </node>
  <node id="-369" lat="51.37806837812679" lon="-0.1132913020875735">
    <tag k="addr:postcode" v="CR2 1LS"/>
    <tag k="removemelater" v="yes"/>
  </node>
  <node id="-370" lat="51.37806837812679" lon="-0.1132913020875735">
    <tag k="addr:postcode" v="CR2 1LU"/>
    <tag k="removemelater" v="yes"/>
  </node>
  <node id="-371" lat="51.37806837812679" lon="-0.1132913020875735">
    <tag k="addr:postcode" v="CR2 1ND"/>
    <tag k="removemelater" v="yes"/>
  </node>
  <node id="-372" lat="51.37806837812679" lon="-0.1132913020875735">
    <tag k="addr:postcode" v="CR2 1NG"/>
    <tag k="removemelater" v="yes"/>
  </node>
  <node id="-373" lat="51.37806837812679" lon="-0.1132913020875735">
    <tag k="addr:postcode" v="CR2 1NJ"/>
    <tag k="removemelater" v="yes"/>
  </node>
  <node id="-374" lat="51.37806837812679" lon="-0.1132913020875735">
    <tag k="addr:postcode" v="CR2 1NR"/>
    <tag k="removemelater" v="yes"/>
  </node>
  <node id="-375" lat="51.37806837812679" lon="-0.1132913020875735">
    <tag k="addr:postcode" v="CR2 1NS"/>
    <tag k="removemelater" v="yes"/>
  </node>
  <node id="-376" lat="51.37806837812679" lon="-0.1132913020875735">
    <tag k="addr:postcode" v="CR2 1NT"/>
    <tag k="removemelater" v="yes"/>
  </node>
  <node id="-377" lat="51.37806837812679" lon="-0.1132913020875735">
    <tag k="addr:postcode" v="CR2 1NU"/>
    <tag k="removemelater" v="yes"/>
  </node>
  <node id="-378" lat="51.37806837812679" lon="-0.1132913020875735">
    <tag k="addr:postcode" v="CR2 1NW"/>
    <tag k="removemelater" v="yes"/>
  </node>
  <node id="-379" lat="51.34631199944631" lon="-0.10363947910220857">
    <tag k="addr:postcode" v="CR2 6AQ"/>
    <tag k="removemelater" v="yes"/>
  </node>
  <node id="-380" lat="51.35296356253347" lon="-0.10011908947993513">
    <tag k="addr:postcode" v="CR2 6BA"/>
    <tag k="removemelater" v="yes"/>
  </node>
  <node id="-381" lat="51.35139238877546" lon="-0.10249624136971323">
    <tag k="addr:postcode" v="CR2 6BD"/>
    <tag k="removemelater" v="yes"/>
  </node>
  <node id="-382" lat="51.350459238941255" lon="-0.10318103473155889">
    <tag k="addr:postcode" v="CR2 6BE"/>
    <tag k="removemelater" v="yes"/>
  </node>
  <node id="-383" lat="51.35224760460575" lon="-0.10310717524450225">
    <tag k="addr:postcode" v="CR2 6BN"/>
    <tag k="removemelater" v="yes"/>
  </node>
  <node id="-384" lat="51.35135574154855" lon="-0.1041205727155175">
    <tag k="addr:postcode" v="CR2 6BP"/>
    <tag k="removemelater" v="yes"/>
  </node>
  <node id="-385" lat="51.351540439289266" lon="-0.10330871735270877">
    <tag k="addr:postcode" v="CR2 6BQ"/>
    <tag k="removemelater" v="yes"/>
  </node>
  <node id="-386" lat="51.35436797266292" lon="-0.10632288986037515">
    <tag k="addr:postcode" v="CR2 6DX"/>
    <tag k="removemelater" v="yes"/>
  </node>
  <node id="-387" lat="51.362736531910436" lon="-0.09721521156534585">
    <tag k="addr:postcode" v="CR2 6ET"/>
    <tag k="removemelater" v="yes"/>
  </node>
  <node id="-388" lat="51.34830441525157" lon="-0.10117342050280789">
    <tag k="addr:postcode" v="CR2 6EU"/>
    <tag k="removemelater" v="yes"/>
  </node>
  <node id="-389" lat="51.35064492950525" lon="-0.09854912500544238">
    <tag k="addr:postcode" v="CR2 6EX"/>
    <tag k="removemelater" v="yes"/>
  </node>
  <node id="-390" lat="51.35181852127739" lon="-0.0999366744777194">
    <tag k="addr:postcode" v="CR2 6HE"/>
    <tag k="removemelater" v="yes"/>
  </node>
  <node id="-391" lat="51.36238335830827" lon="-0.09761769537944814">
    <tag k="addr:postcode" v="CR2 6JT"/>
    <tag k="removemelater" v="yes"/>
  </node>
  <node id="-392" lat="51.36183565318865" lon="-0.09656305220845665">
    <tag k="addr:postcode" v="CR2 6PQ"/>
    <tag k="removemelater" v="yes"/>
  </node>
  <node id="-393" lat="51.36264816904066" lon="-0.09786528805090876">
    <tag k="addr:postcode" v="CR2 6TB"/>
    <tag k="removemelater" v="yes"/>
  </node>
  <node id="-394" lat="51.37806837812679" lon="-0.1132913020875735">
    <tag k="addr:postcode" v="CR2 6WG"/>
    <tag k="removemelater" v="yes"/>
  </node>
  <node id="-395" lat="51.37806837812679" lon="-0.1132913020875735">
    <tag k="addr:postcode" v="CR2 6WY"/>
    <tag k="removemelater" v="yes"/>
  </node>
  <node id="-396" lat="51.37806837812679" lon="-0.1132913020875735">
    <tag k="addr:postcode" v="CR2 6XL"/>
    <tag k="removemelater" v="yes"/>
  </node>
  <node id="-397" lat="51.37806837812679" lon="-0.1132913020875735">
    <tag k="addr:postcode" v="CR2 6YW"/>
    <tag k="removemelater" v="yes"/>
  </node>
  <node id="-398" lat="51.353577766879695" lon="-0.0853727025751211">
    <tag k="addr:postcode" v="CR2 7QB"/>
    <tag k="removemelater" v="yes"/>
  </node>
  <node id="-399" lat="51.37806837812679" lon="-0.1132913020875735">
    <tag k="addr:postcode" v="CR2 7WR"/>
    <tag k="removemelater" v="yes"/>
  </node>
  <node id="-400" lat="51.34275911788095" lon="-0.06619542447001948">
    <tag k="addr:postcode" v="CR2 8DD"/>
    <tag k="removemelater" v="yes"/>
  </node>
  <node id="-401" lat="51.35066002389455" lon="-0.03999845853017649">
    <tag k="addr:postcode" v="CR2 8JT"/>
    <tag k="removemelater" v="yes"/>
  </node>
  <node id="-402" lat="51.34240858227742" lon="-0.06457331173973702">
    <tag k="addr:postcode" v="CR2 8LG"/>
    <tag k="removemelater" v="yes"/>
  </node>
  <node id="-403" lat="51.37806837812679" lon="-0.1132913020875735">
    <tag k="addr:postcode" v="CR2 8TS"/>
    <tag k="removemelater" v="yes"/>
  </node>
  <node id="-404" lat="51.37806837812679" lon="-0.1132913020875735">
    <tag k="addr:postcode" v="CR2 8WB"/>
    <tag k="removemelater" v="yes"/>
  </node>
  <node id="-405" lat="51.37806837812679" lon="-0.1132913020875735">
    <tag k="addr:postcode" v="CR2 8WD"/>
    <tag k="removemelater" v="yes"/>
  </node>
  <node id="-406" lat="51.37806837812679" lon="-0.1132913020875735">
    <tag k="addr:postcode" v="CR2 8WN"/>
    <tag k="removemelater" v="yes"/>
  </node>
  <node id="-407" lat="51.37806837812679" lon="-0.1132913020875735">
    <tag k="addr:postcode" v="CR2 9GA"/>
    <tag k="removemelater" v="yes"/>
  </node>
  <node id="-408" lat="51.37806837812679" lon="-0.1132913020875735">
    <tag k="addr:postcode" v="CR2 9YZ"/>
    <tag k="removemelater" v="yes"/>
  </node>
  <node id="-409" lat="51.30976790526134" lon="-0.08117058982043213">
    <tag k="addr:postcode" v="CR3 0AD"/>
    <tag k="removemelater" v="yes"/>
  </node>
  <node id="-410" lat="51.30897709859901" lon="-0.07846310803848605">
    <tag k="addr:postcode" v="CR3 0AZ"/>
    <tag k="removemelater" v="yes"/>
  </node>
  <node id="-411" lat="51.30981893058711" lon="-0.07934623012480109">
    <tag k="addr:postcode" v="CR3 0DY"/>
    <tag k="removemelater" v="yes"/>
  </node>
  <node id="-412" lat="51.308388446685626" lon="-0.07876030694084736">
    <tag k="addr:postcode" v="CR3 0EP"/>
    <tag k="removemelater" v="yes"/>
  </node>
  <node id="-413" lat="51.30891898050337" lon="-0.08040251545944949">
    <tag k="addr:postcode" v="CR3 0ES"/>
    <tag k="removemelater" v="yes"/>
  </node>
  <node id="-414" lat="51.299138724028815" lon="-0.0718879904271399">
    <tag k="addr:postcode" v="CR3 0GG"/>
    <tag k="removemelater" v="yes"/>
  </node>
  <node id="-415" lat="51.299138724028815" lon="-0.0718879904271399">
    <tag k="addr:postcode" v="CR3 0GS"/>
    <tag k="removemelater" v="yes"/>
  </node>
  <node id="-416" lat="51.27955097718902" lon="-0.07399879994091611">
    <tag k="addr:postcode" v="CR3 0WN"/>
    <tag k="removemelater" v="yes"/>
  </node>
  <node id="-417" lat="51.27955097718902" lon="-0.07399879994091611">
    <tag k="addr:postcode" v="CR3 0WS"/>
    <tag k="removemelater" v="yes"/>
  </node>
  <node id="-418" lat="51.27955097718902" lon="-0.07399879994091611">
    <tag k="addr:postcode" v="CR3 0XE"/>
    <tag k="removemelater" v="yes"/>
  </node>
  <node id="-419" lat="51.27955097718902" lon="-0.07399879994091611">
    <tag k="addr:postcode" v="CR3 0ZE"/>
    <tag k="removemelater" v="yes"/>
  </node>
  <node id="-420" lat="51.27955097718902" lon="-0.07399879994091611">
    <tag k="addr:postcode" v="CR3 0ZS"/>
    <tag k="removemelater" v="yes"/>
  </node>
  <node id="-421" lat="51.27955097718902" lon="-0.07399879994091611">
    <tag k="addr:postcode" v="CR3 4AA"/>
    <tag k="removemelater" v="yes"/>
  </node>
  <node id="-422" lat="51.27955097718902" lon="-0.07399879994091611">
    <tag k="addr:postcode" v="CR3 4AB"/>
    <tag k="removemelater" v="yes"/>
  </node>
  <node id="-423" lat="51.27955097718902" lon="-0.07399879994091611">
    <tag k="addr:postcode" v="CR3 4BH"/>
    <tag k="removemelater" v="yes"/>
  </node>
  <node id="-424" lat="51.27955097718902" lon="-0.07399879994091611">
    <tag k="addr:postcode" v="CR3 4BJ"/>
    <tag k="removemelater" v="yes"/>
  </node>
  <node id="-425" lat="51.27955097718902" lon="-0.07399879994091611">
    <tag k="addr:postcode" v="CR3 4BN"/>
    <tag k="removemelater" v="yes"/>
  </node>
  <node id="-426" lat="51.27955097718902" lon="-0.07399879994091611">
    <tag k="addr:postcode" v="CR3 4BP"/>
    <tag k="removemelater" v="yes"/>
  </node>
  <node id="-427" lat="51.27955097718902" lon="-0.07399879994091611">
    <tag k="addr:postcode" v="CR3 4BQ"/>
    <tag k="removemelater" v="yes"/>
  </node>
  <node id="-428" lat="51.27955097718902" lon="-0.07399879994091611">
    <tag k="addr:postcode" v="CR3 4BT"/>
    <tag k="removemelater" v="yes"/>
  </node>
  <node id="-429" lat="51.27955097718902" lon="-0.07399879994091611">
    <tag k="addr:postcode" v="CR3 4BU"/>
    <tag k="removemelater" v="yes"/>
  </node>
  <node id="-430" lat="51.27955097718902" lon="-0.07399879994091611">
    <tag k="addr:postcode" v="CR3 4BY"/>
    <tag k="removemelater" v="yes"/>
  </node>
  <node id="-431" lat="51.27955097718902" lon="-0.07399879994091611">
    <tag k="addr:postcode" v="CR3 4BZ"/>
    <tag k="removemelater" v="yes"/>
  </node>
  <node id="-432" lat="51.27955097718902" lon="-0.07399879994091611">
    <tag k="addr:postcode" v="CR3 4DA"/>
    <tag k="removemelater" v="yes"/>
  </node>
  <node id="-433" lat="51.27955097718902" lon="-0.07399879994091611">
    <tag k="addr:postcode" v="CR3 4DD"/>
    <tag k="removemelater" v="yes"/>
  </node>
  <node id="-434" lat="51.27955097718902" lon="-0.07399879994091611">
    <tag k="addr:postcode" v="CR3 4DE"/>
    <tag k="removemelater" v="yes"/>
  </node>
  <node id="-435" lat="51.27955097718902" lon="-0.07399879994091611">
    <tag k="addr:postcode" v="CR3 4DF"/>
    <tag k="removemelater" v="yes"/>
  </node>
  <node id="-436" lat="51.275542882947924" lon="-0.12906490460341224">
    <tag k="addr:postcode" v="CR3 5BQ"/>
    <tag k="removemelater" v="yes"/>
  </node>
  <node id="-437" lat="51.29210158655327" lon="-0.10519977706415726">
    <tag k="addr:postcode" v="CR3 5DU"/>
    <tag k="removemelater" v="yes"/>
  </node>
  <node id="-438" lat="51.28712785225265" lon="-0.08635943073367912">
    <tag k="addr:postcode" v="CR3 5EG"/>
    <tag k="removemelater" v="yes"/>
  </node>
  <node id="-439" lat="51.29008625884973" lon="-0.10014827381341643">
    <tag k="addr:postcode" v="CR3 5NA"/>
    <tag k="removemelater" v="yes"/>
  </node>
  <node id="-440" lat="51.28978373367706" lon="-0.1020108767523839">
    <tag k="addr:postcode" v="CR3 5NS"/>
    <tag k="removemelater" v="yes"/>
  </node>
  <node id="-441" lat="51.28775894806354" lon="-0.08700724071891877">
    <tag k="addr:postcode" v="CR3 5PA"/>
    <tag k="removemelater" v="yes"/>
  </node>
  <node id="-442" lat="51.29274579610239" lon="-0.10944744045575389">
    <tag k="addr:postcode" v="CR3 5QB"/>
    <tag k="removemelater" v="yes"/>
  </node>
  <node id="-443" lat="51.292884493893474" lon="-0.10912619857419055">
    <tag k="addr:postcode" v="CR3 5QD"/>
    <tag k="removemelater" v="yes"/>
  </node>
  <node id="-444" lat="51.28492942728077" lon="-0.08775579863907207">
    <tag k="addr:postcode" v="CR3 5UH"/>
    <tag k="removemelater" v="yes"/>
  </node>
  <node id="-445" lat="51.28469750037976" lon="-0.08732087868977124">
    <tag k="addr:postcode" v="CR3 5UX"/>
    <tag k="removemelater" v="yes"/>
  </node>
  <node id="-446" lat="51.27955097718902" lon="-0.07399879994091611">
    <tag k="addr:postcode" v="CR3 5WH"/>
    <tag k="removemelater" v="yes"/>
  </node>
  <node id="-447" lat="51.27955097718902" lon="-0.07399879994091611">
    <tag k="addr:postcode" v="CR3 5WU"/>
    <tag k="removemelater" v="yes"/>
  </node>
  <node id="-448" lat="51.28722254313561" lon="-0.08995513896982962">
    <tag k="addr:postcode" v="CR3 5XB"/>
    <tag k="removemelater" v="yes"/>
  </node>
  <node id="-449" lat="51.27955097718902" lon="-0.07399879994091611">
    <tag k="addr:postcode" v="CR3 5XD"/>
    <tag k="removemelater" v="yes"/>
  </node>
  <node id="-450" lat="51.29056132205349" lon="-0.10282500484420405">
    <tag k="addr:postcode" v="CR3 5XL"/>
    <tag k="removemelater" v="yes"/>
  </node>
  <node id="-451" lat="51.29011423015685" lon="-0.10242751178704104">
    <tag k="addr:postcode" v="CR3 5XP"/>
    <tag k="removemelater" v="yes"/>
  </node>
  <node id="-452" lat="51.27955097718902" lon="-0.07399879994091611">
    <tag k="addr:postcode" v="CR3 5XQ"/>
    <tag k="removemelater" v="yes"/>
  </node>
  <node id="-453" lat="51.27955097718902" lon="-0.07399879994091611">
    <tag k="addr:postcode" v="CR3 5YE"/>
    <tag k="removemelater" v="yes"/>
  </node>
  <node id="-454" lat="51.28975949347438" lon="-0.10551131839750683">
    <tag k="addr:postcode" v="CR3 5YJ"/>
    <tag k="removemelater" v="yes"/>
  </node>
  <node id="-455" lat="51.27955097718902" lon="-0.07399879994091611">
    <tag k="addr:postcode" v="CR3 5YP"/>
    <tag k="removemelater" v="yes"/>
  </node>
  <node id="-456" lat="51.27955097718902" lon="-0.07399879994091611">
    <tag k="addr:postcode" v="CR3 5YU"/>
    <tag k="removemelater" v="yes"/>
  </node>
  <node id="-457" lat="51.29022864587723" lon="-0.1033837172890663">
    <tag k="addr:postcode" v="CR3 5ZD"/>
    <tag k="removemelater" v="yes"/>
  </node>
  <node id="-458" lat="51.29286448027018" lon="-0.10455162339311495">
    <tag k="addr:postcode" v="CR3 5ZG"/>
    <tag k="removemelater" v="yes"/>
  </node>
  <node id="-459" lat="51.29048661156221" lon="-0.10431967328726274">
    <tag k="addr:postcode" v="CR3 5ZU"/>
    <tag k="removemelater" v="yes"/>
  </node>
  <node id="-460" lat="51.279292040086105" lon="-0.07356512867593522">
    <tag k="addr:postcode" v="CR3 6BR"/>
    <tag k="removemelater" v="yes"/>
  </node>
  <node id="-461" lat="51.2822480535021" lon="-0.07887619009748678">
    <tag k="addr:postcode" v="CR3 6FA"/>
    <tag k="removemelater" v="yes"/>
  </node>
  <node id="-462" lat="51.282201889815276" lon="-0.07661244885055356">
    <tag k="addr:postcode" v="CR3 6FX"/>
    <tag k="removemelater" v="yes"/>
  </node>
  <node id="-463" lat="51.28164669704942" lon="-0.07839939915604768">
    <tag k="addr:postcode" v="CR3 6HY"/>
    <tag k="removemelater" v="yes"/>
  </node>
  <node id="-464" lat="51.2843803119845" lon="-0.07838568600674475">
    <tag k="addr:postcode" v="CR3 6LQ"/>
    <tag k="removemelater" v="yes"/>
  </node>
  <node id="-465" lat="51.28256315619003" lon="-0.07780189861314785">
    <tag k="addr:postcode" v="CR3 6PA"/>
    <tag k="removemelater" v="yes"/>
  </node>
  <node id="-466" lat="51.28313731955761" lon="-0.07826548602241884">
    <tag k="addr:postcode" v="CR3 6PB"/>
    <tag k="removemelater" v="yes"/>
  </node>
  <node id="-467" lat="51.28345778383336" lon="-0.07806568901893994">
    <tag k="addr:postcode" v="CR3 6QB"/>
    <tag k="removemelater" v="yes"/>
  </node>
  <node id="-468" lat="51.27952042085892" lon="-0.0748747471274095">
    <tag k="addr:postcode" v="CR3 6RZ"/>
    <tag k="removemelater" v="yes"/>
  </node>
  <node id="-469" lat="51.28280034051356" lon="-0.07800709412730301">
    <tag k="addr:postcode" v="CR3 6TR"/>
    <tag k="removemelater" v="yes"/>
  </node>
  <node id="-470" lat="51.27955097718902" lon="-0.07399879994091611">
    <tag k="addr:postcode" v="CR3 6UZ"/>
    <tag k="removemelater" v="yes"/>
  </node>
  <node id="-471" lat="51.27955097718902" lon="-0.07399879994091611">
    <tag k="addr:postcode" v="CR3 6WQ"/>
    <tag k="removemelater" v="yes"/>
  </node>
  <node id="-472" lat="51.27955097718902" lon="-0.07399879994091611">
    <tag k="addr:postcode" v="CR3 6XB"/>
    <tag k="removemelater" v="yes"/>
  </node>
  <node id="-473" lat="51.27955097718902" lon="-0.07399879994091611">
    <tag k="addr:postcode" v="CR3 6XX"/>
    <tag k="removemelater" v="yes"/>
  </node>
  <node id="-474" lat="51.28124418946952" lon="-0.07524719660716733">
    <tag k="addr:postcode" v="CR3 6XY"/>
    <tag k="removemelater" v="yes"/>
  </node>
  <node id="-475" lat="51.28322888047206" lon="-0.07781712468269553">
    <tag k="addr:postcode" v="CR3 6YR"/>
    <tag k="removemelater" v="yes"/>
  </node>
  <node id="-476" lat="51.2817968841456" lon="-0.0782353961759655">
    <tag k="addr:postcode" v="CR3 6YT"/>
    <tag k="removemelater" v="yes"/>
  </node>
  <node id="-477" lat="51.27955097718902" lon="-0.07399879994091611">
    <tag k="addr:postcode" v="CR3 6ZS"/>
    <tag k="removemelater" v="yes"/>
  </node>
  <node id="-478" lat="51.2733337358593" lon="-0.01301128001564885">
    <tag k="addr:postcode" v="CR3 7AE"/>
    <tag k="removemelater" v="yes"/>
  </node>
  <node id="-479" lat="51.27955097718902" lon="-0.07399879994091611">
    <tag k="addr:postcode" v="CR3 7AF"/>
    <tag k="removemelater" v="yes"/>
  </node>
  <node id="-480" lat="51.27955097718902" lon="-0.07399879994091611">
    <tag k="addr:postcode" v="CR3 7GH"/>
    <tag k="removemelater" v="yes"/>
  </node>
  <node id="-481" lat="51.2848792930083" lon="-0.04982721039860879">
    <tag k="addr:postcode" v="CR3 7JB"/>
    <tag k="removemelater" v="yes"/>
  </node>
  <node id="-482" lat="51.28610038989245" lon="-0.047552636980728785">
    <tag k="addr:postcode" v="CR3 7JX"/>
    <tag k="removemelater" v="yes"/>
  </node>
  <node id="-483" lat="51.2898992215903" lon="-0.051020059324058065">
    <tag k="addr:postcode" v="CR3 7LQ"/>
    <tag k="removemelater" v="yes"/>
  </node>
  <node id="-484" lat="51.40961262284029" lon="-0.15209727988867655">
    <tag k="addr:postcode" v="CR4 1AX"/>
    <tag k="removemelater" v="yes"/>
  </node>
  <node id="-485" lat="51.40458122628722" lon="-0.1518112583310917">
    <tag k="addr:postcode" v="CR4 1DB"/>
    <tag k="removemelater" v="yes"/>
  </node>
  <node id="-486" lat="51.40307844570279" lon="-0.15231753983545646">
    <tag k="addr:postcode" v="CR4 1EA"/>
    <tag k="removemelater" v="yes"/>
  </node>
  <node id="-487" lat="51.403128052539635" lon="-0.15375327529215202">
    <tag k="addr:postcode" v="CR4 1EQ"/>
    <tag k="removemelater" v="yes"/>
  </node>
  <node id="-488" lat="51.4027947148105" lon="-0.1525733881629792">
    <tag k="addr:postcode" v="CR4 1ER"/>
    <tag k="removemelater" v="yes"/>
  </node>
  <node id="-489" lat="51.397591583296276" lon="-0.1436976370829672">
    <tag k="addr:postcode" v="CR4 1FB"/>
    <tag k="removemelater" v="yes"/>
  </node>
  <node id="-490" lat="51.39730809875918" lon="-0.14396787310331635">
    <tag k="addr:postcode" v="CR4 1FD"/>
    <tag k="removemelater" v="yes"/>
  </node>
  <node id="-491" lat="51.39718888042682" lon="-0.14438958820715977">
    <tag k="addr:postcode" v="CR4 1FE"/>
    <tag k="removemelater" v="yes"/>
  </node>
  <node id="-492" lat="51.39741560046868" lon="-0.14450979343665293">
    <tag k="addr:postcode" v="CR4 1FF"/>
    <tag k="removemelater" v="yes"/>
  </node>
  <node id="-493" lat="51.39738511204056" lon="-0.1448560406239585">
    <tag k="addr:postcode" v="CR4 1FG"/>
    <tag k="removemelater" v="yes"/>
  </node>
  <node id="-494" lat="51.39762104596112" lon="-0.14499025152527467">
    <tag k="addr:postcode" v="CR4 1FH"/>
    <tag k="removemelater" v="yes"/>
  </node>
  <node id="-495" lat="51.39759032873887" lon="-0.14532213355814458">
    <tag k="addr:postcode" v="CR4 1FJ"/>
    <tag k="removemelater" v="yes"/>
  </node>
  <node id="-496" lat="51.39784332645786" lon="-0.14539815445952928">
    <tag k="addr:postcode" v="CR4 1FL"/>
    <tag k="removemelater" v="yes"/>
  </node>
  <node id="-497" lat="51.398111118570476" lon="-0.14413662947762831">
    <tag k="addr:postcode" v="CR4 1FN"/>
    <tag k="removemelater" v="yes"/>
  </node>
  <node id="-498" lat="51.39786153307162" lon="-0.1442761126793333">
    <tag k="addr:postcode" v="CR4 1FP"/>
    <tag k="removemelater" v="yes"/>
  </node>
  <node id="-499" lat="51.40338226325346" lon="-0.15276537261031206">
    <tag k="addr:postcode" v="CR4 1GA"/>
    <tag k="removemelater" v="yes"/>
  </node>
  <node id="-500" lat="51.40354561353239" lon="-0.15285943291577567">
    <tag k="addr:postcode" v="CR4 1GB"/>
    <tag k="removemelater" v="yes"/>
  </node>
  <node id="-501" lat="51.403986497361004" lon="-0.1534455284789246">
    <tag k="addr:postcode" v="CR4 1GD"/>
    <tag k="removemelater" v="yes"/>
  </node>
  <node id="-502" lat="51.403895856306384" lon="-0.1545418760933337">
    <tag k="addr:postcode" v="CR4 1GF"/>
    <tag k="removemelater" v="yes"/>
  </node>
  <node id="-503" lat="51.40438426963942" lon="-0.1524374418538099">
    <tag k="addr:postcode" v="CR4 1GG"/>
    <tag k="removemelater" v="yes"/>
  </node>
  <node id="-504" lat="51.404641113707946" lon="-0.15275778025706427">
    <tag k="addr:postcode" v="CR4 1GH"/>
    <tag k="removemelater" v="yes"/>
  </node>
  <node id="-505" lat="51.40477946814542" lon="-0.1524071363182749">
    <tag k="addr:postcode" v="CR4 1GJ"/>
    <tag k="removemelater" v="yes"/>
  </node>
  <node id="-506" lat="51.395336533719124" lon="-0.13138335781547822">
    <tag k="addr:postcode" v="CR4 1GP"/>
    <tag k="removemelater" v="yes"/>
  </node>
  <node id="-507" lat="51.40489131388532" lon="-0.15208631464794298">
    <tag k="addr:postcode" v="CR4 1GR"/>
    <tag k="removemelater" v="yes"/>
  </node>
  <node id="-508" lat="51.402641077721704" lon="-0.15480804431720604">
    <tag k="addr:postcode" v="CR4 1HA"/>
    <tag k="removemelater" v="yes"/>
  </node>
  <node id="-509" lat="51.40311715969394" lon="-0.15477450525967842">
    <tag k="addr:postcode" v="CR4 1HL"/>
    <tag k="removemelater" v="yes"/>
  </node>
  <node id="-510" lat="51.40316166641491" lon="-0.1530330537115272">
    <tag k="addr:postcode" v="CR4 1HN"/>
    <tag k="removemelater" v="yes"/>
  </node>
  <node id="-511" lat="51.40055037567131" lon="-0.13464999859675558">
    <tag k="addr:postcode" v="CR4 1PA"/>
    <tag k="removemelater" v="yes"/>
  </node>
  <node id="-512" lat="51.39560041105682" lon="-0.1310132293850924">
    <tag k="addr:postcode" v="CR4 1PB"/>
    <tag k="removemelater" v="yes"/>
  </node>
  <node id="-513" lat="51.40073880225336" lon="-0.13518864433764347">
    <tag k="addr:postcode" v="CR4 1PD"/>
    <tag k="removemelater" v="yes"/>
  </node>
  <node id="-514" lat="51.39760327694996" lon="-0.12860273679617387">
    <tag k="addr:postcode" v="CR4 1PH"/>
    <tag k="removemelater" v="yes"/>
  </node>
  <node id="-515" lat="51.400401052772814" lon="-0.13261460698267452">
    <tag k="addr:postcode" v="CR4 1PJ"/>
    <tag k="removemelater" v="yes"/>
  </node>
  <node id="-516" lat="51.398228260167635" lon="-0.12775780519831154">
    <tag k="addr:postcode" v="CR4 1PL"/>
    <tag k="removemelater" v="yes"/>
  </node>
  <node id="-517" lat="51.39694137874656" lon="-0.12995229162784758">
    <tag k="addr:postcode" v="CR4 1PQ"/>
    <tag k="removemelater" v="yes"/>
  </node>
  <node id="-518" lat="51.39798925140532" lon="-0.12855823231430474">
    <tag k="addr:postcode" v="CR4 1PR"/>
    <tag k="removemelater" v="yes"/>
  </node>
  <node id="-519" lat="51.395812378024516" lon="-0.13133521722617972">
    <tag k="addr:postcode" v="CR4 1PS"/>
    <tag k="removemelater" v="yes"/>
  </node>
  <node id="-520" lat="51.39662317116949" lon="-0.12973526323238063">
    <tag k="addr:postcode" v="CR4 1PU"/>
    <tag k="removemelater" v="yes"/>
  </node>
  <node id="-521" lat="51.39702991488839" lon="-0.12930178444791807">
    <tag k="addr:postcode" v="CR4 1PW"/>
    <tag k="removemelater" v="yes"/>
  </node>
  <node id="-522" lat="51.396755451235705" lon="-0.1295717386402809">
    <tag k="addr:postcode" v="CR4 1PY"/>
    <tag k="removemelater" v="yes"/>
  </node>
  <node id="-523" lat="51.39681803755989" lon="-0.1306760922144193">
    <tag k="addr:postcode" v="CR4 1QD"/>
    <tag k="removemelater" v="yes"/>
  </node>
  <node id="-524" lat="51.395749568907675" lon="-0.13021652105220322">
    <tag k="addr:postcode" v="CR4 1QN"/>
    <tag k="removemelater" v="yes"/>
  </node>
  <node id="-525" lat="51.39519522587007" lon="-0.12929038056841344">
    <tag k="addr:postcode" v="CR4 1QP"/>
    <tag k="removemelater" v="yes"/>
  </node>
  <node id="-526" lat="51.396014174028224" lon="-0.12932884708061368">
    <tag k="addr:postcode" v="CR4 1QR"/>
    <tag k="removemelater" v="yes"/>
  </node>
  <node id="-527" lat="51.39568028528747" lon="-0.1292562175343703">
    <tag k="addr:postcode" v="CR4 1QS"/>
    <tag k="removemelater" v="yes"/>
  </node>
  <node id="-528" lat="51.396868881119566" lon="-0.12879083870925903">
    <tag k="addr:postcode" v="CR4 1QT"/>
    <tag k="removemelater" v="yes"/>
  </node>
  <node id="-529" lat="51.40472814681279" lon="-0.15542855290056004">
    <tag k="addr:postcode" v="CR4 1SJ"/>
    <tag k="removemelater" v="yes"/>
  </node>
  <node id="-530" lat="51.4070813258567" lon="-0.1512503409878738">
    <tag k="addr:postcode" v="CR4 1SS"/>
    <tag k="removemelater" v="yes"/>
  </node>
  <node id="-531" lat="51.405149377333096" lon="-0.1748649839281969">
    <tag k="addr:postcode" v="CR4 1UN"/>
    <tag k="removemelater" v="yes"/>
  </node>
  <node id="-532" lat="51.405149377333096" lon="-0.1748649839281969">
    <tag k="addr:postcode" v="CR4 1WJ"/>
    <tag k="removemelater" v="yes"/>
  </node>
  <node id="-533" lat="51.405149377333096" lon="-0.1748649839281969">
    <tag k="addr:postcode" v="CR4 1WQ"/>
    <tag k="removemelater" v="yes"/>
  </node>
  <node id="-534" lat="51.400478325927416" lon="-0.13182074922624487">
    <tag k="addr:postcode" v="CR4 1XA"/>
    <tag k="removemelater" v="yes"/>
  </node>
  <node id="-535" lat="51.400957147636774" lon="-0.13195938220982292">
    <tag k="addr:postcode" v="CR4 1XB"/>
    <tag k="removemelater" v="yes"/>
  </node>
  <node id="-536" lat="51.400985815710804" lon="-0.13093746742014087">
    <tag k="addr:postcode" v="CR4 1XD"/>
    <tag k="removemelater" v="yes"/>
  </node>
  <node id="-537" lat="51.401367894877865" lon="-0.13064873118443107">
    <tag k="addr:postcode" v="CR4 1XE"/>
    <tag k="removemelater" v="yes"/>
  </node>
  <node id="-538" lat="51.40197285459119" lon="-0.12967518051411916">
    <tag k="addr:postcode" v="CR4 1XF"/>
    <tag k="removemelater" v="yes"/>
  </node>
  <node id="-539" lat="51.40152791365785" lon="-0.1294057942976612">
    <tag k="addr:postcode" v="CR4 1XG"/>
    <tag k="removemelater" v="yes"/>
  </node>
  <node id="-540" lat="51.401294067733836" lon="-0.1288402628039641">
    <tag k="addr:postcode" v="CR4 1XH"/>
    <tag k="removemelater" v="yes"/>
  </node>
  <node id="-541" lat="51.40076916139257" lon="-0.12863165914121877">
    <tag k="addr:postcode" v="CR4 1XJ"/>
    <tag k="removemelater" v="yes"/>
  </node>
  <node id="-542" lat="51.40054452816574" lon="-0.12808014124347425">
    <tag k="addr:postcode" v="CR4 1XL"/>
    <tag k="removemelater" v="yes"/>
  </node>
  <node id="-543" lat="51.400046351438455" lon="-0.12785608159259812">
    <tag k="addr:postcode" v="CR4 1XN"/>
    <tag k="removemelater" v="yes"/>
  </node>
  <node id="-544" lat="51.39982378102733" lon="-0.12743387900951791">
    <tag k="addr:postcode" v="CR4 1XP"/>
    <tag k="removemelater" v="yes"/>
  </node>
  <node id="-545" lat="51.39923550537401" lon="-0.1271991336698554">
    <tag k="addr:postcode" v="CR4 1XQ"/>
    <tag k="removemelater" v="yes"/>
  </node>
  <node id="-546" lat="51.399109950198735" lon="-0.1266579689811765">
    <tag k="addr:postcode" v="CR4 1XR"/>
    <tag k="removemelater" v="yes"/>
  </node>
  <node id="-547" lat="51.39860025717246" lon="-0.12627626620490084">
    <tag k="addr:postcode" v="CR4 1XS"/>
    <tag k="removemelater" v="yes"/>
  </node>
  <node id="-548" lat="51.39805872300205" lon="-0.12671529408957496">
    <tag k="addr:postcode" v="CR4 1XT"/>
    <tag k="removemelater" v="yes"/>
  </node>
  <node id="-549" lat="51.397125013124395" lon="-0.1268109416321109">
    <tag k="addr:postcode" v="CR4 1XU"/>
    <tag k="removemelater" v="yes"/>
  </node>
  <node id="-550" lat="51.397203762935774" lon="-0.12779963652577894">
    <tag k="addr:postcode" v="CR4 1XW"/>
    <tag k="removemelater" v="yes"/>
  </node>
  <node id="-551" lat="51.39758376836373" lon="-0.12738160247055452">
    <tag k="addr:postcode" v="CR4 1XX"/>
    <tag k="removemelater" v="yes"/>
  </node>
  <node id="-552" lat="51.41433676879683" lon="-0.15514248287860188">
    <tag k="addr:postcode" v="CR4 2AB"/>
    <tag k="removemelater" v="yes"/>
  </node>
  <node id="-553" lat="51.41351830552618" lon="-0.1534209976053017">
    <tag k="addr:postcode" v="CR4 2AP"/>
    <tag k="removemelater" v="yes"/>
  </node>
  <node id="-554" lat="51.416271272293415" lon="-0.15807032629743553">
    <tag k="addr:postcode" v="CR4 2DD"/>
    <tag k="removemelater" v="yes"/>
  </node>
  <node id="-555" lat="51.41968407543278" lon="-0.16122672967787774">
    <tag k="addr:postcode" v="CR4 2FE"/>
    <tag k="removemelater" v="yes"/>
  </node>
  <node id="-556" lat="51.410383696741526" lon="-0.1616717763937083">
    <tag k="addr:postcode" v="CR4 2GH"/>
    <tag k="removemelater" v="yes"/>
  </node>
  <node id="-557" lat="51.414434518765866" lon="-0.15164398987345637">
    <tag k="addr:postcode" v="CR4 2HN"/>
    <tag k="removemelater" v="yes"/>
  </node>
  <node id="-558" lat="51.4070673523883" lon="-0.16351583014096724">
    <tag k="addr:postcode" v="CR4 2JD"/>
    <tag k="removemelater" v="yes"/>
  </node>
  <node id="-559" lat="51.40822337568023" lon="-0.1603924218677789">
    <tag k="addr:postcode" v="CR4 2JQ"/>
    <tag k="removemelater" v="yes"/>
  </node>
  <node id="-560" lat="51.40735321868449" lon="-0.16052799480504817">
    <tag k="addr:postcode" v="CR4 2JT"/>
    <tag k="removemelater" v="yes"/>
  </node>
  <node id="-561" lat="51.408150161455964" lon="-0.1608842432190259">
    <tag k="addr:postcode" v="CR4 2JW"/>
    <tag k="removemelater" v="yes"/>
  </node>
  <node id="-562" lat="51.40666031977132" lon="-0.160498286609125">
    <tag k="addr:postcode" v="CR4 2LF"/>
    <tag k="removemelater" v="yes"/>
  </node>
  <node id="-563" lat="51.406891458111666" lon="-0.156894381329599">
    <tag k="addr:postcode" v="CR4 2NA"/>
    <tag k="removemelater" v="yes"/>
  </node>
  <node id="-564" lat="51.4072216599879" lon="-0.15616217286491912">
    <tag k="addr:postcode" v="CR4 2NB"/>
    <tag k="removemelater" v="yes"/>
  </node>
  <node id="-565" lat="51.40754128691467" lon="-0.15532972817008056">
    <tag k="addr:postcode" v="CR4 2ND"/>
    <tag k="removemelater" v="yes"/>
  </node>
  <node id="-566" lat="51.40645980405674" lon="-0.15632222354525319">
    <tag k="addr:postcode" v="CR4 2NE"/>
    <tag k="removemelater" v="yes"/>
  </node>
  <node id="-567" lat="51.406810011656084" lon="-0.15571861939816267">
    <tag k="addr:postcode" v="CR4 2NH"/>
    <tag k="removemelater" v="yes"/>
  </node>
  <node id="-568" lat="51.407211484167036" lon="-0.15551554409757556">
    <tag k="addr:postcode" v="CR4 2NX"/>
    <tag k="removemelater" v="yes"/>
  </node>
  <node id="-569" lat="51.40490028942308" lon="-0.16180541115719452">
    <tag k="addr:postcode" v="CR4 2PL"/>
    <tag k="removemelater" v="yes"/>
  </node>
  <node id="-570" lat="51.405149377333096" lon="-0.1748649839281969">
    <tag k="addr:postcode" v="CR4 2RE"/>
    <tag k="removemelater" v="yes"/>
  </node>
  <node id="-571" lat="51.405149377333096" lon="-0.1748649839281969">
    <tag k="addr:postcode" v="CR4 2XH"/>
    <tag k="removemelater" v="yes"/>
  </node>
  <node id="-572" lat="51.405149377333096" lon="-0.1748649839281969">
    <tag k="addr:postcode" v="CR4 2XN"/>
    <tag k="removemelater" v="yes"/>
  </node>
  <node id="-573" lat="51.40355687357961" lon="-0.1684729102393265">
    <tag k="addr:postcode" v="CR4 3AD"/>
    <tag k="removemelater" v="yes"/>
  </node>
  <node id="-574" lat="51.40365122773713" lon="-0.16933178968521304">
    <tag k="addr:postcode" v="CR4 3AP"/>
    <tag k="removemelater" v="yes"/>
  </node>
  <node id="-575" lat="51.405149377333096" lon="-0.1748649839281969">
    <tag k="addr:postcode" v="CR4 3BG"/>
    <tag k="removemelater" v="yes"/>
  </node>
  <node id="-576" lat="51.399593366772386" lon="-0.1749567694064177">
    <tag k="addr:postcode" v="CR4 3BT"/>
    <tag k="removemelater" v="yes"/>
  </node>
  <node id="-577" lat="51.405491566906576" lon="-0.1777844816821029">
    <tag k="addr:postcode" v="CR4 3BX"/>
    <tag k="removemelater" v="yes"/>
  </node>
  <node id="-578" lat="51.40541205025736" lon="-0.1744088069915054">
    <tag k="addr:postcode" v="CR4 3DH"/>
    <tag k="removemelater" v="yes"/>
  </node>
  <node id="-579" lat="51.40548756078156" lon="-0.17406072661967764">
    <tag k="addr:postcode" v="CR4 3DJ"/>
    <tag k="removemelater" v="yes"/>
  </node>
  <node id="-580" lat="51.40670517866044" lon="-0.17602520513963887">
    <tag k="addr:postcode" v="CR4 3DU"/>
    <tag k="removemelater" v="yes"/>
  </node>
  <node id="-581" lat="51.40674295609206" lon="-0.17556359180574033">
    <tag k="addr:postcode" v="CR4 3DW"/>
    <tag k="removemelater" v="yes"/>
  </node>
  <node id="-582" lat="51.4067353489432" lon="-0.17507502761062102">
    <tag k="addr:postcode" v="CR4 3DY"/>
    <tag k="removemelater" v="yes"/>
  </node>
  <node id="-583" lat="51.40728040079769" lon="-0.16563533170210024">
    <tag k="addr:postcode" v="CR4 3EG"/>
    <tag k="removemelater" v="yes"/>
  </node>
  <node id="-584" lat="51.40728040079769" lon="-0.16563533170210024">
    <tag k="addr:postcode" v="CR4 3EH"/>
    <tag k="removemelater" v="yes"/>
  </node>
  <node id="-585" lat="51.40738061563406" lon="-0.1662927395695963">
    <tag k="addr:postcode" v="CR4 3EJ"/>
    <tag k="removemelater" v="yes"/>
  </node>
  <node id="-586" lat="51.40738061563406" lon="-0.1662927395695963">
    <tag k="addr:postcode" v="CR4 3EL"/>
    <tag k="removemelater" v="yes"/>
  </node>
  <node id="-587" lat="51.40480751551353" lon="-0.17312449849008957">
    <tag k="addr:postcode" v="CR4 3FB"/>
    <tag k="removemelater" v="yes"/>
  </node>
  <node id="-588" lat="51.40403978175007" lon="-0.17348577787565886">
    <tag k="addr:postcode" v="CR4 3FE"/>
    <tag k="removemelater" v="yes"/>
  </node>
  <node id="-589" lat="51.40538238484162" lon="-0.1800174131667691">
    <tag k="addr:postcode" v="CR4 3FJ"/>
    <tag k="removemelater" v="yes"/>
  </node>
  <node id="-590" lat="51.40800836630866" lon="-0.16790681577723582">
    <tag k="addr:postcode" v="CR4 3FL"/>
    <tag k="removemelater" v="yes"/>
  </node>
  <node id="-591" lat="51.40526086620675" lon="-0.1797203003006303">
    <tag k="addr:postcode" v="CR4 3FN"/>
    <tag k="removemelater" v="yes"/>
  </node>
  <node id="-592" lat="51.405149377333096" lon="-0.1748649839281969">
    <tag k="addr:postcode" v="CR4 3FP"/>
    <tag k="removemelater" v="yes"/>
  </node>
  <node id="-593" lat="51.40557519041465" lon="-0.17969344089810607">
    <tag k="addr:postcode" v="CR4 3GG"/>
    <tag k="removemelater" v="yes"/>
  </node>
  <node id="-594" lat="51.407418367328134" lon="-0.16698140549609417">
    <tag k="addr:postcode" v="CR4 3HX"/>
    <tag k="removemelater" v="yes"/>
  </node>
  <node id="-595" lat="51.40494715432013" lon="-0.17805054599043296">
    <tag k="addr:postcode" v="CR4 3HZ"/>
    <tag k="removemelater" v="yes"/>
  </node>
  <node id="-596" lat="51.414365656037056" lon="-0.1627056547972005">
    <tag k="addr:postcode" v="CR4 3LB"/>
    <tag k="removemelater" v="yes"/>
  </node>
  <node id="-597" lat="51.41797809203" lon="-0.16770955914592">
    <tag k="addr:postcode" v="CR4 3LX"/>
    <tag k="removemelater" v="yes"/>
  </node>
  <node id="-598" lat="51.40464562487967" lon="-0.16506500683031003">
    <tag k="addr:postcode" v="CR4 3NB"/>
    <tag k="removemelater" v="yes"/>
  </node>
  <node id="-599" lat="51.40492042967076" lon="-0.1671100449171387">
    <tag k="addr:postcode" v="CR4 3NE"/>
    <tag k="removemelater" v="yes"/>
  </node>
  <node id="-600" lat="51.40465171924175" lon="-0.167753411875787">
    <tag k="addr:postcode" v="CR4 3NF"/>
    <tag k="removemelater" v="yes"/>
  </node>
  <node id="-601" lat="51.40442299983836" lon="-0.1675037542815637">
    <tag k="addr:postcode" v="CR4 3NG"/>
    <tag k="removemelater" v="yes"/>
  </node>
  <node id="-602" lat="51.4034957577122" lon="-0.16628998137720813">
    <tag k="addr:postcode" v="CR4 3NJ"/>
    <tag k="removemelater" v="yes"/>
  </node>
  <node id="-603" lat="51.405373825080346" lon="-0.16735072109102692">
    <tag k="addr:postcode" v="CR4 3NL"/>
    <tag k="removemelater" v="yes"/>
  </node>
  <node id="-604" lat="51.40373838810835" lon="-0.16513007505101546">
    <tag k="addr:postcode" v="CR4 3NT"/>
    <tag k="removemelater" v="yes"/>
  </node>
  <node id="-605" lat="51.4034957577122" lon="-0.16628998137720813">
    <tag k="addr:postcode" v="CR4 3NU"/>
    <tag k="removemelater" v="yes"/>
  </node>
  <node id="-606" lat="51.404214493179396" lon="-0.16624685456500382">
    <tag k="addr:postcode" v="CR4 3NW"/>
    <tag k="removemelater" v="yes"/>
  </node>
  <node id="-607" lat="51.4043039051752" lon="-0.16563941487032008">
    <tag k="addr:postcode" v="CR4 3NY"/>
    <tag k="removemelater" v="yes"/>
  </node>
  <node id="-608" lat="51.40486177390638" lon="-0.16566022547237208">
    <tag k="addr:postcode" v="CR4 3NZ"/>
    <tag k="removemelater" v="yes"/>
  </node>
  <node id="-609" lat="51.410283291100264" lon="-0.162150329669109">
    <tag k="addr:postcode" v="CR4 3SJ"/>
    <tag k="removemelater" v="yes"/>
  </node>
  <node id="-610" lat="51.40373560780617" lon="-0.17647403918415777">
    <tag k="addr:postcode" v="CR4 3TB"/>
    <tag k="removemelater" v="yes"/>
  </node>
  <node id="-611" lat="51.40537196416526" lon="-0.175876960677237">
    <tag k="addr:postcode" v="CR4 3TD"/>
    <tag k="removemelater" v="yes"/>
  </node>
  <node id="-612" lat="51.405149377333096" lon="-0.1748649839281969">
    <tag k="addr:postcode" v="CR4 3TW"/>
    <tag k="removemelater" v="yes"/>
  </node>
  <node id="-613" lat="51.405149377333096" lon="-0.1748649839281969">
    <tag k="addr:postcode" v="CR4 3WS"/>
    <tag k="removemelater" v="yes"/>
  </node>
  <node id="-614" lat="51.405149377333096" lon="-0.1748649839281969">
    <tag k="addr:postcode" v="CR4 3XL"/>
    <tag k="removemelater" v="yes"/>
  </node>
  <node id="-615" lat="51.40446943754787" lon="-0.16357677322735426">
    <tag k="addr:postcode" v="CR4 4AG"/>
    <tag k="removemelater" v="yes"/>
  </node>
  <node id="-616" lat="51.385475418019084" lon="-0.16519955306902498">
    <tag k="addr:postcode" v="CR4 4AN"/>
    <tag k="removemelater" v="yes"/>
  </node>
  <node id="-617" lat="51.38575066129406" lon="-0.1666975909777583">
    <tag k="addr:postcode" v="CR4 4AP"/>
    <tag k="removemelater" v="yes"/>
  </node>
  <node id="-618" lat="51.382390609833415" lon="-0.15944525577526017">
    <tag k="addr:postcode" v="CR4 4AQ"/>
    <tag k="removemelater" v="yes"/>
  </node>
  <node id="-619" lat="51.38510853743359" lon="-0.16761429621168936">
    <tag k="addr:postcode" v="CR4 4AR"/>
    <tag k="removemelater" v="yes"/>
  </node>
  <node id="-620" lat="51.38486116629188" lon="-0.16617264602017814">
    <tag k="addr:postcode" v="CR4 4AS"/>
    <tag k="removemelater" v="yes"/>
  </node>
  <node id="-621" lat="51.38433025081094" lon="-0.16557589736472864">
    <tag k="addr:postcode" v="CR4 4AT"/>
    <tag k="removemelater" v="yes"/>
  </node>
  <node id="-622" lat="51.38404245039967" lon="-0.1667227412533463">
    <tag k="addr:postcode" v="CR4 4AU"/>
    <tag k="removemelater" v="yes"/>
  </node>
  <node id="-623" lat="51.38574053976973" lon="-0.1654763864390179">
    <tag k="addr:postcode" v="CR4 4AW"/>
    <tag k="removemelater" v="yes"/>
  </node>
  <node id="-624" lat="51.3841219656221" lon="-0.16490877182051197">
    <tag k="addr:postcode" v="CR4 4AX"/>
    <tag k="removemelater" v="yes"/>
  </node>
  <node id="-625" lat="51.38364363847344" lon="-0.16537341284869095">
    <tag k="addr:postcode" v="CR4 4AY"/>
    <tag k="removemelater" v="yes"/>
  </node>
  <node id="-626" lat="51.38521076135594" lon="-0.16610118413882724">
    <tag k="addr:postcode" v="CR4 4AZ"/>
    <tag k="removemelater" v="yes"/>
  </node>
  <node id="-627" lat="51.39967297477826" lon="-0.17949648642082747">
    <tag k="addr:postcode" v="CR4 4DA"/>
    <tag k="removemelater" v="yes"/>
  </node>
  <node id="-628" lat="51.39803617972483" lon="-0.17428558760718535">
    <tag k="addr:postcode" v="CR4 4DE"/>
    <tag k="removemelater" v="yes"/>
  </node>
  <node id="-629" lat="51.39842273388329" lon="-0.17600967191772243">
    <tag k="addr:postcode" v="CR4 4DF"/>
    <tag k="removemelater" v="yes"/>
  </node>
  <node id="-630" lat="51.40099328793819" lon="-0.17073181829121573">
    <tag k="addr:postcode" v="CR4 4EE"/>
    <tag k="removemelater" v="yes"/>
  </node>
  <node id="-631" lat="51.39884353291907" lon="-0.1724276930828118">
    <tag k="addr:postcode" v="CR4 4EQ"/>
    <tag k="removemelater" v="yes"/>
  </node>
  <node id="-632" lat="51.39930189475693" lon="-0.17183437885953598">
    <tag k="addr:postcode" v="CR4 4ER"/>
    <tag k="removemelater" v="yes"/>
  </node>
  <node id="-633" lat="51.399769464690046" lon="-0.17125506159854442">
    <tag k="addr:postcode" v="CR4 4ES"/>
    <tag k="removemelater" v="yes"/>
  </node>
  <node id="-634" lat="51.40109531008264" lon="-0.16517834800411874">
    <tag k="addr:postcode" v="CR4 4FB"/>
    <tag k="removemelater" v="yes"/>
  </node>
  <node id="-635" lat="51.381106518952855" lon="-0.16242833600949877">
    <tag k="addr:postcode" v="CR4 4FD"/>
    <tag k="removemelater" v="yes"/>
  </node>
  <node id="-636" lat="51.38173513543809" lon="-0.1617995927577761">
    <tag k="addr:postcode" v="CR4 4FE"/>
    <tag k="removemelater" v="yes"/>
  </node>
  <node id="-637" lat="51.38182077281571" lon="-0.16267277124792417">
    <tag k="addr:postcode" v="CR4 4FF"/>
    <tag k="removemelater" v="yes"/>
  </node>
  <node id="-638" lat="51.39374590374553" lon="-0.16330187396938492">
    <tag k="addr:postcode" v="CR4 4FG"/>
    <tag k="removemelater" v="yes"/>
  </node>
  <node id="-639" lat="51.391711722786845" lon="-0.16433200544864437">
    <tag k="addr:postcode" v="CR4 4FL"/>
    <tag k="removemelater" v="yes"/>
  </node>
  <node id="-640" lat="51.385294217691474" lon="-0.16167135343287525">
    <tag k="addr:postcode" v="CR4 4FN"/>
    <tag k="removemelater" v="yes"/>
  </node>
  <node id="-641" lat="51.39572380853744" lon="-0.16040515256858012">
    <tag k="addr:postcode" v="CR4 4HE"/>
    <tag k="removemelater" v="yes"/>
  </node>
  <node id="-642" lat="51.39507877512861" lon="-0.16056040157229348">
    <tag k="addr:postcode" v="CR4 4HF"/>
    <tag k="removemelater" v="yes"/>
  </node>
  <node id="-643" lat="51.393009535050126" lon="-0.15763919747445096">
    <tag k="addr:postcode" v="CR4 4HN"/>
    <tag k="removemelater" v="yes"/>
  </node>
  <node id="-644" lat="51.391206283474794" lon="-0.16077321099938185">
    <tag k="addr:postcode" v="CR4 4HQ"/>
    <tag k="removemelater" v="yes"/>
  </node>
  <node id="-645" lat="51.389254230700864" lon="-0.16474656405440158">
    <tag k="addr:postcode" v="CR4 4HR"/>
    <tag k="removemelater" v="yes"/>
  </node>
  <node id="-646" lat="51.38305479725168" lon="-0.15707612950136257">
    <tag k="addr:postcode" v="CR4 4HS"/>
    <tag k="removemelater" v="yes"/>
  </node>
  <node id="-647" lat="51.385942268225705" lon="-0.1640023815180165">
    <tag k="addr:postcode" v="CR4 4HW"/>
    <tag k="removemelater" v="yes"/>
  </node>
  <node id="-648" lat="51.38978349144409" lon="-0.16236819147172607">
    <tag k="addr:postcode" v="CR4 4HX"/>
    <tag k="removemelater" v="yes"/>
  </node>
  <node id="-649" lat="51.386363803000876" lon="-0.15991821314089125">
    <tag k="addr:postcode" v="CR4 4HY"/>
    <tag k="removemelater" v="yes"/>
  </node>
  <node id="-650" lat="51.386157618248845" lon="-0.1611049887814855">
    <tag k="addr:postcode" v="CR4 4HZ"/>
    <tag k="removemelater" v="yes"/>
  </node>
  <node id="-651" lat="51.38214931437446" lon="-0.15954116049405448">
    <tag k="addr:postcode" v="CR4 4JD"/>
    <tag k="removemelater" v="yes"/>
  </node>
  <node id="-652" lat="51.385573505668816" lon="-0.15826840954492458">
    <tag k="addr:postcode" v="CR4 4JG"/>
    <tag k="removemelater" v="yes"/>
  </node>
  <node id="-653" lat="51.38253308463445" lon="-0.15992814979398667">
    <tag k="addr:postcode" v="CR4 4JL"/>
    <tag k="removemelater" v="yes"/>
  </node>
  <node id="-654" lat="51.38280314587581" lon="-0.15994606015758311">
    <tag k="addr:postcode" v="CR4 4JN"/>
    <tag k="removemelater" v="yes"/>
  </node>
  <node id="-655" lat="51.38330087676754" lon="-0.16129135316450072">
    <tag k="addr:postcode" v="CR4 4JP"/>
    <tag k="removemelater" v="yes"/>
  </node>
  <node id="-656" lat="51.38469853568086" lon="-0.16038741268259968">
    <tag k="addr:postcode" v="CR4 4JS"/>
    <tag k="removemelater" v="yes"/>
  </node>
  <node id="-657" lat="51.38496231566676" lon="-0.1605780377918229">
    <tag k="addr:postcode" v="CR4 4JT"/>
    <tag k="removemelater" v="yes"/>
  </node>
  <node id="-658" lat="51.38417951071569" lon="-0.15997708380482598">
    <tag k="addr:postcode" v="CR4 4JU"/>
    <tag k="removemelater" v="yes"/>
  </node>
  <node id="-659" lat="51.38410129860762" lon="-0.159577822475081">
    <tag k="addr:postcode" v="CR4 4JW"/>
    <tag k="removemelater" v="yes"/>
  </node>
  <node id="-660" lat="51.383843674487125" lon="-0.16092468727286835">
    <tag k="addr:postcode" v="CR4 4JY"/>
    <tag k="removemelater" v="yes"/>
  </node>
  <node id="-661" lat="51.3838099496789" lon="-0.16049490095670949">
    <tag k="addr:postcode" v="CR4 4JZ"/>
    <tag k="removemelater" v="yes"/>
  </node>
  <node id="-662" lat="51.38238875671197" lon="-0.16276499167553762">
    <tag k="addr:postcode" v="CR4 4LT"/>
    <tag k="removemelater" v="yes"/>
  </node>
  <node id="-663" lat="51.39338107070574" lon="-0.16469641534232812">
    <tag k="addr:postcode" v="CR4 4NA"/>
    <tag k="removemelater" v="yes"/>
  </node>
  <node id="-664" lat="51.39500280907072" lon="-0.16719022196459885">
    <tag k="addr:postcode" v="CR4 4NB"/>
    <tag k="removemelater" v="yes"/>
  </node>
  <node id="-665" lat="51.39460690414795" lon="-0.16487735138335463">
    <tag k="addr:postcode" v="CR4 4ND"/>
    <tag k="removemelater" v="yes"/>
  </node>
  <node id="-666" lat="51.394896513285374" lon="-0.16499513473658217">
    <tag k="addr:postcode" v="CR4 4NE"/>
    <tag k="removemelater" v="yes"/>
  </node>
  <node id="-667" lat="51.39482508576434" lon="-0.1684766747594451">
    <tag k="addr:postcode" v="CR4 4NF"/>
    <tag k="removemelater" v="yes"/>
  </node>
  <node id="-668" lat="51.385898960100306" lon="-0.16009495047738295">
    <tag k="addr:postcode" v="CR4 4NP"/>
    <tag k="removemelater" v="yes"/>
  </node>
  <node id="-669" lat="51.39300654100349" lon="-0.16489826747070932">
    <tag k="addr:postcode" v="CR4 4NQ"/>
    <tag k="removemelater" v="yes"/>
  </node>
  <node id="-670" lat="51.38563720936147" lon="-0.1600335896289184">
    <tag k="addr:postcode" v="CR4 4NW"/>
    <tag k="removemelater" v="yes"/>
  </node>
  <node id="-671" lat="51.39162112051207" lon="-0.16256766425938426">
    <tag k="addr:postcode" v="CR4 4NX"/>
    <tag k="removemelater" v="yes"/>
  </node>
  <node id="-672" lat="51.39972460330806" lon="-0.17761114977940465">
    <tag k="addr:postcode" v="CR4 4NY"/>
    <tag k="removemelater" v="yes"/>
  </node>
  <node id="-673" lat="51.39891988525025" lon="-0.17675182252870422">
    <tag k="addr:postcode" v="CR4 4PH"/>
    <tag k="removemelater" v="yes"/>
  </node>
  <node id="-674" lat="51.39101542965824" lon="-0.1635118355452713">
    <tag k="addr:postcode" v="CR4 4TQ"/>
    <tag k="removemelater" v="yes"/>
  </node>
  <node id="-675" lat="51.39105049454" lon="-0.1640278789337358">
    <tag k="addr:postcode" v="CR4 4TU"/>
    <tag k="removemelater" v="yes"/>
  </node>
  <node id="-676" lat="51.3920790895444" lon="-0.1653953411341697">
    <tag k="addr:postcode" v="CR4 4UH"/>
    <tag k="removemelater" v="yes"/>
  </node>
  <node id="-677" lat="51.390360108556074" lon="-0.1664558593149171">
    <tag k="addr:postcode" v="CR4 4UY"/>
    <tag k="removemelater" v="yes"/>
  </node>
  <node id="-678" lat="51.405149377333096" lon="-0.1748649839281969">
    <tag k="addr:postcode" v="CR4 4WN"/>
    <tag k="removemelater" v="yes"/>
  </node>
  <node id="-679" lat="51.405149377333096" lon="-0.1748649839281969">
    <tag k="addr:postcode" v="CR4 4XN"/>
    <tag k="removemelater" v="yes"/>
  </node>
  <node id="-680" lat="51.405149377333096" lon="-0.1748649839281969">
    <tag k="addr:postcode" v="CR4 9AL"/>
    <tag k="removemelater" v="yes"/>
  </node>
  <node id="-681" lat="51.405149377333096" lon="-0.1748649839281969">
    <tag k="addr:postcode" v="CR4 9AR"/>
    <tag k="removemelater" v="yes"/>
  </node>
  <node id="-682" lat="51.405149377333096" lon="-0.1748649839281969">
    <tag k="addr:postcode" v="CR4 9AS"/>
    <tag k="removemelater" v="yes"/>
  </node>
  <node id="-683" lat="51.405149377333096" lon="-0.1748649839281969">
    <tag k="addr:postcode" v="CR4 9AZ"/>
    <tag k="removemelater" v="yes"/>
  </node>
  <node id="-684" lat="51.405149377333096" lon="-0.1748649839281969">
    <tag k="addr:postcode" v="CR4 9BF"/>
    <tag k="removemelater" v="yes"/>
  </node>
  <node id="-685" lat="51.405149377333096" lon="-0.1748649839281969">
    <tag k="addr:postcode" v="CR4 9BT"/>
    <tag k="removemelater" v="yes"/>
  </node>
  <node id="-686" lat="51.405149377333096" lon="-0.1748649839281969">
    <tag k="addr:postcode" v="CR4 9BU"/>
    <tag k="removemelater" v="yes"/>
  </node>
  <node id="-687" lat="51.405149377333096" lon="-0.1748649839281969">
    <tag k="addr:postcode" v="CR4 9BW"/>
    <tag k="removemelater" v="yes"/>
  </node>
  <node id="-688" lat="51.405149377333096" lon="-0.1748649839281969">
    <tag k="addr:postcode" v="CR4 9BX"/>
    <tag k="removemelater" v="yes"/>
  </node>
  <node id="-689" lat="51.405149377333096" lon="-0.1748649839281969">
    <tag k="addr:postcode" v="CR4 9DB"/>
    <tag k="removemelater" v="yes"/>
  </node>
  <node id="-690" lat="51.405149377333096" lon="-0.1748649839281969">
    <tag k="addr:postcode" v="CR4 9DE"/>
    <tag k="removemelater" v="yes"/>
  </node>
  <node id="-691" lat="51.405149377333096" lon="-0.1748649839281969">
    <tag k="addr:postcode" v="CR4 9DL"/>
    <tag k="removemelater" v="yes"/>
  </node>
  <node id="-692" lat="51.405149377333096" lon="-0.1748649839281969">
    <tag k="addr:postcode" v="CR4 9DQ"/>
    <tag k="removemelater" v="yes"/>
  </node>
  <node id="-693" lat="51.405149377333096" lon="-0.1748649839281969">
    <tag k="addr:postcode" v="CR4 9DR"/>
    <tag k="removemelater" v="yes"/>
  </node>
  <node id="-694" lat="51.405149377333096" lon="-0.1748649839281969">
    <tag k="addr:postcode" v="CR4 9DU"/>
    <tag k="removemelater" v="yes"/>
  </node>
  <node id="-695" lat="51.405149377333096" lon="-0.1748649839281969">
    <tag k="addr:postcode" v="CR4 9DW"/>
    <tag k="removemelater" v="yes"/>
  </node>
  <node id="-696" lat="51.405149377333096" lon="-0.1748649839281969">
    <tag k="addr:postcode" v="CR4 9DZ"/>
    <tag k="removemelater" v="yes"/>
  </node>
  <node id="-697" lat="51.405149377333096" lon="-0.1748649839281969">
    <tag k="addr:postcode" v="CR4 9EA"/>
    <tag k="removemelater" v="yes"/>
  </node>
  <node id="-698" lat="51.405149377333096" lon="-0.1748649839281969">
    <tag k="addr:postcode" v="CR4 9EB"/>
    <tag k="removemelater" v="yes"/>
  </node>
  <node id="-699" lat="51.405149377333096" lon="-0.1748649839281969">
    <tag k="addr:postcode" v="CR4 9ED"/>
    <tag k="removemelater" v="yes"/>
  </node>
  <node id="-700" lat="51.405149377333096" lon="-0.1748649839281969">
    <tag k="addr:postcode" v="CR4 9EE"/>
    <tag k="removemelater" v="yes"/>
  </node>
  <node id="-701" lat="51.405149377333096" lon="-0.1748649839281969">
    <tag k="addr:postcode" v="CR4 9HS"/>
    <tag k="removemelater" v="yes"/>
  </node>
  <node id="-702" lat="51.382347897771865" lon="-0.132875280406428">
    <tag k="addr:postcode" v="CR44 1AA"/>
    <tag k="removemelater" v="yes"/>
  </node>
  <node id="-703" lat="51.382347897771865" lon="-0.132875280406428">
    <tag k="addr:postcode" v="CR44 1AB"/>
    <tag k="removemelater" v="yes"/>
  </node>
  <node id="-704" lat="51.382347897771865" lon="-0.132875280406428">
    <tag k="addr:postcode" v="CR44 1AD"/>
    <tag k="removemelater" v="yes"/>
  </node>
  <node id="-705" lat="51.382347897771865" lon="-0.132875280406428">
    <tag k="addr:postcode" v="CR44 1AG"/>
    <tag k="removemelater" v="yes"/>
  </node>
  <node id="-706" lat="51.382347897771865" lon="-0.132875280406428">
    <tag k="addr:postcode" v="CR44 1AJ"/>
    <tag k="removemelater" v="yes"/>
  </node>
  <node id="-707" lat="51.382347897771865" lon="-0.132875280406428">
    <tag k="addr:postcode" v="CR44 1AL"/>
    <tag k="removemelater" v="yes"/>
  </node>
  <node id="-708" lat="51.382347897771865" lon="-0.132875280406428">
    <tag k="addr:postcode" v="CR44 1AN"/>
    <tag k="removemelater" v="yes"/>
  </node>
  <node id="-709" lat="51.382347897771865" lon="-0.132875280406428">
    <tag k="addr:postcode" v="CR44 1AP"/>
    <tag k="removemelater" v="yes"/>
  </node>
  <node id="-710" lat="51.382347897771865" lon="-0.132875280406428">
    <tag k="addr:postcode" v="CR44 1AQ"/>
    <tag k="removemelater" v="yes"/>
  </node>
  <node id="-711" lat="51.382347897771865" lon="-0.132875280406428">
    <tag k="addr:postcode" v="CR44 1AR"/>
    <tag k="removemelater" v="yes"/>
  </node>
  <node id="-712" lat="51.382347897771865" lon="-0.132875280406428">
    <tag k="addr:postcode" v="CR44 1AS"/>
    <tag k="removemelater" v="yes"/>
  </node>
  <node id="-713" lat="51.382347897771865" lon="-0.132875280406428">
    <tag k="addr:postcode" v="CR44 1AT"/>
    <tag k="removemelater" v="yes"/>
  </node>
  <node id="-714" lat="51.382347897771865" lon="-0.132875280406428">
    <tag k="addr:postcode" v="CR44 1AU"/>
    <tag k="removemelater" v="yes"/>
  </node>
  <node id="-715" lat="51.382347897771865" lon="-0.132875280406428">
    <tag k="addr:postcode" v="CR44 1AX"/>
    <tag k="removemelater" v="yes"/>
  </node>
  <node id="-716" lat="51.382347897771865" lon="-0.132875280406428">
    <tag k="addr:postcode" v="CR44 1AY"/>
    <tag k="removemelater" v="yes"/>
  </node>
  <node id="-717" lat="51.382347897771865" lon="-0.132875280406428">
    <tag k="addr:postcode" v="CR44 1AZ"/>
    <tag k="removemelater" v="yes"/>
  </node>
  <node id="-718" lat="51.382347897771865" lon="-0.132875280406428">
    <tag k="addr:postcode" v="CR44 1BA"/>
    <tag k="removemelater" v="yes"/>
  </node>
  <node id="-719" lat="51.382347897771865" lon="-0.132875280406428">
    <tag k="addr:postcode" v="CR44 1BB"/>
    <tag k="removemelater" v="yes"/>
  </node>
  <node id="-720" lat="51.30681617010729" lon="-0.14238444230751227">
    <tag k="addr:postcode" v="CR5 1AD"/>
    <tag k="removemelater" v="yes"/>
  </node>
  <node id="-721" lat="51.3072795143211" lon="-0.14154793183780306">
    <tag k="addr:postcode" v="CR5 1AE"/>
    <tag k="removemelater" v="yes"/>
  </node>
  <node id="-722" lat="51.30857933507235" lon="-0.14185411267859402">
    <tag k="addr:postcode" v="CR5 1AH"/>
    <tag k="removemelater" v="yes"/>
  </node>
  <node id="-723" lat="51.30787148544172" lon="-0.1448526491295874">
    <tag k="addr:postcode" v="CR5 1AR"/>
    <tag k="removemelater" v="yes"/>
  </node>
  <node id="-724" lat="51.30751520852184" lon="-0.14393443322969673">
    <tag k="addr:postcode" v="CR5 1AS"/>
    <tag k="removemelater" v="yes"/>
  </node>
  <node id="-725" lat="51.307028747610765" lon="-0.14501575993643454">
    <tag k="addr:postcode" v="CR5 1AT"/>
    <tag k="removemelater" v="yes"/>
  </node>
  <node id="-726" lat="51.29863106072937" lon="-0.1264766951892917">
    <tag k="addr:postcode" v="CR5 1BR"/>
    <tag k="removemelater" v="yes"/>
  </node>
  <node id="-727" lat="51.29823738784828" lon="-0.13392321171182953">
    <tag k="addr:postcode" v="CR5 1DA"/>
    <tag k="removemelater" v="yes"/>
  </node>
  <node id="-728" lat="51.31578307499725" lon="-0.13735850237313624">
    <tag k="addr:postcode" v="CR5 1DR"/>
    <tag k="removemelater" v="yes"/>
  </node>
  <node id="-729" lat="51.315907752339164" lon="-0.1372817022187738">
    <tag k="addr:postcode" v="CR5 1DS"/>
    <tag k="removemelater" v="yes"/>
  </node>
  <node id="-730" lat="51.29867123910116" lon="-0.11776781296901809">
    <tag k="addr:postcode" v="CR5 1EE"/>
    <tag k="removemelater" v="yes"/>
  </node>
  <node id="-731" lat="51.30599043394328" lon="-0.14588975089459705">
    <tag k="addr:postcode" v="CR5 1NA"/>
    <tag k="removemelater" v="yes"/>
  </node>
  <node id="-732" lat="51.30838423531587" lon="-0.14259372713764826">
    <tag k="addr:postcode" v="CR5 1RF"/>
    <tag k="removemelater" v="yes"/>
  </node>
  <node id="-733" lat="51.30786810778138" lon="-0.14237065858516268">
    <tag k="addr:postcode" v="CR5 1RH"/>
    <tag k="removemelater" v="yes"/>
  </node>
  <node id="-734" lat="51.31980422832376" lon="-0.1408408432330954">
    <tag k="addr:postcode" v="CR5 1ZQ"/>
    <tag k="removemelater" v="yes"/>
  </node>
  <node id="-735" lat="51.32229010121058" lon="-0.15701554673776844">
    <tag k="addr:postcode" v="CR5 2AP"/>
    <tag k="removemelater" v="yes"/>
  </node>
  <node id="-736" lat="51.31886454848876" lon="-0.13942938575808916">
    <tag k="addr:postcode" v="CR5 2BS"/>
    <tag k="removemelater" v="yes"/>
  </node>
  <node id="-737" lat="51.3218835015269" lon="-0.13643683413809019">
    <tag k="addr:postcode" v="CR5 2BW"/>
    <tag k="removemelater" v="yes"/>
  </node>
  <node id="-738" lat="51.321872688577216" lon="-0.13632245689392838">
    <tag k="addr:postcode" v="CR5 2BY"/>
    <tag k="removemelater" v="yes"/>
  </node>
  <node id="-739" lat="51.32187131902565" lon="-0.13623640077631785">
    <tag k="addr:postcode" v="CR5 2BZ"/>
    <tag k="removemelater" v="yes"/>
  </node>
  <node id="-740" lat="51.3197520828655" lon="-0.13416960899061767">
    <tag k="addr:postcode" v="CR5 2HT"/>
    <tag k="removemelater" v="yes"/>
  </node>
  <node id="-741" lat="51.32608564278822" lon="-0.1292621025190057">
    <tag k="addr:postcode" v="CR5 2JG"/>
    <tag k="removemelater" v="yes"/>
  </node>
  <node id="-742" lat="51.320056323726256" lon="-0.12675195031739106">
    <tag k="addr:postcode" v="CR5 2LH"/>
    <tag k="removemelater" v="yes"/>
  </node>
  <node id="-743" lat="51.317287079474774" lon="-0.12509964501832926">
    <tag k="addr:postcode" v="CR5 2LL"/>
    <tag k="removemelater" v="yes"/>
  </node>
  <node id="-744" lat="51.31960030912826" lon="-0.13819411184797636">
    <tag k="addr:postcode" v="CR5 2NR"/>
    <tag k="removemelater" v="yes"/>
  </node>
  <node id="-745" lat="51.32262284899848" lon="-0.15701656080785317">
    <tag k="addr:postcode" v="CR5 2PQ"/>
    <tag k="removemelater" v="yes"/>
  </node>
  <node id="-746" lat="51.31534739834263" lon="-0.12695811462170467">
    <tag k="addr:postcode" v="CR5 2SJ"/>
    <tag k="removemelater" v="yes"/>
  </node>
  <node id="-747" lat="51.318696418333964" lon="-0.1345138142366281">
    <tag k="addr:postcode" v="CR5 2UH"/>
    <tag k="removemelater" v="yes"/>
  </node>
  <node id="-748" lat="51.31598430794697" lon="-0.13192601292315992">
    <tag k="addr:postcode" v="CR5 2UY"/>
    <tag k="removemelater" v="yes"/>
  </node>
  <node id="-749" lat="51.31980422832376" lon="-0.1408408432330954">
    <tag k="addr:postcode" v="CR5 2WN"/>
    <tag k="removemelater" v="yes"/>
  </node>
  <node id="-750" lat="51.330549585444004" lon="-0.15328234869091562">
    <tag k="addr:postcode" v="CR5 2XL"/>
    <tag k="removemelater" v="yes"/>
  </node>
  <node id="-751" lat="51.32961735862653" lon="-0.15290352660568274">
    <tag k="addr:postcode" v="CR5 2XN"/>
    <tag k="removemelater" v="yes"/>
  </node>
  <node id="-752" lat="51.3224858573429" lon="-0.13642677140150397">
    <tag k="addr:postcode" v="CR5 2XU"/>
    <tag k="removemelater" v="yes"/>
  </node>
  <node id="-753" lat="51.31980422832376" lon="-0.1408408432330954">
    <tag k="addr:postcode" v="CR5 2YU"/>
    <tag k="removemelater" v="yes"/>
  </node>
  <node id="-754" lat="51.32080241889859" lon="-0.13857598473443972">
    <tag k="addr:postcode" v="CR5 2YY"/>
    <tag k="removemelater" v="yes"/>
  </node>
  <node id="-755" lat="51.31980422832376" lon="-0.1408408432330954">
    <tag k="addr:postcode" v="CR5 2ZE"/>
    <tag k="removemelater" v="yes"/>
  </node>
  <node id="-756" lat="51.316014965179576" lon="-0.15884554305946533">
    <tag k="addr:postcode" v="CR5 3AF"/>
    <tag k="removemelater" v="yes"/>
  </node>
  <node id="-757" lat="51.316499366730206" lon="-0.1587687487057655">
    <tag k="addr:postcode" v="CR5 3AH"/>
    <tag k="removemelater" v="yes"/>
  </node>
  <node id="-758" lat="51.31573742364709" lon="-0.15778040564590098">
    <tag k="addr:postcode" v="CR5 3AL"/>
    <tag k="removemelater" v="yes"/>
  </node>
  <node id="-759" lat="51.30771662875484" lon="-0.1458632194011303">
    <tag k="addr:postcode" v="CR5 3AZ"/>
    <tag k="removemelater" v="yes"/>
  </node>
  <node id="-760" lat="51.3191164448379" lon="-0.14170101364960966">
    <tag k="addr:postcode" v="CR5 3BD"/>
    <tag k="removemelater" v="yes"/>
  </node>
  <node id="-761" lat="51.308295791491744" lon="-0.14552422629932477">
    <tag k="addr:postcode" v="CR5 3DY"/>
    <tag k="removemelater" v="yes"/>
  </node>
  <node id="-762" lat="51.320034821602526" lon="-0.14347216888888423">
    <tag k="addr:postcode" v="CR5 3HQ"/>
    <tag k="removemelater" v="yes"/>
  </node>
  <node id="-763" lat="51.31980422832376" lon="-0.1408408432330954">
    <tag k="addr:postcode" v="CR5 3JT"/>
    <tag k="removemelater" v="yes"/>
  </node>
  <node id="-764" lat="51.3168221190913" lon="-0.13992818212570807">
    <tag k="addr:postcode" v="CR5 3JW"/>
    <tag k="removemelater" v="yes"/>
  </node>
  <node id="-765" lat="51.31722210292139" lon="-0.14019901289111003">
    <tag k="addr:postcode" v="CR5 3JZ"/>
    <tag k="removemelater" v="yes"/>
  </node>
  <node id="-766" lat="51.29869501735849" lon="-0.16975200170331212">
    <tag k="addr:postcode" v="CR5 3QU"/>
    <tag k="removemelater" v="yes"/>
  </node>
  <node id="-767" lat="51.29520126630258" lon="-0.16946063901326697">
    <tag k="addr:postcode" v="CR5 3SE"/>
    <tag k="removemelater" v="yes"/>
  </node>
  <node id="-768" lat="51.28122136191803" lon="-0.18067047783582296">
    <tag k="addr:postcode" v="CR5 3SH"/>
    <tag k="removemelater" v="yes"/>
  </node>
  <node id="-769" lat="51.28127030446588" lon="-0.17226577182227204">
    <tag k="addr:postcode" v="CR5 3SL"/>
    <tag k="removemelater" v="yes"/>
  </node>
  <node id="-770" lat="51.31980422832376" lon="-0.1408408432330954">
    <tag k="addr:postcode" v="CR5 3WR"/>
    <tag k="removemelater" v="yes"/>
  </node>
  <node id="-771" lat="51.31980422832376" lon="-0.1408408432330954">
    <tag k="addr:postcode" v="CR5 3XX"/>
    <tag k="removemelater" v="yes"/>
  </node>
  <node id="-772" lat="51.31980422832376" lon="-0.1408408432330954">
    <tag k="addr:postcode" v="CR5 9AB"/>
    <tag k="removemelater" v="yes"/>
  </node>
  <node id="-773" lat="51.31980422832376" lon="-0.1408408432330954">
    <tag k="addr:postcode" v="CR5 9BB"/>
    <tag k="removemelater" v="yes"/>
  </node>
  <node id="-774" lat="51.31980422832376" lon="-0.1408408432330954">
    <tag k="addr:postcode" v="CR5 9BL"/>
    <tag k="removemelater" v="yes"/>
  </node>
  <node id="-775" lat="51.31980422832376" lon="-0.1408408432330954">
    <tag k="addr:postcode" v="CR5 9BP"/>
    <tag k="removemelater" v="yes"/>
  </node>
  <node id="-776" lat="51.31980422832376" lon="-0.1408408432330954">
    <tag k="addr:postcode" v="CR5 9BT"/>
    <tag k="removemelater" v="yes"/>
  </node>
  <node id="-777" lat="51.31980422832376" lon="-0.1408408432330954">
    <tag k="addr:postcode" v="CR5 9BX"/>
    <tag k="removemelater" v="yes"/>
  </node>
  <node id="-778" lat="51.31980422832376" lon="-0.1408408432330954">
    <tag k="addr:postcode" v="CR5 9DA"/>
    <tag k="removemelater" v="yes"/>
  </node>
  <node id="-779" lat="51.31980422832376" lon="-0.1408408432330954">
    <tag k="addr:postcode" v="CR5 9DD"/>
    <tag k="removemelater" v="yes"/>
  </node>
  <node id="-780" lat="51.31980422832376" lon="-0.1408408432330954">
    <tag k="addr:postcode" v="CR5 9DF"/>
    <tag k="removemelater" v="yes"/>
  </node>
  <node id="-781" lat="51.31980422832376" lon="-0.1408408432330954">
    <tag k="addr:postcode" v="CR5 9DN"/>
    <tag k="removemelater" v="yes"/>
  </node>
  <node id="-782" lat="51.31980422832376" lon="-0.1408408432330954">
    <tag k="addr:postcode" v="CR5 9DQ"/>
    <tag k="removemelater" v="yes"/>
  </node>
  <node id="-783" lat="51.31980422832376" lon="-0.1408408432330954">
    <tag k="addr:postcode" v="CR5 9DY"/>
    <tag k="removemelater" v="yes"/>
  </node>
  <node id="-784" lat="51.31980422832376" lon="-0.1408408432330954">
    <tag k="addr:postcode" v="CR5 9EN"/>
    <tag k="removemelater" v="yes"/>
  </node>
  <node id="-785" lat="51.31980422832376" lon="-0.1408408432330954">
    <tag k="addr:postcode" v="CR5 9EP"/>
    <tag k="removemelater" v="yes"/>
  </node>
  <node id="-786" lat="51.31980422832376" lon="-0.1408408432330954">
    <tag k="addr:postcode" v="CR5 9EX"/>
    <tag k="removemelater" v="yes"/>
  </node>
  <node id="-787" lat="51.31980422832376" lon="-0.1408408432330954">
    <tag k="addr:postcode" v="CR5 9EZ"/>
    <tag k="removemelater" v="yes"/>
  </node>
  <node id="-788" lat="51.31980422832376" lon="-0.1408408432330954">
    <tag k="addr:postcode" v="CR5 9FA"/>
    <tag k="removemelater" v="yes"/>
  </node>
  <node id="-789" lat="51.31980422832376" lon="-0.1408408432330954">
    <tag k="addr:postcode" v="CR5 9FD"/>
    <tag k="removemelater" v="yes"/>
  </node>
  <node id="-790" lat="51.31980422832376" lon="-0.1408408432330954">
    <tag k="addr:postcode" v="CR5 9FE"/>
    <tag k="removemelater" v="yes"/>
  </node>
  <node id="-791" lat="51.31980422832376" lon="-0.1408408432330954">
    <tag k="addr:postcode" v="CR5 9FF"/>
    <tag k="removemelater" v="yes"/>
  </node>
  <node id="-792" lat="51.27955097718902" lon="-0.07399879994091611">
    <tag k="addr:postcode" v="CR6 0AJ"/>
    <tag k="removemelater" v="yes"/>
  </node>
  <node id="-793" lat="51.27955097718902" lon="-0.07399879994091611">
    <tag k="addr:postcode" v="CR6 0AP"/>
    <tag k="removemelater" v="yes"/>
  </node>
  <node id="-794" lat="51.27955097718902" lon="-0.07399879994091611">
    <tag k="addr:postcode" v="CR6 0AQ"/>
    <tag k="removemelater" v="yes"/>
  </node>
  <node id="-795" lat="51.27955097718902" lon="-0.07399879994091611">
    <tag k="addr:postcode" v="CR6 0BE"/>
    <tag k="removemelater" v="yes"/>
  </node>
  <node id="-796" lat="51.27955097718902" lon="-0.07399879994091611">
    <tag k="addr:postcode" v="CR6 0BG"/>
    <tag k="removemelater" v="yes"/>
  </node>
  <node id="-797" lat="51.27955097718902" lon="-0.07399879994091611">
    <tag k="addr:postcode" v="CR6 0BH"/>
    <tag k="removemelater" v="yes"/>
  </node>
  <node id="-798" lat="51.30994023608222" lon="-0.05563771105710868">
    <tag k="addr:postcode" v="CR6 9HA"/>
    <tag k="removemelater" v="yes"/>
  </node>
  <node id="-799" lat="51.309384793986204" lon="-0.056306858893458794">
    <tag k="addr:postcode" v="CR6 9NA"/>
    <tag k="removemelater" v="yes"/>
  </node>
  <node id="-800" lat="51.27955097718902" lon="-0.07399879994091611">
    <tag k="addr:postcode" v="CR6 9NR"/>
    <tag k="removemelater" v="yes"/>
  </node>
  <node id="-801" lat="51.3268063927996" lon="-0.006696048912336193">
    <tag k="addr:postcode" v="CR6 9PL"/>
    <tag k="removemelater" v="yes"/>
  </node>
  <node id="-802" lat="51.312673520377885" lon="-0.055062984661751344">
    <tag k="addr:postcode" v="CR6 9PR"/>
    <tag k="removemelater" v="yes"/>
  </node>
  <node id="-803" lat="51.32414764549393" lon="-0.031871434121182686">
    <tag k="addr:postcode" v="CR6 9PX"/>
    <tag k="removemelater" v="yes"/>
  </node>
  <node id="-804" lat="51.29919220072329" lon="-0.019598137238992435">
    <tag k="addr:postcode" v="CR6 9QL"/>
    <tag k="removemelater" v="yes"/>
  </node>
  <node id="-805" lat="51.31223464013361" lon="-0.06059158778060135">
    <tag k="addr:postcode" v="CR6 9RE"/>
    <tag k="removemelater" v="yes"/>
  </node>
  <node id="-806" lat="51.27955097718902" lon="-0.07399879994091611">
    <tag k="addr:postcode" v="CR6 9YS"/>
    <tag k="removemelater" v="yes"/>
  </node>
  <node id="-807" lat="51.39417788623258" lon="-0.11574788900997797">
    <tag k="addr:postcode" v="CR7 6AA"/>
    <tag k="removemelater" v="yes"/>
  </node>
  <node id="-808" lat="51.39254966520188" lon="-0.11571416829090139">
    <tag k="addr:postcode" v="CR7 6AB"/>
    <tag k="removemelater" v="yes"/>
  </node>
  <node id="-809" lat="51.3947043838267" lon="-0.11493564318631852">
    <tag k="addr:postcode" v="CR7 6AW"/>
    <tag k="removemelater" v="yes"/>
  </node>
  <node id="-810" lat="51.39509682252635" lon="-0.11529325834877321">
    <tag k="addr:postcode" v="CR7 6EQ"/>
    <tag k="removemelater" v="yes"/>
  </node>
  <node id="-811" lat="51.395523590030265" lon="-0.11554884366560154">
    <tag k="addr:postcode" v="CR7 6FD"/>
    <tag k="removemelater" v="yes"/>
  </node>
  <node id="-812" lat="51.39660273587171" lon="-0.11666889974692311">
    <tag k="addr:postcode" v="CR7 6HN"/>
    <tag k="removemelater" v="yes"/>
  </node>
  <node id="-813" lat="51.3958402274037" lon="-0.11622583755887861">
    <tag k="addr:postcode" v="CR7 6HT"/>
    <tag k="removemelater" v="yes"/>
  </node>
  <node id="-814" lat="51.39728711515285" lon="-0.11672704389204278">
    <tag k="addr:postcode" v="CR7 6HY"/>
    <tag k="removemelater" v="yes"/>
  </node>
  <node id="-815" lat="51.39586508683198" lon="-0.11553480978663927">
    <tag k="addr:postcode" v="CR7 6JD"/>
    <tag k="removemelater" v="yes"/>
  </node>
  <node id="-816" lat="51.39945709651342" lon="-0.11745736039954359">
    <tag k="addr:postcode" v="CR7 6JE"/>
    <tag k="removemelater" v="yes"/>
  </node>
  <node id="-817" lat="51.39679651909877" lon="-0.1164165583886847">
    <tag k="addr:postcode" v="CR7 6JH"/>
    <tag k="removemelater" v="yes"/>
  </node>
  <node id="-818" lat="51.39762422475119" lon="-0.11644006005277567">
    <tag k="addr:postcode" v="CR7 6JL"/>
    <tag k="removemelater" v="yes"/>
  </node>
  <node id="-819" lat="51.37806837812679" lon="-0.1132913020875735">
    <tag k="addr:postcode" v="CR7 6WA"/>
    <tag k="removemelater" v="yes"/>
  </node>
  <node id="-820" lat="51.37806837812679" lon="-0.1132913020875735">
    <tag k="addr:postcode" v="CR7 6WP"/>
    <tag k="removemelater" v="yes"/>
  </node>
  <node id="-821" lat="51.37806837812679" lon="-0.1132913020875735">
    <tag k="addr:postcode" v="CR7 6XF"/>
    <tag k="removemelater" v="yes"/>
  </node>
  <node id="-822" lat="51.37806837812679" lon="-0.1132913020875735">
    <tag k="addr:postcode" v="CR7 6YA"/>
    <tag k="removemelater" v="yes"/>
  </node>
  <node id="-823" lat="51.395333481892706" lon="-0.1154704062571578">
    <tag k="addr:postcode" v="CR7 6YY"/>
    <tag k="removemelater" v="yes"/>
  </node>
  <node id="-824" lat="51.39554656778313" lon="-0.09638595196216417">
    <tag k="addr:postcode" v="CR7 7AB"/>
    <tag k="removemelater" v="yes"/>
  </node>
  <node id="-825" lat="51.39781251240975" lon="-0.10080587399286714">
    <tag k="addr:postcode" v="CR7 7AJ"/>
    <tag k="removemelater" v="yes"/>
  </node>
  <node id="-826" lat="51.39441378191393" lon="-0.09640422642710007">
    <tag k="addr:postcode" v="CR7 7AL"/>
    <tag k="removemelater" v="yes"/>
  </node>
  <node id="-827" lat="51.3883312844028" lon="-0.11008086435147174">
    <tag k="addr:postcode" v="CR7 7FF"/>
    <tag k="removemelater" v="yes"/>
  </node>
  <node id="-828" lat="51.37806837812679" lon="-0.1132913020875735">
    <tag k="addr:postcode" v="CR7 7FJ"/>
    <tag k="removemelater" v="yes"/>
  </node>
  <node id="-829" lat="51.3876416219371" lon="-0.1102530059658042">
    <tag k="addr:postcode" v="CR7 7GY"/>
    <tag k="removemelater" v="yes"/>
  </node>
  <node id="-830" lat="51.38974343427493" lon="-0.10842724812222357">
    <tag k="addr:postcode" v="CR7 7HB"/>
    <tag k="removemelater" v="yes"/>
  </node>
  <node id="-831" lat="51.38990815248303" lon="-0.10804674950892056">
    <tag k="addr:postcode" v="CR7 7HE"/>
    <tag k="removemelater" v="yes"/>
  </node>
  <node id="-832" lat="51.38809146886806" lon="-0.1108237536348589">
    <tag k="addr:postcode" v="CR7 7HP"/>
    <tag k="removemelater" v="yes"/>
  </node>
  <node id="-833" lat="51.39175583203255" lon="-0.11165023599858388">
    <tag k="addr:postcode" v="CR7 7HR"/>
    <tag k="removemelater" v="yes"/>
  </node>
  <node id="-834" lat="51.398231197009856" lon="-0.09945157250086534">
    <tag k="addr:postcode" v="CR7 7JG"/>
    <tag k="removemelater" v="yes"/>
  </node>
  <node id="-835" lat="51.39779812347254" lon="-0.10158276152962205">
    <tag k="addr:postcode" v="CR7 7JJ"/>
    <tag k="removemelater" v="yes"/>
  </node>
  <node id="-836" lat="51.37806837812679" lon="-0.1132913020875735">
    <tag k="addr:postcode" v="CR7 7WA"/>
    <tag k="removemelater" v="yes"/>
  </node>
  <node id="-837" lat="51.37806837812679" lon="-0.1132913020875735">
    <tag k="addr:postcode" v="CR7 7WB"/>
    <tag k="removemelater" v="yes"/>
  </node>
  <node id="-838" lat="51.37806837812679" lon="-0.1132913020875735">
    <tag k="addr:postcode" v="CR7 7WD"/>
    <tag k="removemelater" v="yes"/>
  </node>
  <node id="-839" lat="51.37806837812679" lon="-0.1132913020875735">
    <tag k="addr:postcode" v="CR7 7WP"/>
    <tag k="removemelater" v="yes"/>
  </node>
  <node id="-840" lat="51.37806837812679" lon="-0.1132913020875735">
    <tag k="addr:postcode" v="CR7 7WS"/>
    <tag k="removemelater" v="yes"/>
  </node>
  <node id="-841" lat="51.37806837812679" lon="-0.1132913020875735">
    <tag k="addr:postcode" v="CR7 7WY"/>
    <tag k="removemelater" v="yes"/>
  </node>
  <node id="-842" lat="51.38890714649872" lon="-0.10787244550415123">
    <tag k="addr:postcode" v="CR7 7XN"/>
    <tag k="removemelater" v="yes"/>
  </node>
  <node id="-843" lat="51.38823298535814" lon="-0.1112347347729713">
    <tag k="addr:postcode" v="CR7 7YG"/>
    <tag k="removemelater" v="yes"/>
  </node>
  <node id="-844" lat="51.37806837812679" lon="-0.1132913020875735">
    <tag k="addr:postcode" v="CR7 7YH"/>
    <tag k="removemelater" v="yes"/>
  </node>
  <node id="-845" lat="51.398362268612054" lon="-0.09921612434330754">
    <tag k="addr:postcode" v="CR7 7YL"/>
    <tag k="removemelater" v="yes"/>
  </node>
  <node id="-846" lat="51.37806837812679" lon="-0.1132913020875735">
    <tag k="addr:postcode" v="CR7 7YQ"/>
    <tag k="removemelater" v="yes"/>
  </node>
  <node id="-847" lat="51.39894630845656" lon="-0.09420339241963241">
    <tag k="addr:postcode" v="CR7 8LD"/>
    <tag k="removemelater" v="yes"/>
  </node>
  <node id="-848" lat="51.3982360027997" lon="-0.09365787943049374">
    <tag k="addr:postcode" v="CR7 8LE"/>
    <tag k="removemelater" v="yes"/>
  </node>
  <node id="-849" lat="51.39870939935147" lon="-0.09511893190865531">
    <tag k="addr:postcode" v="CR7 8LF"/>
    <tag k="removemelater" v="yes"/>
  </node>
  <node id="-850" lat="51.39936705686298" lon="-0.0974061882948041">
    <tag k="addr:postcode" v="CR7 8LG"/>
    <tag k="removemelater" v="yes"/>
  </node>
  <node id="-851" lat="51.407650528315855" lon="-0.09747935810478921">
    <tag k="addr:postcode" v="CR7 8PN"/>
    <tag k="removemelater" v="yes"/>
  </node>
  <node id="-852" lat="51.39834641765388" lon="-0.09823921712802071">
    <tag k="addr:postcode" v="CR7 8RA"/>
    <tag k="removemelater" v="yes"/>
  </node>
  <node id="-853" lat="51.39788951240441" lon="-0.09723748573484486">
    <tag k="addr:postcode" v="CR7 8RD"/>
    <tag k="removemelater" v="yes"/>
  </node>
  <node id="-854" lat="51.39804239572107" lon="-0.09447097703064346">
    <tag k="addr:postcode" v="CR7 8RT"/>
    <tag k="removemelater" v="yes"/>
  </node>
  <node id="-855" lat="51.39803445151867" lon="-0.09398252806414786">
    <tag k="addr:postcode" v="CR7 8RU"/>
    <tag k="removemelater" v="yes"/>
  </node>
  <node id="-856" lat="51.39841237289433" lon="-0.09510251995652567">
    <tag k="addr:postcode" v="CR7 8RW"/>
    <tag k="removemelater" v="yes"/>
  </node>
  <node id="-857" lat="51.39835830969828" lon="-0.09343715491362564">
    <tag k="addr:postcode" v="CR7 8SG"/>
    <tag k="removemelater" v="yes"/>
  </node>
  <node id="-858" lat="51.397500053236996" lon="-0.09706676344282793">
    <tag k="addr:postcode" v="CR7 8SN"/>
    <tag k="removemelater" v="yes"/>
  </node>
  <node id="-859" lat="51.399125071402594" lon="-0.0996732916976543">
    <tag k="addr:postcode" v="CR7 8SQ"/>
    <tag k="removemelater" v="yes"/>
  </node>
  <node id="-860" lat="51.39900415037301" lon="-0.09998020260872155">
    <tag k="addr:postcode" v="CR7 8SR"/>
    <tag k="removemelater" v="yes"/>
  </node>
  <node id="-861" lat="51.37806837812679" lon="-0.1132913020875735">
    <tag k="addr:postcode" v="CR7 8US"/>
    <tag k="removemelater" v="yes"/>
  </node>
  <node id="-862" lat="51.37806837812679" lon="-0.1132913020875735">
    <tag k="addr:postcode" v="CR7 8UX"/>
    <tag k="removemelater" v="yes"/>
  </node>
  <node id="-863" lat="51.37806837812679" lon="-0.1132913020875735">
    <tag k="addr:postcode" v="CR7 8XJ"/>
    <tag k="removemelater" v="yes"/>
  </node>
  <node id="-864" lat="51.399039681900526" lon="-0.09773604872714602">
    <tag k="addr:postcode" v="CR7 8YT"/>
    <tag k="removemelater" v="yes"/>
  </node>
  <node id="-865" lat="51.39903467335967" lon="-0.09576672184940836">
    <tag k="addr:postcode" v="CR7 8YY"/>
    <tag k="removemelater" v="yes"/>
  </node>
  <node id="-866" lat="51.37806837812679" lon="-0.1132913020875735">
    <tag k="addr:postcode" v="CR7 9AS"/>
    <tag k="removemelater" v="yes"/>
  </node>
  <node id="-867" lat="51.37806837812679" lon="-0.1132913020875735">
    <tag k="addr:postcode" v="CR7 9BE"/>
    <tag k="removemelater" v="yes"/>
  </node>
  <node id="-868" lat="51.37806837812679" lon="-0.1132913020875735">
    <tag k="addr:postcode" v="CR7 9BL"/>
    <tag k="removemelater" v="yes"/>
  </node>
  <node id="-869" lat="51.37806837812679" lon="-0.1132913020875735">
    <tag k="addr:postcode" v="CR7 9BN"/>
    <tag k="removemelater" v="yes"/>
  </node>
  <node id="-870" lat="51.37806837812679" lon="-0.1132913020875735">
    <tag k="addr:postcode" v="CR7 9BP"/>
    <tag k="removemelater" v="yes"/>
  </node>
  <node id="-871" lat="51.37806837812679" lon="-0.1132913020875735">
    <tag k="addr:postcode" v="CR7 9BQ"/>
    <tag k="removemelater" v="yes"/>
  </node>
  <node id="-872" lat="51.37806837812679" lon="-0.1132913020875735">
    <tag k="addr:postcode" v="CR7 9DR"/>
    <tag k="removemelater" v="yes"/>
  </node>
  <node id="-873" lat="51.37806837812679" lon="-0.1132913020875735">
    <tag k="addr:postcode" v="CR7 9DS"/>
    <tag k="removemelater" v="yes"/>
  </node>
  <node id="-874" lat="51.37806837812679" lon="-0.1132913020875735">
    <tag k="addr:postcode" v="CR7 9DX"/>
    <tag k="removemelater" v="yes"/>
  </node>
  <node id="-875" lat="51.37806837812679" lon="-0.1132913020875735">
    <tag k="addr:postcode" v="CR7 9EA"/>
    <tag k="removemelater" v="yes"/>
  </node>
  <node id="-876" lat="51.37806837812679" lon="-0.1132913020875735">
    <tag k="addr:postcode" v="CR7 9EE"/>
    <tag k="removemelater" v="yes"/>
  </node>
  <node id="-877" lat="51.37806837812679" lon="-0.1132913020875735">
    <tag k="addr:postcode" v="CR7 9EF"/>
    <tag k="removemelater" v="yes"/>
  </node>
  <node id="-878" lat="51.37806837812679" lon="-0.1132913020875735">
    <tag k="addr:postcode" v="CR7 9EP"/>
    <tag k="removemelater" v="yes"/>
  </node>
  <node id="-879" lat="51.37806837812679" lon="-0.1132913020875735">
    <tag k="addr:postcode" v="CR7 9EQ"/>
    <tag k="removemelater" v="yes"/>
  </node>
  <node id="-880" lat="51.33285665763475" lon="-0.10795584468735996">
    <tag k="addr:postcode" v="CR8 1BF"/>
    <tag k="removemelater" v="yes"/>
  </node>
  <node id="-881" lat="51.331498356139946" lon="-0.10904532048910112">
    <tag k="addr:postcode" v="CR8 1BU"/>
    <tag k="removemelater" v="yes"/>
  </node>
  <node id="-882" lat="51.343887171219684" lon="-0.10550571498457374">
    <tag k="addr:postcode" v="CR8 1HA"/>
    <tag k="removemelater" v="yes"/>
  </node>
  <node id="-883" lat="51.33951633953478" lon="-0.11440093666262126">
    <tag k="addr:postcode" v="CR8 2AH"/>
    <tag k="removemelater" v="yes"/>
  </node>
  <node id="-884" lat="51.339387007530284" lon="-0.11307100097864582">
    <tag k="addr:postcode" v="CR8 2AX"/>
    <tag k="removemelater" v="yes"/>
  </node>
  <node id="-885" lat="51.34552968552187" lon="-0.10364305485792623">
    <tag k="addr:postcode" v="CR8 2BG"/>
    <tag k="removemelater" v="yes"/>
  </node>
  <node id="-886" lat="51.34112952796189" lon="-0.11294200700315453">
    <tag k="addr:postcode" v="CR8 2BH"/>
    <tag k="removemelater" v="yes"/>
  </node>
  <node id="-887" lat="51.3413908092036" lon="-0.11241438481610824">
    <tag k="addr:postcode" v="CR8 2BR"/>
    <tag k="removemelater" v="yes"/>
  </node>
  <node id="-888" lat="51.338555723585245" lon="-0.11617757657691904">
    <tag k="addr:postcode" v="CR8 2BX"/>
    <tag k="removemelater" v="yes"/>
  </node>
  <node id="-889" lat="51.33200818729734" lon="-0.1105459909113276">
    <tag k="addr:postcode" v="CR8 2DE"/>
    <tag k="removemelater" v="yes"/>
  </node>
  <node id="-890" lat="51.33085917883667" lon="-0.10955968010258195">
    <tag k="addr:postcode" v="CR8 2DF"/>
    <tag k="removemelater" v="yes"/>
  </node>
  <node id="-891" lat="51.33242191929311" lon="-0.11222290512231871">
    <tag k="addr:postcode" v="CR8 2DG"/>
    <tag k="removemelater" v="yes"/>
  </node>
  <node id="-892" lat="51.3322126782996" lon="-0.11207359214163108">
    <tag k="addr:postcode" v="CR8 2DJ"/>
    <tag k="removemelater" v="yes"/>
  </node>
  <node id="-893" lat="51.33177869533779" lon="-0.1108138167305417">
    <tag k="addr:postcode" v="CR8 2DU"/>
    <tag k="removemelater" v="yes"/>
  </node>
  <node id="-894" lat="51.33034349964922" lon="-0.10992540082001265">
    <tag k="addr:postcode" v="CR8 2DW"/>
    <tag k="removemelater" v="yes"/>
  </node>
  <node id="-895" lat="51.3343133735747" lon="-0.11352337420553524">
    <tag k="addr:postcode" v="CR8 2ED"/>
    <tag k="removemelater" v="yes"/>
  </node>
  <node id="-896" lat="51.338074077576316" lon="-0.11474726146869588">
    <tag k="addr:postcode" v="CR8 2EZ"/>
    <tag k="removemelater" v="yes"/>
  </node>
  <node id="-897" lat="51.340789211618336" lon="-0.11358773137855792">
    <tag k="addr:postcode" v="CR8 2FB"/>
    <tag k="removemelater" v="yes"/>
  </node>
  <node id="-898" lat="51.340789211618336" lon="-0.11358773137855792">
    <tag k="addr:postcode" v="CR8 2FD"/>
    <tag k="removemelater" v="yes"/>
  </node>
  <node id="-899" lat="51.33917666492221" lon="-0.11396979686923296">
    <tag k="addr:postcode" v="CR8 2FF"/>
    <tag k="removemelater" v="yes"/>
  </node>
  <node id="-900" lat="51.33917666492221" lon="-0.11396979686923296">
    <tag k="addr:postcode" v="CR8 2FG"/>
    <tag k="removemelater" v="yes"/>
  </node>
  <node id="-901" lat="51.33917666492221" lon="-0.11396979686923296">
    <tag k="addr:postcode" v="CR8 2FH"/>
    <tag k="removemelater" v="yes"/>
  </node>
  <node id="-902" lat="51.338747664350514" lon="-0.11581077629619281">
    <tag k="addr:postcode" v="CR8 2FQ"/>
    <tag k="removemelater" v="yes"/>
  </node>
  <node id="-903" lat="51.33925946701292" lon="-0.11632101342839828">
    <tag k="addr:postcode" v="CR8 2HW"/>
    <tag k="removemelater" v="yes"/>
  </node>
  <node id="-904" lat="51.33960142878434" lon="-0.11633570958272234">
    <tag k="addr:postcode" v="CR8 2LH"/>
    <tag k="removemelater" v="yes"/>
  </node>
  <node id="-905" lat="51.33920646893362" lon="-0.11638061564940497">
    <tag k="addr:postcode" v="CR8 2LQ"/>
    <tag k="removemelater" v="yes"/>
  </node>
  <node id="-906" lat="51.33983828835482" lon="-0.11540711365283639">
    <tag k="addr:postcode" v="CR8 2LT"/>
    <tag k="removemelater" v="yes"/>
  </node>
  <node id="-907" lat="51.34164039005118" lon="-0.11283487591938901">
    <tag k="addr:postcode" v="CR8 2NL"/>
    <tag k="removemelater" v="yes"/>
  </node>
  <node id="-908" lat="51.344363006646" lon="-0.10545737441715085">
    <tag k="addr:postcode" v="CR8 2PG"/>
    <tag k="removemelater" v="yes"/>
  </node>
  <node id="-909" lat="51.33769614683803" lon="-0.11417413305321236">
    <tag k="addr:postcode" v="CR8 2UD"/>
    <tag k="removemelater" v="yes"/>
  </node>
  <node id="-910" lat="51.34079344860337" lon="-0.11608583034975598">
    <tag k="addr:postcode" v="CR8 2UU"/>
    <tag k="removemelater" v="yes"/>
  </node>
  <node id="-911" lat="51.33888410668778" lon="-0.11702555109769557">
    <tag k="addr:postcode" v="CR8 2XL"/>
    <tag k="removemelater" v="yes"/>
  </node>
  <node id="-912" lat="51.33982464133901" lon="-0.11400062980073532">
    <tag k="addr:postcode" v="CR8 2XT"/>
    <tag k="removemelater" v="yes"/>
  </node>
  <node id="-913" lat="51.3396338995621" lon="-0.1155590720401104">
    <tag k="addr:postcode" v="CR8 2YX"/>
    <tag k="removemelater" v="yes"/>
  </node>
  <node id="-914" lat="51.33945144467058" lon="-0.11819397135356387">
    <tag k="addr:postcode" v="CR8 3EF"/>
    <tag k="removemelater" v="yes"/>
  </node>
  <node id="-915" lat="51.33201453797949" lon="-0.12492958092064133">
    <tag k="addr:postcode" v="CR8 4AB"/>
    <tag k="removemelater" v="yes"/>
  </node>
  <node id="-916" lat="51.333298820390446" lon="-0.12314016497241323">
    <tag k="addr:postcode" v="CR8 4DA"/>
    <tag k="removemelater" v="yes"/>
  </node>
  <node id="-917" lat="51.32214434839751" lon="-0.12573399688543957">
    <tag k="addr:postcode" v="CR8 4EG"/>
    <tag k="removemelater" v="yes"/>
  </node>
  <node id="-918" lat="51.322737908723525" lon="-0.12629824133780082">
    <tag k="addr:postcode" v="CR8 4EJ"/>
    <tag k="removemelater" v="yes"/>
  </node>
  <node id="-919" lat="51.3311290702996" lon="-0.12298473465763231">
    <tag k="addr:postcode" v="CR8 4EU"/>
    <tag k="removemelater" v="yes"/>
  </node>
  <node id="-920" lat="51.331544203011404" lon="-0.12532199837199598">
    <tag k="addr:postcode" v="CR8 4EX"/>
    <tag k="removemelater" v="yes"/>
  </node>
  <node id="-921" lat="51.32939029539716" lon="-0.1261562697495398">
    <tag k="addr:postcode" v="CR8 4HE"/>
    <tag k="removemelater" v="yes"/>
  </node>
  <node id="-922" lat="51.32846739711825" lon="-0.12636614016268605">
    <tag k="addr:postcode" v="CR8 4HS"/>
    <tag k="removemelater" v="yes"/>
  </node>
  <node id="-923" lat="51.316163800744214" lon="-0.08513705045348156">
    <tag k="addr:postcode" v="CR8 5AT"/>
    <tag k="removemelater" v="yes"/>
  </node>
  <node id="-924" lat="51.31696627551842" lon="-0.08636647861408846">
    <tag k="addr:postcode" v="CR8 5AU"/>
    <tag k="removemelater" v="yes"/>
  </node>
  <node id="-925" lat="51.3217791173809" lon="-0.09916906951832981">
    <tag k="addr:postcode" v="CR8 5DU"/>
    <tag k="removemelater" v="yes"/>
  </node>
  <node id="-926" lat="51.327782361529245" lon="-0.1061408206214228">
    <tag k="addr:postcode" v="CR8 5FF"/>
    <tag k="removemelater" v="yes"/>
  </node>
  <node id="-927" lat="51.32896342105524" lon="-0.10966635660194295">
    <tag k="addr:postcode" v="CR8 5NA"/>
    <tag k="removemelater" v="yes"/>
  </node>
  <node id="-928" lat="51.37806837812679" lon="-0.1132913020875735">
    <tag k="addr:postcode" v="CR9 0AE"/>
    <tag k="removemelater" v="yes"/>
  </node>
  <node id="-929" lat="51.37806837812679" lon="-0.1132913020875735">
    <tag k="addr:postcode" v="CR9 0XJ"/>
    <tag k="removemelater" v="yes"/>
  </node>
  <node id="-930" lat="51.37806837812679" lon="-0.1132913020875735">
    <tag k="addr:postcode" v="CR9 1AA"/>
    <tag k="removemelater" v="yes"/>
  </node>
  <node id="-931" lat="51.37806837812679" lon="-0.1132913020875735">
    <tag k="addr:postcode" v="CR9 1AH"/>
    <tag k="removemelater" v="yes"/>
  </node>
  <node id="-932" lat="51.363800333481144" lon="-0.09793247114986584">
    <tag k="addr:postcode" v="CR9 1AR"/>
    <tag k="removemelater" v="yes"/>
  </node>
  <node id="-933" lat="51.376876631678925" lon="-0.09964645524397736">
    <tag k="addr:postcode" v="CR9 1AT"/>
    <tag k="removemelater" v="yes"/>
  </node>
  <node id="-934" lat="51.371454578516186" lon="-0.09580496242397672">
    <tag k="addr:postcode" v="CR9 1BG"/>
    <tag k="removemelater" v="yes"/>
  </node>
  <node id="-935" lat="51.371574276923" lon="-0.09874534507323181">
    <tag k="addr:postcode" v="CR9 1BJ"/>
    <tag k="removemelater" v="yes"/>
  </node>
  <node id="-936" lat="51.371574276923" lon="-0.09874534507323181">
    <tag k="addr:postcode" v="CR9 1BQ"/>
    <tag k="removemelater" v="yes"/>
  </node>
  <node id="-937" lat="51.371574276923" lon="-0.09874534507323181">
    <tag k="addr:postcode" v="CR9 1BS"/>
    <tag k="removemelater" v="yes"/>
  </node>
  <node id="-938" lat="51.37806837812679" lon="-0.1132913020875735">
    <tag k="addr:postcode" v="CR9 1BX"/>
    <tag k="removemelater" v="yes"/>
  </node>
  <node id="-939" lat="51.37216307294018" lon="-0.09900830799292668">
    <tag k="addr:postcode" v="CR9 1DE"/>
    <tag k="removemelater" v="yes"/>
  </node>
  <node id="-940" lat="51.36922963896337" lon="-0.1000061794810915">
    <tag k="addr:postcode" v="CR9 1DF"/>
    <tag k="removemelater" v="yes"/>
  </node>
  <node id="-941" lat="51.37806837812679" lon="-0.1132913020875735">
    <tag k="addr:postcode" v="CR9 1EB"/>
    <tag k="removemelater" v="yes"/>
  </node>
  <node id="-942" lat="51.37806837812679" lon="-0.1132913020875735">
    <tag k="addr:postcode" v="CR9 1EN"/>
    <tag k="removemelater" v="yes"/>
  </node>
  <node id="-943" lat="51.37806837812679" lon="-0.1132913020875735">
    <tag k="addr:postcode" v="CR9 1EQ"/>
    <tag k="removemelater" v="yes"/>
  </node>
  <node id="-944" lat="51.37368441825251" lon="-0.09799698733552732">
    <tag k="addr:postcode" v="CR9 1ES"/>
    <tag k="removemelater" v="yes"/>
  </node>
  <node id="-945" lat="51.37806837812679" lon="-0.1132913020875735">
    <tag k="addr:postcode" v="CR9 1HR"/>
    <tag k="removemelater" v="yes"/>
  </node>
  <node id="-946" lat="51.37216307294018" lon="-0.09900830799292668">
    <tag k="addr:postcode" v="CR9 1JA"/>
    <tag k="removemelater" v="yes"/>
  </node>
  <node id="-947" lat="51.37806837812679" lon="-0.1132913020875735">
    <tag k="addr:postcode" v="CR9 1JB"/>
    <tag k="removemelater" v="yes"/>
  </node>
  <node id="-948" lat="51.37806837812679" lon="-0.1132913020875735">
    <tag k="addr:postcode" v="CR9 1JH"/>
    <tag k="removemelater" v="yes"/>
  </node>
  <node id="-949" lat="51.371574276923" lon="-0.09874534507323181">
    <tag k="addr:postcode" v="CR9 1JL"/>
    <tag k="removemelater" v="yes"/>
  </node>
  <node id="-950" lat="51.37806837812679" lon="-0.1132913020875735">
    <tag k="addr:postcode" v="CR9 1JY"/>
    <tag k="removemelater" v="yes"/>
  </node>
  <node id="-951" lat="51.37379003151313" lon="-0.0984092893394677">
    <tag k="addr:postcode" v="CR9 1NE"/>
    <tag k="removemelater" v="yes"/>
  </node>
  <node id="-952" lat="51.374530707643736" lon="-0.09639574714700429">
    <tag k="addr:postcode" v="CR9 1NG"/>
    <tag k="removemelater" v="yes"/>
  </node>
  <node id="-953" lat="51.37806837812679" lon="-0.1132913020875735">
    <tag k="addr:postcode" v="CR9 1NQ"/>
    <tag k="removemelater" v="yes"/>
  </node>
  <node id="-954" lat="51.36699584663417" lon="-0.09867639552784811">
    <tag k="addr:postcode" v="CR9 1NS"/>
    <tag k="removemelater" v="yes"/>
  </node>
  <node id="-955" lat="51.36991588933911" lon="-0.10017891006799881">
    <tag k="addr:postcode" v="CR9 1PB"/>
    <tag k="removemelater" v="yes"/>
  </node>
  <node id="-956" lat="51.37216307294018" lon="-0.09900830799292668">
    <tag k="addr:postcode" v="CR9 1QB"/>
    <tag k="removemelater" v="yes"/>
  </node>
  <node id="-957" lat="51.37216307294018" lon="-0.09900830799292668">
    <tag k="addr:postcode" v="CR9 1QD"/>
    <tag k="removemelater" v="yes"/>
  </node>
  <node id="-958" lat="51.37216307294018" lon="-0.09900830799292668">
    <tag k="addr:postcode" v="CR9 1QE"/>
    <tag k="removemelater" v="yes"/>
  </node>
  <node id="-959" lat="51.37216307294018" lon="-0.09900830799292668">
    <tag k="addr:postcode" v="CR9 1QF"/>
    <tag k="removemelater" v="yes"/>
  </node>
  <node id="-960" lat="51.37216307294018" lon="-0.09900830799292668">
    <tag k="addr:postcode" v="CR9 1QG"/>
    <tag k="removemelater" v="yes"/>
  </node>
  <node id="-961" lat="51.37216307294018" lon="-0.09900830799292668">
    <tag k="addr:postcode" v="CR9 1QH"/>
    <tag k="removemelater" v="yes"/>
  </node>
  <node id="-962" lat="51.37216307294018" lon="-0.09900830799292668">
    <tag k="addr:postcode" v="CR9 1QJ"/>
    <tag k="removemelater" v="yes"/>
  </node>
  <node id="-963" lat="51.37216307294018" lon="-0.09900830799292668">
    <tag k="addr:postcode" v="CR9 1QL"/>
    <tag k="removemelater" v="yes"/>
  </node>
  <node id="-964" lat="51.37216307294018" lon="-0.09900830799292668">
    <tag k="addr:postcode" v="CR9 1QN"/>
    <tag k="removemelater" v="yes"/>
  </node>
  <node id="-965" lat="51.37216307294018" lon="-0.09900830799292668">
    <tag k="addr:postcode" v="CR9 1QP"/>
    <tag k="removemelater" v="yes"/>
  </node>
  <node id="-966" lat="51.37216307294018" lon="-0.09900830799292668">
    <tag k="addr:postcode" v="CR9 1QR"/>
    <tag k="removemelater" v="yes"/>
  </node>
  <node id="-967" lat="51.37216307294018" lon="-0.09900830799292668">
    <tag k="addr:postcode" v="CR9 1QT"/>
    <tag k="removemelater" v="yes"/>
  </node>
  <node id="-968" lat="51.37216307294018" lon="-0.09900830799292668">
    <tag k="addr:postcode" v="CR9 1QU"/>
    <tag k="removemelater" v="yes"/>
  </node>
  <node id="-969" lat="51.37216307294018" lon="-0.09900830799292668">
    <tag k="addr:postcode" v="CR9 1QW"/>
    <tag k="removemelater" v="yes"/>
  </node>
  <node id="-970" lat="51.37216307294018" lon="-0.09900830799292668">
    <tag k="addr:postcode" v="CR9 1QX"/>
    <tag k="removemelater" v="yes"/>
  </node>
  <node id="-971" lat="51.37216307294018" lon="-0.09900830799292668">
    <tag k="addr:postcode" v="CR9 1RA"/>
    <tag k="removemelater" v="yes"/>
  </node>
  <node id="-972" lat="51.37216307294018" lon="-0.09900830799292668">
    <tag k="addr:postcode" v="CR9 1RB"/>
    <tag k="removemelater" v="yes"/>
  </node>
  <node id="-973" lat="51.37216307294018" lon="-0.09900830799292668">
    <tag k="addr:postcode" v="CR9 1RD"/>
    <tag k="removemelater" v="yes"/>
  </node>
  <node id="-974" lat="51.37806837812679" lon="-0.1132913020875735">
    <tag k="addr:postcode" v="CR9 1RE"/>
    <tag k="removemelater" v="yes"/>
  </node>
  <node id="-975" lat="51.37806837812679" lon="-0.1132913020875735">
    <tag k="addr:postcode" v="CR9 1RF"/>
    <tag k="removemelater" v="yes"/>
  </node>
  <node id="-976" lat="51.37216307294018" lon="-0.09900830799292668">
    <tag k="addr:postcode" v="CR9 1RH"/>
    <tag k="removemelater" v="yes"/>
  </node>
  <node id="-977" lat="51.37216307294018" lon="-0.09900830799292668">
    <tag k="addr:postcode" v="CR9 1RJ"/>
    <tag k="removemelater" v="yes"/>
  </node>
  <node id="-978" lat="51.37216307294018" lon="-0.09900830799292668">
    <tag k="addr:postcode" v="CR9 1RL"/>
    <tag k="removemelater" v="yes"/>
  </node>
  <node id="-979" lat="51.37216307294018" lon="-0.09900830799292668">
    <tag k="addr:postcode" v="CR9 1RP"/>
    <tag k="removemelater" v="yes"/>
  </node>
  <node id="-980" lat="51.37216307294018" lon="-0.09900830799292668">
    <tag k="addr:postcode" v="CR9 1RS"/>
    <tag k="removemelater" v="yes"/>
  </node>
  <node id="-981" lat="51.37216307294018" lon="-0.09900830799292668">
    <tag k="addr:postcode" v="CR9 1RU"/>
    <tag k="removemelater" v="yes"/>
  </node>
  <node id="-982" lat="51.37216307294018" lon="-0.09900830799292668">
    <tag k="addr:postcode" v="CR9 1RW"/>
    <tag k="removemelater" v="yes"/>
  </node>
  <node id="-983" lat="51.37216307294018" lon="-0.09900830799292668">
    <tag k="addr:postcode" v="CR9 1RX"/>
    <tag k="removemelater" v="yes"/>
  </node>
  <node id="-984" lat="51.37216307294018" lon="-0.09900830799292668">
    <tag k="addr:postcode" v="CR9 1RY"/>
    <tag k="removemelater" v="yes"/>
  </node>
  <node id="-985" lat="51.37216307294018" lon="-0.09900830799292668">
    <tag k="addr:postcode" v="CR9 1RZ"/>
    <tag k="removemelater" v="yes"/>
  </node>
  <node id="-986" lat="51.37216307294018" lon="-0.09900830799292668">
    <tag k="addr:postcode" v="CR9 1SA"/>
    <tag k="removemelater" v="yes"/>
  </node>
  <node id="-987" lat="51.37627340511946" lon="-0.10126639837745699">
    <tag k="addr:postcode" v="CR9 1SD"/>
    <tag k="removemelater" v="yes"/>
  </node>
  <node id="-988" lat="51.37806837812679" lon="-0.1132913020875735">
    <tag k="addr:postcode" v="CR9 1SJ"/>
    <tag k="removemelater" v="yes"/>
  </node>
  <node id="-989" lat="51.37806837812679" lon="-0.1132913020875735">
    <tag k="addr:postcode" v="CR9 1SQ"/>
    <tag k="removemelater" v="yes"/>
  </node>
  <node id="-990" lat="51.373963498932326" lon="-0.09580143828638575">
    <tag k="addr:postcode" v="CR9 1SR"/>
    <tag k="removemelater" v="yes"/>
  </node>
  <node id="-991" lat="51.37394812962267" lon="-0.09983956787719031">
    <tag k="addr:postcode" v="CR9 1SS"/>
    <tag k="removemelater" v="yes"/>
  </node>
  <node id="-992" lat="51.373899425500966" lon="-0.10071804949606765">
    <tag k="addr:postcode" v="CR9 1SX"/>
    <tag k="removemelater" v="yes"/>
  </node>
  <node id="-993" lat="51.37886367937527" lon="-0.09740868302726759">
    <tag k="addr:postcode" v="CR9 1TX"/>
    <tag k="removemelater" v="yes"/>
  </node>
  <node id="-994" lat="51.37806837812679" lon="-0.1132913020875735">
    <tag k="addr:postcode" v="CR9 1WA"/>
    <tag k="removemelater" v="yes"/>
  </node>
  <node id="-995" lat="51.37806837812679" lon="-0.1132913020875735">
    <tag k="addr:postcode" v="CR9 1WN"/>
    <tag k="removemelater" v="yes"/>
  </node>
  <node id="-996" lat="51.37806837812679" lon="-0.1132913020875735">
    <tag k="addr:postcode" v="CR9 1WX"/>
    <tag k="removemelater" v="yes"/>
  </node>
  <node id="-997" lat="51.37806837812679" lon="-0.1132913020875735">
    <tag k="addr:postcode" v="CR9 1XH"/>
    <tag k="removemelater" v="yes"/>
  </node>
  <node id="-998" lat="51.37806837812679" lon="-0.1132913020875735">
    <tag k="addr:postcode" v="CR9 1XL"/>
    <tag k="removemelater" v="yes"/>
  </node>
  <node id="-999" lat="51.37806837812679" lon="-0.1132913020875735">
    <tag k="addr:postcode" v="CR9 1XQ"/>
    <tag k="removemelater" v="yes"/>
  </node>
  <node id="-1000" lat="51.37806837812679" lon="-0.1132913020875735">
    <tag k="addr:postcode" v="CR9 1XR"/>
    <tag k="removemelater" v="yes"/>
  </node>
  <node id="-1001" lat="51.37806837812679" lon="-0.1132913020875735">
    <tag k="addr:postcode" v="CR9 1XU"/>
    <tag k="removemelater" v="yes"/>
  </node>
  <node id="-1002" lat="51.37216307294018" lon="-0.09900830799292668">
    <tag k="addr:postcode" v="CR9 1XW"/>
    <tag k="removemelater" v="yes"/>
  </node>
  <node id="-1003" lat="51.37806837812679" lon="-0.1132913020875735">
    <tag k="addr:postcode" v="CR9 1YB"/>
    <tag k="removemelater" v="yes"/>
  </node>
  <node id="-1004" lat="51.37806837812679" lon="-0.1132913020875735">
    <tag k="addr:postcode" v="CR9 1YE"/>
    <tag k="removemelater" v="yes"/>
  </node>
  <node id="-1005" lat="51.37806837812679" lon="-0.1132913020875735">
    <tag k="addr:postcode" v="CR9 1YG"/>
    <tag k="removemelater" v="yes"/>
  </node>
  <node id="-1006" lat="51.37806837812679" lon="-0.1132913020875735">
    <tag k="addr:postcode" v="CR9 1YZ"/>
    <tag k="removemelater" v="yes"/>
  </node>
  <node id="-1007" lat="51.37806837812679" lon="-0.1132913020875735">
    <tag k="addr:postcode" v="CR9 1ZH"/>
    <tag k="removemelater" v="yes"/>
  </node>
  <node id="-1008" lat="51.37806837812679" lon="-0.1132913020875735">
    <tag k="addr:postcode" v="CR9 1ZN"/>
    <tag k="removemelater" v="yes"/>
  </node>
  <node id="-1009" lat="51.37806837812679" lon="-0.1132913020875735">
    <tag k="addr:postcode" v="CR9 1ZQ"/>
    <tag k="removemelater" v="yes"/>
  </node>
  <node id="-1010" lat="51.37508062026302" lon="-0.09814028003177555">
    <tag k="addr:postcode" v="CR9 2AA"/>
    <tag k="removemelater" v="yes"/>
  </node>
  <node id="-1011" lat="51.37682965552868" lon="-0.09730622110668605">
    <tag k="addr:postcode" v="CR9 2AN"/>
    <tag k="removemelater" v="yes"/>
  </node>
  <node id="-1012" lat="51.37806837812679" lon="-0.1132913020875735">
    <tag k="addr:postcode" v="CR9 2AW"/>
    <tag k="removemelater" v="yes"/>
  </node>
  <node id="-1013" lat="51.378384565521735" lon="-0.0983625793910409">
    <tag k="addr:postcode" v="CR9 2BY"/>
    <tag k="removemelater" v="yes"/>
  </node>
  <node id="-1014" lat="51.37806837812679" lon="-0.1132913020875735">
    <tag k="addr:postcode" v="CR9 2DB"/>
    <tag k="removemelater" v="yes"/>
  </node>
  <node id="-1015" lat="51.378110678858725" lon="-0.09534194382696236">
    <tag k="addr:postcode" v="CR9 2DX"/>
    <tag k="removemelater" v="yes"/>
  </node>
  <node id="-1016" lat="51.38172740054068" lon="-0.09710310681307956">
    <tag k="addr:postcode" v="CR9 2ED"/>
    <tag k="removemelater" v="yes"/>
  </node>
  <node id="-1017" lat="51.37857448416674" lon="-0.09510714477701603">
    <tag k="addr:postcode" v="CR9 2EF"/>
    <tag k="removemelater" v="yes"/>
  </node>
  <node id="-1018" lat="51.37633341161303" lon="-0.09665145240207895">
    <tag k="addr:postcode" v="CR9 2ER"/>
    <tag k="removemelater" v="yes"/>
  </node>
  <node id="-1019" lat="51.37806837812679" lon="-0.1132913020875735">
    <tag k="addr:postcode" v="CR9 2ES"/>
    <tag k="removemelater" v="yes"/>
  </node>
  <node id="-1020" lat="51.377332221092814" lon="-0.09613583299975242">
    <tag k="addr:postcode" v="CR9 2JT"/>
    <tag k="removemelater" v="yes"/>
  </node>
  <node id="-1021" lat="51.37806837812679" lon="-0.1132913020875735">
    <tag k="addr:postcode" v="CR9 2LZ"/>
    <tag k="removemelater" v="yes"/>
  </node>
  <node id="-1022" lat="51.3748515434615" lon="-0.09455762785950247">
    <tag k="addr:postcode" v="CR9 2NS"/>
    <tag k="removemelater" v="yes"/>
  </node>
  <node id="-1023" lat="51.37806837812679" lon="-0.1132913020875735">
    <tag k="addr:postcode" v="CR9 2RF"/>
    <tag k="removemelater" v="yes"/>
  </node>
  <node id="-1024" lat="51.37806837812679" lon="-0.1132913020875735">
    <tag k="addr:postcode" v="CR9 2RR"/>
    <tag k="removemelater" v="yes"/>
  </node>
  <node id="-1025" lat="51.37806837812679" lon="-0.1132913020875735">
    <tag k="addr:postcode" v="CR9 2RW"/>
    <tag k="removemelater" v="yes"/>
  </node>
  <node id="-1026" lat="51.37806837812679" lon="-0.1132913020875735">
    <tag k="addr:postcode" v="CR9 2RX"/>
    <tag k="removemelater" v="yes"/>
  </node>
  <node id="-1027" lat="51.37806837812679" lon="-0.1132913020875735">
    <tag k="addr:postcode" v="CR9 2RY"/>
    <tag k="removemelater" v="yes"/>
  </node>
  <node id="-1028" lat="51.37806837812679" lon="-0.1132913020875735">
    <tag k="addr:postcode" v="CR9 2SA"/>
    <tag k="removemelater" v="yes"/>
  </node>
  <node id="-1029" lat="51.37806837812679" lon="-0.1132913020875735">
    <tag k="addr:postcode" v="CR9 2SE"/>
    <tag k="removemelater" v="yes"/>
  </node>
  <node id="-1030" lat="51.37806837812679" lon="-0.1132913020875735">
    <tag k="addr:postcode" v="CR9 2SF"/>
    <tag k="removemelater" v="yes"/>
  </node>
  <node id="-1031" lat="51.37806837812679" lon="-0.1132913020875735">
    <tag k="addr:postcode" v="CR9 2SG"/>
    <tag k="removemelater" v="yes"/>
  </node>
  <node id="-1032" lat="51.37806837812679" lon="-0.1132913020875735">
    <tag k="addr:postcode" v="CR9 2SJ"/>
    <tag k="removemelater" v="yes"/>
  </node>
  <node id="-1033" lat="51.37806837812679" lon="-0.1132913020875735">
    <tag k="addr:postcode" v="CR9 2SL"/>
    <tag k="removemelater" v="yes"/>
  </node>
  <node id="-1034" lat="51.37806837812679" lon="-0.1132913020875735">
    <tag k="addr:postcode" v="CR9 2SP"/>
    <tag k="removemelater" v="yes"/>
  </node>
  <node id="-1035" lat="51.37806837812679" lon="-0.1132913020875735">
    <tag k="addr:postcode" v="CR9 2SQ"/>
    <tag k="removemelater" v="yes"/>
  </node>
  <node id="-1036" lat="51.37806837812679" lon="-0.1132913020875735">
    <tag k="addr:postcode" v="CR9 2SR"/>
    <tag k="removemelater" v="yes"/>
  </node>
  <node id="-1037" lat="51.37806837812679" lon="-0.1132913020875735">
    <tag k="addr:postcode" v="CR9 2SS"/>
    <tag k="removemelater" v="yes"/>
  </node>
  <node id="-1038" lat="51.37806837812679" lon="-0.1132913020875735">
    <tag k="addr:postcode" v="CR9 2ST"/>
    <tag k="removemelater" v="yes"/>
  </node>
  <node id="-1039" lat="51.37806837812679" lon="-0.1132913020875735">
    <tag k="addr:postcode" v="CR9 2SW"/>
    <tag k="removemelater" v="yes"/>
  </node>
  <node id="-1040" lat="51.37806837812679" lon="-0.1132913020875735">
    <tag k="addr:postcode" v="CR9 2SX"/>
    <tag k="removemelater" v="yes"/>
  </node>
  <node id="-1041" lat="51.37806837812679" lon="-0.1132913020875735">
    <tag k="addr:postcode" v="CR9 2TA"/>
    <tag k="removemelater" v="yes"/>
  </node>
  <node id="-1042" lat="51.37806837812679" lon="-0.1132913020875735">
    <tag k="addr:postcode" v="CR9 2TB"/>
    <tag k="removemelater" v="yes"/>
  </node>
  <node id="-1043" lat="51.37806837812679" lon="-0.1132913020875735">
    <tag k="addr:postcode" v="CR9 2TD"/>
    <tag k="removemelater" v="yes"/>
  </node>
  <node id="-1044" lat="51.37806837812679" lon="-0.1132913020875735">
    <tag k="addr:postcode" v="CR9 2TE"/>
    <tag k="removemelater" v="yes"/>
  </node>
  <node id="-1045" lat="51.37806837812679" lon="-0.1132913020875735">
    <tag k="addr:postcode" v="CR9 2TF"/>
    <tag k="removemelater" v="yes"/>
  </node>
  <node id="-1046" lat="51.37806837812679" lon="-0.1132913020875735">
    <tag k="addr:postcode" v="CR9 2TG"/>
    <tag k="removemelater" v="yes"/>
  </node>
  <node id="-1047" lat="51.37806837812679" lon="-0.1132913020875735">
    <tag k="addr:postcode" v="CR9 2TJ"/>
    <tag k="removemelater" v="yes"/>
  </node>
  <node id="-1048" lat="51.37806837812679" lon="-0.1132913020875735">
    <tag k="addr:postcode" v="CR9 2TL"/>
    <tag k="removemelater" v="yes"/>
  </node>
  <node id="-1049" lat="51.37590649051603" lon="-0.09583576323642529">
    <tag k="addr:postcode" v="CR9 2TN"/>
    <tag k="removemelater" v="yes"/>
  </node>
  <node id="-1050" lat="51.37806837812679" lon="-0.1132913020875735">
    <tag k="addr:postcode" v="CR9 2TR"/>
    <tag k="removemelater" v="yes"/>
  </node>
  <node id="-1051" lat="51.37806837812679" lon="-0.1132913020875735">
    <tag k="addr:postcode" v="CR9 2TZ"/>
    <tag k="removemelater" v="yes"/>
  </node>
  <node id="-1052" lat="51.37806837812679" lon="-0.1132913020875735">
    <tag k="addr:postcode" v="CR9 2UD"/>
    <tag k="removemelater" v="yes"/>
  </node>
  <node id="-1053" lat="51.37806837812679" lon="-0.1132913020875735">
    <tag k="addr:postcode" v="CR9 2UE"/>
    <tag k="removemelater" v="yes"/>
  </node>
  <node id="-1054" lat="51.37806837812679" lon="-0.1132913020875735">
    <tag k="addr:postcode" v="CR9 2UG"/>
    <tag k="removemelater" v="yes"/>
  </node>
  <node id="-1055" lat="51.37806837812679" lon="-0.1132913020875735">
    <tag k="addr:postcode" v="CR9 2UP"/>
    <tag k="removemelater" v="yes"/>
  </node>
  <node id="-1056" lat="51.37806837812679" lon="-0.1132913020875735">
    <tag k="addr:postcode" v="CR9 2UQ"/>
    <tag k="removemelater" v="yes"/>
  </node>
  <node id="-1057" lat="51.37806837812679" lon="-0.1132913020875735">
    <tag k="addr:postcode" v="CR9 2UT"/>
    <tag k="removemelater" v="yes"/>
  </node>
  <node id="-1058" lat="51.37806837812679" lon="-0.1132913020875735">
    <tag k="addr:postcode" v="CR9 2UW"/>
    <tag k="removemelater" v="yes"/>
  </node>
  <node id="-1059" lat="51.37806837812679" lon="-0.1132913020875735">
    <tag k="addr:postcode" v="CR9 2UX"/>
    <tag k="removemelater" v="yes"/>
  </node>
  <node id="-1060" lat="51.37806837812679" lon="-0.1132913020875735">
    <tag k="addr:postcode" v="CR9 2WE"/>
    <tag k="removemelater" v="yes"/>
  </node>
  <node id="-1061" lat="51.37806837812679" lon="-0.1132913020875735">
    <tag k="addr:postcode" v="CR9 2WH"/>
    <tag k="removemelater" v="yes"/>
  </node>
  <node id="-1062" lat="51.37806837812679" lon="-0.1132913020875735">
    <tag k="addr:postcode" v="CR9 2WL"/>
    <tag k="removemelater" v="yes"/>
  </node>
  <node id="-1063" lat="51.37806837812679" lon="-0.1132913020875735">
    <tag k="addr:postcode" v="CR9 2WT"/>
    <tag k="removemelater" v="yes"/>
  </node>
  <node id="-1064" lat="51.37806837812679" lon="-0.1132913020875735">
    <tag k="addr:postcode" v="CR9 2WY"/>
    <tag k="removemelater" v="yes"/>
  </node>
  <node id="-1065" lat="51.37806837812679" lon="-0.1132913020875735">
    <tag k="addr:postcode" v="CR9 2XF"/>
    <tag k="removemelater" v="yes"/>
  </node>
  <node id="-1066" lat="51.37806837812679" lon="-0.1132913020875735">
    <tag k="addr:postcode" v="CR9 2XL"/>
    <tag k="removemelater" v="yes"/>
  </node>
  <node id="-1067" lat="51.37806837812679" lon="-0.1132913020875735">
    <tag k="addr:postcode" v="CR9 2XP"/>
    <tag k="removemelater" v="yes"/>
  </node>
  <node id="-1068" lat="51.37806837812679" lon="-0.1132913020875735">
    <tag k="addr:postcode" v="CR9 2YS"/>
    <tag k="removemelater" v="yes"/>
  </node>
  <node id="-1069" lat="51.37806837812679" lon="-0.1132913020875735">
    <tag k="addr:postcode" v="CR9 2YT"/>
    <tag k="removemelater" v="yes"/>
  </node>
  <node id="-1070" lat="51.37806837812679" lon="-0.1132913020875735">
    <tag k="addr:postcode" v="CR9 2ZA"/>
    <tag k="removemelater" v="yes"/>
  </node>
  <node id="-1071" lat="51.37806837812679" lon="-0.1132913020875735">
    <tag k="addr:postcode" v="CR9 2ZG"/>
    <tag k="removemelater" v="yes"/>
  </node>
  <node id="-1072" lat="51.37806837812679" lon="-0.1132913020875735">
    <tag k="addr:postcode" v="CR9 2ZN"/>
    <tag k="removemelater" v="yes"/>
  </node>
  <node id="-1073" lat="51.37806837812679" lon="-0.1132913020875735">
    <tag k="addr:postcode" v="CR9 3AG"/>
    <tag k="removemelater" v="yes"/>
  </node>
  <node id="-1074" lat="51.393635452022394" lon="-0.12509918054018185">
    <tag k="addr:postcode" v="CR9 3AT"/>
    <tag k="removemelater" v="yes"/>
  </node>
  <node id="-1075" lat="51.37806837812679" lon="-0.1132913020875735">
    <tag k="addr:postcode" v="CR9 3BP"/>
    <tag k="removemelater" v="yes"/>
  </node>
  <node id="-1076" lat="51.37806837812679" lon="-0.1132913020875735">
    <tag k="addr:postcode" v="CR9 3BQ"/>
    <tag k="removemelater" v="yes"/>
  </node>
  <node id="-1077" lat="51.37857591356169" lon="-0.10017960676451927">
    <tag k="addr:postcode" v="CR9 3DD"/>
    <tag k="removemelater" v="yes"/>
  </node>
  <node id="-1078" lat="51.37798824909387" lon="-0.09610861296600166">
    <tag k="addr:postcode" v="CR9 3LQ"/>
    <tag k="removemelater" v="yes"/>
  </node>
  <node id="-1079" lat="51.372396188345135" lon="-0.09398428471598881">
    <tag k="addr:postcode" v="CR9 3NE"/>
    <tag k="removemelater" v="yes"/>
  </node>
  <node id="-1080" lat="51.372396188345135" lon="-0.09398428471598881">
    <tag k="addr:postcode" v="CR9 3NG"/>
    <tag k="removemelater" v="yes"/>
  </node>
  <node id="-1081" lat="51.37806837812679" lon="-0.1132913020875735">
    <tag k="addr:postcode" v="CR9 3QQ"/>
    <tag k="removemelater" v="yes"/>
  </node>
  <node id="-1082" lat="51.37510760746838" lon="-0.09482000014153605">
    <tag k="addr:postcode" v="CR9 3RG"/>
    <tag k="removemelater" v="yes"/>
  </node>
  <node id="-1083" lat="51.37716120939954" lon="-0.09834143233179046">
    <tag k="addr:postcode" v="CR9 3RR"/>
    <tag k="removemelater" v="yes"/>
  </node>
  <node id="-1084" lat="51.37806837812679" lon="-0.1132913020875735">
    <tag k="addr:postcode" v="CR9 3RU"/>
    <tag k="removemelater" v="yes"/>
  </node>
  <node id="-1085" lat="51.37806837812679" lon="-0.1132913020875735">
    <tag k="addr:postcode" v="CR9 3WN"/>
    <tag k="removemelater" v="yes"/>
  </node>
  <node id="-1086" lat="51.37806837812679" lon="-0.1132913020875735">
    <tag k="addr:postcode" v="CR9 3WQ"/>
    <tag k="removemelater" v="yes"/>
  </node>
  <node id="-1087" lat="51.37806837812679" lon="-0.1132913020875735">
    <tag k="addr:postcode" v="CR9 3WX"/>
    <tag k="removemelater" v="yes"/>
  </node>
  <node id="-1088" lat="51.37806837812679" lon="-0.1132913020875735">
    <tag k="addr:postcode" v="CR9 3XF"/>
    <tag k="removemelater" v="yes"/>
  </node>
  <node id="-1089" lat="51.37806837812679" lon="-0.1132913020875735">
    <tag k="addr:postcode" v="CR9 3XT"/>
    <tag k="removemelater" v="yes"/>
  </node>
  <node id="-1090" lat="51.37806837812679" lon="-0.1132913020875735">
    <tag k="addr:postcode" v="CR9 3YD"/>
    <tag k="removemelater" v="yes"/>
  </node>
  <node id="-1091" lat="51.37806837812679" lon="-0.1132913020875735">
    <tag k="addr:postcode" v="CR9 3YG"/>
    <tag k="removemelater" v="yes"/>
  </node>
  <node id="-1092" lat="51.37806837812679" lon="-0.1132913020875735">
    <tag k="addr:postcode" v="CR9 3ZH"/>
    <tag k="removemelater" v="yes"/>
  </node>
  <node id="-1093" lat="51.37806837812679" lon="-0.1132913020875735">
    <tag k="addr:postcode" v="CR9 3ZP"/>
    <tag k="removemelater" v="yes"/>
  </node>
  <node id="-1094" lat="51.37806837812679" lon="-0.1132913020875735">
    <tag k="addr:postcode" v="CR9 3ZQ"/>
    <tag k="removemelater" v="yes"/>
  </node>
  <node id="-1095" lat="51.37806837812679" lon="-0.1132913020875735">
    <tag k="addr:postcode" v="CR9 3ZR"/>
    <tag k="removemelater" v="yes"/>
  </node>
  <node id="-1096" lat="51.37806837812679" lon="-0.1132913020875735">
    <tag k="addr:postcode" v="CR9 3ZS"/>
    <tag k="removemelater" v="yes"/>
  </node>
  <node id="-1097" lat="51.37806837812679" lon="-0.1132913020875735">
    <tag k="addr:postcode" v="CR9 3ZW"/>
    <tag k="removemelater" v="yes"/>
  </node>
  <node id="-1098" lat="51.37806837812679" lon="-0.1132913020875735">
    <tag k="addr:postcode" v="CR9 3ZX"/>
    <tag k="removemelater" v="yes"/>
  </node>
  <node id="-1099" lat="51.37806837812679" lon="-0.1132913020875735">
    <tag k="addr:postcode" v="CR9 3ZY"/>
    <tag k="removemelater" v="yes"/>
  </node>
  <node id="-1100" lat="51.382347897771865" lon="-0.132875280406428">
    <tag k="addr:postcode" v="CR9 4AA"/>
    <tag k="removemelater" v="yes"/>
  </node>
  <node id="-1101" lat="51.35955984767068" lon="-0.12159290682597271">
    <tag k="addr:postcode" v="CR9 4DL"/>
    <tag k="removemelater" v="yes"/>
  </node>
  <node id="-1102" lat="51.37412812497588" lon="-0.1283388721886085">
    <tag k="addr:postcode" v="CR9 4EP"/>
    <tag k="removemelater" v="yes"/>
  </node>
  <node id="-1103" lat="51.37806837812679" lon="-0.1132913020875735">
    <tag k="addr:postcode" v="CR9 4NL"/>
    <tag k="removemelater" v="yes"/>
  </node>
  <node id="-1104" lat="51.37806837812679" lon="-0.1132913020875735">
    <tag k="addr:postcode" v="CR9 4NZ"/>
    <tag k="removemelater" v="yes"/>
  </node>
  <node id="-1105" lat="51.3557473719607" lon="-0.11881889617267753">
    <tag k="addr:postcode" v="CR9 4PS"/>
    <tag k="removemelater" v="yes"/>
  </node>
  <node id="-1106" lat="51.378197793020135" lon="-0.12808665671229663">
    <tag k="addr:postcode" v="CR9 4QJ"/>
    <tag k="removemelater" v="yes"/>
  </node>
  <node id="-1107" lat="51.37806837812679" lon="-0.1132913020875735">
    <tag k="addr:postcode" v="CR9 4SA"/>
    <tag k="removemelater" v="yes"/>
  </node>
  <node id="-1108" lat="51.37806837812679" lon="-0.1132913020875735">
    <tag k="addr:postcode" v="CR9 4WB"/>
    <tag k="removemelater" v="yes"/>
  </node>
  <node id="-1109" lat="51.37806837812679" lon="-0.1132913020875735">
    <tag k="addr:postcode" v="CR9 4WY"/>
    <tag k="removemelater" v="yes"/>
  </node>
  <node id="-1110" lat="51.37806837812679" lon="-0.1132913020875735">
    <tag k="addr:postcode" v="CR9 4XR"/>
    <tag k="removemelater" v="yes"/>
  </node>
  <node id="-1111" lat="51.37806837812679" lon="-0.1132913020875735">
    <tag k="addr:postcode" v="CR9 4ZT"/>
    <tag k="removemelater" v="yes"/>
  </node>
  <node id="-1112" lat="51.37806837812679" lon="-0.1132913020875735">
    <tag k="addr:postcode" v="CR9 5AU"/>
    <tag k="removemelater" v="yes"/>
  </node>
  <node id="-1113" lat="51.37806837812679" lon="-0.1132913020875735">
    <tag k="addr:postcode" v="CR9 5DA"/>
    <tag k="removemelater" v="yes"/>
  </node>
  <node id="-1114" lat="51.37806837812679" lon="-0.1132913020875735">
    <tag k="addr:postcode" v="CR9 5DH"/>
    <tag k="removemelater" v="yes"/>
  </node>
  <node id="-1115" lat="51.37806837812679" lon="-0.1132913020875735">
    <tag k="addr:postcode" v="CR9 5DL"/>
    <tag k="removemelater" v="yes"/>
  </node>
  <node id="-1116" lat="51.37467927263163" lon="-0.09005306006001353">
    <tag k="addr:postcode" v="CR9 5GA"/>
    <tag k="removemelater" v="yes"/>
  </node>
  <node id="-1117" lat="51.37454358318572" lon="-0.09110760782287107">
    <tag k="addr:postcode" v="CR9 5PB"/>
    <tag k="removemelater" v="yes"/>
  </node>
  <node id="-1118" lat="51.37806837812679" lon="-0.1132913020875735">
    <tag k="addr:postcode" v="CR9 5QJ"/>
    <tag k="removemelater" v="yes"/>
  </node>
  <node id="-1119" lat="51.360153857925305" lon="-0.12330664143292079">
    <tag k="addr:postcode" v="CR9 5QU"/>
    <tag k="removemelater" v="yes"/>
  </node>
  <node id="-1120" lat="51.37806837812679" lon="-0.1132913020875735">
    <tag k="addr:postcode" v="CR9 5WJ"/>
    <tag k="removemelater" v="yes"/>
  </node>
  <node id="-1121" lat="51.37806837812679" lon="-0.1132913020875735">
    <tag k="addr:postcode" v="CR9 5XU"/>
    <tag k="removemelater" v="yes"/>
  </node>
  <node id="-1122" lat="51.37806837812679" lon="-0.1132913020875735">
    <tag k="addr:postcode" v="CR9 6AA"/>
    <tag k="removemelater" v="yes"/>
  </node>
  <node id="-1123" lat="51.37806837812679" lon="-0.1132913020875735">
    <tag k="addr:postcode" v="CR9 6AG"/>
    <tag k="removemelater" v="yes"/>
  </node>
  <node id="-1124" lat="51.37806837812679" lon="-0.1132913020875735">
    <tag k="addr:postcode" v="CR9 6AS"/>
    <tag k="removemelater" v="yes"/>
  </node>
  <node id="-1125" lat="51.37806837812679" lon="-0.1132913020875735">
    <tag k="addr:postcode" v="CR9 6AX"/>
    <tag k="removemelater" v="yes"/>
  </node>
  <node id="-1126" lat="51.37669654240221" lon="-0.09133416758678327">
    <tag k="addr:postcode" v="CR9 6AZ"/>
    <tag k="removemelater" v="yes"/>
  </node>
  <node id="-1127" lat="51.37669654240221" lon="-0.09133416758678327">
    <tag k="addr:postcode" v="CR9 6BE"/>
    <tag k="removemelater" v="yes"/>
  </node>
  <node id="-1128" lat="51.38123592495311" lon="-0.08075537971338283">
    <tag k="addr:postcode" v="CR9 6BR"/>
    <tag k="removemelater" v="yes"/>
  </node>
  <node id="-1129" lat="51.37617892171601" lon="-0.09102521057307798">
    <tag k="addr:postcode" v="CR9 6BX"/>
    <tag k="removemelater" v="yes"/>
  </node>
  <node id="-1130" lat="51.37806837812679" lon="-0.1132913020875735">
    <tag k="addr:postcode" v="CR9 6BZ"/>
    <tag k="removemelater" v="yes"/>
  </node>
  <node id="-1131" lat="51.37506527756957" lon="-0.0911146439434429">
    <tag k="addr:postcode" v="CR9 6DS"/>
    <tag k="removemelater" v="yes"/>
  </node>
  <node id="-1132" lat="51.37806837812679" lon="-0.1132913020875735">
    <tag k="addr:postcode" v="CR9 6DZ"/>
    <tag k="removemelater" v="yes"/>
  </node>
  <node id="-1133" lat="51.37806837812679" lon="-0.1132913020875735">
    <tag k="addr:postcode" v="CR9 6HL"/>
    <tag k="removemelater" v="yes"/>
  </node>
  <node id="-1134" lat="51.37506527756957" lon="-0.0911146439434429">
    <tag k="addr:postcode" v="CR9 6LL"/>
    <tag k="removemelater" v="yes"/>
  </node>
  <node id="-1135" lat="51.37806837812679" lon="-0.1132913020875735">
    <tag k="addr:postcode" v="CR9 6RB"/>
    <tag k="removemelater" v="yes"/>
  </node>
  <node id="-1136" lat="51.37806837812679" lon="-0.1132913020875735">
    <tag k="addr:postcode" v="CR9 6UP"/>
    <tag k="removemelater" v="yes"/>
  </node>
  <node id="-1137" lat="51.37806837812679" lon="-0.1132913020875735">
    <tag k="addr:postcode" v="CR9 6UW"/>
    <tag k="removemelater" v="yes"/>
  </node>
  <node id="-1138" lat="51.37806837812679" lon="-0.1132913020875735">
    <tag k="addr:postcode" v="CR9 6WQ"/>
    <tag k="removemelater" v="yes"/>
  </node>
  <node id="-1139" lat="51.37806837812679" lon="-0.1132913020875735">
    <tag k="addr:postcode" v="CR9 6WY"/>
    <tag k="removemelater" v="yes"/>
  </node>
  <node id="-1140" lat="51.37806837812679" lon="-0.1132913020875735">
    <tag k="addr:postcode" v="CR9 6ZD"/>
    <tag k="removemelater" v="yes"/>
  </node>
  <node id="-1141" lat="51.37806837812679" lon="-0.1132913020875735">
    <tag k="addr:postcode" v="CR9 7AB"/>
    <tag k="removemelater" v="yes"/>
  </node>
  <node id="-1142" lat="51.37806837812679" lon="-0.1132913020875735">
    <tag k="addr:postcode" v="CR9 7AE"/>
    <tag k="removemelater" v="yes"/>
  </node>
  <node id="-1143" lat="51.37806837812679" lon="-0.1132913020875735">
    <tag k="addr:postcode" v="CR9 7AQ"/>
    <tag k="removemelater" v="yes"/>
  </node>
  <node id="-1144" lat="51.37806837812679" lon="-0.1132913020875735">
    <tag k="addr:postcode" v="CR9 7DD"/>
    <tag k="removemelater" v="yes"/>
  </node>
  <node id="-1145" lat="51.37806837812679" lon="-0.1132913020875735">
    <tag k="addr:postcode" v="CR9 7DG"/>
    <tag k="removemelater" v="yes"/>
  </node>
  <node id="-1146" lat="51.37806837812679" lon="-0.1132913020875735">
    <tag k="addr:postcode" v="CR9 7NW"/>
    <tag k="removemelater" v="yes"/>
  </node>
  <node id="-1147" lat="51.37806837812679" lon="-0.1132913020875735">
    <tag k="addr:postcode" v="CR9 7ZH"/>
    <tag k="removemelater" v="yes"/>
  </node>
  <node id="-1148" lat="51.37806837812679" lon="-0.1132913020875735">
    <tag k="addr:postcode" v="CR9 8AL"/>
    <tag k="removemelater" v="yes"/>
  </node>
  <node id="-1149" lat="51.37806837812679" lon="-0.1132913020875735">
    <tag k="addr:postcode" v="CR9 8DB"/>
    <tag k="removemelater" v="yes"/>
  </node>
  <node id="-1150" lat="51.37806837812679" lon="-0.1132913020875735">
    <tag k="addr:postcode" v="CR9 8WR"/>
    <tag k="removemelater" v="yes"/>
  </node>
  <node id="-1151" lat="51.37806837812679" lon="-0.1132913020875735">
    <tag k="addr:postcode" v="CR9 8YB"/>
    <tag k="removemelater" v="yes"/>
  </node>
  <node id="-1152" lat="51.37806837812679" lon="-0.1132913020875735">
    <tag k="addr:postcode" v="CR9 8YQ"/>
    <tag k="removemelater" v="yes"/>
  </node>
  <node id="-1153" lat="51.37806837812679" lon="-0.1132913020875735">
    <tag k="addr:postcode" v="CR9 9LY"/>
    <tag k="removemelater" v="yes"/>
  </node>
  <node id="-1154" lat="51.37806837812679" lon="-0.1132913020875735">
    <tag k="addr:postcode" v="CR9 9WE"/>
    <tag k="removemelater" v="yes"/>
  </node>
  <node id="-1155" lat="51.37806837812679" lon="-0.1132913020875735">
    <tag k="addr:postcode" v="CR9 9WH"/>
    <tag k="removemelater" v="yes"/>
  </node>
  <node id="-1156" lat="51.37806837812679" lon="-0.1132913020875735">
    <tag k="addr:postcode" v="CR9 9XT"/>
    <tag k="removemelater" v="yes"/>
  </node>
  <node id="-1157" lat="51.37806837812679" lon="-0.1132913020875735">
    <tag k="addr:postcode" v="CR9 9YU"/>
    <tag k="removemelater" v="yes"/>
  </node>
  <node id="-1158" lat="51.37806837812679" lon="-0.1132913020875735">
    <tag k="addr:postcode" v="CR9 9ZX"/>
    <tag k="removemelater" v="yes"/>
  </node>
  <node id="-1159" lat="51.37806837812679" lon="-0.1132913020875735">
    <tag k="addr:postcode" v="CR90 9AQ"/>
    <tag k="removemelater" v="yes"/>
  </node>
  <node id="-1160" lat="51.37806837812679" lon="-0.1132913020875735">
    <tag k="addr:postcode" v="CR90 9AS"/>
    <tag k="removemelater" v="yes"/>
  </node>
  <node id="-1161" lat="51.37806837812679" lon="-0.1132913020875735">
    <tag k="addr:postcode" v="CR90 9BA"/>
    <tag k="removemelater" v="yes"/>
  </node>
  <node id="-1162" lat="51.37806837812679" lon="-0.1132913020875735">
    <tag k="addr:postcode" v="CR90 9BS"/>
    <tag k="removemelater" v="yes"/>
  </node>
  <node id="-1163" lat="51.37806837812679" lon="-0.1132913020875735">
    <tag k="addr:postcode" v="CR90 9DD"/>
    <tag k="removemelater" v="yes"/>
  </node>
  <node id="-1164" lat="51.37806837812679" lon="-0.1132913020875735">
    <tag k="addr:postcode" v="CR90 9DP"/>
    <tag k="removemelater" v="yes"/>
  </node>
  <node id="-1165" lat="51.37806837812679" lon="-0.1132913020875735">
    <tag k="addr:postcode" v="CR90 9EP"/>
    <tag k="removemelater" v="yes"/>
  </node>
  <node id="-1166" lat="51.37806837812679" lon="-0.1132913020875735">
    <tag k="addr:postcode" v="CR90 9EQ"/>
    <tag k="removemelater" v="yes"/>
  </node>
  <node id="-1167" lat="51.37806837812679" lon="-0.1132913020875735">
    <tag k="addr:postcode" v="CR90 9ET"/>
    <tag k="removemelater" v="yes"/>
  </node>
  <node id="-1168" lat="51.37806837812679" lon="-0.1132913020875735">
    <tag k="addr:postcode" v="CR90 9EU"/>
    <tag k="removemelater" v="yes"/>
  </node>
  <node id="-1169" lat="51.37806837812679" lon="-0.1132913020875735">
    <tag k="addr:postcode" v="CR90 9FE"/>
    <tag k="removemelater" v="yes"/>
  </node>
  <node id="-1170" lat="51.37806837812679" lon="-0.1132913020875735">
    <tag k="addr:postcode" v="CR90 9FN"/>
    <tag k="removemelater" v="yes"/>
  </node>
  <node id="-1171" lat="51.37806837812679" lon="-0.1132913020875735">
    <tag k="addr:postcode" v="CR90 9FP"/>
    <tag k="removemelater" v="yes"/>
  </node>
  <node id="-1172" lat="51.37806837812679" lon="-0.1132913020875735">
    <tag k="addr:postcode" v="CR90 9FU"/>
    <tag k="removemelater" v="yes"/>
  </node>
  <node id="-1173" lat="51.37806837812679" lon="-0.1132913020875735">
    <tag k="addr:postcode" v="CR90 9GF"/>
    <tag k="removemelater" v="yes"/>
  </node>
  <node id="-1174" lat="51.37806837812679" lon="-0.1132913020875735">
    <tag k="addr:postcode" v="CR90 9GJ"/>
    <tag k="removemelater" v="yes"/>
  </node>
  <node id="-1175" lat="51.37806837812679" lon="-0.1132913020875735">
    <tag k="addr:postcode" v="CR90 9GN"/>
    <tag k="removemelater" v="yes"/>
  </node>
  <node id="-1176" lat="51.37806837812679" lon="-0.1132913020875735">
    <tag k="addr:postcode" v="CR90 9HG"/>
    <tag k="removemelater" v="yes"/>
  </node>
  <node id="-1177" lat="51.37806837812679" lon="-0.1132913020875735">
    <tag k="addr:postcode" v="CR90 9HW"/>
    <tag k="removemelater" v="yes"/>
  </node>
  <node id="-1178" lat="51.37806837812679" lon="-0.1132913020875735">
    <tag k="addr:postcode" v="CR90 9JB"/>
    <tag k="removemelater" v="yes"/>
  </node>
  <node id="-1179" lat="51.37806837812679" lon="-0.1132913020875735">
    <tag k="addr:postcode" v="CR90 9JD"/>
    <tag k="removemelater" v="yes"/>
  </node>
  <node id="-1180" lat="51.37806837812679" lon="-0.1132913020875735">
    <tag k="addr:postcode" v="CR90 9JH"/>
    <tag k="removemelater" v="yes"/>
  </node>
  <node id="-1181" lat="51.37806837812679" lon="-0.1132913020875735">
    <tag k="addr:postcode" v="CR90 9JL"/>
    <tag k="removemelater" v="yes"/>
  </node>
  <node id="-1182" lat="51.37806837812679" lon="-0.1132913020875735">
    <tag k="addr:postcode" v="CR90 9JW"/>
    <tag k="removemelater" v="yes"/>
  </node>
  <node id="-1183" lat="51.37806837812679" lon="-0.1132913020875735">
    <tag k="addr:postcode" v="CR90 9JZ"/>
    <tag k="removemelater" v="yes"/>
  </node>
  <node id="-1184" lat="51.37806837812679" lon="-0.1132913020875735">
    <tag k="addr:postcode" v="CR90 9LA"/>
    <tag k="removemelater" v="yes"/>
  </node>
  <node id="-1185" lat="51.37806837812679" lon="-0.1132913020875735">
    <tag k="addr:postcode" v="CR90 9LE"/>
    <tag k="removemelater" v="yes"/>
  </node>
  <node id="-1186" lat="51.37806837812679" lon="-0.1132913020875735">
    <tag k="addr:postcode" v="CR90 9LR"/>
    <tag k="removemelater" v="yes"/>
  </node>
  <node id="-1187" lat="51.37806837812679" lon="-0.1132913020875735">
    <tag k="addr:postcode" v="CR90 9LW"/>
    <tag k="removemelater" v="yes"/>
  </node>
  <node id="-1188" lat="51.37806837812679" lon="-0.1132913020875735">
    <tag k="addr:postcode" v="CR90 9NB"/>
    <tag k="removemelater" v="yes"/>
  </node>
  <node id="-1189" lat="51.37806837812679" lon="-0.1132913020875735">
    <tag k="addr:postcode" v="CR90 9ND"/>
    <tag k="removemelater" v="yes"/>
  </node>
  <node id="-1190" lat="51.37806837812679" lon="-0.1132913020875735">
    <tag k="addr:postcode" v="CR90 9NJ"/>
    <tag k="removemelater" v="yes"/>
  </node>
  <node id="-1191" lat="51.37806837812679" lon="-0.1132913020875735">
    <tag k="addr:postcode" v="CR90 9NL"/>
    <tag k="removemelater" v="yes"/>
  </node>
  <node id="-1192" lat="51.37806837812679" lon="-0.1132913020875735">
    <tag k="addr:postcode" v="CR90 9NN"/>
    <tag k="removemelater" v="yes"/>
  </node>
  <node id="-1193" lat="51.37806837812679" lon="-0.1132913020875735">
    <tag k="addr:postcode" v="CR90 9NP"/>
    <tag k="removemelater" v="yes"/>
  </node>
  <node id="-1194" lat="51.37806837812679" lon="-0.1132913020875735">
    <tag k="addr:postcode" v="CR90 9NR"/>
    <tag k="removemelater" v="yes"/>
  </node>
  <node id="-1195" lat="51.37806837812679" lon="-0.1132913020875735">
    <tag k="addr:postcode" v="CR90 9NU"/>
    <tag k="removemelater" v="yes"/>
  </node>
  <node id="-1196" lat="51.37806837812679" lon="-0.1132913020875735">
    <tag k="addr:postcode" v="CR90 9NX"/>
    <tag k="removemelater" v="yes"/>
  </node>
  <node id="-1197" lat="51.37806837812679" lon="-0.1132913020875735">
    <tag k="addr:postcode" v="CR90 9PD"/>
    <tag k="removemelater" v="yes"/>
  </node>
  <node id="-1198" lat="51.37806837812679" lon="-0.1132913020875735">
    <tag k="addr:postcode" v="CR90 9PJ"/>
    <tag k="removemelater" v="yes"/>
  </node>
  <node id="-1199" lat="51.37806837812679" lon="-0.1132913020875735">
    <tag k="addr:postcode" v="CR90 9PP"/>
    <tag k="removemelater" v="yes"/>
  </node>
  <node id="-1200" lat="51.37806837812679" lon="-0.1132913020875735">
    <tag k="addr:postcode" v="CR90 9PR"/>
    <tag k="removemelater" v="yes"/>
  </node>
  <node id="-1201" lat="51.37806837812679" lon="-0.1132913020875735">
    <tag k="addr:postcode" v="CR90 9PT"/>
    <tag k="removemelater" v="yes"/>
  </node>
  <node id="-1202" lat="51.37806837812679" lon="-0.1132913020875735">
    <tag k="addr:postcode" v="CR90 9PW"/>
    <tag k="removemelater" v="yes"/>
  </node>
  <node id="-1203" lat="51.37806837812679" lon="-0.1132913020875735">
    <tag k="addr:postcode" v="CR90 9PY"/>
    <tag k="removemelater" v="yes"/>
  </node>
  <node id="-1204" lat="51.37806837812679" lon="-0.1132913020875735">
    <tag k="addr:postcode" v="CR90 9PZ"/>
    <tag k="removemelater" v="yes"/>
  </node>
  <node id="-1205" lat="51.37806837812679" lon="-0.1132913020875735">
    <tag k="addr:postcode" v="CR90 9QB"/>
    <tag k="removemelater" v="yes"/>
  </node>
  <node id="-1206" lat="51.37806837812679" lon="-0.1132913020875735">
    <tag k="addr:postcode" v="CR90 9QH"/>
    <tag k="removemelater" v="yes"/>
  </node>
  <node id="-1207" lat="51.37806837812679" lon="-0.1132913020875735">
    <tag k="addr:postcode" v="CR90 9QJ"/>
    <tag k="removemelater" v="yes"/>
  </node>
  <node id="-1208" lat="51.37806837812679" lon="-0.1132913020875735">
    <tag k="addr:postcode" v="CR90 9QP"/>
    <tag k="removemelater" v="yes"/>
  </node>
  <node id="-1209" lat="51.37806837812679" lon="-0.1132913020875735">
    <tag k="addr:postcode" v="CR90 9QT"/>
    <tag k="removemelater" v="yes"/>
  </node>
  <node id="-1210" lat="51.37806837812679" lon="-0.1132913020875735">
    <tag k="addr:postcode" v="CR90 9QU"/>
    <tag k="removemelater" v="yes"/>
  </node>
  <node id="-1211" lat="51.37806837812679" lon="-0.1132913020875735">
    <tag k="addr:postcode" v="CR90 9QX"/>
    <tag k="removemelater" v="yes"/>
  </node>
  <node id="-1212" lat="51.37806837812679" lon="-0.1132913020875735">
    <tag k="addr:postcode" v="CR90 9RQ"/>
    <tag k="removemelater" v="yes"/>
  </node>
  <node id="-1213" lat="51.37806837812679" lon="-0.1132913020875735">
    <tag k="addr:postcode" v="CR90 9RR"/>
    <tag k="removemelater" v="yes"/>
  </node>
  <node id="-1214" lat="51.37806837812679" lon="-0.1132913020875735">
    <tag k="addr:postcode" v="CR90 9RS"/>
    <tag k="removemelater" v="yes"/>
  </node>
  <node id="-1215" lat="51.37806837812679" lon="-0.1132913020875735">
    <tag k="addr:postcode" v="CR90 9RT"/>
    <tag k="removemelater" v="yes"/>
  </node>
  <node id="-1216" lat="51.37806837812679" lon="-0.1132913020875735">
    <tag k="addr:postcode" v="CR90 9RU"/>
    <tag k="removemelater" v="yes"/>
  </node>
  <node id="-1217" lat="51.37806837812679" lon="-0.1132913020875735">
    <tag k="addr:postcode" v="CR90 9RW"/>
    <tag k="removemelater" v="yes"/>
  </node>
  <node id="-1218" lat="51.37806837812679" lon="-0.1132913020875735">
    <tag k="addr:postcode" v="CR90 9RX"/>
    <tag k="removemelater" v="yes"/>
  </node>
  <node id="-1219" lat="51.37806837812679" lon="-0.1132913020875735">
    <tag k="addr:postcode" v="CR90 9RY"/>
    <tag k="removemelater" v="yes"/>
  </node>
  <node id="-1220" lat="51.37806837812679" lon="-0.1132913020875735">
    <tag k="addr:postcode" v="CR90 9RZ"/>
    <tag k="removemelater" v="yes"/>
  </node>
  <node id="-1221" lat="51.37806837812679" lon="-0.1132913020875735">
    <tag k="addr:postcode" v="CR90 9SB"/>
    <tag k="removemelater" v="yes"/>
  </node>
  <node id="-1222" lat="51.37806837812679" lon="-0.1132913020875735">
    <tag k="addr:postcode" v="CR90 9SD"/>
    <tag k="removemelater" v="yes"/>
  </node>
  <node id="-1223" lat="51.37806837812679" lon="-0.1132913020875735">
    <tag k="addr:postcode" v="CR90 9SE"/>
    <tag k="removemelater" v="yes"/>
  </node>
  <node id="-1224" lat="51.37806837812679" lon="-0.1132913020875735">
    <tag k="addr:postcode" v="CR90 9SF"/>
    <tag k="removemelater" v="yes"/>
  </node>
  <node id="-1225" lat="51.37806837812679" lon="-0.1132913020875735">
    <tag k="addr:postcode" v="CR90 9ZZ"/>
    <tag k="removemelater" v="yes"/>
  </node>
</osm>
