<?xml version="1.0" encoding="UTF-8"?><osm version="0.6" generator="import_postcodes.py" upload="false">
  <node id="-1" lat="51.44470008680806" lon="0.20962023319737275">
    <tag k="addr:postcode" v="DA1 1AA"/>
    <tag k="removemelater" v="yes"/>
  </node>
  <node id="-2" lat="51.44489324433065" lon="0.2212864307462216">
    <tag k="addr:postcode" v="DA1 1AH"/>
    <tag k="removemelater" v="yes"/>
  </node>
  <node id="-3" lat="51.44489324433065" lon="0.2212864307462216">
    <tag k="addr:postcode" v="DA1 1AQ"/>
    <tag k="removemelater" v="yes"/>
  </node>
  <node id="-4" lat="51.449445007983755" lon="0.21836977956730433">
    <tag k="addr:postcode" v="DA1 1BQ"/>
    <tag k="removemelater" v="yes"/>
  </node>
  <node id="-5" lat="51.44382052153811" lon="0.21809715868200696">
    <tag k="addr:postcode" v="DA1 1DB"/>
    <tag k="removemelater" v="yes"/>
  </node>
  <node id="-6" lat="51.4444418382797" lon="0.21853021957485022">
    <tag k="addr:postcode" v="DA1 1DG"/>
    <tag k="removemelater" v="yes"/>
  </node>
  <node id="-7" lat="51.444897069367244" lon="0.2187105895887017">
    <tag k="addr:postcode" v="DA1 1DN"/>
    <tag k="removemelater" v="yes"/>
  </node>
  <node id="-8" lat="51.44443094831932" lon="0.2186304291355797">
    <tag k="addr:postcode" v="DA1 1DQ"/>
    <tag k="removemelater" v="yes"/>
  </node>
  <node id="-9" lat="51.4453441297196" lon="0.22027213689495537">
    <tag k="addr:postcode" v="DA1 1DX"/>
    <tag k="removemelater" v="yes"/>
  </node>
  <node id="-10" lat="51.447282629653756" lon="0.21620690812066118">
    <tag k="addr:postcode" v="DA1 1DY"/>
    <tag k="removemelater" v="yes"/>
  </node>
  <node id="-11" lat="51.44607380447357" lon="0.2202067950675862">
    <tag k="addr:postcode" v="DA1 1DZ"/>
    <tag k="removemelater" v="yes"/>
  </node>
  <node id="-12" lat="51.44385046899786" lon="0.2179403103584124">
    <tag k="addr:postcode" v="DA1 1EB"/>
    <tag k="removemelater" v="yes"/>
  </node>
  <node id="-13" lat="51.43454055672771" lon="0.2223236338755707">
    <tag k="addr:postcode" v="DA1 1EF"/>
    <tag k="removemelater" v="yes"/>
  </node>
  <node id="-14" lat="51.4468960322706" lon="0.2171524393319258">
    <tag k="addr:postcode" v="DA1 1EG"/>
    <tag k="removemelater" v="yes"/>
  </node>
  <node id="-15" lat="51.44528667143627" lon="0.21760695311641376">
    <tag k="addr:postcode" v="DA1 1EH"/>
    <tag k="removemelater" v="yes"/>
  </node>
  <node id="-16" lat="51.44401871678353" lon="0.2171281805560391">
    <tag k="addr:postcode" v="DA1 1EN"/>
    <tag k="removemelater" v="yes"/>
  </node>
  <node id="-17" lat="51.44312815422836" lon="0.2190421698117633">
    <tag k="addr:postcode" v="DA1 1EU"/>
    <tag k="removemelater" v="yes"/>
  </node>
  <node id="-18" lat="51.443026014170734" lon="0.21636056303481335">
    <tag k="addr:postcode" v="DA1 1EW"/>
    <tag k="removemelater" v="yes"/>
  </node>
  <node id="-19" lat="51.44363237824428" lon="0.21758436254203492">
    <tag k="addr:postcode" v="DA1 1EZ"/>
    <tag k="removemelater" v="yes"/>
  </node>
  <node id="-20" lat="51.44470008680806" lon="0.20962023319737275">
    <tag k="addr:postcode" v="DA1 1FS"/>
    <tag k="removemelater" v="yes"/>
  </node>
  <node id="-21" lat="51.44470008680806" lon="0.20962023319737275">
    <tag k="addr:postcode" v="DA1 1FY"/>
    <tag k="removemelater" v="yes"/>
  </node>
  <node id="-22" lat="51.44397380105805" lon="0.2176009049608661">
    <tag k="addr:postcode" v="DA1 1HA"/>
    <tag k="removemelater" v="yes"/>
  </node>
  <node id="-23" lat="51.44338161092232" lon="0.21705414649245144">
    <tag k="addr:postcode" v="DA1 1HD"/>
    <tag k="removemelater" v="yes"/>
  </node>
  <node id="-24" lat="51.44234235218418" lon="0.2163706298440253">
    <tag k="addr:postcode" v="DA1 1HJ"/>
    <tag k="removemelater" v="yes"/>
  </node>
  <node id="-25" lat="51.44129491947564" lon="0.21564357919443927">
    <tag k="addr:postcode" v="DA1 1HS"/>
    <tag k="removemelater" v="yes"/>
  </node>
  <node id="-26" lat="51.43450027507952" lon="0.22160228142444002">
    <tag k="addr:postcode" v="DA1 1JA"/>
    <tag k="removemelater" v="yes"/>
  </node>
  <node id="-27" lat="51.433358673806914" lon="0.22015129387311733">
    <tag k="addr:postcode" v="DA1 1JD"/>
    <tag k="removemelater" v="yes"/>
  </node>
  <node id="-28" lat="51.4325287416869" lon="0.22360717193915508">
    <tag k="addr:postcode" v="DA1 1JG"/>
    <tag k="removemelater" v="yes"/>
  </node>
  <node id="-29" lat="51.434470274561804" lon="0.22365830065687847">
    <tag k="addr:postcode" v="DA1 1JN"/>
    <tag k="removemelater" v="yes"/>
  </node>
  <node id="-30" lat="51.432814939551996" lon="0.22179386890266548">
    <tag k="addr:postcode" v="DA1 1JQ"/>
    <tag k="removemelater" v="yes"/>
  </node>
  <node id="-31" lat="51.43336129021223" lon="0.22475544874690984">
    <tag k="addr:postcode" v="DA1 1JS"/>
    <tag k="removemelater" v="yes"/>
  </node>
  <node id="-32" lat="51.43250389353799" lon="0.22538999319974218">
    <tag k="addr:postcode" v="DA1 1JW"/>
    <tag k="removemelater" v="yes"/>
  </node>
  <node id="-33" lat="51.43215812700389" lon="0.22512860568147228">
    <tag k="addr:postcode" v="DA1 1JX"/>
    <tag k="removemelater" v="yes"/>
  </node>
  <node id="-34" lat="51.44233743105257" lon="0.2156796524891198">
    <tag k="addr:postcode" v="DA1 1JY"/>
    <tag k="removemelater" v="yes"/>
  </node>
  <node id="-35" lat="51.43306785671561" lon="0.2226837787655763">
    <tag k="addr:postcode" v="DA1 1JZ"/>
    <tag k="removemelater" v="yes"/>
  </node>
  <node id="-36" lat="51.43149026431578" lon="0.23659137777581668">
    <tag k="addr:postcode" v="DA1 1NF"/>
    <tag k="removemelater" v="yes"/>
  </node>
  <node id="-37" lat="51.43255373575764" lon="0.23222640563931973">
    <tag k="addr:postcode" v="DA1 1NL"/>
    <tag k="removemelater" v="yes"/>
  </node>
  <node id="-38" lat="51.43060621539589" lon="0.2249237119518481">
    <tag k="addr:postcode" v="DA1 1PE"/>
    <tag k="removemelater" v="yes"/>
  </node>
  <node id="-39" lat="51.436881638432176" lon="0.23682598503732397">
    <tag k="addr:postcode" v="DA1 1QJ"/>
    <tag k="removemelater" v="yes"/>
  </node>
  <node id="-40" lat="51.43680118198859" lon="0.2377429308535329">
    <tag k="addr:postcode" v="DA1 1QL"/>
    <tag k="removemelater" v="yes"/>
  </node>
  <node id="-41" lat="51.4407469805275" lon="0.23691413701946482">
    <tag k="addr:postcode" v="DA1 1QY"/>
    <tag k="removemelater" v="yes"/>
  </node>
  <node id="-42" lat="51.4367258097866" lon="0.23084707306106783">
    <tag k="addr:postcode" v="DA1 1RT"/>
    <tag k="removemelater" v="yes"/>
  </node>
  <node id="-43" lat="51.44470008680806" lon="0.20962023319737275">
    <tag k="addr:postcode" v="DA1 1YA"/>
    <tag k="removemelater" v="yes"/>
  </node>
  <node id="-44" lat="51.44470008680806" lon="0.20962023319737275">
    <tag k="addr:postcode" v="DA1 1ZH"/>
    <tag k="removemelater" v="yes"/>
  </node>
  <node id="-45" lat="51.44470008680806" lon="0.20962023319737275">
    <tag k="addr:postcode" v="DA1 1ZU"/>
    <tag k="removemelater" v="yes"/>
  </node>
  <node id="-46" lat="51.44470008680806" lon="0.20962023319737275">
    <tag k="addr:postcode" v="DA1 2AX"/>
    <tag k="removemelater" v="yes"/>
  </node>
  <node id="-47" lat="51.44664931473093" lon="0.21545665136115014">
    <tag k="addr:postcode" v="DA1 2DA"/>
    <tag k="removemelater" v="yes"/>
  </node>
  <node id="-48" lat="51.445362837916555" lon="0.21500580941145153">
    <tag k="addr:postcode" v="DA1 2DF"/>
    <tag k="removemelater" v="yes"/>
  </node>
  <node id="-49" lat="51.439021424834834" lon="0.2026694702011804">
    <tag k="addr:postcode" v="DA1 2DS"/>
    <tag k="removemelater" v="yes"/>
  </node>
  <node id="-50" lat="51.44416347022696" lon="0.21422821653941862">
    <tag k="addr:postcode" v="DA1 2DU"/>
    <tag k="removemelater" v="yes"/>
  </node>
  <node id="-51" lat="51.44549012970727" lon="0.2087373282612319">
    <tag k="addr:postcode" v="DA1 2EF"/>
    <tag k="removemelater" v="yes"/>
  </node>
  <node id="-52" lat="51.444754613702344" lon="0.21054389895722125">
    <tag k="addr:postcode" v="DA1 2ET"/>
    <tag k="removemelater" v="yes"/>
  </node>
  <node id="-53" lat="51.445625486782674" lon="0.20918999462020377">
    <tag k="addr:postcode" v="DA1 2EU"/>
    <tag k="removemelater" v="yes"/>
  </node>
  <node id="-54" lat="51.4523510696407" lon="0.21401988477692405">
    <tag k="addr:postcode" v="DA1 2FB"/>
    <tag k="removemelater" v="yes"/>
  </node>
  <node id="-55" lat="51.444045920680985" lon="0.21616530564056657">
    <tag k="addr:postcode" v="DA1 2HR"/>
    <tag k="removemelater" v="yes"/>
  </node>
  <node id="-56" lat="51.44374670290345" lon="0.21629472586613752">
    <tag k="addr:postcode" v="DA1 2HS"/>
    <tag k="removemelater" v="yes"/>
  </node>
  <node id="-57" lat="51.444471726149104" lon="0.20503285446130917">
    <tag k="addr:postcode" v="DA1 2JZ"/>
    <tag k="removemelater" v="yes"/>
  </node>
  <node id="-58" lat="51.443991580693556" lon="0.20617538490931872">
    <tag k="addr:postcode" v="DA1 2NB"/>
    <tag k="removemelater" v="yes"/>
  </node>
  <node id="-59" lat="51.44489770019346" lon="0.20629101874542982">
    <tag k="addr:postcode" v="DA1 2NL"/>
    <tag k="removemelater" v="yes"/>
  </node>
  <node id="-60" lat="51.43982461204514" lon="0.1962903691925601">
    <tag k="addr:postcode" v="DA1 2PL"/>
    <tag k="removemelater" v="yes"/>
  </node>
  <node id="-61" lat="51.4389234691617" lon="0.20309643574963734">
    <tag k="addr:postcode" v="DA1 2QA"/>
    <tag k="removemelater" v="yes"/>
  </node>
  <node id="-62" lat="51.44238969885468" lon="0.2105304168131825">
    <tag k="addr:postcode" v="DA1 2US"/>
    <tag k="removemelater" v="yes"/>
  </node>
  <node id="-63" lat="51.43997166874991" lon="0.21475932035037146">
    <tag k="addr:postcode" v="DA1 2XB"/>
    <tag k="removemelater" v="yes"/>
  </node>
  <node id="-64" lat="51.44470008680806" lon="0.20962023319737275">
    <tag k="addr:postcode" v="DA1 2ZB"/>
    <tag k="removemelater" v="yes"/>
  </node>
  <node id="-65" lat="51.44470008680806" lon="0.20962023319737275">
    <tag k="addr:postcode" v="DA1 2ZJ"/>
    <tag k="removemelater" v="yes"/>
  </node>
  <node id="-66" lat="51.44627330162379" lon="0.2048749976181943">
    <tag k="addr:postcode" v="DA1 3EE"/>
    <tag k="removemelater" v="yes"/>
  </node>
  <node id="-67" lat="51.44470008680806" lon="0.20962023319737275">
    <tag k="addr:postcode" v="DA1 3WE"/>
    <tag k="removemelater" v="yes"/>
  </node>
  <node id="-68" lat="51.44470008680806" lon="0.20962023319737275">
    <tag k="addr:postcode" v="DA1 3WU"/>
    <tag k="removemelater" v="yes"/>
  </node>
  <node id="-69" lat="51.44470008680806" lon="0.20962023319737275">
    <tag k="addr:postcode" v="DA1 3WZ"/>
    <tag k="removemelater" v="yes"/>
  </node>
  <node id="-70" lat="51.4540717252716" lon="0.1657247988466485">
    <tag k="addr:postcode" v="DA1 4DP"/>
    <tag k="removemelater" v="yes"/>
  </node>
  <node id="-71" lat="51.454010373832574" lon="0.16612492580486982">
    <tag k="addr:postcode" v="DA1 4DW"/>
    <tag k="removemelater" v="yes"/>
  </node>
  <node id="-72" lat="51.452068458000554" lon="0.18884649718734633">
    <tag k="addr:postcode" v="DA1 4FA"/>
    <tag k="removemelater" v="yes"/>
  </node>
  <node id="-73" lat="51.44920869547213" lon="0.18016056639600614">
    <tag k="addr:postcode" v="DA1 4FJ"/>
    <tag k="removemelater" v="yes"/>
  </node>
  <node id="-74" lat="51.4509532657195" lon="0.18788638951300052">
    <tag k="addr:postcode" v="DA1 4FL"/>
    <tag k="removemelater" v="yes"/>
  </node>
  <node id="-75" lat="51.45169521150372" lon="0.1900520716667557">
    <tag k="addr:postcode" v="DA1 4FP"/>
    <tag k="removemelater" v="yes"/>
  </node>
  <node id="-76" lat="51.45158881304659" lon="0.19141433833480684">
    <tag k="addr:postcode" v="DA1 4FQ"/>
    <tag k="removemelater" v="yes"/>
  </node>
  <node id="-77" lat="51.45109736710499" lon="0.19028253354629762">
    <tag k="addr:postcode" v="DA1 4FR"/>
    <tag k="removemelater" v="yes"/>
  </node>
  <node id="-78" lat="51.451451390862346" lon="0.1905873438456699">
    <tag k="addr:postcode" v="DA1 4FS"/>
    <tag k="removemelater" v="yes"/>
  </node>
  <node id="-79" lat="51.4518378199099" lon="0.1877127847186213">
    <tag k="addr:postcode" v="DA1 4FT"/>
    <tag k="removemelater" v="yes"/>
  </node>
  <node id="-80" lat="51.45137685755147" lon="0.18976336402987312">
    <tag k="addr:postcode" v="DA1 4FX"/>
    <tag k="removemelater" v="yes"/>
  </node>
  <node id="-81" lat="51.45076753525064" lon="0.17806149725194909">
    <tag k="addr:postcode" v="DA1 4FY"/>
    <tag k="removemelater" v="yes"/>
  </node>
  <node id="-82" lat="51.46133057868421" lon="0.1903262216497149">
    <tag k="addr:postcode" v="DA1 4GA"/>
    <tag k="removemelater" v="yes"/>
  </node>
  <node id="-83" lat="51.44940962419271" lon="0.1785437816060984">
    <tag k="addr:postcode" v="DA1 4HW"/>
    <tag k="removemelater" v="yes"/>
  </node>
  <node id="-84" lat="51.451253311326404" lon="0.18143821805890803">
    <tag k="addr:postcode" v="DA1 4LD"/>
    <tag k="removemelater" v="yes"/>
  </node>
  <node id="-85" lat="51.458105647232244" lon="0.1930220806506444">
    <tag k="addr:postcode" v="DA1 4LZ"/>
    <tag k="removemelater" v="yes"/>
  </node>
  <node id="-86" lat="51.45647867072314" lon="0.1934623020856101">
    <tag k="addr:postcode" v="DA1 4PE"/>
    <tag k="removemelater" v="yes"/>
  </node>
  <node id="-87" lat="51.457682779508396" lon="0.19831363195358456">
    <tag k="addr:postcode" v="DA1 4QG"/>
    <tag k="removemelater" v="yes"/>
  </node>
  <node id="-88" lat="51.45725663401632" lon="0.19658014301050097">
    <tag k="addr:postcode" v="DA1 4QH"/>
    <tag k="removemelater" v="yes"/>
  </node>
  <node id="-89" lat="51.46390303034862" lon="0.18355319060018063">
    <tag k="addr:postcode" v="DA1 4QL"/>
    <tag k="removemelater" v="yes"/>
  </node>
  <node id="-90" lat="51.46118687676817" lon="0.19416314720935826">
    <tag k="addr:postcode" v="DA1 4QN"/>
    <tag k="removemelater" v="yes"/>
  </node>
  <node id="-91" lat="51.461785266249485" lon="0.19390392234508508">
    <tag k="addr:postcode" v="DA1 4QT"/>
    <tag k="removemelater" v="yes"/>
  </node>
  <node id="-92" lat="51.462344332791005" lon="0.191900810918616">
    <tag k="addr:postcode" v="DA1 4QX"/>
    <tag k="removemelater" v="yes"/>
  </node>
  <node id="-93" lat="51.45687654065579" lon="0.19958482935243171">
    <tag k="addr:postcode" v="DA1 4RF"/>
    <tag k="removemelater" v="yes"/>
  </node>
  <node id="-94" lat="51.46383800710233" lon="0.1865590801144457">
    <tag k="addr:postcode" v="DA1 4RQ"/>
    <tag k="removemelater" v="yes"/>
  </node>
  <node id="-95" lat="51.463741184617035" lon="0.18499956770788756">
    <tag k="addr:postcode" v="DA1 4SB"/>
    <tag k="removemelater" v="yes"/>
  </node>
  <node id="-96" lat="51.46154835561271" lon="0.19502987466084626">
    <tag k="addr:postcode" v="DA1 4SD"/>
    <tag k="removemelater" v="yes"/>
  </node>
  <node id="-97" lat="51.46372026602689" lon="0.18612153932653872">
    <tag k="addr:postcode" v="DA1 4SL"/>
    <tag k="removemelater" v="yes"/>
  </node>
  <node id="-98" lat="51.463838814530455" lon="0.1855513215789663">
    <tag k="addr:postcode" v="DA1 4TQ"/>
    <tag k="removemelater" v="yes"/>
  </node>
  <node id="-99" lat="51.44470008680806" lon="0.20962023319737275">
    <tag k="addr:postcode" v="DA1 4WB"/>
    <tag k="removemelater" v="yes"/>
  </node>
  <node id="-100" lat="51.44470008680806" lon="0.20962023319737275">
    <tag k="addr:postcode" v="DA1 4WU"/>
    <tag k="removemelater" v="yes"/>
  </node>
  <node id="-101" lat="51.45079487487973" lon="0.21642019262524753">
    <tag k="addr:postcode" v="DA1 5AJ"/>
    <tag k="removemelater" v="yes"/>
  </node>
  <node id="-102" lat="51.456530835110456" lon="0.20601709457821282">
    <tag k="addr:postcode" v="DA1 5BD"/>
    <tag k="removemelater" v="yes"/>
  </node>
  <node id="-103" lat="51.45030590613389" lon="0.2208727035187525">
    <tag k="addr:postcode" v="DA1 5BG"/>
    <tag k="removemelater" v="yes"/>
  </node>
  <node id="-104" lat="51.45560224711528" lon="0.2070950940633692">
    <tag k="addr:postcode" v="DA1 5BL"/>
    <tag k="removemelater" v="yes"/>
  </node>
  <node id="-105" lat="51.45483944064206" lon="0.2079651371441938">
    <tag k="addr:postcode" v="DA1 5BN"/>
    <tag k="removemelater" v="yes"/>
  </node>
  <node id="-106" lat="51.45500504829668" lon="0.2087216365250771">
    <tag k="addr:postcode" v="DA1 5BP"/>
    <tag k="removemelater" v="yes"/>
  </node>
  <node id="-107" lat="51.45226133461158" lon="0.21924039110086588">
    <tag k="addr:postcode" v="DA1 5BS"/>
    <tag k="removemelater" v="yes"/>
  </node>
  <node id="-108" lat="51.45654646935524" lon="0.2070974621598821">
    <tag k="addr:postcode" v="DA1 5BU"/>
    <tag k="removemelater" v="yes"/>
  </node>
  <node id="-109" lat="51.451492998775734" lon="0.21944781181295436">
    <tag k="addr:postcode" v="DA1 5BY"/>
    <tag k="removemelater" v="yes"/>
  </node>
  <node id="-110" lat="51.45297678935977" lon="0.22798331912040748">
    <tag k="addr:postcode" v="DA1 5EG"/>
    <tag k="removemelater" v="yes"/>
  </node>
  <node id="-111" lat="51.46080181497624" lon="0.22981846298975375">
    <tag k="addr:postcode" v="DA1 5FG"/>
    <tag k="removemelater" v="yes"/>
  </node>
  <node id="-112" lat="51.46147347337328" lon="0.22665519455547364">
    <tag k="addr:postcode" v="DA1 5FP"/>
    <tag k="removemelater" v="yes"/>
  </node>
  <node id="-113" lat="51.44980431055389" lon="0.21458751261935194">
    <tag k="addr:postcode" v="DA1 5FS"/>
    <tag k="removemelater" v="yes"/>
  </node>
  <node id="-114" lat="51.46109665089076" lon="0.23841305591555478">
    <tag k="addr:postcode" v="DA1 5FU"/>
    <tag k="removemelater" v="yes"/>
  </node>
  <node id="-115" lat="51.459965646321685" lon="0.226970487108407">
    <tag k="addr:postcode" v="DA1 5FW"/>
    <tag k="removemelater" v="yes"/>
  </node>
  <node id="-116" lat="51.44792573008332" lon="0.22213883889298966">
    <tag k="addr:postcode" v="DA1 5FY"/>
    <tag k="removemelater" v="yes"/>
  </node>
  <node id="-117" lat="51.46088039513117" lon="0.23088761734492086">
    <tag k="addr:postcode" v="DA1 5GA"/>
    <tag k="removemelater" v="yes"/>
  </node>
  <node id="-118" lat="51.46382309362978" lon="0.23031129157270092">
    <tag k="addr:postcode" v="DA1 5GD"/>
    <tag k="removemelater" v="yes"/>
  </node>
  <node id="-119" lat="51.46355168277056" lon="0.22992373163612567">
    <tag k="addr:postcode" v="DA1 5GE"/>
    <tag k="removemelater" v="yes"/>
  </node>
  <node id="-120" lat="51.46261142188534" lon="0.22829424086557848">
    <tag k="addr:postcode" v="DA1 5GJ"/>
    <tag k="removemelater" v="yes"/>
  </node>
  <node id="-121" lat="51.463766034431764" lon="0.2290559550179054">
    <tag k="addr:postcode" v="DA1 5GY"/>
    <tag k="removemelater" v="yes"/>
  </node>
  <node id="-122" lat="51.45147339996437" lon="0.22711848378574437">
    <tag k="addr:postcode" v="DA1 5HX"/>
    <tag k="removemelater" v="yes"/>
  </node>
  <node id="-123" lat="51.45093154954491" lon="0.22771101505478947">
    <tag k="addr:postcode" v="DA1 5HY"/>
    <tag k="removemelater" v="yes"/>
  </node>
  <node id="-124" lat="51.45091190440774" lon="0.228271390374057">
    <tag k="addr:postcode" v="DA1 5HZ"/>
    <tag k="removemelater" v="yes"/>
  </node>
  <node id="-125" lat="51.45144821609381" lon="0.228916419331177">
    <tag k="addr:postcode" v="DA1 5JE"/>
    <tag k="removemelater" v="yes"/>
  </node>
  <node id="-126" lat="51.45194924942899" lon="0.2281060061954995">
    <tag k="addr:postcode" v="DA1 5JF"/>
    <tag k="removemelater" v="yes"/>
  </node>
  <node id="-127" lat="51.44953593263047" lon="0.22116636555925517">
    <tag k="addr:postcode" v="DA1 5LR"/>
    <tag k="removemelater" v="yes"/>
  </node>
  <node id="-128" lat="51.45520997970246" lon="0.24432905872651858">
    <tag k="addr:postcode" v="DA1 5PR"/>
    <tag k="removemelater" v="yes"/>
  </node>
  <node id="-129" lat="51.464943566856526" lon="0.23946518814636342">
    <tag k="addr:postcode" v="DA1 5PT"/>
    <tag k="removemelater" v="yes"/>
  </node>
  <node id="-130" lat="51.46105732192616" lon="0.24704894049168316">
    <tag k="addr:postcode" v="DA1 5PZ"/>
    <tag k="removemelater" v="yes"/>
  </node>
  <node id="-131" lat="51.45167576075688" lon="0.22971913874850458">
    <tag k="addr:postcode" v="DA1 5QB"/>
    <tag k="removemelater" v="yes"/>
  </node>
  <node id="-132" lat="51.45712848735364" lon="0.20197212137874535">
    <tag k="addr:postcode" v="DA1 5QJ"/>
    <tag k="removemelater" v="yes"/>
  </node>
  <node id="-133" lat="51.45998623280113" lon="0.2239915228239577">
    <tag k="addr:postcode" v="DA1 5TF"/>
    <tag k="removemelater" v="yes"/>
  </node>
  <node id="-134" lat="51.46337465383965" lon="0.24297323837764123">
    <tag k="addr:postcode" v="DA1 5UR"/>
    <tag k="removemelater" v="yes"/>
  </node>
  <node id="-135" lat="51.448046630927934" lon="0.22145388371921063">
    <tag k="addr:postcode" v="DA1 5WJ"/>
    <tag k="removemelater" v="yes"/>
  </node>
  <node id="-136" lat="51.44814167080292" lon="0.21881032647674314">
    <tag k="addr:postcode" v="DA1 5WU"/>
    <tag k="removemelater" v="yes"/>
  </node>
  <node id="-137" lat="51.4482222626746" lon="0.2193035707238804">
    <tag k="addr:postcode" v="DA1 5WW"/>
    <tag k="removemelater" v="yes"/>
  </node>
  <node id="-138" lat="51.44470008680806" lon="0.20962023319737275">
    <tag k="addr:postcode" v="DA1 5WY"/>
    <tag k="removemelater" v="yes"/>
  </node>
  <node id="-139" lat="51.45422464569323" lon="0.2186159141479061">
    <tag k="addr:postcode" v="DA1 5XA"/>
    <tag k="removemelater" v="yes"/>
  </node>
  <node id="-140" lat="51.44470008680806" lon="0.20962023319737275">
    <tag k="addr:postcode" v="DA1 5ZA"/>
    <tag k="removemelater" v="yes"/>
  </node>
  <node id="-141" lat="51.44470008680806" lon="0.20962023319737275">
    <tag k="addr:postcode" v="DA1 9BA"/>
    <tag k="removemelater" v="yes"/>
  </node>
  <node id="-142" lat="51.44470008680806" lon="0.20962023319737275">
    <tag k="addr:postcode" v="DA1 9BG"/>
    <tag k="removemelater" v="yes"/>
  </node>
  <node id="-143" lat="51.44470008680806" lon="0.20962023319737275">
    <tag k="addr:postcode" v="DA1 9BN"/>
    <tag k="removemelater" v="yes"/>
  </node>
  <node id="-144" lat="51.44470008680806" lon="0.20962023319737275">
    <tag k="addr:postcode" v="DA1 9DE"/>
    <tag k="removemelater" v="yes"/>
  </node>
  <node id="-145" lat="51.44470008680806" lon="0.20962023319737275">
    <tag k="addr:postcode" v="DA1 9DL"/>
    <tag k="removemelater" v="yes"/>
  </node>
  <node id="-146" lat="51.44470008680806" lon="0.20962023319737275">
    <tag k="addr:postcode" v="DA1 9DQ"/>
    <tag k="removemelater" v="yes"/>
  </node>
  <node id="-147" lat="51.44470008680806" lon="0.20962023319737275">
    <tag k="addr:postcode" v="DA1 9ED"/>
    <tag k="removemelater" v="yes"/>
  </node>
  <node id="-148" lat="51.44470008680806" lon="0.20962023319737275">
    <tag k="addr:postcode" v="DA1 9EN"/>
    <tag k="removemelater" v="yes"/>
  </node>
  <node id="-149" lat="51.44470008680806" lon="0.20962023319737275">
    <tag k="addr:postcode" v="DA1 9EP"/>
    <tag k="removemelater" v="yes"/>
  </node>
  <node id="-150" lat="51.44470008680806" lon="0.20962023319737275">
    <tag k="addr:postcode" v="DA1 9FF"/>
    <tag k="removemelater" v="yes"/>
  </node>
  <node id="-151" lat="51.44470008680806" lon="0.20962023319737275">
    <tag k="addr:postcode" v="DA1 9FX"/>
    <tag k="removemelater" v="yes"/>
  </node>
  <node id="-152" lat="51.44470008680806" lon="0.20962023319737275">
    <tag k="addr:postcode" v="DA1 9FY"/>
    <tag k="removemelater" v="yes"/>
  </node>
  <node id="-153" lat="51.44470008680806" lon="0.20962023319737275">
    <tag k="addr:postcode" v="DA1 9FZ"/>
    <tag k="removemelater" v="yes"/>
  </node>
  <node id="-154" lat="51.44470008680806" lon="0.20962023319737275">
    <tag k="addr:postcode" v="DA1 9GF"/>
    <tag k="removemelater" v="yes"/>
  </node>
  <node id="-155" lat="51.44470008680806" lon="0.20962023319737275">
    <tag k="addr:postcode" v="DA1 9GH"/>
    <tag k="removemelater" v="yes"/>
  </node>
  <node id="-156" lat="51.44470008680806" lon="0.20962023319737275">
    <tag k="addr:postcode" v="DA1 9GJ"/>
    <tag k="removemelater" v="yes"/>
  </node>
  <node id="-157" lat="51.44470008680806" lon="0.20962023319737275">
    <tag k="addr:postcode" v="DA1 9GQ"/>
    <tag k="removemelater" v="yes"/>
  </node>
  <node id="-158" lat="51.44470008680806" lon="0.20962023319737275">
    <tag k="addr:postcode" v="DA1 9GR"/>
    <tag k="removemelater" v="yes"/>
  </node>
  <node id="-159" lat="51.44470008680806" lon="0.20962023319737275">
    <tag k="addr:postcode" v="DA1 9GT"/>
    <tag k="removemelater" v="yes"/>
  </node>
  <node id="-160" lat="51.44470008680806" lon="0.20962023319737275">
    <tag k="addr:postcode" v="DA1 9GW"/>
    <tag k="removemelater" v="yes"/>
  </node>
  <node id="-161" lat="51.44470008680806" lon="0.20962023319737275">
    <tag k="addr:postcode" v="DA1 9HA"/>
    <tag k="removemelater" v="yes"/>
  </node>
  <node id="-162" lat="51.44470008680806" lon="0.20962023319737275">
    <tag k="addr:postcode" v="DA1 9HD"/>
    <tag k="removemelater" v="yes"/>
  </node>
  <node id="-163" lat="51.44470008680806" lon="0.20962023319737275">
    <tag k="addr:postcode" v="DA1 9HZ"/>
    <tag k="removemelater" v="yes"/>
  </node>
  <node id="-164" lat="51.44470008680806" lon="0.20962023319737275">
    <tag k="addr:postcode" v="DA1 9JF"/>
    <tag k="removemelater" v="yes"/>
  </node>
  <node id="-165" lat="51.44470008680806" lon="0.20962023319737275">
    <tag k="addr:postcode" v="DA1 9JS"/>
    <tag k="removemelater" v="yes"/>
  </node>
  <node id="-166" lat="51.44470008680806" lon="0.20962023319737275">
    <tag k="addr:postcode" v="DA1 9JW"/>
    <tag k="removemelater" v="yes"/>
  </node>
  <node id="-167" lat="51.44470008680806" lon="0.20962023319737275">
    <tag k="addr:postcode" v="DA1 9LB"/>
    <tag k="removemelater" v="yes"/>
  </node>
  <node id="-168" lat="51.44470008680806" lon="0.20962023319737275">
    <tag k="addr:postcode" v="DA1 9LD"/>
    <tag k="removemelater" v="yes"/>
  </node>
  <node id="-169" lat="51.44470008680806" lon="0.20962023319737275">
    <tag k="addr:postcode" v="DA1 9LF"/>
    <tag k="removemelater" v="yes"/>
  </node>
  <node id="-170" lat="51.44470008680806" lon="0.20962023319737275">
    <tag k="addr:postcode" v="DA1 9LS"/>
    <tag k="removemelater" v="yes"/>
  </node>
  <node id="-171" lat="51.44470008680806" lon="0.20962023319737275">
    <tag k="addr:postcode" v="DA1 9LU"/>
    <tag k="removemelater" v="yes"/>
  </node>
  <node id="-172" lat="51.44470008680806" lon="0.20962023319737275">
    <tag k="addr:postcode" v="DA1 9NB"/>
    <tag k="removemelater" v="yes"/>
  </node>
  <node id="-173" lat="51.44470008680806" lon="0.20962023319737275">
    <tag k="addr:postcode" v="DA1 9NF"/>
    <tag k="removemelater" v="yes"/>
  </node>
  <node id="-174" lat="51.44470008680806" lon="0.20962023319737275">
    <tag k="addr:postcode" v="DA1 9NJ"/>
    <tag k="removemelater" v="yes"/>
  </node>
  <node id="-175" lat="51.44470008680806" lon="0.20962023319737275">
    <tag k="addr:postcode" v="DA1 9NY"/>
    <tag k="removemelater" v="yes"/>
  </node>
  <node id="-176" lat="51.44470008680806" lon="0.20962023319737275">
    <tag k="addr:postcode" v="DA1 9PA"/>
    <tag k="removemelater" v="yes"/>
  </node>
  <node id="-177" lat="51.44470008680806" lon="0.20962023319737275">
    <tag k="addr:postcode" v="DA1 9PB"/>
    <tag k="removemelater" v="yes"/>
  </node>
  <node id="-178" lat="51.44470008680806" lon="0.20962023319737275">
    <tag k="addr:postcode" v="DA1 9PE"/>
    <tag k="removemelater" v="yes"/>
  </node>
  <node id="-179" lat="51.44470008680806" lon="0.20962023319737275">
    <tag k="addr:postcode" v="DA1 9PF"/>
    <tag k="removemelater" v="yes"/>
  </node>
  <node id="-180" lat="51.44470008680806" lon="0.20962023319737275">
    <tag k="addr:postcode" v="DA1 9PJ"/>
    <tag k="removemelater" v="yes"/>
  </node>
  <node id="-181" lat="51.44470008680806" lon="0.20962023319737275">
    <tag k="addr:postcode" v="DA1 9PN"/>
    <tag k="removemelater" v="yes"/>
  </node>
  <node id="-182" lat="51.44665836381684" lon="0.21925651399811338">
    <tag k="addr:postcode" v="DA1 9SA"/>
    <tag k="removemelater" v="yes"/>
  </node>
  <node id="-183" lat="51.44660064328277" lon="0.21945519941613267">
    <tag k="addr:postcode" v="DA1 9SB"/>
    <tag k="removemelater" v="yes"/>
  </node>
  <node id="-184" lat="51.44660064328277" lon="0.21945519941613267">
    <tag k="addr:postcode" v="DA1 9SD"/>
    <tag k="removemelater" v="yes"/>
  </node>
  <node id="-185" lat="51.44660064328277" lon="0.21945519941613267">
    <tag k="addr:postcode" v="DA1 9SE"/>
    <tag k="removemelater" v="yes"/>
  </node>
  <node id="-186" lat="51.44660064328277" lon="0.21945519941613267">
    <tag k="addr:postcode" v="DA1 9SF"/>
    <tag k="removemelater" v="yes"/>
  </node>
  <node id="-187" lat="51.44660064328277" lon="0.21945519941613267">
    <tag k="addr:postcode" v="DA1 9SG"/>
    <tag k="removemelater" v="yes"/>
  </node>
  <node id="-188" lat="51.44660064328277" lon="0.21945519941613267">
    <tag k="addr:postcode" v="DA1 9SH"/>
    <tag k="removemelater" v="yes"/>
  </node>
  <node id="-189" lat="51.44660064328277" lon="0.21945519941613267">
    <tag k="addr:postcode" v="DA1 9SJ"/>
    <tag k="removemelater" v="yes"/>
  </node>
  <node id="-190" lat="51.44660064328277" lon="0.21945519941613267">
    <tag k="addr:postcode" v="DA1 9SL"/>
    <tag k="removemelater" v="yes"/>
  </node>
  <node id="-191" lat="51.44660064328277" lon="0.21945519941613267">
    <tag k="addr:postcode" v="DA1 9SN"/>
    <tag k="removemelater" v="yes"/>
  </node>
  <node id="-192" lat="51.44660064328277" lon="0.21945519941613267">
    <tag k="addr:postcode" v="DA1 9SP"/>
    <tag k="removemelater" v="yes"/>
  </node>
  <node id="-193" lat="51.44660064328277" lon="0.21945519941613267">
    <tag k="addr:postcode" v="DA1 9SQ"/>
    <tag k="removemelater" v="yes"/>
  </node>
  <node id="-194" lat="51.44660064328277" lon="0.21945519941613267">
    <tag k="addr:postcode" v="DA1 9SR"/>
    <tag k="removemelater" v="yes"/>
  </node>
  <node id="-195" lat="51.44660064328277" lon="0.21945519941613267">
    <tag k="addr:postcode" v="DA1 9SS"/>
    <tag k="removemelater" v="yes"/>
  </node>
  <node id="-196" lat="51.44660064328277" lon="0.21945519941613267">
    <tag k="addr:postcode" v="DA1 9ST"/>
    <tag k="removemelater" v="yes"/>
  </node>
  <node id="-197" lat="51.44660064328277" lon="0.21945519941613267">
    <tag k="addr:postcode" v="DA1 9SU"/>
    <tag k="removemelater" v="yes"/>
  </node>
  <node id="-198" lat="51.44660064328277" lon="0.21945519941613267">
    <tag k="addr:postcode" v="DA1 9SW"/>
    <tag k="removemelater" v="yes"/>
  </node>
  <node id="-199" lat="51.44660064328277" lon="0.21945519941613267">
    <tag k="addr:postcode" v="DA1 9SX"/>
    <tag k="removemelater" v="yes"/>
  </node>
  <node id="-200" lat="51.44660064328277" lon="0.21945519941613267">
    <tag k="addr:postcode" v="DA1 9SY"/>
    <tag k="removemelater" v="yes"/>
  </node>
  <node id="-201" lat="51.44660064328277" lon="0.21945519941613267">
    <tag k="addr:postcode" v="DA1 9SZ"/>
    <tag k="removemelater" v="yes"/>
  </node>
  <node id="-202" lat="51.44660064328277" lon="0.21945519941613267">
    <tag k="addr:postcode" v="DA1 9TA"/>
    <tag k="removemelater" v="yes"/>
  </node>
  <node id="-203" lat="51.44660064328277" lon="0.21945519941613267">
    <tag k="addr:postcode" v="DA1 9TB"/>
    <tag k="removemelater" v="yes"/>
  </node>
  <node id="-204" lat="51.44660064328277" lon="0.21945519941613267">
    <tag k="addr:postcode" v="DA1 9TD"/>
    <tag k="removemelater" v="yes"/>
  </node>
  <node id="-205" lat="51.44660064328277" lon="0.21945519941613267">
    <tag k="addr:postcode" v="DA1 9TE"/>
    <tag k="removemelater" v="yes"/>
  </node>
  <node id="-206" lat="51.44660064328277" lon="0.21945519941613267">
    <tag k="addr:postcode" v="DA1 9TF"/>
    <tag k="removemelater" v="yes"/>
  </node>
  <node id="-207" lat="51.44660064328277" lon="0.21945519941613267">
    <tag k="addr:postcode" v="DA1 9TG"/>
    <tag k="removemelater" v="yes"/>
  </node>
  <node id="-208" lat="51.44660064328277" lon="0.21945519941613267">
    <tag k="addr:postcode" v="DA1 9ZY"/>
    <tag k="removemelater" v="yes"/>
  </node>
  <node id="-209" lat="51.44660064328277" lon="0.21945519941613267">
    <tag k="addr:postcode" v="DA1 9ZZ"/>
    <tag k="removemelater" v="yes"/>
  </node>
  <node id="-210" lat="51.44350893287722" lon="0.3110183116171323">
    <tag k="addr:postcode" v="DA10 0BL"/>
    <tag k="removemelater" v="yes"/>
  </node>
  <node id="-211" lat="51.44149695316531" lon="0.3127155166079377">
    <tag k="addr:postcode" v="DA10 0FA"/>
    <tag k="removemelater" v="yes"/>
  </node>
  <node id="-212" lat="51.45181721924998" lon="0.30149197110832426">
    <tag k="addr:postcode" v="DA10 0LL"/>
    <tag k="removemelater" v="yes"/>
  </node>
  <node id="-213" lat="51.45110684073175" lon="0.3110853945662556">
    <tag k="addr:postcode" v="DA10 0PP"/>
    <tag k="removemelater" v="yes"/>
  </node>
  <node id="-214" lat="51.4430158536933" lon="0.3209518697628936">
    <tag k="addr:postcode" v="DA10 1EB"/>
    <tag k="removemelater" v="yes"/>
  </node>
  <node id="-215" lat="51.44470008680806" lon="0.20962023319737275">
    <tag k="addr:postcode" v="DA10 9BY"/>
    <tag k="removemelater" v="yes"/>
  </node>
  <node id="-216" lat="51.44470008680806" lon="0.20962023319737275">
    <tag k="addr:postcode" v="DA10 9DD"/>
    <tag k="removemelater" v="yes"/>
  </node>
  <node id="-217" lat="51.44470008680806" lon="0.20962023319737275">
    <tag k="addr:postcode" v="DA10 9DG"/>
    <tag k="removemelater" v="yes"/>
  </node>
  <node id="-218" lat="51.44470008680806" lon="0.20962023319737275">
    <tag k="addr:postcode" v="DA10 9DL"/>
    <tag k="removemelater" v="yes"/>
  </node>
  <node id="-219" lat="51.44470008680806" lon="0.20962023319737275">
    <tag k="addr:postcode" v="DA10 9DN"/>
    <tag k="removemelater" v="yes"/>
  </node>
  <node id="-220" lat="51.44470008680806" lon="0.20962023319737275">
    <tag k="addr:postcode" v="DA10 9DQ"/>
    <tag k="removemelater" v="yes"/>
  </node>
  <node id="-221" lat="51.44470008680806" lon="0.20962023319737275">
    <tag k="addr:postcode" v="DA10 9HD"/>
    <tag k="removemelater" v="yes"/>
  </node>
  <node id="-222" lat="51.44262930123246" lon="0.366363938513575">
    <tag k="addr:postcode" v="DA11 0AB"/>
    <tag k="removemelater" v="yes"/>
  </node>
  <node id="-223" lat="51.44226844220527" lon="0.3677555708833826">
    <tag k="addr:postcode" v="DA11 0AF"/>
    <tag k="removemelater" v="yes"/>
  </node>
  <node id="-224" lat="51.442266118558386" lon="0.36787057638847037">
    <tag k="addr:postcode" v="DA11 0AR"/>
    <tag k="removemelater" v="yes"/>
  </node>
  <node id="-225" lat="51.44234259404642" lon="0.36853650694179113">
    <tag k="addr:postcode" v="DA11 0AS"/>
    <tag k="removemelater" v="yes"/>
  </node>
  <node id="-226" lat="51.4454082891965" lon="0.362348433929109">
    <tag k="addr:postcode" v="DA11 0DD"/>
    <tag k="removemelater" v="yes"/>
  </node>
  <node id="-227" lat="51.44531497117587" lon="0.3629624582426235">
    <tag k="addr:postcode" v="DA11 0DH"/>
    <tag k="removemelater" v="yes"/>
  </node>
  <node id="-228" lat="51.44412633819985" lon="0.36838416952589065">
    <tag k="addr:postcode" v="DA11 0DJ"/>
    <tag k="removemelater" v="yes"/>
  </node>
  <node id="-229" lat="51.443499790556885" lon="0.3566373982922815">
    <tag k="addr:postcode" v="DA11 0DL"/>
    <tag k="removemelater" v="yes"/>
  </node>
  <node id="-230" lat="51.444104681725946" lon="0.35830915088380244">
    <tag k="addr:postcode" v="DA11 0DP"/>
    <tag k="removemelater" v="yes"/>
  </node>
  <node id="-231" lat="51.445296710436686" lon="0.36342204840515663">
    <tag k="addr:postcode" v="DA11 0DR"/>
    <tag k="removemelater" v="yes"/>
  </node>
  <node id="-232" lat="51.44556844950877" lon="0.35752107844821185">
    <tag k="addr:postcode" v="DA11 0DY"/>
    <tag k="removemelater" v="yes"/>
  </node>
  <node id="-233" lat="51.44266580659389" lon="0.35830696254832506">
    <tag k="addr:postcode" v="DA11 0EJ"/>
    <tag k="removemelater" v="yes"/>
  </node>
  <node id="-234" lat="51.44224289989687" lon="0.3685745198443666">
    <tag k="addr:postcode" v="DA11 0NL"/>
    <tag k="removemelater" v="yes"/>
  </node>
  <node id="-235" lat="51.437344884927235" lon="0.3518886698208574">
    <tag k="addr:postcode" v="DA11 0RE"/>
    <tag k="removemelater" v="yes"/>
  </node>
  <node id="-236" lat="51.43758126686707" lon="0.3508647919802071">
    <tag k="addr:postcode" v="DA11 0RF"/>
    <tag k="removemelater" v="yes"/>
  </node>
  <node id="-237" lat="51.441563633967014" lon="0.36792057637488035">
    <tag k="addr:postcode" v="DA11 0RS"/>
    <tag k="removemelater" v="yes"/>
  </node>
  <node id="-238" lat="51.43646234707245" lon="0.3631241983559723">
    <tag k="addr:postcode" v="DA11 0SJ"/>
    <tag k="removemelater" v="yes"/>
  </node>
  <node id="-239" lat="51.44305789846388" lon="0.3669617372769138">
    <tag k="addr:postcode" v="DA11 0TA"/>
    <tag k="removemelater" v="yes"/>
  </node>
  <node id="-240" lat="51.4429312350713" lon="0.3674444779398379">
    <tag k="addr:postcode" v="DA11 0TD"/>
    <tag k="removemelater" v="yes"/>
  </node>
  <node id="-241" lat="51.417403855995445" lon="0.37300000069430034">
    <tag k="addr:postcode" v="DA11 7BQ"/>
    <tag k="removemelater" v="yes"/>
  </node>
  <node id="-242" lat="51.43076057151912" lon="0.3523992867205716">
    <tag k="addr:postcode" v="DA11 7EG"/>
    <tag k="removemelater" v="yes"/>
  </node>
  <node id="-243" lat="51.43220918867665" lon="0.36309170953321235">
    <tag k="addr:postcode" v="DA11 7GJ"/>
    <tag k="removemelater" v="yes"/>
  </node>
  <node id="-244" lat="51.43274591017227" lon="0.33090541524022493">
    <tag k="addr:postcode" v="DA11 8AD"/>
    <tag k="removemelater" v="yes"/>
  </node>
  <node id="-245" lat="51.43045777785706" lon="0.3455211523196835">
    <tag k="addr:postcode" v="DA11 8BB"/>
    <tag k="removemelater" v="yes"/>
  </node>
  <node id="-246" lat="51.43323346071416" lon="0.33126115587056043">
    <tag k="addr:postcode" v="DA11 8BF"/>
    <tag k="removemelater" v="yes"/>
  </node>
  <node id="-247" lat="51.4329300779888" lon="0.3293321452624377">
    <tag k="addr:postcode" v="DA11 8BY"/>
    <tag k="removemelater" v="yes"/>
  </node>
  <node id="-248" lat="51.4340492195683" lon="0.33003654624106993">
    <tag k="addr:postcode" v="DA11 8FF"/>
    <tag k="removemelater" v="yes"/>
  </node>
  <node id="-249" lat="51.43374436357458" lon="0.3290858147904996">
    <tag k="addr:postcode" v="DA11 8FJ"/>
    <tag k="removemelater" v="yes"/>
  </node>
  <node id="-250" lat="51.433346294942886" lon="0.33056189789287743">
    <tag k="addr:postcode" v="DA11 8FN"/>
    <tag k="removemelater" v="yes"/>
  </node>
  <node id="-251" lat="51.43316280828122" lon="0.3293871489747869">
    <tag k="addr:postcode" v="DA11 8FP"/>
    <tag k="removemelater" v="yes"/>
  </node>
  <node id="-252" lat="51.42766158864196" lon="0.3310638060317773">
    <tag k="addr:postcode" v="DA11 8HX"/>
    <tag k="removemelater" v="yes"/>
  </node>
  <node id="-253" lat="51.42496049346005" lon="0.35326655445717875">
    <tag k="addr:postcode" v="DA11 8NT"/>
    <tag k="removemelater" v="yes"/>
  </node>
  <node id="-254" lat="51.423392728688015" lon="0.34848218954500676">
    <tag k="addr:postcode" v="DA11 8PW"/>
    <tag k="removemelater" v="yes"/>
  </node>
  <node id="-255" lat="51.4488191443307" lon="0.3344011237479835">
    <tag k="addr:postcode" v="DA11 9AN"/>
    <tag k="removemelater" v="yes"/>
  </node>
  <node id="-256" lat="51.45035710598682" lon="0.3248937339002679">
    <tag k="addr:postcode" v="DA11 9AX"/>
    <tag k="removemelater" v="yes"/>
  </node>
  <node id="-257" lat="51.452572478188586" lon="0.32428661244195417">
    <tag k="addr:postcode" v="DA11 9BD"/>
    <tag k="removemelater" v="yes"/>
  </node>
  <node id="-258" lat="51.44346206466222" lon="0.3428200485317383">
    <tag k="addr:postcode" v="DA11 9BU"/>
    <tag k="removemelater" v="yes"/>
  </node>
  <node id="-259" lat="51.447246299789974" lon="0.3266642391136925">
    <tag k="addr:postcode" v="DA11 9DB"/>
    <tag k="removemelater" v="yes"/>
  </node>
  <node id="-260" lat="51.44781614571055" lon="0.32695227523383236">
    <tag k="addr:postcode" v="DA11 9DJ"/>
    <tag k="removemelater" v="yes"/>
  </node>
  <node id="-261" lat="51.44749501709099" lon="0.32500738228056886">
    <tag k="addr:postcode" v="DA11 9DL"/>
    <tag k="removemelater" v="yes"/>
  </node>
  <node id="-262" lat="51.44819733918655" lon="0.3263239975981035">
    <tag k="addr:postcode" v="DA11 9DN"/>
    <tag k="removemelater" v="yes"/>
  </node>
  <node id="-263" lat="51.447711204302315" lon="0.3240828649655292">
    <tag k="addr:postcode" v="DA11 9DP"/>
    <tag k="removemelater" v="yes"/>
  </node>
  <node id="-264" lat="51.44842237967853" lon="0.3249537529461849">
    <tag k="addr:postcode" v="DA11 9DW"/>
    <tag k="removemelater" v="yes"/>
  </node>
  <node id="-265" lat="51.44841720078992" lon="0.32158563350059666">
    <tag k="addr:postcode" v="DA11 9DZ"/>
    <tag k="removemelater" v="yes"/>
  </node>
  <node id="-266" lat="51.445442586674716" lon="0.35573002521479236">
    <tag k="addr:postcode" v="DA11 9NL"/>
    <tag k="removemelater" v="yes"/>
  </node>
  <node id="-267" lat="51.43912555623149" lon="0.3388567772281775">
    <tag k="addr:postcode" v="DA11 9PN"/>
    <tag k="removemelater" v="yes"/>
  </node>
  <node id="-268" lat="51.45167756286317" lon="0.3177064701443546">
    <tag k="addr:postcode" v="DA11 9SN"/>
    <tag k="removemelater" v="yes"/>
  </node>
  <node id="-269" lat="51.45060757599944" lon="0.31542132137561896">
    <tag k="addr:postcode" v="DA11 9SR"/>
    <tag k="removemelater" v="yes"/>
  </node>
  <node id="-270" lat="51.450897910741084" lon="0.3152920804124752">
    <tag k="addr:postcode" v="DA11 9SW"/>
    <tag k="removemelater" v="yes"/>
  </node>
  <node id="-271" lat="51.43878992077987" lon="0.36810804903921973">
    <tag k="addr:postcode" v="DA12 1BH"/>
    <tag k="removemelater" v="yes"/>
  </node>
  <node id="-272" lat="51.43992072663533" lon="0.36822411275137373">
    <tag k="addr:postcode" v="DA12 1DD"/>
    <tag k="removemelater" v="yes"/>
  </node>
  <node id="-273" lat="51.43272687580577" lon="0.36952096005687673">
    <tag k="addr:postcode" v="DA12 1NG"/>
    <tag k="removemelater" v="yes"/>
  </node>
  <node id="-274" lat="51.433132305601205" lon="0.37348421376027596">
    <tag k="addr:postcode" v="DA12 1NL"/>
    <tag k="removemelater" v="yes"/>
  </node>
  <node id="-275" lat="51.442757166137554" lon="0.38091973179730476">
    <tag k="addr:postcode" v="DA12 2AT"/>
    <tag k="removemelater" v="yes"/>
  </node>
  <node id="-276" lat="51.444103367584674" lon="0.3761830669995585">
    <tag k="addr:postcode" v="DA12 2BF"/>
    <tag k="removemelater" v="yes"/>
  </node>
  <node id="-277" lat="51.44475073485005" lon="0.37397160366760535">
    <tag k="addr:postcode" v="DA12 2BG"/>
    <tag k="removemelater" v="yes"/>
  </node>
  <node id="-278" lat="51.44384540770386" lon="0.3764862805900973">
    <tag k="addr:postcode" v="DA12 2BH"/>
    <tag k="removemelater" v="yes"/>
  </node>
  <node id="-279" lat="51.44377810686623" lon="0.37448240792381104">
    <tag k="addr:postcode" v="DA12 2BL"/>
    <tag k="removemelater" v="yes"/>
  </node>
  <node id="-280" lat="51.44375479885716" lon="0.37563249460208986">
    <tag k="addr:postcode" v="DA12 2BW"/>
    <tag k="removemelater" v="yes"/>
  </node>
  <node id="-281" lat="51.43873985148467" lon="0.39579112149725565">
    <tag k="addr:postcode" v="DA12 2DN"/>
    <tag k="removemelater" v="yes"/>
  </node>
  <node id="-282" lat="51.43946463574698" lon="0.38627417273490944">
    <tag k="addr:postcode" v="DA12 2EA"/>
    <tag k="removemelater" v="yes"/>
  </node>
  <node id="-283" lat="51.44299074894039" lon="0.37072869202522474">
    <tag k="addr:postcode" v="DA12 2EJ"/>
    <tag k="removemelater" v="yes"/>
  </node>
  <node id="-284" lat="51.43333049051332" lon="0.39556559088867066">
    <tag k="addr:postcode" v="DA12 2JJ"/>
    <tag k="removemelater" v="yes"/>
  </node>
  <node id="-285" lat="51.44062204849869" lon="0.38508256376851235">
    <tag k="addr:postcode" v="DA12 2PA"/>
    <tag k="removemelater" v="yes"/>
  </node>
  <node id="-286" lat="51.439991547330045" lon="0.38601384198009603">
    <tag k="addr:postcode" v="DA12 2PN"/>
    <tag k="removemelater" v="yes"/>
  </node>
  <node id="-287" lat="51.44058142051862" lon="0.37601461197906416">
    <tag k="addr:postcode" v="DA12 2PQ"/>
    <tag k="removemelater" v="yes"/>
  </node>
  <node id="-288" lat="51.43975562825129" lon="0.38611666366335107">
    <tag k="addr:postcode" v="DA12 2PW"/>
    <tag k="removemelater" v="yes"/>
  </node>
  <node id="-289" lat="51.44229540096782" lon="0.3797444497987033">
    <tag k="addr:postcode" v="DA12 2SE"/>
    <tag k="removemelater" v="yes"/>
  </node>
  <node id="-290" lat="51.44230438475943" lon="0.3797449169180162">
    <tag k="addr:postcode" v="DA12 2SF"/>
    <tag k="removemelater" v="yes"/>
  </node>
  <node id="-291" lat="51.442178476965246" lon="0.3806305946278154">
    <tag k="addr:postcode" v="DA12 2SG"/>
    <tag k="removemelater" v="yes"/>
  </node>
  <node id="-292" lat="51.44197623005868" lon="0.3804042150388172">
    <tag k="addr:postcode" v="DA12 2SQ"/>
    <tag k="removemelater" v="yes"/>
  </node>
  <node id="-293" lat="51.44082183143594" lon="0.3792361250673626">
    <tag k="addr:postcode" v="DA12 2SR"/>
    <tag k="removemelater" v="yes"/>
  </node>
  <node id="-294" lat="51.4418157568948" lon="0.37989219788588374">
    <tag k="addr:postcode" v="DA12 2ST"/>
    <tag k="removemelater" v="yes"/>
  </node>
  <node id="-295" lat="51.38207446051386" lon="0.39614999778160725">
    <tag k="addr:postcode" v="DA12 3AB"/>
    <tag k="removemelater" v="yes"/>
  </node>
  <node id="-296" lat="51.39458862967682" lon="0.3866834404003419">
    <tag k="addr:postcode" v="DA12 3AL"/>
    <tag k="removemelater" v="yes"/>
  </node>
  <node id="-297" lat="51.41525588828798" lon="0.430403554527351">
    <tag k="addr:postcode" v="DA12 3DZ"/>
    <tag k="removemelater" v="yes"/>
  </node>
  <node id="-298" lat="51.41369122515639" lon="0.42996100207818494">
    <tag k="addr:postcode" v="DA12 3EE"/>
    <tag k="removemelater" v="yes"/>
  </node>
  <node id="-299" lat="51.40300766497741" lon="0.4072804029102855">
    <tag k="addr:postcode" v="DA12 3HB"/>
    <tag k="removemelater" v="yes"/>
  </node>
  <node id="-300" lat="51.40685888235576" lon="0.4358970106796666">
    <tag k="addr:postcode" v="DA12 3JY"/>
    <tag k="removemelater" v="yes"/>
  </node>
  <node id="-301" lat="51.42840350984067" lon="0.3888914842903702">
    <tag k="addr:postcode" v="DA12 4JJ"/>
    <tag k="removemelater" v="yes"/>
  </node>
  <node id="-302" lat="51.42818350288807" lon="0.3877722590746635">
    <tag k="addr:postcode" v="DA12 4JL"/>
    <tag k="removemelater" v="yes"/>
  </node>
  <node id="-303" lat="51.43224552560396" lon="0.4098820771832968">
    <tag k="addr:postcode" v="DA12 4UE"/>
    <tag k="removemelater" v="yes"/>
  </node>
  <node id="-304" lat="51.44003170663256" lon="0.3685176550524426">
    <tag k="addr:postcode" v="DA12 9SA"/>
    <tag k="removemelater" v="yes"/>
  </node>
  <node id="-305" lat="51.440040690500695" lon="0.36851811993143274">
    <tag k="addr:postcode" v="DA12 9ZY"/>
    <tag k="removemelater" v="yes"/>
  </node>
  <node id="-306" lat="51.440040690500695" lon="0.36851811993143274">
    <tag k="addr:postcode" v="DA12 9ZZ"/>
    <tag k="removemelater" v="yes"/>
  </node>
  <node id="-307" lat="51.37125715075161" lon="0.3722075920227562">
    <tag k="addr:postcode" v="DA13 0AL"/>
    <tag k="removemelater" v="yes"/>
  </node>
  <node id="-308" lat="51.38112200090552" lon="0.3597833859556246">
    <tag k="addr:postcode" v="DA13 0JG"/>
    <tag k="removemelater" v="yes"/>
  </node>
  <node id="-309" lat="51.38636559022294" lon="0.3566323833943894">
    <tag k="addr:postcode" v="DA13 0LU"/>
    <tag k="removemelater" v="yes"/>
  </node>
  <node id="-310" lat="51.38109506911677" lon="0.3921466557347305">
    <tag k="addr:postcode" v="DA13 0XA"/>
    <tag k="removemelater" v="yes"/>
  </node>
  <node id="-311" lat="51.3719893801071" lon="0.3989568316755969">
    <tag k="addr:postcode" v="DA13 0XE"/>
    <tag k="removemelater" v="yes"/>
  </node>
  <node id="-312" lat="51.37757551907178" lon="0.3825935954235326">
    <tag k="addr:postcode" v="DA13 0XP"/>
    <tag k="removemelater" v="yes"/>
  </node>
  <node id="-313" lat="51.37093768121505" lon="0.3852806323693149">
    <tag k="addr:postcode" v="DA13 0XQ"/>
    <tag k="removemelater" v="yes"/>
  </node>
  <node id="-314" lat="51.39647993062045" lon="0.35857553295767813">
    <tag k="addr:postcode" v="DA13 9AA"/>
    <tag k="removemelater" v="yes"/>
  </node>
  <node id="-315" lat="51.39183211696293" lon="0.3553608525726848">
    <tag k="addr:postcode" v="DA13 9AD"/>
    <tag k="removemelater" v="yes"/>
  </node>
  <node id="-316" lat="51.4054903176672" lon="0.37287196084163415">
    <tag k="addr:postcode" v="DA13 9AR"/>
    <tag k="removemelater" v="yes"/>
  </node>
  <node id="-317" lat="51.405110624518024" lon="0.3689699605757426">
    <tag k="addr:postcode" v="DA13 9AS"/>
    <tag k="removemelater" v="yes"/>
  </node>
  <node id="-318" lat="51.403004687568064" lon="0.3725994879458945">
    <tag k="addr:postcode" v="DA13 9AT"/>
    <tag k="removemelater" v="yes"/>
  </node>
  <node id="-319" lat="51.39185285691098" lon="0.37038364784706157">
    <tag k="addr:postcode" v="DA13 9AU"/>
    <tag k="removemelater" v="yes"/>
  </node>
  <node id="-320" lat="51.397217721901704" lon="0.3816734962231733">
    <tag k="addr:postcode" v="DA13 9BL"/>
    <tag k="removemelater" v="yes"/>
  </node>
  <node id="-321" lat="51.39780473197193" lon="0.34948573028239854">
    <tag k="addr:postcode" v="DA13 9HN"/>
    <tag k="removemelater" v="yes"/>
  </node>
  <node id="-322" lat="51.402275622497584" lon="0.34763007676169466">
    <tag k="addr:postcode" v="DA13 9HT"/>
    <tag k="removemelater" v="yes"/>
  </node>
  <node id="-323" lat="51.403369364047116" lon="0.3527329343950852">
    <tag k="addr:postcode" v="DA13 9JQ"/>
    <tag k="removemelater" v="yes"/>
  </node>
  <node id="-324" lat="51.413444446974786" lon="0.32874403932594454">
    <tag k="addr:postcode" v="DA13 9PU"/>
    <tag k="removemelater" v="yes"/>
  </node>
  <node id="-325" lat="51.43351160836832" lon="0.10363429878292957">
    <tag k="addr:postcode" v="DA14 4BL"/>
    <tag k="removemelater" v="yes"/>
  </node>
  <node id="-326" lat="51.427873058791846" lon="0.10613733268008274">
    <tag k="addr:postcode" v="DA14 4DU"/>
    <tag k="removemelater" v="yes"/>
  </node>
  <node id="-327" lat="51.43214172844452" lon="0.10329801415730908">
    <tag k="addr:postcode" v="DA14 4EA"/>
    <tag k="removemelater" v="yes"/>
  </node>
  <node id="-328" lat="51.43192349639386" lon="0.10343185914833146">
    <tag k="addr:postcode" v="DA14 4EB"/>
    <tag k="removemelater" v="yes"/>
  </node>
  <node id="-329" lat="51.42439239572493" lon="0.10766027148163121">
    <tag k="addr:postcode" v="DA14 4QE"/>
    <tag k="removemelater" v="yes"/>
  </node>
  <node id="-330" lat="51.423995287493454" lon="0.10923866748287675">
    <tag k="addr:postcode" v="DA14 4QL"/>
    <tag k="removemelater" v="yes"/>
  </node>
  <node id="-331" lat="51.424318960808115" lon="0.1077431994038038">
    <tag k="addr:postcode" v="DA14 4QQ"/>
    <tag k="removemelater" v="yes"/>
  </node>
  <node id="-332" lat="51.4234008412707" lon="0.11178606983502286">
    <tag k="addr:postcode" v="DA14 4QT"/>
    <tag k="removemelater" v="yes"/>
  </node>
  <node id="-333" lat="51.423049032359685" lon="0.11234521490365547">
    <tag k="addr:postcode" v="DA14 4QU"/>
    <tag k="removemelater" v="yes"/>
  </node>
  <node id="-334" lat="51.4248530179161" lon="0.11104748100966812">
    <tag k="addr:postcode" v="DA14 4QW"/>
    <tag k="removemelater" v="yes"/>
  </node>
  <node id="-335" lat="51.427919590309905" lon="0.10554966168397761">
    <tag k="addr:postcode" v="DA14 4TA"/>
    <tag k="removemelater" v="yes"/>
  </node>
  <node id="-336" lat="51.41444411838612" lon="0.12073554358618234">
    <tag k="addr:postcode" v="DA14 5AB"/>
    <tag k="removemelater" v="yes"/>
  </node>
  <node id="-337" lat="51.414434516940034" lon="0.12523648638861534">
    <tag k="addr:postcode" v="DA14 5AD"/>
    <tag k="removemelater" v="yes"/>
  </node>
  <node id="-338" lat="51.419429350292695" lon="0.12155601677220197">
    <tag k="addr:postcode" v="DA14 5AE"/>
    <tag k="removemelater" v="yes"/>
  </node>
  <node id="-339" lat="51.419459444395706" lon="0.12237724173887932">
    <tag k="addr:postcode" v="DA14 5AG"/>
    <tag k="removemelater" v="yes"/>
  </node>
  <node id="-340" lat="51.4132886791768" lon="0.1254422006963722">
    <tag k="addr:postcode" v="DA14 5AJ"/>
    <tag k="removemelater" v="yes"/>
  </node>
  <node id="-341" lat="51.41984699338222" lon="0.12282669029619916">
    <tag k="addr:postcode" v="DA14 5AQ"/>
    <tag k="removemelater" v="yes"/>
  </node>
  <node id="-342" lat="51.41057788631115" lon="0.14195440740443752">
    <tag k="addr:postcode" v="DA14 5BD"/>
    <tag k="removemelater" v="yes"/>
  </node>
  <node id="-343" lat="51.41442191475463" lon="0.13137677494226246">
    <tag k="addr:postcode" v="DA14 5BG"/>
    <tag k="removemelater" v="yes"/>
  </node>
  <node id="-344" lat="51.415335779555136" lon="0.12165409862285956">
    <tag k="addr:postcode" v="DA14 5BH"/>
    <tag k="removemelater" v="yes"/>
  </node>
  <node id="-345" lat="51.41480422671243" lon="0.12319707333908013">
    <tag k="addr:postcode" v="DA14 5BL"/>
    <tag k="removemelater" v="yes"/>
  </node>
  <node id="-346" lat="51.42436183976212" lon="0.11584365999473804">
    <tag k="addr:postcode" v="DA14 5BP"/>
    <tag k="removemelater" v="yes"/>
  </node>
  <node id="-347" lat="51.41916255135119" lon="0.11840818740740074">
    <tag k="addr:postcode" v="DA14 5BS"/>
    <tag k="removemelater" v="yes"/>
  </node>
  <node id="-348" lat="51.41964453811837" lon="0.11910647900045802">
    <tag k="addr:postcode" v="DA14 5BT"/>
    <tag k="removemelater" v="yes"/>
  </node>
  <node id="-349" lat="51.41892399365369" lon="0.1186704300730163">
    <tag k="addr:postcode" v="DA14 5BX"/>
    <tag k="removemelater" v="yes"/>
  </node>
  <node id="-350" lat="51.41733596164087" lon="0.11697178934203198">
    <tag k="addr:postcode" v="DA14 5BZ"/>
    <tag k="removemelater" v="yes"/>
  </node>
  <node id="-351" lat="51.418447612796385" lon="0.11815938832532906">
    <tag k="addr:postcode" v="DA14 5DA"/>
    <tag k="removemelater" v="yes"/>
  </node>
  <node id="-352" lat="51.417882904516425" lon="0.1150698074869626">
    <tag k="addr:postcode" v="DA14 5DD"/>
    <tag k="removemelater" v="yes"/>
  </node>
  <node id="-353" lat="51.41599536603941" lon="0.11800287220132162">
    <tag k="addr:postcode" v="DA14 5DF"/>
    <tag k="removemelater" v="yes"/>
  </node>
  <node id="-354" lat="51.41625066280724" lon="0.11482187307061979">
    <tag k="addr:postcode" v="DA14 5DH"/>
    <tag k="removemelater" v="yes"/>
  </node>
  <node id="-355" lat="51.41527565556003" lon="0.11453238152127657">
    <tag k="addr:postcode" v="DA14 5DJ"/>
    <tag k="removemelater" v="yes"/>
  </node>
  <node id="-356" lat="51.414929718001666" lon="0.11376857522532792">
    <tag k="addr:postcode" v="DA14 5DL"/>
    <tag k="removemelater" v="yes"/>
  </node>
  <node id="-357" lat="51.415507370846896" lon="0.11514710871084913">
    <tag k="addr:postcode" v="DA14 5DP"/>
    <tag k="removemelater" v="yes"/>
  </node>
  <node id="-358" lat="51.416922404453814" lon="0.1154713142321836">
    <tag k="addr:postcode" v="DA14 5DQ"/>
    <tag k="removemelater" v="yes"/>
  </node>
  <node id="-359" lat="51.414785067388806" lon="0.11580407824426657">
    <tag k="addr:postcode" v="DA14 5DT"/>
    <tag k="removemelater" v="yes"/>
  </node>
  <node id="-360" lat="51.414303929958926" lon="0.11306378213336003">
    <tag k="addr:postcode" v="DA14 5DW"/>
    <tag k="removemelater" v="yes"/>
  </node>
  <node id="-361" lat="51.41544456711731" lon="0.11314514928964423">
    <tag k="addr:postcode" v="DA14 5DY"/>
    <tag k="removemelater" v="yes"/>
  </node>
  <node id="-362" lat="51.415432442741604" lon="0.11630856965899541">
    <tag k="addr:postcode" v="DA14 5DZ"/>
    <tag k="removemelater" v="yes"/>
  </node>
  <node id="-363" lat="51.42786077300061" lon="0.1361308349841153">
    <tag k="addr:postcode" v="DA14 5EB"/>
    <tag k="removemelater" v="yes"/>
  </node>
  <node id="-364" lat="51.41555729293447" lon="0.12183693736601646">
    <tag k="addr:postcode" v="DA14 5EF"/>
    <tag k="removemelater" v="yes"/>
  </node>
  <node id="-365" lat="51.43109334846317" lon="0.1398495263585988">
    <tag k="addr:postcode" v="DA14 5EJ"/>
    <tag k="removemelater" v="yes"/>
  </node>
  <node id="-366" lat="51.430258637522684" lon="0.13877469819114968">
    <tag k="addr:postcode" v="DA14 5EL"/>
    <tag k="removemelater" v="yes"/>
  </node>
  <node id="-367" lat="51.43099392277939" lon="0.13938450689566223">
    <tag k="addr:postcode" v="DA14 5ES"/>
    <tag k="removemelater" v="yes"/>
  </node>
  <node id="-368" lat="51.43272172374445" lon="0.13932136055314792">
    <tag k="addr:postcode" v="DA14 5ET"/>
    <tag k="removemelater" v="yes"/>
  </node>
  <node id="-369" lat="51.415293531929045" lon="0.11204517611500447">
    <tag k="addr:postcode" v="DA14 5HA"/>
    <tag k="removemelater" v="yes"/>
  </node>
  <node id="-370" lat="51.41672996968517" lon="0.12312811073219229">
    <tag k="addr:postcode" v="DA14 5HB"/>
    <tag k="removemelater" v="yes"/>
  </node>
  <node id="-371" lat="51.41702646000993" lon="0.12115710098957319">
    <tag k="addr:postcode" v="DA14 5HH"/>
    <tag k="removemelater" v="yes"/>
  </node>
  <node id="-372" lat="51.4178900394532" lon="0.1191547674854226">
    <tag k="addr:postcode" v="DA14 5HN"/>
    <tag k="removemelater" v="yes"/>
  </node>
  <node id="-373" lat="51.41609330695817" lon="0.12302669843407604">
    <tag k="addr:postcode" v="DA14 5HS"/>
    <tag k="removemelater" v="yes"/>
  </node>
  <node id="-374" lat="51.41770142580585" lon="0.1221232103231331">
    <tag k="addr:postcode" v="DA14 5HU"/>
    <tag k="removemelater" v="yes"/>
  </node>
  <node id="-375" lat="51.414731769934136" lon="0.11227814872489474">
    <tag k="addr:postcode" v="DA14 5HY"/>
    <tag k="removemelater" v="yes"/>
  </node>
  <node id="-376" lat="51.41740096120525" lon="0.12034026305420832">
    <tag k="addr:postcode" v="DA14 5HZ"/>
    <tag k="removemelater" v="yes"/>
  </node>
  <node id="-377" lat="51.41639633946973" lon="0.12367355017089383">
    <tag k="addr:postcode" v="DA14 5JP"/>
    <tag k="removemelater" v="yes"/>
  </node>
  <node id="-378" lat="51.42272174000178" lon="0.1304252305172954">
    <tag k="addr:postcode" v="DA14 5NF"/>
    <tag k="removemelater" v="yes"/>
  </node>
  <node id="-379" lat="51.417498686307546" lon="0.11841754638916471">
    <tag k="addr:postcode" v="DA14 5PA"/>
    <tag k="removemelater" v="yes"/>
  </node>
  <node id="-380" lat="51.41763673761709" lon="0.11874034307326486">
    <tag k="addr:postcode" v="DA14 5PB"/>
    <tag k="removemelater" v="yes"/>
  </node>
  <node id="-381" lat="51.417680885323904" lon="0.11878553204390019">
    <tag k="addr:postcode" v="DA14 5PD"/>
    <tag k="removemelater" v="yes"/>
  </node>
  <node id="-382" lat="51.41752720131396" lon="0.11833257053904342">
    <tag k="addr:postcode" v="DA14 5PE"/>
    <tag k="removemelater" v="yes"/>
  </node>
  <node id="-383" lat="51.418106011592855" lon="0.1211351703557721">
    <tag k="addr:postcode" v="DA14 5RH"/>
    <tag k="removemelater" v="yes"/>
  </node>
  <node id="-384" lat="51.418106011592855" lon="0.1211351703557721">
    <tag k="addr:postcode" v="DA14 5TA"/>
    <tag k="removemelater" v="yes"/>
  </node>
  <node id="-385" lat="51.425454370974364" lon="0.10060302257450329">
    <tag k="addr:postcode" v="DA14 6AA"/>
    <tag k="removemelater" v="yes"/>
  </node>
  <node id="-386" lat="51.42554213206375" lon="0.10122559707975766">
    <tag k="addr:postcode" v="DA14 6AE"/>
    <tag k="removemelater" v="yes"/>
  </node>
  <node id="-387" lat="51.42584123147793" lon="0.10109546906155295">
    <tag k="addr:postcode" v="DA14 6AF"/>
    <tag k="removemelater" v="yes"/>
  </node>
  <node id="-388" lat="51.42522489834218" lon="0.09985887508124561">
    <tag k="addr:postcode" v="DA14 6AG"/>
    <tag k="removemelater" v="yes"/>
  </node>
  <node id="-389" lat="51.42420936991855" lon="0.09781288014673668">
    <tag k="addr:postcode" v="DA14 6AH"/>
    <tag k="removemelater" v="yes"/>
  </node>
  <node id="-390" lat="51.424766663038504" lon="0.09933440525038582">
    <tag k="addr:postcode" v="DA14 6AQ"/>
    <tag k="removemelater" v="yes"/>
  </node>
  <node id="-391" lat="51.426027019658314" lon="0.10226917914412714">
    <tag k="addr:postcode" v="DA14 6BT"/>
    <tag k="removemelater" v="yes"/>
  </node>
  <node id="-392" lat="51.424229141656504" lon="0.10222981457748379">
    <tag k="addr:postcode" v="DA14 6BW"/>
    <tag k="removemelater" v="yes"/>
  </node>
  <node id="-393" lat="51.42452708690295" lon="0.10366756048249454">
    <tag k="addr:postcode" v="DA14 6BY"/>
    <tag k="removemelater" v="yes"/>
  </node>
  <node id="-394" lat="51.42505450547628" lon="0.0983262833805019">
    <tag k="addr:postcode" v="DA14 6DB"/>
    <tag k="removemelater" v="yes"/>
  </node>
  <node id="-395" lat="51.42664941353906" lon="0.10116131478755358">
    <tag k="addr:postcode" v="DA14 6DH"/>
    <tag k="removemelater" v="yes"/>
  </node>
  <node id="-396" lat="51.42662525711879" lon="0.10150545172647246">
    <tag k="addr:postcode" v="DA14 6DL"/>
    <tag k="removemelater" v="yes"/>
  </node>
  <node id="-397" lat="51.42661266299598" lon="0.10170626681500049">
    <tag k="addr:postcode" v="DA14 6DN"/>
    <tag k="removemelater" v="yes"/>
  </node>
  <node id="-398" lat="51.42568445640151" lon="0.10331793994066596">
    <tag k="addr:postcode" v="DA14 6DY"/>
    <tag k="removemelater" v="yes"/>
  </node>
  <node id="-399" lat="51.42697591363439" lon="0.10201064252384623">
    <tag k="addr:postcode" v="DA14 6DZ"/>
    <tag k="removemelater" v="yes"/>
  </node>
  <node id="-400" lat="51.42578170455559" lon="0.10391218892225713">
    <tag k="addr:postcode" v="DA14 6EH"/>
    <tag k="removemelater" v="yes"/>
  </node>
  <node id="-401" lat="51.42602001593884" lon="0.10316072936735636">
    <tag k="addr:postcode" v="DA14 6EJ"/>
    <tag k="removemelater" v="yes"/>
  </node>
  <node id="-402" lat="51.42495891596993" lon="0.10616156183924144">
    <tag k="addr:postcode" v="DA14 6EP"/>
    <tag k="removemelater" v="yes"/>
  </node>
  <node id="-403" lat="51.42583402212331" lon="0.10450437599722959">
    <tag k="addr:postcode" v="DA14 6EQ"/>
    <tag k="removemelater" v="yes"/>
  </node>
  <node id="-404" lat="51.42475741526438" lon="0.10586460352005576">
    <tag k="addr:postcode" v="DA14 6ES"/>
    <tag k="removemelater" v="yes"/>
  </node>
  <node id="-405" lat="51.42483946958317" lon="0.10430044802068454">
    <tag k="addr:postcode" v="DA14 6ET"/>
    <tag k="removemelater" v="yes"/>
  </node>
  <node id="-406" lat="51.42515210688931" lon="0.10491897126073357">
    <tag k="addr:postcode" v="DA14 6EZ"/>
    <tag k="removemelater" v="yes"/>
  </node>
  <node id="-407" lat="51.42616077755507" lon="0.09781594814288638">
    <tag k="addr:postcode" v="DA14 6FA"/>
    <tag k="removemelater" v="yes"/>
  </node>
  <node id="-408" lat="51.42588196831741" lon="0.09781756300594455">
    <tag k="addr:postcode" v="DA14 6FD"/>
    <tag k="removemelater" v="yes"/>
  </node>
  <node id="-409" lat="51.42496930147526" lon="0.09755999159476118">
    <tag k="addr:postcode" v="DA14 6FF"/>
    <tag k="removemelater" v="yes"/>
  </node>
  <node id="-410" lat="51.4236780836609" lon="0.10837538685160901">
    <tag k="addr:postcode" v="DA14 6FH"/>
    <tag k="removemelater" v="yes"/>
  </node>
  <node id="-411" lat="51.42446609136113" lon="0.0980404058629213">
    <tag k="addr:postcode" v="DA14 6GU"/>
    <tag k="removemelater" v="yes"/>
  </node>
  <node id="-412" lat="51.42540715130001" lon="0.10373675068387085">
    <tag k="addr:postcode" v="DA14 6HA"/>
    <tag k="removemelater" v="yes"/>
  </node>
  <node id="-413" lat="51.42304256742711" lon="0.10920918121235243">
    <tag k="addr:postcode" v="DA14 6HF"/>
    <tag k="removemelater" v="yes"/>
  </node>
  <node id="-414" lat="51.423550151920914" lon="0.10898802157651451">
    <tag k="addr:postcode" v="DA14 6HG"/>
    <tag k="removemelater" v="yes"/>
  </node>
  <node id="-415" lat="51.42023891012614" lon="0.11507789974613837">
    <tag k="addr:postcode" v="DA14 6HX"/>
    <tag k="removemelater" v="yes"/>
  </node>
  <node id="-416" lat="51.42199985215767" lon="0.11018241747082697">
    <tag k="addr:postcode" v="DA14 6HY"/>
    <tag k="removemelater" v="yes"/>
  </node>
  <node id="-417" lat="51.42329143202806" lon="0.11037137539126438">
    <tag k="addr:postcode" v="DA14 6HZ"/>
    <tag k="removemelater" v="yes"/>
  </node>
  <node id="-418" lat="51.42249172437791" lon="0.11033453182743949">
    <tag k="addr:postcode" v="DA14 6JA"/>
    <tag k="removemelater" v="yes"/>
  </node>
  <node id="-419" lat="51.421464820974464" lon="0.1119269554361157">
    <tag k="addr:postcode" v="DA14 6JD"/>
    <tag k="removemelater" v="yes"/>
  </node>
  <node id="-420" lat="51.421173221088566" lon="0.111640224893248">
    <tag k="addr:postcode" v="DA14 6JE"/>
    <tag k="removemelater" v="yes"/>
  </node>
  <node id="-421" lat="51.42175020262768" lon="0.11255861190225505">
    <tag k="addr:postcode" v="DA14 6JF"/>
    <tag k="removemelater" v="yes"/>
  </node>
  <node id="-422" lat="51.421391651743924" lon="0.11349139376359411">
    <tag k="addr:postcode" v="DA14 6JG"/>
    <tag k="removemelater" v="yes"/>
  </node>
  <node id="-423" lat="51.419130942735244" lon="0.11318573697965935">
    <tag k="addr:postcode" v="DA14 6JH"/>
    <tag k="removemelater" v="yes"/>
  </node>
  <node id="-424" lat="51.41884461798011" lon="0.11360401362783945">
    <tag k="addr:postcode" v="DA14 6JJ"/>
    <tag k="removemelater" v="yes"/>
  </node>
  <node id="-425" lat="51.41868693417758" lon="0.11237420557818721">
    <tag k="addr:postcode" v="DA14 6JL"/>
    <tag k="removemelater" v="yes"/>
  </node>
  <node id="-426" lat="51.418253132284576" lon="0.11349042987471422">
    <tag k="addr:postcode" v="DA14 6JN"/>
    <tag k="removemelater" v="yes"/>
  </node>
  <node id="-427" lat="51.419521629843416" lon="0.11495848543219198">
    <tag k="addr:postcode" v="DA14 6JP"/>
    <tag k="removemelater" v="yes"/>
  </node>
  <node id="-428" lat="51.42027650259589" lon="0.1129940647865899">
    <tag k="addr:postcode" v="DA14 6JQ"/>
    <tag k="removemelater" v="yes"/>
  </node>
  <node id="-429" lat="51.42022499601836" lon="0.11535053873476422">
    <tag k="addr:postcode" v="DA14 6JS"/>
    <tag k="removemelater" v="yes"/>
  </node>
  <node id="-430" lat="51.4195968156128" lon="0.11776664867320076">
    <tag k="addr:postcode" v="DA14 6JT"/>
    <tag k="removemelater" v="yes"/>
  </node>
  <node id="-431" lat="51.41958829448535" lon="0.11674505920531882">
    <tag k="addr:postcode" v="DA14 6JU"/>
    <tag k="removemelater" v="yes"/>
  </node>
  <node id="-432" lat="51.41980864573631" lon="0.11500050221941173">
    <tag k="addr:postcode" v="DA14 6JW"/>
    <tag k="removemelater" v="yes"/>
  </node>
  <node id="-433" lat="51.42407977294895" lon="0.10704174036403544">
    <tag k="addr:postcode" v="DA14 6JX"/>
    <tag k="removemelater" v="yes"/>
  </node>
  <node id="-434" lat="51.420914986058825" lon="0.114490626627809">
    <tag k="addr:postcode" v="DA14 6JY"/>
    <tag k="removemelater" v="yes"/>
  </node>
  <node id="-435" lat="51.421000166302875" lon="0.1117616989133623">
    <tag k="addr:postcode" v="DA14 6JZ"/>
    <tag k="removemelater" v="yes"/>
  </node>
  <node id="-436" lat="51.41917730008088" lon="0.1165966230782608">
    <tag k="addr:postcode" v="DA14 6LB"/>
    <tag k="removemelater" v="yes"/>
  </node>
  <node id="-437" lat="51.41769537242303" lon="0.10500783382890143">
    <tag k="addr:postcode" v="DA14 6LF"/>
    <tag k="removemelater" v="yes"/>
  </node>
  <node id="-438" lat="51.42212488653488" lon="0.10823197829448626">
    <tag k="addr:postcode" v="DA14 6LH"/>
    <tag k="removemelater" v="yes"/>
  </node>
  <node id="-439" lat="51.420813131861046" lon="0.10916406363445033">
    <tag k="addr:postcode" v="DA14 6LJ"/>
    <tag k="removemelater" v="yes"/>
  </node>
  <node id="-440" lat="51.42261553244371" lon="0.10795249660485778">
    <tag k="addr:postcode" v="DA14 6LN"/>
    <tag k="removemelater" v="yes"/>
  </node>
  <node id="-441" lat="51.422842108938895" lon="0.10885473384921275">
    <tag k="addr:postcode" v="DA14 6LP"/>
    <tag k="removemelater" v="yes"/>
  </node>
  <node id="-442" lat="51.419374869991735" lon="0.10763078514856683">
    <tag k="addr:postcode" v="DA14 6LS"/>
    <tag k="removemelater" v="yes"/>
  </node>
  <node id="-443" lat="51.4138946453874" lon="0.11182250247882287">
    <tag k="addr:postcode" v="DA14 6LX"/>
    <tag k="removemelater" v="yes"/>
  </node>
  <node id="-444" lat="51.41422119470991" lon="0.11016931768810857">
    <tag k="addr:postcode" v="DA14 6LY"/>
    <tag k="removemelater" v="yes"/>
  </node>
  <node id="-445" lat="51.426642037256435" lon="0.10006769978204398">
    <tag k="addr:postcode" v="DA14 6ND"/>
    <tag k="removemelater" v="yes"/>
  </node>
  <node id="-446" lat="51.42619513161109" lon="0.09891078723455791">
    <tag k="addr:postcode" v="DA14 6NE"/>
    <tag k="removemelater" v="yes"/>
  </node>
  <node id="-447" lat="51.42615741111172" lon="0.09850627688713463">
    <tag k="addr:postcode" v="DA14 6NG"/>
    <tag k="removemelater" v="yes"/>
  </node>
  <node id="-448" lat="51.42687912552661" lon="0.09737413662911526">
    <tag k="addr:postcode" v="DA14 6NJ"/>
    <tag k="removemelater" v="yes"/>
  </node>
  <node id="-449" lat="51.426892446009" lon="0.09813716707343306">
    <tag k="addr:postcode" v="DA14 6NL"/>
    <tag k="removemelater" v="yes"/>
  </node>
  <node id="-450" lat="51.425498951954424" lon="0.09710954724817708">
    <tag k="addr:postcode" v="DA14 6NN"/>
    <tag k="removemelater" v="yes"/>
  </node>
  <node id="-451" lat="51.42574870854269" lon="0.09822862246994418">
    <tag k="addr:postcode" v="DA14 6NP"/>
    <tag k="removemelater" v="yes"/>
  </node>
  <node id="-452" lat="51.42688219410657" lon="0.09770513876976392">
    <tag k="addr:postcode" v="DA14 6NQ"/>
    <tag k="removemelater" v="yes"/>
  </node>
  <node id="-453" lat="51.42550822328646" lon="0.09608864711662164">
    <tag k="addr:postcode" v="DA14 6NR"/>
    <tag k="removemelater" v="yes"/>
  </node>
  <node id="-454" lat="51.42569334249396" lon="0.0952915639568852">
    <tag k="addr:postcode" v="DA14 6NS"/>
    <tag k="removemelater" v="yes"/>
  </node>
  <node id="-455" lat="51.426085109255524" lon="0.09551087667615334">
    <tag k="addr:postcode" v="DA14 6NT"/>
    <tag k="removemelater" v="yes"/>
  </node>
  <node id="-456" lat="51.42616826960003" lon="0.09639217011813028">
    <tag k="addr:postcode" v="DA14 6NU"/>
    <tag k="removemelater" v="yes"/>
  </node>
  <node id="-457" lat="51.42568402899273" lon="0.09782288189932607">
    <tag k="addr:postcode" v="DA14 6NW"/>
    <tag k="removemelater" v="yes"/>
  </node>
  <node id="-458" lat="51.42560606357243" lon="0.0946402515783824">
    <tag k="addr:postcode" v="DA14 6NX"/>
    <tag k="removemelater" v="yes"/>
  </node>
  <node id="-459" lat="51.427163622253346" lon="0.0960493252131032">
    <tag k="addr:postcode" v="DA14 6PA"/>
    <tag k="removemelater" v="yes"/>
  </node>
  <node id="-460" lat="51.427578269386736" lon="0.09448589686113183">
    <tag k="addr:postcode" v="DA14 6PB"/>
    <tag k="removemelater" v="yes"/>
  </node>
  <node id="-461" lat="51.42809353408553" lon="0.09282633913336545">
    <tag k="addr:postcode" v="DA14 6PD"/>
    <tag k="removemelater" v="yes"/>
  </node>
  <node id="-462" lat="51.42849402892291" lon="0.09205342256361712">
    <tag k="addr:postcode" v="DA14 6PE"/>
    <tag k="removemelater" v="yes"/>
  </node>
  <node id="-463" lat="51.4290118563889" lon="0.09226409487498277">
    <tag k="addr:postcode" v="DA14 6PF"/>
    <tag k="removemelater" v="yes"/>
  </node>
  <node id="-464" lat="51.42536490337955" lon="0.09806719203325492">
    <tag k="addr:postcode" v="DA14 6PJ"/>
    <tag k="removemelater" v="yes"/>
  </node>
  <node id="-465" lat="51.42717184783818" lon="0.09558936965515895">
    <tag k="addr:postcode" v="DA14 6PQ"/>
    <tag k="removemelater" v="yes"/>
  </node>
  <node id="-466" lat="51.430652483515985" lon="0.08346261050115601">
    <tag k="addr:postcode" v="DA14 6QF"/>
    <tag k="removemelater" v="yes"/>
  </node>
  <node id="-467" lat="51.42795103090118" lon="0.09526538203140106">
    <tag k="addr:postcode" v="DA14 6RE"/>
    <tag k="removemelater" v="yes"/>
  </node>
  <node id="-468" lat="51.429179203953446" lon="0.08994120890305117">
    <tag k="addr:postcode" v="DA14 6RH"/>
    <tag k="removemelater" v="yes"/>
  </node>
  <node id="-469" lat="51.42789020321166" lon="0.09363702657351138">
    <tag k="addr:postcode" v="DA14 6RX"/>
    <tag k="removemelater" v="yes"/>
  </node>
  <node id="-470" lat="51.41843990899542" lon="0.115598916099843">
    <tag k="addr:postcode" v="DA14 6SG"/>
    <tag k="removemelater" v="yes"/>
  </node>
  <node id="-471" lat="51.418257086448854" lon="0.11576306503820832">
    <tag k="addr:postcode" v="DA14 6SH"/>
    <tag k="removemelater" v="yes"/>
  </node>
  <node id="-472" lat="51.41850037539125" lon="0.11623454677793939">
    <tag k="addr:postcode" v="DA14 6SJ"/>
    <tag k="removemelater" v="yes"/>
  </node>
  <node id="-473" lat="51.41881253040596" lon="0.11637841125353321">
    <tag k="addr:postcode" v="DA14 6SL"/>
    <tag k="removemelater" v="yes"/>
  </node>
  <node id="-474" lat="51.418481366387255" lon="0.11629119944890179">
    <tag k="addr:postcode" v="DA14 6SQ"/>
    <tag k="removemelater" v="yes"/>
  </node>
  <node id="-475" lat="51.42862983279613" lon="0.09149857900009378">
    <tag k="addr:postcode" v="DA14 6TA"/>
    <tag k="removemelater" v="yes"/>
  </node>
  <node id="-476" lat="51.42862983279613" lon="0.09149857900009378">
    <tag k="addr:postcode" v="DA14 6TB"/>
    <tag k="removemelater" v="yes"/>
  </node>
  <node id="-477" lat="51.42581567948179" lon="0.09900847803791171">
    <tag k="addr:postcode" v="DA14 6TD"/>
    <tag k="removemelater" v="yes"/>
  </node>
  <node id="-478" lat="51.423772210935226" lon="0.09610989461166382">
    <tag k="addr:postcode" v="DA14 6TF"/>
    <tag k="removemelater" v="yes"/>
  </node>
  <node id="-479" lat="51.4263423660794" lon="0.09470269538030929">
    <tag k="addr:postcode" v="DA14 6TJ"/>
    <tag k="removemelater" v="yes"/>
  </node>
  <node id="-480" lat="51.428305078989204" lon="0.0925626773434301">
    <tag k="addr:postcode" v="DA14 6TL"/>
    <tag k="removemelater" v="yes"/>
  </node>
  <node id="-481" lat="51.43346775717748" lon="0.1030711767462635">
    <tag k="addr:postcode" v="DA15 7AE"/>
    <tag k="removemelater" v="yes"/>
  </node>
  <node id="-482" lat="51.43467288875929" lon="0.10256540772267397">
    <tag k="addr:postcode" v="DA15 7AF"/>
    <tag k="removemelater" v="yes"/>
  </node>
  <node id="-483" lat="51.43427511791045" lon="0.10368376432677663">
    <tag k="addr:postcode" v="DA15 7AG"/>
    <tag k="removemelater" v="yes"/>
  </node>
  <node id="-484" lat="51.433502667337706" lon="0.10313032967940362">
    <tag k="addr:postcode" v="DA15 7AH"/>
    <tag k="removemelater" v="yes"/>
  </node>
  <node id="-485" lat="51.433744244058175" lon="0.10319897543235679">
    <tag k="addr:postcode" v="DA15 7AP"/>
    <tag k="removemelater" v="yes"/>
  </node>
  <node id="-486" lat="51.43380937363105" lon="0.10407960318128075">
    <tag k="addr:postcode" v="DA15 7AW"/>
    <tag k="removemelater" v="yes"/>
  </node>
  <node id="-487" lat="51.426908738630395" lon="0.10074165274245232">
    <tag k="addr:postcode" v="DA15 7AY"/>
    <tag k="removemelater" v="yes"/>
  </node>
  <node id="-488" lat="51.433705845404084" lon="0.10183040457945235">
    <tag k="addr:postcode" v="DA15 7BH"/>
    <tag k="removemelater" v="yes"/>
  </node>
  <node id="-489" lat="51.42976915859975" lon="0.10170726471846686">
    <tag k="addr:postcode" v="DA15 7DD"/>
    <tag k="removemelater" v="yes"/>
  </node>
  <node id="-490" lat="51.43132030157679" lon="0.10196548257389385">
    <tag k="addr:postcode" v="DA15 7DR"/>
    <tag k="removemelater" v="yes"/>
  </node>
  <node id="-491" lat="51.43013704927355" lon="0.10175292139684074">
    <tag k="addr:postcode" v="DA15 7DY"/>
    <tag k="removemelater" v="yes"/>
  </node>
  <node id="-492" lat="51.42917898461558" lon="0.10101842311562594">
    <tag k="addr:postcode" v="DA15 7EA"/>
    <tag k="removemelater" v="yes"/>
  </node>
  <node id="-493" lat="51.427946937013246" lon="0.10101944418574356">
    <tag k="addr:postcode" v="DA15 7EB"/>
    <tag k="removemelater" v="yes"/>
  </node>
  <node id="-494" lat="51.42948677720716" lon="0.10140658300770004">
    <tag k="addr:postcode" v="DA15 7EF"/>
    <tag k="removemelater" v="yes"/>
  </node>
  <node id="-495" lat="51.42799079890095" lon="0.10158249649174392">
    <tag k="addr:postcode" v="DA15 7EJ"/>
    <tag k="removemelater" v="yes"/>
  </node>
  <node id="-496" lat="51.433705845404084" lon="0.10183040457945235">
    <tag k="addr:postcode" v="DA15 7ES"/>
    <tag k="removemelater" v="yes"/>
  </node>
  <node id="-497" lat="51.433705845404084" lon="0.10183040457945235">
    <tag k="addr:postcode" v="DA15 7ET"/>
    <tag k="removemelater" v="yes"/>
  </node>
  <node id="-498" lat="51.43372562105347" lon="0.10173060020429316">
    <tag k="addr:postcode" v="DA15 7EW"/>
    <tag k="removemelater" v="yes"/>
  </node>
  <node id="-499" lat="51.43317573675867" lon="0.10130251683740836">
    <tag k="addr:postcode" v="DA15 7JH"/>
    <tag k="removemelater" v="yes"/>
  </node>
  <node id="-500" lat="51.429909856109745" lon="0.08981630484396884">
    <tag k="addr:postcode" v="DA15 7JQ"/>
    <tag k="removemelater" v="yes"/>
  </node>
  <node id="-501" lat="51.452904394088975" lon="0.09587526072459934">
    <tag k="addr:postcode" v="DA15 8RR"/>
    <tag k="removemelater" v="yes"/>
  </node>
  <node id="-502" lat="51.4537790879343" lon="0.09523882045558663">
    <tag k="addr:postcode" v="DA15 8TE"/>
    <tag k="removemelater" v="yes"/>
  </node>
  <node id="-503" lat="51.45526374295609" lon="0.0891460886443345">
    <tag k="addr:postcode" v="DA15 8TF"/>
    <tag k="removemelater" v="yes"/>
  </node>
  <node id="-504" lat="51.454360099200436" lon="0.09291921678239348">
    <tag k="addr:postcode" v="DA15 8TG"/>
    <tag k="removemelater" v="yes"/>
  </node>
  <node id="-505" lat="51.45591419082594" lon="0.08645524751430322">
    <tag k="addr:postcode" v="DA15 8TQ"/>
    <tag k="removemelater" v="yes"/>
  </node>
  <node id="-506" lat="51.43765442300205" lon="0.10078863828940612">
    <tag k="addr:postcode" v="DA15 9DA"/>
    <tag k="removemelater" v="yes"/>
  </node>
  <node id="-507" lat="51.43805722477975" lon="0.10089345455914314">
    <tag k="addr:postcode" v="DA15 9EF"/>
    <tag k="removemelater" v="yes"/>
  </node>
  <node id="-508" lat="51.449510302908536" lon="0.11261651131895031">
    <tag k="addr:postcode" v="DA15 9NN"/>
    <tag k="removemelater" v="yes"/>
  </node>
  <node id="-509" lat="51.46180518148798" lon="0.11003151394745452">
    <tag k="addr:postcode" v="DA16 1AB"/>
    <tag k="removemelater" v="yes"/>
  </node>
  <node id="-510" lat="51.46317295902171" lon="0.11048332203672687">
    <tag k="addr:postcode" v="DA16 1QW"/>
    <tag k="removemelater" v="yes"/>
  </node>
  <node id="-511" lat="51.46037547655347" lon="0.12148225657202177">
    <tag k="addr:postcode" v="DA16 1RT"/>
    <tag k="removemelater" v="yes"/>
  </node>
  <node id="-512" lat="51.462195800235115" lon="0.11081254342855058">
    <tag k="addr:postcode" v="DA16 1TU"/>
    <tag k="removemelater" v="yes"/>
  </node>
  <node id="-513" lat="51.46245719791214" lon="0.10878030219804412">
    <tag k="addr:postcode" v="DA16 1TY"/>
    <tag k="removemelater" v="yes"/>
  </node>
  <node id="-514" lat="51.46162251399673" lon="0.10518595151332072">
    <tag k="addr:postcode" v="DA16 2AA"/>
    <tag k="removemelater" v="yes"/>
  </node>
  <node id="-515" lat="51.4606824531961" lon="0.1044516838908923">
    <tag k="addr:postcode" v="DA16 2DR"/>
    <tag k="removemelater" v="yes"/>
  </node>
  <node id="-516" lat="51.46249968148973" lon="0.10341236180384226">
    <tag k="addr:postcode" v="DA16 2EB"/>
    <tag k="removemelater" v="yes"/>
  </node>
  <node id="-517" lat="51.46473715368129" lon="0.10250745388795882">
    <tag k="addr:postcode" v="DA16 3DN"/>
    <tag k="removemelater" v="yes"/>
  </node>
  <node id="-518" lat="51.49003563505545" lon="0.12437153252503579">
    <tag k="addr:postcode" v="DA17 5DJ"/>
    <tag k="removemelater" v="yes"/>
  </node>
  <node id="-519" lat="51.48970863063514" lon="0.1250477764591427">
    <tag k="addr:postcode" v="DA17 5DL"/>
    <tag k="removemelater" v="yes"/>
  </node>
  <node id="-520" lat="51.49057382704717" lon="0.12494395849381489">
    <tag k="addr:postcode" v="DA17 5DP"/>
    <tag k="removemelater" v="yes"/>
  </node>
  <node id="-521" lat="51.4908981955547" lon="0.1254056133945166">
    <tag k="addr:postcode" v="DA17 5DT"/>
    <tag k="removemelater" v="yes"/>
  </node>
  <node id="-522" lat="51.48290028618395" lon="0.13844287469446728">
    <tag k="addr:postcode" v="DA17 5GD"/>
    <tag k="removemelater" v="yes"/>
  </node>
  <node id="-523" lat="51.4830387998442" lon="0.13873741626733488">
    <tag k="addr:postcode" v="DA17 5NP"/>
    <tag k="removemelater" v="yes"/>
  </node>
  <node id="-524" lat="51.479480543772794" lon="0.1341351400482164">
    <tag k="addr:postcode" v="DA17 5PF"/>
    <tag k="removemelater" v="yes"/>
  </node>
  <node id="-525" lat="51.44470008680806" lon="0.20962023319737275">
    <tag k="addr:postcode" v="DA17 5SQ"/>
    <tag k="removemelater" v="yes"/>
  </node>
  <node id="-526" lat="51.49496118512025" lon="0.1589752264414125">
    <tag k="addr:postcode" v="DA17 6AH"/>
    <tag k="removemelater" v="yes"/>
  </node>
  <node id="-527" lat="51.49707204491633" lon="0.16642282447997192">
    <tag k="addr:postcode" v="DA17 6AN"/>
    <tag k="removemelater" v="yes"/>
  </node>
  <node id="-528" lat="51.49890796062722" lon="0.16342655683460752">
    <tag k="addr:postcode" v="DA17 6AS"/>
    <tag k="removemelater" v="yes"/>
  </node>
  <node id="-529" lat="51.49572790604523" lon="0.16177762307585616">
    <tag k="addr:postcode" v="DA17 6AX"/>
    <tag k="removemelater" v="yes"/>
  </node>
  <node id="-530" lat="51.49487170821761" lon="0.16139134578889244">
    <tag k="addr:postcode" v="DA17 6AZ"/>
    <tag k="removemelater" v="yes"/>
  </node>
  <node id="-531" lat="51.50065435258018" lon="0.16722670700268272">
    <tag k="addr:postcode" v="DA17 6BS"/>
    <tag k="removemelater" v="yes"/>
  </node>
  <node id="-532" lat="51.5044925737019" lon="0.15805682976868093">
    <tag k="addr:postcode" v="DA17 6JY"/>
    <tag k="removemelater" v="yes"/>
  </node>
  <node id="-533" lat="51.47838192206236" lon="0.15143777143717235">
    <tag k="addr:postcode" v="DA17 6LL"/>
    <tag k="removemelater" v="yes"/>
  </node>
  <node id="-534" lat="51.47820170126428" lon="0.15243739867024453">
    <tag k="addr:postcode" v="DA17 6LN"/>
    <tag k="removemelater" v="yes"/>
  </node>
  <node id="-535" lat="51.477748693728316" lon="0.14967980122215815">
    <tag k="addr:postcode" v="DA17 6LW"/>
    <tag k="removemelater" v="yes"/>
  </node>
  <node id="-536" lat="51.477878914701705" lon="0.14797215242568085">
    <tag k="addr:postcode" v="DA17 6LY"/>
    <tag k="removemelater" v="yes"/>
  </node>
  <node id="-537" lat="51.47752137437407" lon="0.14834418915111883">
    <tag k="addr:postcode" v="DA17 6LZ"/>
    <tag k="removemelater" v="yes"/>
  </node>
  <node id="-538" lat="51.477391822587016" lon="0.14707078740439838">
    <tag k="addr:postcode" v="DA17 6NF"/>
    <tag k="removemelater" v="yes"/>
  </node>
  <node id="-539" lat="51.47720650219895" lon="0.1458955840985737">
    <tag k="addr:postcode" v="DA17 6NG"/>
    <tag k="removemelater" v="yes"/>
  </node>
  <node id="-540" lat="51.47758414345863" lon="0.1458989092554543">
    <tag k="addr:postcode" v="DA17 6NQ"/>
    <tag k="removemelater" v="yes"/>
  </node>
  <node id="-541" lat="51.44470008680806" lon="0.20962023319737275">
    <tag k="addr:postcode" v="DA17 9AG"/>
    <tag k="removemelater" v="yes"/>
  </node>
  <node id="-542" lat="51.44470008680806" lon="0.20962023319737275">
    <tag k="addr:postcode" v="DA17 9AP"/>
    <tag k="removemelater" v="yes"/>
  </node>
  <node id="-543" lat="51.44470008680806" lon="0.20962023319737275">
    <tag k="addr:postcode" v="DA17 9BH"/>
    <tag k="removemelater" v="yes"/>
  </node>
  <node id="-544" lat="51.44470008680806" lon="0.20962023319737275">
    <tag k="addr:postcode" v="DA17 9BN"/>
    <tag k="removemelater" v="yes"/>
  </node>
  <node id="-545" lat="51.44470008680806" lon="0.20962023319737275">
    <tag k="addr:postcode" v="DA17 9BS"/>
    <tag k="removemelater" v="yes"/>
  </node>
  <node id="-546" lat="51.44470008680806" lon="0.20962023319737275">
    <tag k="addr:postcode" v="DA17 9BT"/>
    <tag k="removemelater" v="yes"/>
  </node>
  <node id="-547" lat="51.44470008680806" lon="0.20962023319737275">
    <tag k="addr:postcode" v="DA17 9BU"/>
    <tag k="removemelater" v="yes"/>
  </node>
  <node id="-548" lat="51.49632651459483" lon="0.14927161488534094">
    <tag k="addr:postcode" v="DA18 4AA"/>
    <tag k="removemelater" v="yes"/>
  </node>
  <node id="-549" lat="51.4954200490986" lon="0.14376872694833717">
    <tag k="addr:postcode" v="DA18 4AB"/>
    <tag k="removemelater" v="yes"/>
  </node>
  <node id="-550" lat="51.47645512364237" lon="0.19570233303597936">
    <tag k="addr:postcode" v="DA18 4AD"/>
    <tag k="removemelater" v="yes"/>
  </node>
  <node id="-551" lat="51.49362726230326" lon="0.14394392242161727">
    <tag k="addr:postcode" v="DA18 4AE"/>
    <tag k="removemelater" v="yes"/>
  </node>
  <node id="-552" lat="51.49380920342955" lon="0.14579648730470368">
    <tag k="addr:postcode" v="DA18 4AF"/>
    <tag k="removemelater" v="yes"/>
  </node>
  <node id="-553" lat="51.49721271287719" lon="0.14212394565256914">
    <tag k="addr:postcode" v="DA18 4AG"/>
    <tag k="removemelater" v="yes"/>
  </node>
  <node id="-554" lat="51.497179323748185" lon="0.1498448158318915">
    <tag k="addr:postcode" v="DA18 4AH"/>
    <tag k="removemelater" v="yes"/>
  </node>
  <node id="-555" lat="51.49589606996276" lon="0.14478515525211774">
    <tag k="addr:postcode" v="DA18 4AJ"/>
    <tag k="removemelater" v="yes"/>
  </node>
  <node id="-556" lat="51.496052572703874" lon="0.1421271763969074">
    <tag k="addr:postcode" v="DA18 4AL"/>
    <tag k="removemelater" v="yes"/>
  </node>
  <node id="-557" lat="51.49654027954494" lon="0.14840282432345528">
    <tag k="addr:postcode" v="DA18 4AP"/>
    <tag k="removemelater" v="yes"/>
  </node>
  <node id="-558" lat="51.495024385590234" lon="0.14720780477640605">
    <tag k="addr:postcode" v="DA18 4AR"/>
    <tag k="removemelater" v="yes"/>
  </node>
  <node id="-559" lat="51.496252545823765" lon="0.15036308560223985">
    <tag k="addr:postcode" v="DA18 4AW"/>
    <tag k="removemelater" v="yes"/>
  </node>
  <node id="-560" lat="51.49632651459483" lon="0.14927161488534094">
    <tag k="addr:postcode" v="DA18 4AX"/>
    <tag k="removemelater" v="yes"/>
  </node>
  <node id="-561" lat="51.494826656014894" lon="0.13390105802158916">
    <tag k="addr:postcode" v="DA18 4BB"/>
    <tag k="removemelater" v="yes"/>
  </node>
  <node id="-562" lat="51.49453737201919" lon="0.13447822020497352">
    <tag k="addr:postcode" v="DA18 4BD"/>
    <tag k="removemelater" v="yes"/>
  </node>
  <node id="-563" lat="51.49432269715637" lon="0.13392074003181784">
    <tag k="addr:postcode" v="DA18 4BE"/>
    <tag k="removemelater" v="yes"/>
  </node>
  <node id="-564" lat="51.49509133849287" lon="0.13319307828357435">
    <tag k="addr:postcode" v="DA18 4BG"/>
    <tag k="removemelater" v="yes"/>
  </node>
  <node id="-565" lat="51.49559216488932" lon="0.13186220488475653">
    <tag k="addr:postcode" v="DA18 4BH"/>
    <tag k="removemelater" v="yes"/>
  </node>
  <node id="-566" lat="51.49584706515559" lon="0.1311969667104815">
    <tag k="addr:postcode" v="DA18 4BJ"/>
    <tag k="removemelater" v="yes"/>
  </node>
  <node id="-567" lat="51.49599544647061" lon="0.1304547181251926">
    <tag k="addr:postcode" v="DA18 4BL"/>
    <tag k="removemelater" v="yes"/>
  </node>
  <node id="-568" lat="51.49563149714241" lon="0.13019282714814812">
    <tag k="addr:postcode" v="DA18 4BN"/>
    <tag k="removemelater" v="yes"/>
  </node>
  <node id="-569" lat="51.4953462461619" lon="0.13252785497090575">
    <tag k="addr:postcode" v="DA18 4BQ"/>
    <tag k="removemelater" v="yes"/>
  </node>
  <node id="-570" lat="51.47645512364237" lon="0.19570233303597936">
    <tag k="addr:postcode" v="DA18 4WL"/>
    <tag k="removemelater" v="yes"/>
  </node>
  <node id="-571" lat="51.47645512364237" lon="0.19570233303597936">
    <tag k="addr:postcode" v="DA18 4YZ"/>
    <tag k="removemelater" v="yes"/>
  </node>
  <node id="-572" lat="51.44586935654422" lon="0.24322334507453588">
    <tag k="addr:postcode" v="DA2 6AD"/>
    <tag k="removemelater" v="yes"/>
  </node>
  <node id="-573" lat="51.44229777085252" lon="0.24329293695289794">
    <tag k="addr:postcode" v="DA2 6AS"/>
    <tag k="removemelater" v="yes"/>
  </node>
  <node id="-574" lat="51.44470008680806" lon="0.20962023319737275">
    <tag k="addr:postcode" v="DA2 6AT"/>
    <tag k="removemelater" v="yes"/>
  </node>
  <node id="-575" lat="51.44242434726503" lon="0.23902516828299628">
    <tag k="addr:postcode" v="DA2 6DQ"/>
    <tag k="removemelater" v="yes"/>
  </node>
  <node id="-576" lat="51.45538431220439" lon="0.25071440653740623">
    <tag k="addr:postcode" v="DA2 6DT"/>
    <tag k="removemelater" v="yes"/>
  </node>
  <node id="-577" lat="51.43842246394954" lon="0.24654205138101795">
    <tag k="addr:postcode" v="DA2 6DY"/>
    <tag k="removemelater" v="yes"/>
  </node>
  <node id="-578" lat="51.43837200608809" lon="0.24448191758722973">
    <tag k="addr:postcode" v="DA2 6EA"/>
    <tag k="removemelater" v="yes"/>
  </node>
  <node id="-579" lat="51.43899966855504" lon="0.24880073773981376">
    <tag k="addr:postcode" v="DA2 6EB"/>
    <tag k="removemelater" v="yes"/>
  </node>
  <node id="-580" lat="51.43842069996712" lon="0.24710314486007895">
    <tag k="addr:postcode" v="DA2 6EF"/>
    <tag k="removemelater" v="yes"/>
  </node>
  <node id="-581" lat="51.43931558016195" lon="0.2473341370478211">
    <tag k="addr:postcode" v="DA2 6EG"/>
    <tag k="removemelater" v="yes"/>
  </node>
  <node id="-582" lat="51.438717283060875" lon="0.24898831612100444">
    <tag k="addr:postcode" v="DA2 6EJ"/>
    <tag k="removemelater" v="yes"/>
  </node>
  <node id="-583" lat="51.444793713160834" lon="0.23833517209051786">
    <tag k="addr:postcode" v="DA2 6FA"/>
    <tag k="removemelater" v="yes"/>
  </node>
  <node id="-584" lat="51.446607517492154" lon="0.2455334321377152">
    <tag k="addr:postcode" v="DA2 6FD"/>
    <tag k="removemelater" v="yes"/>
  </node>
  <node id="-585" lat="51.43898700781239" lon="0.24711655449813796">
    <tag k="addr:postcode" v="DA2 6FP"/>
    <tag k="removemelater" v="yes"/>
  </node>
  <node id="-586" lat="51.443335180768635" lon="0.2478193140669678">
    <tag k="addr:postcode" v="DA2 6FU"/>
    <tag k="removemelater" v="yes"/>
  </node>
  <node id="-587" lat="51.439136597387176" lon="0.24541155243027785">
    <tag k="addr:postcode" v="DA2 6GD"/>
    <tag k="removemelater" v="yes"/>
  </node>
  <node id="-588" lat="51.438419648413515" lon="0.24575050554961583">
    <tag k="addr:postcode" v="DA2 6HH"/>
    <tag k="removemelater" v="yes"/>
  </node>
  <node id="-589" lat="51.45178590776319" lon="0.2503071013565131">
    <tag k="addr:postcode" v="DA2 6NW"/>
    <tag k="removemelater" v="yes"/>
  </node>
  <node id="-590" lat="51.451791056369785" lon="0.2523800113149955">
    <tag k="addr:postcode" v="DA2 6NX"/>
    <tag k="removemelater" v="yes"/>
  </node>
  <node id="-591" lat="51.44663808476384" lon="0.24393744075119442">
    <tag k="addr:postcode" v="DA2 6PH"/>
    <tag k="removemelater" v="yes"/>
  </node>
  <node id="-592" lat="51.447052998477645" lon="0.24528184411100787">
    <tag k="addr:postcode" v="DA2 6PQ"/>
    <tag k="removemelater" v="yes"/>
  </node>
  <node id="-593" lat="51.45726141954288" lon="0.25224627567706825">
    <tag k="addr:postcode" v="DA2 6PT"/>
    <tag k="removemelater" v="yes"/>
  </node>
  <node id="-594" lat="51.452728982732154" lon="0.26530859991966665">
    <tag k="addr:postcode" v="DA2 6QA"/>
    <tag k="removemelater" v="yes"/>
  </node>
  <node id="-595" lat="51.45993699635486" lon="0.255746681985189">
    <tag k="addr:postcode" v="DA2 6QB"/>
    <tag k="removemelater" v="yes"/>
  </node>
  <node id="-596" lat="51.45565517567196" lon="0.24878445266726584">
    <tag k="addr:postcode" v="DA2 6QD"/>
    <tag k="removemelater" v="yes"/>
  </node>
  <node id="-597" lat="51.45290749653794" lon="0.2537160201345131">
    <tag k="addr:postcode" v="DA2 6QE"/>
    <tag k="removemelater" v="yes"/>
  </node>
  <node id="-598" lat="51.45376914867283" lon="0.24677734020606326">
    <tag k="addr:postcode" v="DA2 6QF"/>
    <tag k="removemelater" v="yes"/>
  </node>
  <node id="-599" lat="51.45302220973048" lon="0.24727323241500276">
    <tag k="addr:postcode" v="DA2 6QG"/>
    <tag k="removemelater" v="yes"/>
  </node>
  <node id="-600" lat="51.454100647004864" lon="0.2524649235391003">
    <tag k="addr:postcode" v="DA2 6QH"/>
    <tag k="removemelater" v="yes"/>
  </node>
  <node id="-601" lat="51.45842741338526" lon="0.2570830047483785">
    <tag k="addr:postcode" v="DA2 6QJ"/>
    <tag k="removemelater" v="yes"/>
  </node>
  <node id="-602" lat="51.45348467818713" lon="0.2564361275712631">
    <tag k="addr:postcode" v="DA2 6QL"/>
    <tag k="removemelater" v="yes"/>
  </node>
  <node id="-603" lat="51.45849713945134" lon="0.25439447334561066">
    <tag k="addr:postcode" v="DA2 6QN"/>
    <tag k="removemelater" v="yes"/>
  </node>
  <node id="-604" lat="51.45798557881662" lon="0.25340477058586675">
    <tag k="addr:postcode" v="DA2 6QP"/>
    <tag k="removemelater" v="yes"/>
  </node>
  <node id="-605" lat="51.45389216859137" lon="0.2502091783719564">
    <tag k="addr:postcode" v="DA2 6QQ"/>
    <tag k="removemelater" v="yes"/>
  </node>
  <node id="-606" lat="51.45764257954284" lon="0.2600097144808571">
    <tag k="addr:postcode" v="DA2 6QR"/>
    <tag k="removemelater" v="yes"/>
  </node>
  <node id="-607" lat="51.45696753651236" lon="0.2553699355160185">
    <tag k="addr:postcode" v="DA2 6QS"/>
    <tag k="removemelater" v="yes"/>
  </node>
  <node id="-608" lat="51.45341095436713" lon="0.2579294647911065">
    <tag k="addr:postcode" v="DA2 6QT"/>
    <tag k="removemelater" v="yes"/>
  </node>
  <node id="-609" lat="51.44470008680806" lon="0.20962023319737275">
    <tag k="addr:postcode" v="DA2 6QU"/>
    <tag k="removemelater" v="yes"/>
  </node>
  <node id="-610" lat="51.453079079009015" lon="0.2625479143120673">
    <tag k="addr:postcode" v="DA2 6QY"/>
    <tag k="removemelater" v="yes"/>
  </node>
  <node id="-611" lat="51.446681887718775" lon="0.23647023555470148">
    <tag k="addr:postcode" v="DA2 6SA"/>
    <tag k="removemelater" v="yes"/>
  </node>
  <node id="-612" lat="51.447348056349185" lon="0.23690576796463134">
    <tag k="addr:postcode" v="DA2 6SG"/>
    <tag k="removemelater" v="yes"/>
  </node>
  <node id="-613" lat="51.45550192510896" lon="0.256290911703907">
    <tag k="addr:postcode" v="DA2 6SL"/>
    <tag k="removemelater" v="yes"/>
  </node>
  <node id="-614" lat="51.44470008680806" lon="0.20962023319737275">
    <tag k="addr:postcode" v="DA2 6WB"/>
    <tag k="removemelater" v="yes"/>
  </node>
  <node id="-615" lat="51.44470008680806" lon="0.20962023319737275">
    <tag k="addr:postcode" v="DA2 6ZG"/>
    <tag k="removemelater" v="yes"/>
  </node>
  <node id="-616" lat="51.44470008680806" lon="0.20962023319737275">
    <tag k="addr:postcode" v="DA2 6ZP"/>
    <tag k="removemelater" v="yes"/>
  </node>
  <node id="-617" lat="51.44470008680806" lon="0.20962023319737275">
    <tag k="addr:postcode" v="DA2 6ZZ"/>
    <tag k="removemelater" v="yes"/>
  </node>
  <node id="-618" lat="51.431055993878616" lon="0.1905466537118891">
    <tag k="addr:postcode" v="DA2 7EW"/>
    <tag k="removemelater" v="yes"/>
  </node>
  <node id="-619" lat="51.41784821712615" lon="0.16862878618178087">
    <tag k="addr:postcode" v="DA2 7HA"/>
    <tag k="removemelater" v="yes"/>
  </node>
  <node id="-620" lat="51.41353119970447" lon="0.16767663559363047">
    <tag k="addr:postcode" v="DA2 7HD"/>
    <tag k="removemelater" v="yes"/>
  </node>
  <node id="-621" lat="51.42227925971898" lon="0.1741031042257073">
    <tag k="addr:postcode" v="DA2 7HG"/>
    <tag k="removemelater" v="yes"/>
  </node>
  <node id="-622" lat="51.41376814943282" lon="0.1660483758899233">
    <tag k="addr:postcode" v="DA2 7HH"/>
    <tag k="removemelater" v="yes"/>
  </node>
  <node id="-623" lat="51.42529261975648" lon="0.2493503719066801">
    <tag k="addr:postcode" v="DA2 7HR"/>
    <tag k="removemelater" v="yes"/>
  </node>
  <node id="-624" lat="51.42478699678945" lon="0.24945500395703935">
    <tag k="addr:postcode" v="DA2 7HT"/>
    <tag k="removemelater" v="yes"/>
  </node>
  <node id="-625" lat="51.42632305504565" lon="0.24860978281859533">
    <tag k="addr:postcode" v="DA2 7HU"/>
    <tag k="removemelater" v="yes"/>
  </node>
  <node id="-626" lat="51.41762881618921" lon="0.25645306790911987">
    <tag k="addr:postcode" v="DA2 7JD"/>
    <tag k="removemelater" v="yes"/>
  </node>
  <node id="-627" lat="51.41669405726555" lon="0.2592259829004219">
    <tag k="addr:postcode" v="DA2 7JE"/>
    <tag k="removemelater" v="yes"/>
  </node>
  <node id="-628" lat="51.421847572815096" lon="0.25172716385596167">
    <tag k="addr:postcode" v="DA2 7JP"/>
    <tag k="removemelater" v="yes"/>
  </node>
  <node id="-629" lat="51.42115908733026" lon="0.25245566132662656">
    <tag k="addr:postcode" v="DA2 7JQ"/>
    <tag k="removemelater" v="yes"/>
  </node>
  <node id="-630" lat="51.42160872526862" lon="0.2519887175432598">
    <tag k="addr:postcode" v="DA2 7JR"/>
    <tag k="removemelater" v="yes"/>
  </node>
  <node id="-631" lat="51.420106931868155" lon="0.2538566564740154">
    <tag k="addr:postcode" v="DA2 7JY"/>
    <tag k="removemelater" v="yes"/>
  </node>
  <node id="-632" lat="51.41794879309383" lon="0.25711605533901705">
    <tag k="addr:postcode" v="DA2 7JZ"/>
    <tag k="removemelater" v="yes"/>
  </node>
  <node id="-633" lat="51.421985051147225" lon="0.26140002761221004">
    <tag k="addr:postcode" v="DA2 7LP"/>
    <tag k="removemelater" v="yes"/>
  </node>
  <node id="-634" lat="51.419463856578034" lon="0.24237592945621494">
    <tag k="addr:postcode" v="DA2 7QP"/>
    <tag k="removemelater" v="yes"/>
  </node>
  <node id="-635" lat="51.420331960438375" lon="0.18692697856509405">
    <tag k="addr:postcode" v="DA2 7QQ"/>
    <tag k="removemelater" v="yes"/>
  </node>
  <node id="-636" lat="51.421792892700424" lon="0.2447338485481175">
    <tag k="addr:postcode" v="DA2 7QR"/>
    <tag k="removemelater" v="yes"/>
  </node>
  <node id="-637" lat="51.423846869114044" lon="0.23278019096678942">
    <tag k="addr:postcode" v="DA2 7QX"/>
    <tag k="removemelater" v="yes"/>
  </node>
  <node id="-638" lat="51.41781360142781" lon="0.24402108158963834">
    <tag k="addr:postcode" v="DA2 7QY"/>
    <tag k="removemelater" v="yes"/>
  </node>
  <node id="-639" lat="51.42292381836609" lon="0.23072138900874278">
    <tag k="addr:postcode" v="DA2 7RB"/>
    <tag k="removemelater" v="yes"/>
  </node>
  <node id="-640" lat="51.42303190909485" lon="0.23071226890665758">
    <tag k="addr:postcode" v="DA2 7RG"/>
    <tag k="removemelater" v="yes"/>
  </node>
  <node id="-641" lat="51.4223416391284" lon="0.22823334851209218">
    <tag k="addr:postcode" v="DA2 7RP"/>
    <tag k="removemelater" v="yes"/>
  </node>
  <node id="-642" lat="51.42266923560998" lon="0.23086721708502153">
    <tag k="addr:postcode" v="DA2 7RQ"/>
    <tag k="removemelater" v="yes"/>
  </node>
  <node id="-643" lat="51.42122661632411" lon="0.22491398971958523">
    <tag k="addr:postcode" v="DA2 7SF"/>
    <tag k="removemelater" v="yes"/>
  </node>
  <node id="-644" lat="51.423846869114044" lon="0.23278019096678942">
    <tag k="addr:postcode" v="DA2 7SY"/>
    <tag k="removemelater" v="yes"/>
  </node>
  <node id="-645" lat="51.42697959412018" lon="0.20124151152579992">
    <tag k="addr:postcode" v="DA2 7TH"/>
    <tag k="removemelater" v="yes"/>
  </node>
  <node id="-646" lat="51.423846869114044" lon="0.23278019096678942">
    <tag k="addr:postcode" v="DA2 7TJ"/>
    <tag k="removemelater" v="yes"/>
  </node>
  <node id="-647" lat="51.44470008680806" lon="0.20962023319737275">
    <tag k="addr:postcode" v="DA2 7TQ"/>
    <tag k="removemelater" v="yes"/>
  </node>
  <node id="-648" lat="51.44470008680806" lon="0.20962023319737275">
    <tag k="addr:postcode" v="DA2 7ZE"/>
    <tag k="removemelater" v="yes"/>
  </node>
  <node id="-649" lat="51.44470008680806" lon="0.20962023319737275">
    <tag k="addr:postcode" v="DA2 7ZL"/>
    <tag k="removemelater" v="yes"/>
  </node>
  <node id="-650" lat="51.432472030429096" lon="0.2863765525426599">
    <tag k="addr:postcode" v="DA2 8AH"/>
    <tag k="removemelater" v="yes"/>
  </node>
  <node id="-651" lat="51.41365511444197" lon="0.27591686068527377">
    <tag k="addr:postcode" v="DA2 8DD"/>
    <tag k="removemelater" v="yes"/>
  </node>
  <node id="-652" lat="51.41560302884363" lon="0.2640333283367651">
    <tag k="addr:postcode" v="DA2 8DH"/>
    <tag k="removemelater" v="yes"/>
  </node>
  <node id="-653" lat="51.415483560410806" lon="0.2660265310493405">
    <tag k="addr:postcode" v="DA2 8DJ"/>
    <tag k="removemelater" v="yes"/>
  </node>
  <node id="-654" lat="51.41464049012859" lon="0.27750466397424983">
    <tag k="addr:postcode" v="DA2 8DN"/>
    <tag k="removemelater" v="yes"/>
  </node>
  <node id="-655" lat="51.413477581312236" lon="0.27764819832935894">
    <tag k="addr:postcode" v="DA2 8DP"/>
    <tag k="removemelater" v="yes"/>
  </node>
  <node id="-656" lat="51.41429969169891" lon="0.2732882632138986">
    <tag k="addr:postcode" v="DA2 8DR"/>
    <tag k="removemelater" v="yes"/>
  </node>
  <node id="-657" lat="51.41413663975801" lon="0.2738122943858267">
    <tag k="addr:postcode" v="DA2 8DS"/>
    <tag k="removemelater" v="yes"/>
  </node>
  <node id="-658" lat="51.414103551723365" lon="0.27412704852469527">
    <tag k="addr:postcode" v="DA2 8DT"/>
    <tag k="removemelater" v="yes"/>
  </node>
  <node id="-659" lat="51.414830328348096" lon="0.2779167935994187">
    <tag k="addr:postcode" v="DA2 8DW"/>
    <tag k="removemelater" v="yes"/>
  </node>
  <node id="-660" lat="51.4067489375907" lon="0.28282106774646965">
    <tag k="addr:postcode" v="DA2 8DX"/>
    <tag k="removemelater" v="yes"/>
  </node>
  <node id="-661" lat="51.41291691486543" lon="0.28104307368883075">
    <tag k="addr:postcode" v="DA2 8DY"/>
    <tag k="removemelater" v="yes"/>
  </node>
  <node id="-662" lat="51.40742585131652" lon="0.28269661149531017">
    <tag k="addr:postcode" v="DA2 8DZ"/>
    <tag k="removemelater" v="yes"/>
  </node>
  <node id="-663" lat="51.44470008680806" lon="0.20962023319737275">
    <tag k="addr:postcode" v="DA2 8WF"/>
    <tag k="removemelater" v="yes"/>
  </node>
  <node id="-664" lat="51.44470008680806" lon="0.20962023319737275">
    <tag k="addr:postcode" v="DA2 8WQ"/>
    <tag k="removemelater" v="yes"/>
  </node>
  <node id="-665" lat="51.392256401534254" lon="0.3228521729696913">
    <tag k="addr:postcode" v="DA3 7AE"/>
    <tag k="removemelater" v="yes"/>
  </node>
  <node id="-666" lat="51.39665816025488" lon="0.2943514539276377">
    <tag k="addr:postcode" v="DA3 7BE"/>
    <tag k="removemelater" v="yes"/>
  </node>
  <node id="-667" lat="51.39552914869083" lon="0.3001028037557946">
    <tag k="addr:postcode" v="DA3 7BP"/>
    <tag k="removemelater" v="yes"/>
  </node>
  <node id="-668" lat="51.39421154429381" lon="0.31767541596084276">
    <tag k="addr:postcode" v="DA3 7PW"/>
    <tag k="removemelater" v="yes"/>
  </node>
  <node id="-669" lat="51.39532303254923" lon="0.30052373739738075">
    <tag k="addr:postcode" v="DA3 7RP"/>
    <tag k="removemelater" v="yes"/>
  </node>
  <node id="-670" lat="51.39558833312346" lon="0.30075268815275397">
    <tag k="addr:postcode" v="DA3 7RW"/>
    <tag k="removemelater" v="yes"/>
  </node>
  <node id="-671" lat="51.36684057617483" lon="0.2982768064737717">
    <tag k="addr:postcode" v="DA3 8EZ"/>
    <tag k="removemelater" v="yes"/>
  </node>
  <node id="-672" lat="51.365492578002446" lon="0.3050908379957012">
    <tag k="addr:postcode" v="DA3 8HH"/>
    <tag k="removemelater" v="yes"/>
  </node>
  <node id="-673" lat="51.36485201819703" lon="0.3038231684540938">
    <tag k="addr:postcode" v="DA3 8HJ"/>
    <tag k="removemelater" v="yes"/>
  </node>
  <node id="-674" lat="51.3674316150104" lon="0.3016108291529751">
    <tag k="addr:postcode" v="DA3 8HN"/>
    <tag k="removemelater" v="yes"/>
  </node>
  <node id="-675" lat="51.3639387146663" lon="0.3036193005303661">
    <tag k="addr:postcode" v="DA3 8HP"/>
    <tag k="removemelater" v="yes"/>
  </node>
  <node id="-676" lat="51.363831540788105" lon="0.3054096646427918">
    <tag k="addr:postcode" v="DA3 8HQ"/>
    <tag k="removemelater" v="yes"/>
  </node>
  <node id="-677" lat="51.363702479149495" lon="0.30191226796685255">
    <tag k="addr:postcode" v="DA3 8HR"/>
    <tag k="removemelater" v="yes"/>
  </node>
  <node id="-678" lat="51.362974326548205" lon="0.30326922101872306">
    <tag k="addr:postcode" v="DA3 8HS"/>
    <tag k="removemelater" v="yes"/>
  </node>
  <node id="-679" lat="51.36300294275378" lon="0.30592830870405796">
    <tag k="addr:postcode" v="DA3 8HT"/>
    <tag k="removemelater" v="yes"/>
  </node>
  <node id="-680" lat="51.365185618395785" lon="0.30789123051189327">
    <tag k="addr:postcode" v="DA3 8HU"/>
    <tag k="removemelater" v="yes"/>
  </node>
  <node id="-681" lat="51.36772547488801" lon="0.30267436941067205">
    <tag k="addr:postcode" v="DA3 8HW"/>
    <tag k="removemelater" v="yes"/>
  </node>
  <node id="-682" lat="51.36577399417449" lon="0.3086104121233115">
    <tag k="addr:postcode" v="DA3 8HX"/>
    <tag k="removemelater" v="yes"/>
  </node>
  <node id="-683" lat="51.36135359688939" lon="0.30473933518290824">
    <tag k="addr:postcode" v="DA3 8HY"/>
    <tag k="removemelater" v="yes"/>
  </node>
  <node id="-684" lat="51.362066752278196" lon="0.3068868556016708">
    <tag k="addr:postcode" v="DA3 8HZ"/>
    <tag k="removemelater" v="yes"/>
  </node>
  <node id="-685" lat="51.36479648681543" lon="0.30573109194001447">
    <tag k="addr:postcode" v="DA3 8JA"/>
    <tag k="removemelater" v="yes"/>
  </node>
  <node id="-686" lat="51.36588414374751" lon="0.30347271328291126">
    <tag k="addr:postcode" v="DA3 8JF"/>
    <tag k="removemelater" v="yes"/>
  </node>
  <node id="-687" lat="51.36289659352892" lon="0.30950001497885865">
    <tag k="addr:postcode" v="DA3 8JG"/>
    <tag k="removemelater" v="yes"/>
  </node>
  <node id="-688" lat="51.36604180918731" lon="0.3046012240352692">
    <tag k="addr:postcode" v="DA3 8JJ"/>
    <tag k="removemelater" v="yes"/>
  </node>
  <node id="-689" lat="51.36585793762209" lon="0.30434775926600915">
    <tag k="addr:postcode" v="DA3 8JL"/>
    <tag k="removemelater" v="yes"/>
  </node>
  <node id="-690" lat="51.36797483861321" lon="0.2986784231130246">
    <tag k="addr:postcode" v="DA3 8JN"/>
    <tag k="removemelater" v="yes"/>
  </node>
  <node id="-691" lat="51.368268051395994" lon="0.30114992226192083">
    <tag k="addr:postcode" v="DA3 8JP"/>
    <tag k="removemelater" v="yes"/>
  </node>
  <node id="-692" lat="51.3634204390777" lon="0.3080179612607907">
    <tag k="addr:postcode" v="DA3 8JQ"/>
    <tag k="removemelater" v="yes"/>
  </node>
  <node id="-693" lat="51.36612120274352" lon="0.30513677724463906">
    <tag k="addr:postcode" v="DA3 8JR"/>
    <tag k="removemelater" v="yes"/>
  </node>
  <node id="-694" lat="51.36182201671598" lon="0.30378601292401736">
    <tag k="addr:postcode" v="DA3 8JS"/>
    <tag k="removemelater" v="yes"/>
  </node>
  <node id="-695" lat="51.36786575498122" lon="0.30605770189987525">
    <tag k="addr:postcode" v="DA3 8JT"/>
    <tag k="removemelater" v="yes"/>
  </node>
  <node id="-696" lat="51.36935612156574" lon="0.299782084077331">
    <tag k="addr:postcode" v="DA3 8JU"/>
    <tag k="removemelater" v="yes"/>
  </node>
  <node id="-697" lat="51.36857930004949" lon="0.2990391508676643">
    <tag k="addr:postcode" v="DA3 8JW"/>
    <tag k="removemelater" v="yes"/>
  </node>
  <node id="-698" lat="51.365869342415415" lon="0.3110718959535513">
    <tag k="addr:postcode" v="DA3 8LG"/>
    <tag k="removemelater" v="yes"/>
  </node>
  <node id="-699" lat="51.36555010868611" lon="0.29941896869862566">
    <tag k="addr:postcode" v="DA3 8LN"/>
    <tag k="removemelater" v="yes"/>
  </node>
  <node id="-700" lat="51.36497257922376" lon="0.3027230150211286">
    <tag k="addr:postcode" v="DA3 8LP"/>
    <tag k="removemelater" v="yes"/>
  </node>
  <node id="-701" lat="51.36637278996765" lon="0.31244772259889647">
    <tag k="addr:postcode" v="DA3 8LQ"/>
    <tag k="removemelater" v="yes"/>
  </node>
  <node id="-702" lat="51.36859935789312" lon="0.3039681847087529">
    <tag k="addr:postcode" v="DA3 8LR"/>
    <tag k="removemelater" v="yes"/>
  </node>
  <node id="-703" lat="51.36926014312248" lon="0.3051220364327018">
    <tag k="addr:postcode" v="DA3 8LS"/>
    <tag k="removemelater" v="yes"/>
  </node>
  <node id="-704" lat="51.37004653120066" lon="0.30537705711685476">
    <tag k="addr:postcode" v="DA3 8LT"/>
    <tag k="removemelater" v="yes"/>
  </node>
  <node id="-705" lat="51.36617831001686" lon="0.3013181095116469">
    <tag k="addr:postcode" v="DA3 8LW"/>
    <tag k="removemelater" v="yes"/>
  </node>
  <node id="-706" lat="51.382668318616176" lon="0.2923293983102408">
    <tag k="addr:postcode" v="DA3 8LY"/>
    <tag k="removemelater" v="yes"/>
  </node>
  <node id="-707" lat="51.382589105042996" lon="0.2940787989088307">
    <tag k="addr:postcode" v="DA3 8LZ"/>
    <tag k="removemelater" v="yes"/>
  </node>
  <node id="-708" lat="51.359677239641144" lon="0.27085525290214224">
    <tag k="addr:postcode" v="DA3 8NF"/>
    <tag k="removemelater" v="yes"/>
  </node>
  <node id="-709" lat="51.35810638889382" lon="0.255810200197148">
    <tag k="addr:postcode" v="DA3 8NG"/>
    <tag k="removemelater" v="yes"/>
  </node>
  <node id="-710" lat="51.367141129962164" lon="0.27643973685793305">
    <tag k="addr:postcode" v="DA3 8NL"/>
    <tag k="removemelater" v="yes"/>
  </node>
  <node id="-711" lat="51.36517356691397" lon="0.2768018692638819">
    <tag k="addr:postcode" v="DA3 8NR"/>
    <tag k="removemelater" v="yes"/>
  </node>
  <node id="-712" lat="51.365748183942735" lon="0.27592528593709825">
    <tag k="addr:postcode" v="DA3 8NS"/>
    <tag k="removemelater" v="yes"/>
  </node>
  <node id="-713" lat="51.36574645533799" lon="0.2778646754696874">
    <tag k="addr:postcode" v="DA3 8NT"/>
    <tag k="removemelater" v="yes"/>
  </node>
  <node id="-714" lat="51.365783401425986" lon="0.27688958739763603">
    <tag k="addr:postcode" v="DA3 8NW"/>
    <tag k="removemelater" v="yes"/>
  </node>
  <node id="-715" lat="51.3668387676367" lon="0.30569002644952453">
    <tag k="addr:postcode" v="DA3 8PR"/>
    <tag k="removemelater" v="yes"/>
  </node>
  <node id="-716" lat="51.36281236404487" lon="0.263138034088897">
    <tag k="addr:postcode" v="DA3 8PU"/>
    <tag k="removemelater" v="yes"/>
  </node>
  <node id="-717" lat="51.371244477232494" lon="0.3098483022050243">
    <tag k="addr:postcode" v="DA3 8PX"/>
    <tag k="removemelater" v="yes"/>
  </node>
  <node id="-718" lat="51.37208702449189" lon="0.3099912952826488">
    <tag k="addr:postcode" v="DA3 8PY"/>
    <tag k="removemelater" v="yes"/>
  </node>
  <node id="-719" lat="51.37141438327407" lon="0.3112649517036298">
    <tag k="addr:postcode" v="DA3 8PZ"/>
    <tag k="removemelater" v="yes"/>
  </node>
  <node id="-720" lat="51.37039109066118" lon="0.3070610558002893">
    <tag k="addr:postcode" v="DA3 8QA"/>
    <tag k="removemelater" v="yes"/>
  </node>
  <node id="-721" lat="51.371703153507816" lon="0.30665286552970367">
    <tag k="addr:postcode" v="DA3 8QB"/>
    <tag k="removemelater" v="yes"/>
  </node>
  <node id="-722" lat="51.37084265789977" lon="0.30833378787841154">
    <tag k="addr:postcode" v="DA3 8QD"/>
    <tag k="removemelater" v="yes"/>
  </node>
  <node id="-723" lat="51.36378072465244" lon="0.31118221888713066">
    <tag k="addr:postcode" v="DA3 8QG"/>
    <tag k="removemelater" v="yes"/>
  </node>
  <node id="-724" lat="51.36373785684111" lon="0.31653855440567225">
    <tag k="addr:postcode" v="DA3 8QH"/>
    <tag k="removemelater" v="yes"/>
  </node>
  <node id="-725" lat="51.361757262354885" lon="0.3111808931312183">
    <tag k="addr:postcode" v="DA3 8QJ"/>
    <tag k="removemelater" v="yes"/>
  </node>
  <node id="-726" lat="51.36131180206775" lon="0.3105120318620988">
    <tag k="addr:postcode" v="DA3 8QL"/>
    <tag k="removemelater" v="yes"/>
  </node>
  <node id="-727" lat="51.36060317191924" lon="0.30859455623254545">
    <tag k="addr:postcode" v="DA3 8QN"/>
    <tag k="removemelater" v="yes"/>
  </node>
  <node id="-728" lat="51.36166863004769" lon="0.3152130759259475">
    <tag k="addr:postcode" v="DA3 8QP"/>
    <tag k="removemelater" v="yes"/>
  </node>
  <node id="-729" lat="51.36426543598964" lon="0.31214042250735696">
    <tag k="addr:postcode" v="DA3 8QQ"/>
    <tag k="removemelater" v="yes"/>
  </node>
  <node id="-730" lat="51.36693765204669" lon="0.3052352529338772">
    <tag k="addr:postcode" v="DA3 8QT"/>
    <tag k="removemelater" v="yes"/>
  </node>
  <node id="-731" lat="51.38468619449226" lon="0.30453186812160254">
    <tag k="addr:postcode" v="DA3 8QU"/>
    <tag k="removemelater" v="yes"/>
  </node>
  <node id="-732" lat="51.36044051709081" lon="0.3072648062437063">
    <tag k="addr:postcode" v="DA3 8QW"/>
    <tag k="removemelater" v="yes"/>
  </node>
  <node id="-733" lat="51.36896194684651" lon="0.30747770443282957">
    <tag k="addr:postcode" v="DA3 8QX"/>
    <tag k="removemelater" v="yes"/>
  </node>
  <node id="-734" lat="51.36915968453835" lon="0.3088525712663076">
    <tag k="addr:postcode" v="DA3 8QY"/>
    <tag k="removemelater" v="yes"/>
  </node>
  <node id="-735" lat="51.36963903494634" lon="0.31008358207610576">
    <tag k="addr:postcode" v="DA3 8QZ"/>
    <tag k="removemelater" v="yes"/>
  </node>
  <node id="-736" lat="51.370049540865416" lon="0.30065017275933614">
    <tag k="addr:postcode" v="DA3 8RA"/>
    <tag k="removemelater" v="yes"/>
  </node>
  <node id="-737" lat="51.370644929140525" lon="0.3019300454927097">
    <tag k="addr:postcode" v="DA3 8RB"/>
    <tag k="removemelater" v="yes"/>
  </node>
  <node id="-738" lat="51.369912960994704" lon="0.30210884528254245">
    <tag k="addr:postcode" v="DA3 8RD"/>
    <tag k="removemelater" v="yes"/>
  </node>
  <node id="-739" lat="51.370630444868134" lon="0.3035816470304296">
    <tag k="addr:postcode" v="DA3 8RE"/>
    <tag k="removemelater" v="yes"/>
  </node>
  <node id="-740" lat="51.369732570269164" lon="0.30350783905972034">
    <tag k="addr:postcode" v="DA3 8RF"/>
    <tag k="removemelater" v="yes"/>
  </node>
  <node id="-741" lat="51.36676666621634" lon="0.3052410312749489">
    <tag k="addr:postcode" v="DA3 8RH"/>
    <tag k="removemelater" v="yes"/>
  </node>
  <node id="-742" lat="51.363985127901024" lon="0.2994267620905061">
    <tag k="addr:postcode" v="DA3 8RN"/>
    <tag k="removemelater" v="yes"/>
  </node>
  <node id="-743" lat="51.36453073219241" lon="0.2982042409043534">
    <tag k="addr:postcode" v="DA3 8RW"/>
    <tag k="removemelater" v="yes"/>
  </node>
  <node id="-744" lat="51.36620193628602" lon="0.3037759969308615">
    <tag k="addr:postcode" v="DA3 8SA"/>
    <tag k="removemelater" v="yes"/>
  </node>
  <node id="-745" lat="51.38468619449226" lon="0.30453186812160254">
    <tag k="addr:postcode" v="DA3 8WF"/>
    <tag k="removemelater" v="yes"/>
  </node>
  <node id="-746" lat="51.38468619449226" lon="0.30453186812160254">
    <tag k="addr:postcode" v="DA3 8ZA"/>
    <tag k="removemelater" v="yes"/>
  </node>
  <node id="-747" lat="51.38468619449226" lon="0.30453186812160254">
    <tag k="addr:postcode" v="DA3 8ZN"/>
    <tag k="removemelater" v="yes"/>
  </node>
  <node id="-748" lat="51.38468619449226" lon="0.30453186812160254">
    <tag k="addr:postcode" v="DA3 8ZS"/>
    <tag k="removemelater" v="yes"/>
  </node>
  <node id="-749" lat="51.38468619449226" lon="0.30453186812160254">
    <tag k="addr:postcode" v="DA3 9BU"/>
    <tag k="removemelater" v="yes"/>
  </node>
  <node id="-750" lat="51.38468619449226" lon="0.30453186812160254">
    <tag k="addr:postcode" v="DA3 9BW"/>
    <tag k="removemelater" v="yes"/>
  </node>
  <node id="-751" lat="51.38468619449226" lon="0.30453186812160254">
    <tag k="addr:postcode" v="DA3 9BX"/>
    <tag k="removemelater" v="yes"/>
  </node>
  <node id="-752" lat="51.38468619449226" lon="0.30453186812160254">
    <tag k="addr:postcode" v="DA3 9BY"/>
    <tag k="removemelater" v="yes"/>
  </node>
  <node id="-753" lat="51.38468619449226" lon="0.30453186812160254">
    <tag k="addr:postcode" v="DA3 9DE"/>
    <tag k="removemelater" v="yes"/>
  </node>
  <node id="-754" lat="51.38468619449226" lon="0.30453186812160254">
    <tag k="addr:postcode" v="DA3 9DJ"/>
    <tag k="removemelater" v="yes"/>
  </node>
  <node id="-755" lat="51.38468619449226" lon="0.30453186812160254">
    <tag k="addr:postcode" v="DA3 9DL"/>
    <tag k="removemelater" v="yes"/>
  </node>
  <node id="-756" lat="51.38468619449226" lon="0.30453186812160254">
    <tag k="addr:postcode" v="DA3 9DU"/>
    <tag k="removemelater" v="yes"/>
  </node>
  <node id="-757" lat="51.38468619449226" lon="0.30453186812160254">
    <tag k="addr:postcode" v="DA3 9DW"/>
    <tag k="removemelater" v="yes"/>
  </node>
  <node id="-758" lat="51.369485324288554" lon="0.21372656881645252">
    <tag k="addr:postcode" v="DA4 0AA"/>
    <tag k="removemelater" v="yes"/>
  </node>
  <node id="-759" lat="51.36953109447396" lon="0.21415980266427065">
    <tag k="addr:postcode" v="DA4 0AP"/>
    <tag k="removemelater" v="yes"/>
  </node>
  <node id="-760" lat="51.369575506041116" lon="0.2146648095846272">
    <tag k="addr:postcode" v="DA4 0AW"/>
    <tag k="removemelater" v="yes"/>
  </node>
  <node id="-761" lat="51.38285674924057" lon="0.22139959782227622">
    <tag k="addr:postcode" v="DA4 0DJ"/>
    <tag k="removemelater" v="yes"/>
  </node>
  <node id="-762" lat="51.38231436931526" lon="0.21917448391812608">
    <tag k="addr:postcode" v="DA4 0DU"/>
    <tag k="removemelater" v="yes"/>
  </node>
  <node id="-763" lat="51.44470008680806" lon="0.20962023319737275">
    <tag k="addr:postcode" v="DA4 0HL"/>
    <tag k="removemelater" v="yes"/>
  </node>
  <node id="-764" lat="51.35571009708626" lon="0.2221542576334909">
    <tag k="addr:postcode" v="DA4 0HN"/>
    <tag k="removemelater" v="yes"/>
  </node>
  <node id="-765" lat="51.36279843492333" lon="0.20445441698824363">
    <tag k="addr:postcode" v="DA4 0HP"/>
    <tag k="removemelater" v="yes"/>
  </node>
  <node id="-766" lat="51.353106557384" lon="0.20765150796950638">
    <tag k="addr:postcode" v="DA4 0HT"/>
    <tag k="removemelater" v="yes"/>
  </node>
  <node id="-767" lat="51.34483516972561" lon="0.21229422521185146">
    <tag k="addr:postcode" v="DA4 0HU"/>
    <tag k="removemelater" v="yes"/>
  </node>
  <node id="-768" lat="51.44470008680806" lon="0.20962023319737275">
    <tag k="addr:postcode" v="DA4 0LL"/>
    <tag k="removemelater" v="yes"/>
  </node>
  <node id="-769" lat="51.4037106440884" lon="0.24317238571481875">
    <tag k="addr:postcode" v="DA4 9AB"/>
    <tag k="removemelater" v="yes"/>
  </node>
  <node id="-770" lat="51.406485401668334" lon="0.24901673418266126">
    <tag k="addr:postcode" v="DA4 9DN"/>
    <tag k="removemelater" v="yes"/>
  </node>
  <node id="-771" lat="51.39533090992243" lon="0.24542187954720981">
    <tag k="addr:postcode" v="DA4 9DW"/>
    <tag k="removemelater" v="yes"/>
  </node>
  <node id="-772" lat="51.401553594625305" lon="0.2355760800500407">
    <tag k="addr:postcode" v="DA4 9JB"/>
    <tag k="removemelater" v="yes"/>
  </node>
  <node id="-773" lat="51.40666498976766" lon="0.2471562441131343">
    <tag k="addr:postcode" v="DA4 9JR"/>
    <tag k="removemelater" v="yes"/>
  </node>
  <node id="-774" lat="51.40988467930995" lon="0.25930727932045194">
    <tag k="addr:postcode" v="DA4 9LB"/>
    <tag k="removemelater" v="yes"/>
  </node>
  <node id="-775" lat="51.4013374151024" lon="0.23323637350827262">
    <tag k="addr:postcode" v="DA4 9LD"/>
    <tag k="removemelater" v="yes"/>
  </node>
  <node id="-776" lat="51.405804739288996" lon="0.26334795536066274">
    <tag k="addr:postcode" v="DA4 9LE"/>
    <tag k="removemelater" v="yes"/>
  </node>
  <node id="-777" lat="51.400014935541265" lon="0.2553271462632408">
    <tag k="addr:postcode" v="DA4 9LX"/>
    <tag k="removemelater" v="yes"/>
  </node>
  <node id="-778" lat="51.40014458591022" lon="0.2560667634091414">
    <tag k="addr:postcode" v="DA4 9LY"/>
    <tag k="removemelater" v="yes"/>
  </node>
  <node id="-779" lat="51.4003679513553" lon="0.25660971649904274">
    <tag k="addr:postcode" v="DA4 9LZ"/>
    <tag k="removemelater" v="yes"/>
  </node>
  <node id="-780" lat="51.44178024474384" lon="0.1499904233918716">
    <tag k="addr:postcode" v="DA5 1AA"/>
    <tag k="removemelater" v="yes"/>
  </node>
  <node id="-781" lat="51.44153808252869" lon="0.14799322886530153">
    <tag k="addr:postcode" v="DA5 1AB"/>
    <tag k="removemelater" v="yes"/>
  </node>
  <node id="-782" lat="51.44155309907989" lon="0.1471737032577309">
    <tag k="addr:postcode" v="DA5 1AD"/>
    <tag k="removemelater" v="yes"/>
  </node>
  <node id="-783" lat="51.441302669794055" lon="0.14906142671129152">
    <tag k="addr:postcode" v="DA5 1AH"/>
    <tag k="removemelater" v="yes"/>
  </node>
  <node id="-784" lat="51.44156301700631" lon="0.1500665604776868">
    <tag k="addr:postcode" v="DA5 1AJ"/>
    <tag k="removemelater" v="yes"/>
  </node>
  <node id="-785" lat="51.440343046689705" lon="0.14793715337553764">
    <tag k="addr:postcode" v="DA5 1AQ"/>
    <tag k="removemelater" v="yes"/>
  </node>
  <node id="-786" lat="51.44875255162082" lon="0.11972006406708591">
    <tag k="addr:postcode" v="DA5 1BZ"/>
    <tag k="removemelater" v="yes"/>
  </node>
  <node id="-787" lat="51.442155808292924" lon="0.15108732861118">
    <tag k="addr:postcode" v="DA5 1EB"/>
    <tag k="removemelater" v="yes"/>
  </node>
  <node id="-788" lat="51.445776481177475" lon="0.13257756091077225">
    <tag k="addr:postcode" v="DA5 1EJ"/>
    <tag k="removemelater" v="yes"/>
  </node>
  <node id="-789" lat="51.44102022715728" lon="0.15073177811964858">
    <tag k="addr:postcode" v="DA5 1LA"/>
    <tag k="removemelater" v="yes"/>
  </node>
  <node id="-790" lat="51.44182703430385" lon="0.1503811536716015">
    <tag k="addr:postcode" v="DA5 1LD"/>
    <tag k="removemelater" v="yes"/>
  </node>
  <node id="-791" lat="51.44147370907031" lon="0.15052284516365022">
    <tag k="addr:postcode" v="DA5 1LE"/>
    <tag k="removemelater" v="yes"/>
  </node>
  <node id="-792" lat="51.44173297557364" lon="0.15109623838260788">
    <tag k="addr:postcode" v="DA5 1LG"/>
    <tag k="removemelater" v="yes"/>
  </node>
  <node id="-793" lat="51.4420685799446" lon="0.15045006177761575">
    <tag k="addr:postcode" v="DA5 1LQ"/>
    <tag k="removemelater" v="yes"/>
  </node>
  <node id="-794" lat="51.44242008662746" lon="0.1513875539083829">
    <tag k="addr:postcode" v="DA5 1LR"/>
    <tag k="removemelater" v="yes"/>
  </node>
  <node id="-795" lat="51.44470008680806" lon="0.20962023319737275">
    <tag k="addr:postcode" v="DA5 1LS"/>
    <tag k="removemelater" v="yes"/>
  </node>
  <node id="-796" lat="51.443875954270524" lon="0.15144159332291884">
    <tag k="addr:postcode" v="DA5 1LU"/>
    <tag k="removemelater" v="yes"/>
  </node>
  <node id="-797" lat="51.443396307105246" lon="0.15160612568466703">
    <tag k="addr:postcode" v="DA5 1LW"/>
    <tag k="removemelater" v="yes"/>
  </node>
  <node id="-798" lat="51.4488934759127" lon="0.1470575403450505">
    <tag k="addr:postcode" v="DA5 1QF"/>
    <tag k="removemelater" v="yes"/>
  </node>
  <node id="-799" lat="51.448635015647746" lon="0.1434905338228428">
    <tag k="addr:postcode" v="DA5 1QG"/>
    <tag k="removemelater" v="yes"/>
  </node>
  <node id="-800" lat="51.43448556071259" lon="0.17589124062959294">
    <tag k="addr:postcode" v="DA5 2DX"/>
    <tag k="removemelater" v="yes"/>
  </node>
  <node id="-801" lat="51.44470008680806" lon="0.20962023319737275">
    <tag k="addr:postcode" v="DA5 2LA"/>
    <tag k="removemelater" v="yes"/>
  </node>
  <node id="-802" lat="51.43833306952669" lon="0.1245039406521738">
    <tag k="addr:postcode" v="DA5 3AQ"/>
    <tag k="removemelater" v="yes"/>
  </node>
  <node id="-803" lat="51.43878416240115" lon="0.12442415086824057">
    <tag k="addr:postcode" v="DA5 3LH"/>
    <tag k="removemelater" v="yes"/>
  </node>
  <node id="-804" lat="51.44470008680806" lon="0.20962023319737275">
    <tag k="addr:postcode" v="DA5 9AS"/>
    <tag k="removemelater" v="yes"/>
  </node>
  <node id="-805" lat="51.44470008680806" lon="0.20962023319737275">
    <tag k="addr:postcode" v="DA5 9BZ"/>
    <tag k="removemelater" v="yes"/>
  </node>
  <node id="-806" lat="51.44470008680806" lon="0.20962023319737275">
    <tag k="addr:postcode" v="DA5 9DA"/>
    <tag k="removemelater" v="yes"/>
  </node>
  <node id="-807" lat="51.44470008680806" lon="0.20962023319737275">
    <tag k="addr:postcode" v="DA5 9DB"/>
    <tag k="removemelater" v="yes"/>
  </node>
  <node id="-808" lat="51.44470008680806" lon="0.20962023319737275">
    <tag k="addr:postcode" v="DA5 9DD"/>
    <tag k="removemelater" v="yes"/>
  </node>
  <node id="-809" lat="51.44470008680806" lon="0.20962023319737275">
    <tag k="addr:postcode" v="DA5 9DE"/>
    <tag k="removemelater" v="yes"/>
  </node>
  <node id="-810" lat="51.44470008680806" lon="0.20962023319737275">
    <tag k="addr:postcode" v="DA5 9DG"/>
    <tag k="removemelater" v="yes"/>
  </node>
  <node id="-811" lat="51.44470008680806" lon="0.20962023319737275">
    <tag k="addr:postcode" v="DA5 9DH"/>
    <tag k="removemelater" v="yes"/>
  </node>
  <node id="-812" lat="51.44470008680806" lon="0.20962023319737275">
    <tag k="addr:postcode" v="DA5 9DJ"/>
    <tag k="removemelater" v="yes"/>
  </node>
  <node id="-813" lat="51.44470008680806" lon="0.20962023319737275">
    <tag k="addr:postcode" v="DA5 9DT"/>
    <tag k="removemelater" v="yes"/>
  </node>
  <node id="-814" lat="51.44470008680806" lon="0.20962023319737275">
    <tag k="addr:postcode" v="DA5 9DU"/>
    <tag k="removemelater" v="yes"/>
  </node>
  <node id="-815" lat="51.44470008680806" lon="0.20962023319737275">
    <tag k="addr:postcode" v="DA5 9DX"/>
    <tag k="removemelater" v="yes"/>
  </node>
  <node id="-816" lat="51.44470008680806" lon="0.20962023319737275">
    <tag k="addr:postcode" v="DA5 9DY"/>
    <tag k="removemelater" v="yes"/>
  </node>
  <node id="-817" lat="51.44470008680806" lon="0.20962023319737275">
    <tag k="addr:postcode" v="DA5 9DZ"/>
    <tag k="removemelater" v="yes"/>
  </node>
  <node id="-818" lat="51.455554874118334" lon="0.15355973446620533">
    <tag k="addr:postcode" v="DA6 7AT"/>
    <tag k="removemelater" v="yes"/>
  </node>
  <node id="-819" lat="51.45954741741568" lon="0.1452398456049196">
    <tag k="addr:postcode" v="DA6 7DA"/>
    <tag k="removemelater" v="yes"/>
  </node>
  <node id="-820" lat="51.45506807672427" lon="0.152154971030371">
    <tag k="addr:postcode" v="DA6 7JZ"/>
    <tag k="removemelater" v="yes"/>
  </node>
  <node id="-821" lat="51.45547215199191" lon="0.1526777824669236">
    <tag k="addr:postcode" v="DA6 7LE"/>
    <tag k="removemelater" v="yes"/>
  </node>
  <node id="-822" lat="51.45608863485357" lon="0.1499574231248916">
    <tag k="addr:postcode" v="DA6 7LL"/>
    <tag k="removemelater" v="yes"/>
  </node>
  <node id="-823" lat="51.45505725153687" lon="0.15470224708464467">
    <tag k="addr:postcode" v="DA6 7QG"/>
    <tag k="removemelater" v="yes"/>
  </node>
  <node id="-824" lat="51.455979508492035" lon="0.15051368246128535">
    <tag k="addr:postcode" v="DA6 7RB"/>
    <tag k="removemelater" v="yes"/>
  </node>
  <node id="-825" lat="51.458521217290375" lon="0.1324806491015284">
    <tag k="addr:postcode" v="DA6 8AA"/>
    <tag k="removemelater" v="yes"/>
  </node>
  <node id="-826" lat="51.45838556463448" lon="0.13351078534236466">
    <tag k="addr:postcode" v="DA6 8AB"/>
    <tag k="removemelater" v="yes"/>
  </node>
  <node id="-827" lat="51.45833697305522" lon="0.13371005280346343">
    <tag k="addr:postcode" v="DA6 8AH"/>
    <tag k="removemelater" v="yes"/>
  </node>
  <node id="-828" lat="51.45805668701525" lon="0.13280447957619196">
    <tag k="addr:postcode" v="DA6 8DT"/>
    <tag k="removemelater" v="yes"/>
  </node>
  <node id="-829" lat="51.46346120342179" lon="0.13380511916852939">
    <tag k="addr:postcode" v="DA7 4AY"/>
    <tag k="removemelater" v="yes"/>
  </node>
  <node id="-830" lat="51.46402544310178" lon="0.13393222172316907">
    <tag k="addr:postcode" v="DA7 4DY"/>
    <tag k="removemelater" v="yes"/>
  </node>
  <node id="-831" lat="51.45826960853058" lon="0.1487211595871088">
    <tag k="addr:postcode" v="DA7 4HP"/>
    <tag k="removemelater" v="yes"/>
  </node>
  <node id="-832" lat="51.457950780908526" lon="0.14648932902513093">
    <tag k="addr:postcode" v="DA7 4HT"/>
    <tag k="removemelater" v="yes"/>
  </node>
  <node id="-833" lat="51.456504368802925" lon="0.15131566853466052">
    <tag k="addr:postcode" v="DA7 4JG"/>
    <tag k="removemelater" v="yes"/>
  </node>
  <node id="-834" lat="51.45833864211142" lon="0.15035107006670068">
    <tag k="addr:postcode" v="DA7 4JN"/>
    <tag k="removemelater" v="yes"/>
  </node>
  <node id="-835" lat="51.45840288282572" lon="0.15126099456534967">
    <tag k="addr:postcode" v="DA7 4JP"/>
    <tag k="removemelater" v="yes"/>
  </node>
  <node id="-836" lat="51.459772246061725" lon="0.14867657478251842">
    <tag k="addr:postcode" v="DA7 4LT"/>
    <tag k="removemelater" v="yes"/>
  </node>
  <node id="-837" lat="51.459694109558036" lon="0.15146567432952412">
    <tag k="addr:postcode" v="DA7 4NA"/>
    <tag k="removemelater" v="yes"/>
  </node>
  <node id="-838" lat="51.4701681425498" lon="0.13735784299220782">
    <tag k="addr:postcode" v="DA7 4PR"/>
    <tag k="removemelater" v="yes"/>
  </node>
  <node id="-839" lat="51.47096533206584" lon="0.1365455497510849">
    <tag k="addr:postcode" v="DA7 4PT"/>
    <tag k="removemelater" v="yes"/>
  </node>
  <node id="-840" lat="51.46807324332213" lon="0.13535935206162708">
    <tag k="addr:postcode" v="DA7 4PY"/>
    <tag k="removemelater" v="yes"/>
  </node>
  <node id="-841" lat="51.467797609840375" lon="0.13716066057212944">
    <tag k="addr:postcode" v="DA7 4PZ"/>
    <tag k="removemelater" v="yes"/>
  </node>
  <node id="-842" lat="51.46827263936853" lon="0.13626136294746935">
    <tag k="addr:postcode" v="DA7 4QA"/>
    <tag k="removemelater" v="yes"/>
  </node>
  <node id="-843" lat="51.4691617260678" lon="0.13682124871651716">
    <tag k="addr:postcode" v="DA7 4QB"/>
    <tag k="removemelater" v="yes"/>
  </node>
  <node id="-844" lat="51.46969743208797" lon="0.13703346618997703">
    <tag k="addr:postcode" v="DA7 4QD"/>
    <tag k="removemelater" v="yes"/>
  </node>
  <node id="-845" lat="51.47040974752039" lon="0.13594362818258773">
    <tag k="addr:postcode" v="DA7 4QG"/>
    <tag k="removemelater" v="yes"/>
  </node>
  <node id="-846" lat="51.469573258066134" lon="0.13545819365785022">
    <tag k="addr:postcode" v="DA7 4QQ"/>
    <tag k="removemelater" v="yes"/>
  </node>
  <node id="-847" lat="51.47038664847195" lon="0.13523699537535955">
    <tag k="addr:postcode" v="DA7 4RS"/>
    <tag k="removemelater" v="yes"/>
  </node>
  <node id="-848" lat="51.47046231285595" lon="0.13256229992829022">
    <tag k="addr:postcode" v="DA7 4SE"/>
    <tag k="removemelater" v="yes"/>
  </node>
  <node id="-849" lat="51.470794244652765" lon="0.13260657850420018">
    <tag k="addr:postcode" v="DA7 4SF"/>
    <tag k="removemelater" v="yes"/>
  </node>
  <node id="-850" lat="51.4693084993121" lon="0.12974394001234693">
    <tag k="addr:postcode" v="DA7 4SR"/>
    <tag k="removemelater" v="yes"/>
  </node>
  <node id="-851" lat="51.47119203504312" lon="0.1315019850400411">
    <tag k="addr:postcode" v="DA7 4SX"/>
    <tag k="removemelater" v="yes"/>
  </node>
  <node id="-852" lat="51.46418988043762" lon="0.15248338639873762">
    <tag k="addr:postcode" v="DA7 5AA"/>
    <tag k="removemelater" v="yes"/>
  </node>
  <node id="-853" lat="51.46551244608781" lon="0.14852871359716324">
    <tag k="addr:postcode" v="DA7 5AJ"/>
    <tag k="removemelater" v="yes"/>
  </node>
  <node id="-854" lat="51.46526726176372" lon="0.1501297126202575">
    <tag k="addr:postcode" v="DA7 5AL"/>
    <tag k="removemelater" v="yes"/>
  </node>
  <node id="-855" lat="51.46427491909163" lon="0.14980951576022958">
    <tag k="addr:postcode" v="DA7 5AN"/>
    <tag k="removemelater" v="yes"/>
  </node>
  <node id="-856" lat="51.462554309028214" lon="0.15193132848268356">
    <tag k="addr:postcode" v="DA7 5AR"/>
    <tag k="removemelater" v="yes"/>
  </node>
  <node id="-857" lat="51.46518234405437" lon="0.1478941162607469">
    <tag k="addr:postcode" v="DA7 5AW"/>
    <tag k="removemelater" v="yes"/>
  </node>
  <node id="-858" lat="51.465039873646674" lon="0.14732592689932583">
    <tag k="addr:postcode" v="DA7 5AY"/>
    <tag k="removemelater" v="yes"/>
  </node>
  <node id="-859" lat="51.468953308516774" lon="0.15067738445126344">
    <tag k="addr:postcode" v="DA7 5BP"/>
    <tag k="removemelater" v="yes"/>
  </node>
  <node id="-860" lat="51.46872236614207" lon="0.15248074270601505">
    <tag k="addr:postcode" v="DA7 5BS"/>
    <tag k="removemelater" v="yes"/>
  </node>
  <node id="-861" lat="51.46724562463061" lon="0.1520944780646144">
    <tag k="addr:postcode" v="DA7 5BT"/>
    <tag k="removemelater" v="yes"/>
  </node>
  <node id="-862" lat="51.467122729541344" lon="0.1514407819695178">
    <tag k="addr:postcode" v="DA7 5BU"/>
    <tag k="removemelater" v="yes"/>
  </node>
  <node id="-863" lat="51.46694142113979" lon="0.15053957625260445">
    <tag k="addr:postcode" v="DA7 5BX"/>
    <tag k="removemelater" v="yes"/>
  </node>
  <node id="-864" lat="51.46722677149284" lon="0.1487100388823068">
    <tag k="addr:postcode" v="DA7 5BY"/>
    <tag k="removemelater" v="yes"/>
  </node>
  <node id="-865" lat="51.46738430378614" lon="0.14943734748465207">
    <tag k="addr:postcode" v="DA7 5BZ"/>
    <tag k="removemelater" v="yes"/>
  </node>
  <node id="-866" lat="51.46694193531871" lon="0.1500212723035823">
    <tag k="addr:postcode" v="DA7 5DA"/>
    <tag k="removemelater" v="yes"/>
  </node>
  <node id="-867" lat="51.47157083761148" lon="0.14426314379269597">
    <tag k="addr:postcode" v="DA7 5EZ"/>
    <tag k="removemelater" v="yes"/>
  </node>
  <node id="-868" lat="51.472063848940934" lon="0.14287510241368628">
    <tag k="addr:postcode" v="DA7 5HA"/>
    <tag k="removemelater" v="yes"/>
  </node>
  <node id="-869" lat="51.47322490416328" lon="0.1413455205109976">
    <tag k="addr:postcode" v="DA7 5HD"/>
    <tag k="removemelater" v="yes"/>
  </node>
  <node id="-870" lat="51.473312813344776" lon="0.14047123811421852">
    <tag k="addr:postcode" v="DA7 5HH"/>
    <tag k="removemelater" v="yes"/>
  </node>
  <node id="-871" lat="51.472988031738154" lon="0.14052803329924712">
    <tag k="addr:postcode" v="DA7 5HJ"/>
    <tag k="removemelater" v="yes"/>
  </node>
  <node id="-872" lat="51.471326053155444" lon="0.13649040759860512">
    <tag k="addr:postcode" v="DA7 5JE"/>
    <tag k="removemelater" v="yes"/>
  </node>
  <node id="-873" lat="51.47232111779591" lon="0.13073383762890817">
    <tag k="addr:postcode" v="DA7 5JH"/>
    <tag k="removemelater" v="yes"/>
  </node>
  <node id="-874" lat="51.47280596629063" lon="0.13028123785420448">
    <tag k="addr:postcode" v="DA7 5JJ"/>
    <tag k="removemelater" v="yes"/>
  </node>
  <node id="-875" lat="51.47238821404369" lon="0.13198973643920517">
    <tag k="addr:postcode" v="DA7 5JQ"/>
    <tag k="removemelater" v="yes"/>
  </node>
  <node id="-876" lat="51.47214308276222" lon="0.13261188939597343">
    <tag k="addr:postcode" v="DA7 5JT"/>
    <tag k="removemelater" v="yes"/>
  </node>
  <node id="-877" lat="51.471631005874436" lon="0.13159444482588384">
    <tag k="addr:postcode" v="DA7 5JU"/>
    <tag k="removemelater" v="yes"/>
  </node>
  <node id="-878" lat="51.47146787857785" lon="0.1326523953220981">
    <tag k="addr:postcode" v="DA7 5JX"/>
    <tag k="removemelater" v="yes"/>
  </node>
  <node id="-879" lat="51.46112145197908" lon="0.15356266839896637">
    <tag k="addr:postcode" v="DA7 6BY"/>
    <tag k="removemelater" v="yes"/>
  </node>
  <node id="-880" lat="51.46079322915265" lon="0.15380634507037455">
    <tag k="addr:postcode" v="DA7 6BZ"/>
    <tag k="removemelater" v="yes"/>
  </node>
  <node id="-881" lat="51.4585059333921" lon="0.1569088194570437">
    <tag k="addr:postcode" v="DA7 6DJ"/>
    <tag k="removemelater" v="yes"/>
  </node>
  <node id="-882" lat="51.456189649956755" lon="0.1542517671166149">
    <tag k="addr:postcode" v="DA7 6EU"/>
    <tag k="removemelater" v="yes"/>
  </node>
  <node id="-883" lat="51.46182636730516" lon="0.159728725394305">
    <tag k="addr:postcode" v="DA7 6EY"/>
    <tag k="removemelater" v="yes"/>
  </node>
  <node id="-884" lat="51.455840811897986" lon="0.15463838800263854">
    <tag k="addr:postcode" v="DA7 6FE"/>
    <tag k="removemelater" v="yes"/>
  </node>
  <node id="-885" lat="51.454907137609446" lon="0.1555300424664983">
    <tag k="addr:postcode" v="DA7 6FF"/>
    <tag k="removemelater" v="yes"/>
  </node>
  <node id="-886" lat="51.45503320021647" lon="0.155032182427835">
    <tag k="addr:postcode" v="DA7 6FG"/>
    <tag k="removemelater" v="yes"/>
  </node>
  <node id="-887" lat="51.463888512680384" lon="0.15860234806334578">
    <tag k="addr:postcode" v="DA7 6HA"/>
    <tag k="removemelater" v="yes"/>
  </node>
  <node id="-888" lat="51.464006680816965" lon="0.1575569370954559">
    <tag k="addr:postcode" v="DA7 6HF"/>
    <tag k="removemelater" v="yes"/>
  </node>
  <node id="-889" lat="51.464843275448644" lon="0.1594968538298464">
    <tag k="addr:postcode" v="DA7 6HQ"/>
    <tag k="removemelater" v="yes"/>
  </node>
  <node id="-890" lat="51.46530583571527" lon="0.15733027375144362">
    <tag k="addr:postcode" v="DA7 6HW"/>
    <tag k="removemelater" v="yes"/>
  </node>
  <node id="-891" lat="51.461934213138505" lon="0.159244338352713">
    <tag k="addr:postcode" v="DA7 6HY"/>
    <tag k="removemelater" v="yes"/>
  </node>
  <node id="-892" lat="51.461588416422174" lon="0.1535990498098159">
    <tag k="addr:postcode" v="DA7 6LE"/>
    <tag k="removemelater" v="yes"/>
  </node>
  <node id="-893" lat="51.46079190018262" lon="0.16169533542793604">
    <tag k="addr:postcode" v="DA7 6LZ"/>
    <tag k="removemelater" v="yes"/>
  </node>
  <node id="-894" lat="51.466007310556776" lon="0.16074682881836752">
    <tag k="addr:postcode" v="DA7 6PF"/>
    <tag k="removemelater" v="yes"/>
  </node>
  <node id="-895" lat="51.465612730046004" lon="0.1611745126091064">
    <tag k="addr:postcode" v="DA7 6PG"/>
    <tag k="removemelater" v="yes"/>
  </node>
  <node id="-896" lat="51.465522028147994" lon="0.1651151644022255">
    <tag k="addr:postcode" v="DA7 6PJ"/>
    <tag k="removemelater" v="yes"/>
  </node>
  <node id="-897" lat="51.46632532961991" lon="0.1630079160763417">
    <tag k="addr:postcode" v="DA7 6PL"/>
    <tag k="removemelater" v="yes"/>
  </node>
  <node id="-898" lat="51.467030875383855" lon="0.15985931589705746">
    <tag k="addr:postcode" v="DA7 6PN"/>
    <tag k="removemelater" v="yes"/>
  </node>
  <node id="-899" lat="51.46623631314807" lon="0.1624709871042594">
    <tag k="addr:postcode" v="DA7 6PP"/>
    <tag k="removemelater" v="yes"/>
  </node>
  <node id="-900" lat="51.467647933041" lon="0.16004683955896573">
    <tag k="addr:postcode" v="DA7 6PS"/>
    <tag k="removemelater" v="yes"/>
  </node>
  <node id="-901" lat="51.46737811438299" lon="0.1600484934202779">
    <tag k="addr:postcode" v="DA7 6PT"/>
    <tag k="removemelater" v="yes"/>
  </node>
  <node id="-902" lat="51.46783148907133" lon="0.16179770460914497">
    <tag k="addr:postcode" v="DA7 6PU"/>
    <tag k="removemelater" v="yes"/>
  </node>
  <node id="-903" lat="51.46668466969498" lon="0.1601021284138909">
    <tag k="addr:postcode" v="DA7 6PW"/>
    <tag k="removemelater" v="yes"/>
  </node>
  <node id="-904" lat="51.4684514953638" lon="0.16133746487009215">
    <tag k="addr:postcode" v="DA7 6PX"/>
    <tag k="removemelater" v="yes"/>
  </node>
  <node id="-905" lat="51.46875562867939" lon="0.16191338455608653">
    <tag k="addr:postcode" v="DA7 6PY"/>
    <tag k="removemelater" v="yes"/>
  </node>
  <node id="-906" lat="51.46808906403924" lon="0.16294735359708812">
    <tag k="addr:postcode" v="DA7 6PZ"/>
    <tag k="removemelater" v="yes"/>
  </node>
  <node id="-907" lat="51.46898328511844" lon="0.1637095827834931">
    <tag k="addr:postcode" v="DA7 6QA"/>
    <tag k="removemelater" v="yes"/>
  </node>
  <node id="-908" lat="51.46686000965929" lon="0.16522170164048564">
    <tag k="addr:postcode" v="DA7 6QB"/>
    <tag k="removemelater" v="yes"/>
  </node>
  <node id="-909" lat="51.46698058252701" lon="0.164536303962979">
    <tag k="addr:postcode" v="DA7 6QD"/>
    <tag k="removemelater" v="yes"/>
  </node>
  <node id="-910" lat="51.46823864006177" lon="0.15873568690169415">
    <tag k="addr:postcode" v="DA7 6QE"/>
    <tag k="removemelater" v="yes"/>
  </node>
  <node id="-911" lat="51.46820477186636" lon="0.15959799335052427">
    <tag k="addr:postcode" v="DA7 6QF"/>
    <tag k="removemelater" v="yes"/>
  </node>
  <node id="-912" lat="51.48281839278267" lon="0.17709675929664376">
    <tag k="addr:postcode" v="DA8 1AE"/>
    <tag k="removemelater" v="yes"/>
  </node>
  <node id="-913" lat="51.48464522832677" lon="0.17460552914244154">
    <tag k="addr:postcode" v="DA8 1AG"/>
    <tag k="removemelater" v="yes"/>
  </node>
  <node id="-914" lat="51.48788829381307" lon="0.1699342927007513">
    <tag k="addr:postcode" v="DA8 1AY"/>
    <tag k="removemelater" v="yes"/>
  </node>
  <node id="-915" lat="51.47969468155304" lon="0.18210392938274844">
    <tag k="addr:postcode" v="DA8 1BA"/>
    <tag k="removemelater" v="yes"/>
  </node>
  <node id="-916" lat="51.484062161925706" lon="0.17646463921158528">
    <tag k="addr:postcode" v="DA8 1BB"/>
    <tag k="removemelater" v="yes"/>
  </node>
  <node id="-917" lat="51.48435465937183" lon="0.17669462148185383">
    <tag k="addr:postcode" v="DA8 1BE"/>
    <tag k="removemelater" v="yes"/>
  </node>
  <node id="-918" lat="51.48383974244155" lon="0.17730384732400506">
    <tag k="addr:postcode" v="DA8 1BF"/>
    <tag k="removemelater" v="yes"/>
  </node>
  <node id="-919" lat="51.483591267824245" lon="0.17760888321533091">
    <tag k="addr:postcode" v="DA8 1BG"/>
    <tag k="removemelater" v="yes"/>
  </node>
  <node id="-920" lat="51.48498282922715" lon="0.1753129723384848">
    <tag k="addr:postcode" v="DA8 1BL"/>
    <tag k="removemelater" v="yes"/>
  </node>
  <node id="-921" lat="51.486385398867355" lon="0.1680480063380472">
    <tag k="addr:postcode" v="DA8 1BN"/>
    <tag k="removemelater" v="yes"/>
  </node>
  <node id="-922" lat="51.48502525624437" lon="0.1759343533280167">
    <tag k="addr:postcode" v="DA8 1BQ"/>
    <tag k="removemelater" v="yes"/>
  </node>
  <node id="-923" lat="51.49349102549718" lon="0.1699266549540326">
    <tag k="addr:postcode" v="DA8 1DE"/>
    <tag k="removemelater" v="yes"/>
  </node>
  <node id="-924" lat="51.49284836585284" lon="0.16772079542570692">
    <tag k="addr:postcode" v="DA8 1DL"/>
    <tag k="removemelater" v="yes"/>
  </node>
  <node id="-925" lat="51.4781811021683" lon="0.1608901440599392">
    <tag k="addr:postcode" v="DA8 1DN"/>
    <tag k="removemelater" v="yes"/>
  </node>
  <node id="-926" lat="51.47857823512262" lon="0.16178741993075618">
    <tag k="addr:postcode" v="DA8 1DP"/>
    <tag k="removemelater" v="yes"/>
  </node>
  <node id="-927" lat="51.48449674376868" lon="0.17582276930842664">
    <tag k="addr:postcode" v="DA8 1DQ"/>
    <tag k="removemelater" v="yes"/>
  </node>
  <node id="-928" lat="51.47853078613901" lon="0.15997056459354433">
    <tag k="addr:postcode" v="DA8 1DR"/>
    <tag k="removemelater" v="yes"/>
  </node>
  <node id="-929" lat="51.47911332640363" lon="0.15812584851631128">
    <tag k="addr:postcode" v="DA8 1DS"/>
    <tag k="removemelater" v="yes"/>
  </node>
  <node id="-930" lat="51.4787462397719" lon="0.15852616880754603">
    <tag k="addr:postcode" v="DA8 1DT"/>
    <tag k="removemelater" v="yes"/>
  </node>
  <node id="-931" lat="51.47904045339537" lon="0.15622136641715775">
    <tag k="addr:postcode" v="DA8 1DU"/>
    <tag k="removemelater" v="yes"/>
  </node>
  <node id="-932" lat="51.478461463819876" lon="0.1612922414774745">
    <tag k="addr:postcode" v="DA8 1DW"/>
    <tag k="removemelater" v="yes"/>
  </node>
  <node id="-933" lat="51.4786046682746" lon="0.15644563999364136">
    <tag k="addr:postcode" v="DA8 1DX"/>
    <tag k="removemelater" v="yes"/>
  </node>
  <node id="-934" lat="51.47899211864617" lon="0.15493732520317707">
    <tag k="addr:postcode" v="DA8 1DY"/>
    <tag k="removemelater" v="yes"/>
  </node>
  <node id="-935" lat="51.47665198476146" lon="0.15651194321212414">
    <tag k="addr:postcode" v="DA8 1DZ"/>
    <tag k="removemelater" v="yes"/>
  </node>
  <node id="-936" lat="51.47640595886313" lon="0.15619791700799077">
    <tag k="addr:postcode" v="DA8 1EB"/>
    <tag k="removemelater" v="yes"/>
  </node>
  <node id="-937" lat="51.47643874571726" lon="0.1553930069061608">
    <tag k="addr:postcode" v="DA8 1ED"/>
    <tag k="removemelater" v="yes"/>
  </node>
  <node id="-938" lat="51.49227594927314" lon="0.16560476429205973">
    <tag k="addr:postcode" v="DA8 1EW"/>
    <tag k="removemelater" v="yes"/>
  </node>
  <node id="-939" lat="51.490481222527976" lon="0.16636962644516795">
    <tag k="addr:postcode" v="DA8 1EX"/>
    <tag k="removemelater" v="yes"/>
  </node>
  <node id="-940" lat="51.48535583958335" lon="0.1731413401245664">
    <tag k="addr:postcode" v="DA8 1FA"/>
    <tag k="removemelater" v="yes"/>
  </node>
  <node id="-941" lat="51.47946844680498" lon="0.1787950681334443">
    <tag k="addr:postcode" v="DA8 1FB"/>
    <tag k="removemelater" v="yes"/>
  </node>
  <node id="-942" lat="51.47905942674377" lon="0.18192958606613716">
    <tag k="addr:postcode" v="DA8 1FD"/>
    <tag k="removemelater" v="yes"/>
  </node>
  <node id="-943" lat="51.48095591063887" lon="0.18150162406172402">
    <tag k="addr:postcode" v="DA8 1FG"/>
    <tag k="removemelater" v="yes"/>
  </node>
  <node id="-944" lat="51.48095591063887" lon="0.18150162406172402">
    <tag k="addr:postcode" v="DA8 1FJ"/>
    <tag k="removemelater" v="yes"/>
  </node>
  <node id="-945" lat="51.479279082858625" lon="0.18172404132802497">
    <tag k="addr:postcode" v="DA8 1GL"/>
    <tag k="removemelater" v="yes"/>
  </node>
  <node id="-946" lat="51.48271154050937" lon="0.17752376063492684">
    <tag k="addr:postcode" v="DA8 1GX"/>
    <tag k="removemelater" v="yes"/>
  </node>
  <node id="-947" lat="51.482331432192595" lon="0.17668468592893147">
    <tag k="addr:postcode" v="DA8 1GZ"/>
    <tag k="removemelater" v="yes"/>
  </node>
  <node id="-948" lat="51.47491438251587" lon="0.15759642569449625">
    <tag k="addr:postcode" v="DA8 1JA"/>
    <tag k="removemelater" v="yes"/>
  </node>
  <node id="-949" lat="51.47453972200362" lon="0.15449705720326867">
    <tag k="addr:postcode" v="DA8 1JB"/>
    <tag k="removemelater" v="yes"/>
  </node>
  <node id="-950" lat="51.474158854682635" lon="0.15711436261648362">
    <tag k="addr:postcode" v="DA8 1JD"/>
    <tag k="removemelater" v="yes"/>
  </node>
  <node id="-951" lat="51.47423334826765" lon="0.15795309559974785">
    <tag k="addr:postcode" v="DA8 1JF"/>
    <tag k="removemelater" v="yes"/>
  </node>
  <node id="-952" lat="51.47160836797357" lon="0.1579012072182786">
    <tag k="addr:postcode" v="DA8 1JP"/>
    <tag k="removemelater" v="yes"/>
  </node>
  <node id="-953" lat="51.47134412678181" lon="0.15711116907048572">
    <tag k="addr:postcode" v="DA8 1JZ"/>
    <tag k="removemelater" v="yes"/>
  </node>
  <node id="-954" lat="51.47600640835599" lon="0.15151319176682881">
    <tag k="addr:postcode" v="DA8 1LR"/>
    <tag k="removemelater" v="yes"/>
  </node>
  <node id="-955" lat="51.48435669019984" lon="0.171250178779929">
    <tag k="addr:postcode" v="DA8 1NB"/>
    <tag k="removemelater" v="yes"/>
  </node>
  <node id="-956" lat="51.476146597041776" lon="0.14730032470248086">
    <tag k="addr:postcode" v="DA8 1NG"/>
    <tag k="removemelater" v="yes"/>
  </node>
  <node id="-957" lat="51.47637742065075" lon="0.15040737566014542">
    <tag k="addr:postcode" v="DA8 1NJ"/>
    <tag k="removemelater" v="yes"/>
  </node>
  <node id="-958" lat="51.48457766067562" lon="0.1709726043429457">
    <tag k="addr:postcode" v="DA8 1NR"/>
    <tag k="removemelater" v="yes"/>
  </node>
  <node id="-959" lat="51.48499371024767" lon="0.17035860301871147">
    <tag k="addr:postcode" v="DA8 1NX"/>
    <tag k="removemelater" v="yes"/>
  </node>
  <node id="-960" lat="51.48416955548533" lon="0.16970011659251613">
    <tag k="addr:postcode" v="DA8 1NY"/>
    <tag k="removemelater" v="yes"/>
  </node>
  <node id="-961" lat="51.484708591974254" lon="0.16827093848060998">
    <tag k="addr:postcode" v="DA8 1NZ"/>
    <tag k="removemelater" v="yes"/>
  </node>
  <node id="-962" lat="51.4854757804796" lon="0.16812008598865422">
    <tag k="addr:postcode" v="DA8 1PB"/>
    <tag k="removemelater" v="yes"/>
  </node>
  <node id="-963" lat="51.48548223856991" lon="0.1692294916716429">
    <tag k="addr:postcode" v="DA8 1PD"/>
    <tag k="removemelater" v="yes"/>
  </node>
  <node id="-964" lat="51.484930087528284" lon="0.16990906647649814">
    <tag k="addr:postcode" v="DA8 1PE"/>
    <tag k="removemelater" v="yes"/>
  </node>
  <node id="-965" lat="51.48286182043829" lon="0.17233141050551323">
    <tag k="addr:postcode" v="DA8 1PF"/>
    <tag k="removemelater" v="yes"/>
  </node>
  <node id="-966" lat="51.48492569873367" lon="0.1691742687171491">
    <tag k="addr:postcode" v="DA8 1PH"/>
    <tag k="removemelater" v="yes"/>
  </node>
  <node id="-967" lat="51.48603352091404" lon="0.16908280975341716">
    <tag k="addr:postcode" v="DA8 1PN"/>
    <tag k="removemelater" v="yes"/>
  </node>
  <node id="-968" lat="51.48366053413055" lon="0.16999282526453535">
    <tag k="addr:postcode" v="DA8 1PW"/>
    <tag k="removemelater" v="yes"/>
  </node>
  <node id="-969" lat="51.483340000529125" lon="0.16787473807939188">
    <tag k="addr:postcode" v="DA8 1QH"/>
    <tag k="removemelater" v="yes"/>
  </node>
  <node id="-970" lat="51.4819360616172" lon="0.17084713463864698">
    <tag k="addr:postcode" v="DA8 1QL"/>
    <tag k="removemelater" v="yes"/>
  </node>
  <node id="-971" lat="51.48065195535777" lon="0.18478526611501342">
    <tag k="addr:postcode" v="DA8 1QR"/>
    <tag k="removemelater" v="yes"/>
  </node>
  <node id="-972" lat="51.48212867544527" lon="0.16724117228964555">
    <tag k="addr:postcode" v="DA8 1QS"/>
    <tag k="removemelater" v="yes"/>
  </node>
  <node id="-973" lat="51.48121864411393" lon="0.18236391497197038">
    <tag k="addr:postcode" v="DA8 1QW"/>
    <tag k="removemelater" v="yes"/>
  </node>
  <node id="-974" lat="51.480762528638714" lon="0.1662258404743017">
    <tag k="addr:postcode" v="DA8 1QX"/>
    <tag k="removemelater" v="yes"/>
  </node>
  <node id="-975" lat="51.48165765924872" lon="0.18100221597820249">
    <tag k="addr:postcode" v="DA8 1QY"/>
    <tag k="removemelater" v="yes"/>
  </node>
  <node id="-976" lat="51.481366361780836" lon="0.17780533930761488">
    <tag k="addr:postcode" v="DA8 1RA"/>
    <tag k="removemelater" v="yes"/>
  </node>
  <node id="-977" lat="51.48013911179915" lon="0.17899986191915265">
    <tag k="addr:postcode" v="DA8 1RB"/>
    <tag k="removemelater" v="yes"/>
  </node>
  <node id="-978" lat="51.480353996010386" lon="0.18001826591521194">
    <tag k="addr:postcode" v="DA8 1RE"/>
    <tag k="removemelater" v="yes"/>
  </node>
  <node id="-979" lat="51.48044457048969" lon="0.1814340133899481">
    <tag k="addr:postcode" v="DA8 1RF"/>
    <tag k="removemelater" v="yes"/>
  </node>
  <node id="-980" lat="51.48013973391799" lon="0.18090098546086522">
    <tag k="addr:postcode" v="DA8 1RG"/>
    <tag k="removemelater" v="yes"/>
  </node>
  <node id="-981" lat="51.478414885876" lon="0.18080429344228757">
    <tag k="addr:postcode" v="DA8 1RN"/>
    <tag k="removemelater" v="yes"/>
  </node>
  <node id="-982" lat="51.4789543667356" lon="0.18032596545434573">
    <tag k="addr:postcode" v="DA8 1RP"/>
    <tag k="removemelater" v="yes"/>
  </node>
  <node id="-983" lat="51.47956656906728" lon="0.18077282524200733">
    <tag k="addr:postcode" v="DA8 1RQ"/>
    <tag k="removemelater" v="yes"/>
  </node>
  <node id="-984" lat="51.481276511853714" lon="0.17780105838054272">
    <tag k="addr:postcode" v="DA8 1RS"/>
    <tag k="removemelater" v="yes"/>
  </node>
  <node id="-985" lat="51.47885724954128" lon="0.17974526042876277">
    <tag k="addr:postcode" v="DA8 1RU"/>
    <tag k="removemelater" v="yes"/>
  </node>
  <node id="-986" lat="51.48161074244236" lon="0.1815904877202921">
    <tag k="addr:postcode" v="DA8 1RX"/>
    <tag k="removemelater" v="yes"/>
  </node>
  <node id="-987" lat="51.47745953374105" lon="0.18091713384118122">
    <tag k="addr:postcode" v="DA8 1RZ"/>
    <tag k="removemelater" v="yes"/>
  </node>
  <node id="-988" lat="51.481446481277054" lon="0.17881734109086136">
    <tag k="addr:postcode" v="DA8 1SA"/>
    <tag k="removemelater" v="yes"/>
  </node>
  <node id="-989" lat="51.481278378641406" lon="0.18011996324020635">
    <tag k="addr:postcode" v="DA8 1SB"/>
    <tag k="removemelater" v="yes"/>
  </node>
  <node id="-990" lat="51.48377731337306" lon="0.17630704098366365">
    <tag k="addr:postcode" v="DA8 1SD"/>
    <tag k="removemelater" v="yes"/>
  </node>
  <node id="-991" lat="51.4803481090816" lon="0.18033483559199573">
    <tag k="addr:postcode" v="DA8 1SE"/>
    <tag k="removemelater" v="yes"/>
  </node>
  <node id="-992" lat="51.48333578113682" lon="0.17732304930921708">
    <tag k="addr:postcode" v="DA8 1SF"/>
    <tag k="removemelater" v="yes"/>
  </node>
  <node id="-993" lat="51.480579215952986" lon="0.17854556376348227">
    <tag k="addr:postcode" v="DA8 1SH"/>
    <tag k="removemelater" v="yes"/>
  </node>
  <node id="-994" lat="51.47942980396834" lon="0.18135678277197276">
    <tag k="addr:postcode" v="DA8 1SL"/>
    <tag k="removemelater" v="yes"/>
  </node>
  <node id="-995" lat="51.47902467692004" lon="0.1813806560142755">
    <tag k="addr:postcode" v="DA8 1SN"/>
    <tag k="removemelater" v="yes"/>
  </node>
  <node id="-996" lat="51.48108066318097" lon="0.1791455640616195">
    <tag k="addr:postcode" v="DA8 1SP"/>
    <tag k="removemelater" v="yes"/>
  </node>
  <node id="-997" lat="51.48011926968465" lon="0.179099731582439">
    <tag k="addr:postcode" v="DA8 1TA"/>
    <tag k="removemelater" v="yes"/>
  </node>
  <node id="-998" lat="51.48029328153191" lon="0.18086510459215527">
    <tag k="addr:postcode" v="DA8 1TB"/>
    <tag k="removemelater" v="yes"/>
  </node>
  <node id="-999" lat="51.480970754791606" lon="0.17780089314292583">
    <tag k="addr:postcode" v="DA8 1TL"/>
    <tag k="removemelater" v="yes"/>
  </node>
  <node id="-1000" lat="51.48231107901462" lon="0.17535864961146835">
    <tag k="addr:postcode" v="DA8 1TU"/>
    <tag k="removemelater" v="yes"/>
  </node>
  <node id="-1001" lat="51.48259165642634" lon="0.17574648111379687">
    <tag k="addr:postcode" v="DA8 1TX"/>
    <tag k="removemelater" v="yes"/>
  </node>
  <node id="-1002" lat="51.48163693653747" lon="0.17534096815451572">
    <tag k="addr:postcode" v="DA8 1TY"/>
    <tag k="removemelater" v="yes"/>
  </node>
  <node id="-1003" lat="51.47645512364237" lon="0.19570233303597936">
    <tag k="addr:postcode" v="DA8 1UA"/>
    <tag k="removemelater" v="yes"/>
  </node>
  <node id="-1004" lat="51.47645512364237" lon="0.19570233303597936">
    <tag k="addr:postcode" v="DA8 1UB"/>
    <tag k="removemelater" v="yes"/>
  </node>
  <node id="-1005" lat="51.47645512364237" lon="0.19570233303597936">
    <tag k="addr:postcode" v="DA8 1UN"/>
    <tag k="removemelater" v="yes"/>
  </node>
  <node id="-1006" lat="51.47645512364237" lon="0.19570233303597936">
    <tag k="addr:postcode" v="DA8 1WJ"/>
    <tag k="removemelater" v="yes"/>
  </node>
  <node id="-1007" lat="51.474922918239955" lon="0.15321906754724354">
    <tag k="addr:postcode" v="DA8 1YH"/>
    <tag k="removemelater" v="yes"/>
  </node>
  <node id="-1008" lat="51.47645512364237" lon="0.19570233303597936">
    <tag k="addr:postcode" v="DA8 1YT"/>
    <tag k="removemelater" v="yes"/>
  </node>
  <node id="-1009" lat="51.47645512364237" lon="0.19570233303597936">
    <tag k="addr:postcode" v="DA8 1ZJ"/>
    <tag k="removemelater" v="yes"/>
  </node>
  <node id="-1010" lat="51.478252410682614" lon="0.18276956645996398">
    <tag k="addr:postcode" v="DA8 2AB"/>
    <tag k="removemelater" v="yes"/>
  </node>
  <node id="-1011" lat="51.477605142905425" lon="0.19287727743772815">
    <tag k="addr:postcode" v="DA8 2AD"/>
    <tag k="removemelater" v="yes"/>
  </node>
  <node id="-1012" lat="51.478503341538435" lon="0.1842649251613668">
    <tag k="addr:postcode" v="DA8 2AE"/>
    <tag k="removemelater" v="yes"/>
  </node>
  <node id="-1013" lat="51.4782407622596" lon="0.18387793614846382">
    <tag k="addr:postcode" v="DA8 2AF"/>
    <tag k="removemelater" v="yes"/>
  </node>
  <node id="-1014" lat="51.47821395003361" lon="0.1853168181642812">
    <tag k="addr:postcode" v="DA8 2AG"/>
    <tag k="removemelater" v="yes"/>
  </node>
  <node id="-1015" lat="51.479953940878644" lon="0.18411820793261766">
    <tag k="addr:postcode" v="DA8 2AH"/>
    <tag k="removemelater" v="yes"/>
  </node>
  <node id="-1016" lat="51.4775809299317" lon="0.19561239152965704">
    <tag k="addr:postcode" v="DA8 2AJ"/>
    <tag k="removemelater" v="yes"/>
  </node>
  <node id="-1017" lat="51.47861035682468" lon="0.18624307909288246">
    <tag k="addr:postcode" v="DA8 2AL"/>
    <tag k="removemelater" v="yes"/>
  </node>
  <node id="-1018" lat="51.47584275497497" lon="0.1928647461755973">
    <tag k="addr:postcode" v="DA8 2AN"/>
    <tag k="removemelater" v="yes"/>
  </node>
  <node id="-1019" lat="51.47914797228197" lon="0.18683046640218343">
    <tag k="addr:postcode" v="DA8 2AP"/>
    <tag k="removemelater" v="yes"/>
  </node>
  <node id="-1020" lat="51.47835327123685" lon="0.18700847452139102">
    <tag k="addr:postcode" v="DA8 2AQ"/>
    <tag k="removemelater" v="yes"/>
  </node>
  <node id="-1021" lat="51.478780534794076" lon="0.18435017914801458">
    <tag k="addr:postcode" v="DA8 2AR"/>
    <tag k="removemelater" v="yes"/>
  </node>
  <node id="-1022" lat="51.47771759369244" lon="0.1883029992031041">
    <tag k="addr:postcode" v="DA8 2AT"/>
    <tag k="removemelater" v="yes"/>
  </node>
  <node id="-1023" lat="51.47912357171853" lon="0.18428015960787736">
    <tag k="addr:postcode" v="DA8 2AU"/>
    <tag k="removemelater" v="yes"/>
  </node>
  <node id="-1024" lat="51.47791880511215" lon="0.19053046922008085">
    <tag k="addr:postcode" v="DA8 2AW"/>
    <tag k="removemelater" v="yes"/>
  </node>
  <node id="-1025" lat="51.47723175109896" lon="0.18300885893500746">
    <tag k="addr:postcode" v="DA8 2AX"/>
    <tag k="removemelater" v="yes"/>
  </node>
  <node id="-1026" lat="51.47642231540543" lon="0.18397828176003211">
    <tag k="addr:postcode" v="DA8 2AY"/>
    <tag k="removemelater" v="yes"/>
  </node>
  <node id="-1027" lat="51.47633783769798" lon="0.18561596443516723">
    <tag k="addr:postcode" v="DA8 2AZ"/>
    <tag k="removemelater" v="yes"/>
  </node>
  <node id="-1028" lat="51.47720601063872" lon="0.18342526771435094">
    <tag k="addr:postcode" v="DA8 2BA"/>
    <tag k="removemelater" v="yes"/>
  </node>
  <node id="-1029" lat="51.47660886147364" lon="0.18506727773646456">
    <tag k="addr:postcode" v="DA8 2BB"/>
    <tag k="removemelater" v="yes"/>
  </node>
  <node id="-1030" lat="51.47735286910783" lon="0.1856788936923902">
    <tag k="addr:postcode" v="DA8 2BD"/>
    <tag k="removemelater" v="yes"/>
  </node>
  <node id="-1031" lat="51.47740824876178" lon="0.18415499561267432">
    <tag k="addr:postcode" v="DA8 2BE"/>
    <tag k="removemelater" v="yes"/>
  </node>
  <node id="-1032" lat="51.47585434890425" lon="0.18212223722655768">
    <tag k="addr:postcode" v="DA8 2BF"/>
    <tag k="removemelater" v="yes"/>
  </node>
  <node id="-1033" lat="51.47542378291442" lon="0.18447780955741752">
    <tag k="addr:postcode" v="DA8 2BG"/>
    <tag k="removemelater" v="yes"/>
  </node>
  <node id="-1034" lat="51.47449094259747" lon="0.18338200523640497">
    <tag k="addr:postcode" v="DA8 2BH"/>
    <tag k="removemelater" v="yes"/>
  </node>
  <node id="-1035" lat="51.47567520807761" lon="0.1830497403778274">
    <tag k="addr:postcode" v="DA8 2BQ"/>
    <tag k="removemelater" v="yes"/>
  </node>
  <node id="-1036" lat="51.47400192431209" lon="0.19271885280724313">
    <tag k="addr:postcode" v="DA8 2BT"/>
    <tag k="removemelater" v="yes"/>
  </node>
  <node id="-1037" lat="51.476119378213674" lon="0.18430943315799725">
    <tag k="addr:postcode" v="DA8 2BU"/>
    <tag k="removemelater" v="yes"/>
  </node>
  <node id="-1038" lat="51.46985576758896" lon="0.18310308260527244">
    <tag k="addr:postcode" v="DA8 2BY"/>
    <tag k="removemelater" v="yes"/>
  </node>
  <node id="-1039" lat="51.469459499816764" lon="0.18361692240449123">
    <tag k="addr:postcode" v="DA8 2BZ"/>
    <tag k="removemelater" v="yes"/>
  </node>
  <node id="-1040" lat="51.46827265856622" lon="0.18263874645653266">
    <tag k="addr:postcode" v="DA8 2DD"/>
    <tag k="removemelater" v="yes"/>
  </node>
  <node id="-1041" lat="51.46858904418695" lon="0.18641188068518186">
    <tag k="addr:postcode" v="DA8 2DF"/>
    <tag k="removemelater" v="yes"/>
  </node>
  <node id="-1042" lat="51.46799737823114" lon="0.18631160039173475">
    <tag k="addr:postcode" v="DA8 2DG"/>
    <tag k="removemelater" v="yes"/>
  </node>
  <node id="-1043" lat="51.466492990679846" lon="0.18403679638900428">
    <tag k="addr:postcode" v="DA8 2DH"/>
    <tag k="removemelater" v="yes"/>
  </node>
  <node id="-1044" lat="51.466570378662425" lon="0.18615699235531544">
    <tag k="addr:postcode" v="DA8 2DJ"/>
    <tag k="removemelater" v="yes"/>
  </node>
  <node id="-1045" lat="51.46625308433751" lon="0.1867753308891903">
    <tag k="addr:postcode" v="DA8 2DL"/>
    <tag k="removemelater" v="yes"/>
  </node>
  <node id="-1046" lat="51.46705405350367" lon="0.18867098813591576">
    <tag k="addr:postcode" v="DA8 2DN"/>
    <tag k="removemelater" v="yes"/>
  </node>
  <node id="-1047" lat="51.46699205309891" lon="0.19006463681734836">
    <tag k="addr:postcode" v="DA8 2DP"/>
    <tag k="removemelater" v="yes"/>
  </node>
  <node id="-1048" lat="51.46540279314304" lon="0.18993094153822998">
    <tag k="addr:postcode" v="DA8 2DR"/>
    <tag k="removemelater" v="yes"/>
  </node>
  <node id="-1049" lat="51.46511169258421" lon="0.1886644193753493">
    <tag k="addr:postcode" v="DA8 2DS"/>
    <tag k="removemelater" v="yes"/>
  </node>
  <node id="-1050" lat="51.46447165162198" lon="0.18585511094584134">
    <tag k="addr:postcode" v="DA8 2DT"/>
    <tag k="removemelater" v="yes"/>
  </node>
  <node id="-1051" lat="51.464736096484856" lon="0.18710592473503265">
    <tag k="addr:postcode" v="DA8 2DU"/>
    <tag k="removemelater" v="yes"/>
  </node>
  <node id="-1052" lat="51.46510019528877" lon="0.18638906377789918">
    <tag k="addr:postcode" v="DA8 2DY"/>
    <tag k="removemelater" v="yes"/>
  </node>
  <node id="-1053" lat="51.4654779624074" lon="0.18686784713831345">
    <tag k="addr:postcode" v="DA8 2DZ"/>
    <tag k="removemelater" v="yes"/>
  </node>
  <node id="-1054" lat="51.464417317992776" lon="0.18346256551993778">
    <tag k="addr:postcode" v="DA8 2EA"/>
    <tag k="removemelater" v="yes"/>
  </node>
  <node id="-1055" lat="51.46568150069353" lon="0.18270225257692932">
    <tag k="addr:postcode" v="DA8 2EB"/>
    <tag k="removemelater" v="yes"/>
  </node>
  <node id="-1056" lat="51.46542188500549" lon="0.18312179012878851">
    <tag k="addr:postcode" v="DA8 2EF"/>
    <tag k="removemelater" v="yes"/>
  </node>
  <node id="-1057" lat="51.473213448250476" lon="0.18244259677156896">
    <tag k="addr:postcode" v="DA8 2EP"/>
    <tag k="removemelater" v="yes"/>
  </node>
  <node id="-1058" lat="51.473555558385726" lon="0.18290533173089263">
    <tag k="addr:postcode" v="DA8 2ER"/>
    <tag k="removemelater" v="yes"/>
  </node>
  <node id="-1059" lat="51.473491735144805" lon="0.18343508966414512">
    <tag k="addr:postcode" v="DA8 2ES"/>
    <tag k="removemelater" v="yes"/>
  </node>
  <node id="-1060" lat="51.473173241558285" lon="0.18363588064313743">
    <tag k="addr:postcode" v="DA8 2ET"/>
    <tag k="removemelater" v="yes"/>
  </node>
  <node id="-1061" lat="51.47293373625862" lon="0.18394124135797094">
    <tag k="addr:postcode" v="DA8 2EU"/>
    <tag k="removemelater" v="yes"/>
  </node>
  <node id="-1062" lat="51.47277734798993" lon="0.18268097905622294">
    <tag k="addr:postcode" v="DA8 2EW"/>
    <tag k="removemelater" v="yes"/>
  </node>
  <node id="-1063" lat="51.47154759827081" lon="0.18207509412309744">
    <tag k="addr:postcode" v="DA8 2EX"/>
    <tag k="removemelater" v="yes"/>
  </node>
  <node id="-1064" lat="51.47226695634167" lon="0.18304540787758178">
    <tag k="addr:postcode" v="DA8 2EY"/>
    <tag k="removemelater" v="yes"/>
  </node>
  <node id="-1065" lat="51.472299390865984" lon="0.18226936938055974">
    <tag k="addr:postcode" v="DA8 2EZ"/>
    <tag k="removemelater" v="yes"/>
  </node>
  <node id="-1066" lat="51.47243669190112" lon="0.18937502910803228">
    <tag k="addr:postcode" v="DA8 2FJ"/>
    <tag k="removemelater" v="yes"/>
  </node>
  <node id="-1067" lat="51.47725990086824" lon="0.18246295282530908">
    <tag k="addr:postcode" v="DA8 2GQ"/>
    <tag k="removemelater" v="yes"/>
  </node>
  <node id="-1068" lat="51.469395812334604" lon="0.18655124673377377">
    <tag k="addr:postcode" v="DA8 2HA"/>
    <tag k="removemelater" v="yes"/>
  </node>
  <node id="-1069" lat="51.47450782655184" lon="0.19547920735357907">
    <tag k="addr:postcode" v="DA8 2HB"/>
    <tag k="removemelater" v="yes"/>
  </node>
  <node id="-1070" lat="51.47453765940757" lon="0.1962870676402916">
    <tag k="addr:postcode" v="DA8 2HD"/>
    <tag k="removemelater" v="yes"/>
  </node>
  <node id="-1071" lat="51.47551027322226" lon="0.19669381184762744">
    <tag k="addr:postcode" v="DA8 2HE"/>
    <tag k="removemelater" v="yes"/>
  </node>
  <node id="-1072" lat="51.476166796389926" lon="0.19717178905348437">
    <tag k="addr:postcode" v="DA8 2HF"/>
    <tag k="removemelater" v="yes"/>
  </node>
  <node id="-1073" lat="51.47482910904537" lon="0.1984899581612558">
    <tag k="addr:postcode" v="DA8 2HG"/>
    <tag k="removemelater" v="yes"/>
  </node>
  <node id="-1074" lat="51.47149984702834" lon="0.18174162667607646">
    <tag k="addr:postcode" v="DA8 2HH"/>
    <tag k="removemelater" v="yes"/>
  </node>
  <node id="-1075" lat="51.47156454433168" lon="0.18502780665809093">
    <tag k="addr:postcode" v="DA8 2HL"/>
    <tag k="removemelater" v="yes"/>
  </node>
  <node id="-1076" lat="51.47339168621917" lon="0.1878367458566815">
    <tag k="addr:postcode" v="DA8 2HN"/>
    <tag k="removemelater" v="yes"/>
  </node>
  <node id="-1077" lat="51.471258787378616" lon="0.18502759508564784">
    <tag k="addr:postcode" v="DA8 2HP"/>
    <tag k="removemelater" v="yes"/>
  </node>
  <node id="-1078" lat="51.47475571558513" lon="0.19760799424418946">
    <tag k="addr:postcode" v="DA8 2HQ"/>
    <tag k="removemelater" v="yes"/>
  </node>
  <node id="-1079" lat="51.47025408130635" lon="0.18585793178355317">
    <tag k="addr:postcode" v="DA8 2HR"/>
    <tag k="removemelater" v="yes"/>
  </node>
  <node id="-1080" lat="51.47050451048955" lon="0.1897864870908687">
    <tag k="addr:postcode" v="DA8 2HS"/>
    <tag k="removemelater" v="yes"/>
  </node>
  <node id="-1081" lat="51.47150013739986" lon="0.1884806130536388">
    <tag k="addr:postcode" v="DA8 2HU"/>
    <tag k="removemelater" v="yes"/>
  </node>
  <node id="-1082" lat="51.475711086004054" lon="0.1960554218127708">
    <tag k="addr:postcode" v="DA8 2HW"/>
    <tag k="removemelater" v="yes"/>
  </node>
  <node id="-1083" lat="51.471572498567674" lon="0.19278954146227867">
    <tag k="addr:postcode" v="DA8 2HX"/>
    <tag k="removemelater" v="yes"/>
  </node>
  <node id="-1084" lat="51.47097659343067" lon="0.18858514964051806">
    <tag k="addr:postcode" v="DA8 2HY"/>
    <tag k="removemelater" v="yes"/>
  </node>
  <node id="-1085" lat="51.4755590426749" lon="0.19840985276183262">
    <tag k="addr:postcode" v="DA8 2HZ"/>
    <tag k="removemelater" v="yes"/>
  </node>
  <node id="-1086" lat="51.47261106991333" lon="0.18774179362384497">
    <tag k="addr:postcode" v="DA8 2JA"/>
    <tag k="removemelater" v="yes"/>
  </node>
  <node id="-1087" lat="51.47097375893321" lon="0.18921858564292235">
    <tag k="addr:postcode" v="DA8 2JB"/>
    <tag k="removemelater" v="yes"/>
  </node>
  <node id="-1088" lat="51.472782534500894" lon="0.19444596580165016">
    <tag k="addr:postcode" v="DA8 2JD"/>
    <tag k="removemelater" v="yes"/>
  </node>
  <node id="-1089" lat="51.47152007707993" lon="0.1898207235990304">
    <tag k="addr:postcode" v="DA8 2JE"/>
    <tag k="removemelater" v="yes"/>
  </node>
  <node id="-1090" lat="51.471502067650604" lon="0.1907846293193726">
    <tag k="addr:postcode" v="DA8 2JF"/>
    <tag k="removemelater" v="yes"/>
  </node>
  <node id="-1091" lat="51.471300693053465" lon="0.19241651998300413">
    <tag k="addr:postcode" v="DA8 2JG"/>
    <tag k="removemelater" v="yes"/>
  </node>
  <node id="-1092" lat="51.47267327068892" lon="0.19403752440076624">
    <tag k="addr:postcode" v="DA8 2JH"/>
    <tag k="removemelater" v="yes"/>
  </node>
  <node id="-1093" lat="51.473615358151044" lon="0.19703477422239288">
    <tag k="addr:postcode" v="DA8 2JJ"/>
    <tag k="removemelater" v="yes"/>
  </node>
  <node id="-1094" lat="51.47396154809886" lon="0.19631699387860654">
    <tag k="addr:postcode" v="DA8 2JL"/>
    <tag k="removemelater" v="yes"/>
  </node>
  <node id="-1095" lat="51.472924867773585" lon="0.1954895959863996">
    <tag k="addr:postcode" v="DA8 2JN"/>
    <tag k="removemelater" v="yes"/>
  </node>
  <node id="-1096" lat="51.47411635478164" lon="0.19717405197771187">
    <tag k="addr:postcode" v="DA8 2JP"/>
    <tag k="removemelater" v="yes"/>
  </node>
  <node id="-1097" lat="51.47127441649234" lon="0.19430158939996217">
    <tag k="addr:postcode" v="DA8 2JQ"/>
    <tag k="removemelater" v="yes"/>
  </node>
  <node id="-1098" lat="51.47363735754359" lon="0.1982598495974855">
    <tag k="addr:postcode" v="DA8 2JR"/>
    <tag k="removemelater" v="yes"/>
  </node>
  <node id="-1099" lat="51.47299971452755" lon="0.19677479091197714">
    <tag k="addr:postcode" v="DA8 2JS"/>
    <tag k="removemelater" v="yes"/>
  </node>
  <node id="-1100" lat="51.47300498911397" lon="0.1988918466284551">
    <tag k="addr:postcode" v="DA8 2JT"/>
    <tag k="removemelater" v="yes"/>
  </node>
  <node id="-1101" lat="51.47238665149324" lon="0.19877571063028765">
    <tag k="addr:postcode" v="DA8 2JU"/>
    <tag k="removemelater" v="yes"/>
  </node>
  <node id="-1102" lat="51.47317823630005" lon="0.1949257597882808">
    <tag k="addr:postcode" v="DA8 2JW"/>
    <tag k="removemelater" v="yes"/>
  </node>
  <node id="-1103" lat="51.47288084422151" lon="0.19591948121437028">
    <tag k="addr:postcode" v="DA8 2JX"/>
    <tag k="removemelater" v="yes"/>
  </node>
  <node id="-1104" lat="51.47795330503291" lon="0.21311380630149748">
    <tag k="addr:postcode" v="DA8 2JZ"/>
    <tag k="removemelater" v="yes"/>
  </node>
  <node id="-1105" lat="51.47616458947669" lon="0.2097293756585671">
    <tag k="addr:postcode" v="DA8 2LB"/>
    <tag k="removemelater" v="yes"/>
  </node>
  <node id="-1106" lat="51.47636394970228" lon="0.21060307797533576">
    <tag k="addr:postcode" v="DA8 2LD"/>
    <tag k="removemelater" v="yes"/>
  </node>
  <node id="-1107" lat="51.47990860397046" lon="0.21100493307883522">
    <tag k="addr:postcode" v="DA8 2LE"/>
    <tag k="removemelater" v="yes"/>
  </node>
  <node id="-1108" lat="51.480651384470406" lon="0.2116745702094268">
    <tag k="addr:postcode" v="DA8 2LF"/>
    <tag k="removemelater" v="yes"/>
  </node>
  <node id="-1109" lat="51.47976001576787" lon="0.21220752859066147">
    <tag k="addr:postcode" v="DA8 2LG"/>
    <tag k="removemelater" v="yes"/>
  </node>
  <node id="-1110" lat="51.4704479326538" lon="0.19233243516353962">
    <tag k="addr:postcode" v="DA8 2LH"/>
    <tag k="removemelater" v="yes"/>
  </node>
  <node id="-1111" lat="51.472896246094024" lon="0.1998946158146838">
    <tag k="addr:postcode" v="DA8 2LL"/>
    <tag k="removemelater" v="yes"/>
  </node>
  <node id="-1112" lat="51.469379101749595" lon="0.19274195544742007">
    <tag k="addr:postcode" v="DA8 2LN"/>
    <tag k="removemelater" v="yes"/>
  </node>
  <node id="-1113" lat="51.47172655548393" lon="0.1965696262963581">
    <tag k="addr:postcode" v="DA8 2LP"/>
    <tag k="removemelater" v="yes"/>
  </node>
  <node id="-1114" lat="51.471225632498985" lon="0.18825148321651877">
    <tag k="addr:postcode" v="DA8 2LQ"/>
    <tag k="removemelater" v="yes"/>
  </node>
  <node id="-1115" lat="51.47201819013391" lon="0.1982828015085262">
    <tag k="addr:postcode" v="DA8 2LR"/>
    <tag k="removemelater" v="yes"/>
  </node>
  <node id="-1116" lat="51.47048983638066" lon="0.193457582786834">
    <tag k="addr:postcode" v="DA8 2LS"/>
    <tag k="removemelater" v="yes"/>
  </node>
  <node id="-1117" lat="51.470778327335175" lon="0.19293864742349073">
    <tag k="addr:postcode" v="DA8 2LT"/>
    <tag k="removemelater" v="yes"/>
  </node>
  <node id="-1118" lat="51.47022580013982" lon="0.1950720191138149">
    <tag k="addr:postcode" v="DA8 2LU"/>
    <tag k="removemelater" v="yes"/>
  </node>
  <node id="-1119" lat="51.47220415825477" lon="0.1893062956887347">
    <tag k="addr:postcode" v="DA8 2LW"/>
    <tag k="removemelater" v="yes"/>
  </node>
  <node id="-1120" lat="51.469752970093694" lon="0.19294707008015832">
    <tag k="addr:postcode" v="DA8 2LX"/>
    <tag k="removemelater" v="yes"/>
  </node>
  <node id="-1121" lat="51.470324730715305" lon="0.1969918574361356">
    <tag k="addr:postcode" v="DA8 2LY"/>
    <tag k="removemelater" v="yes"/>
  </node>
  <node id="-1122" lat="51.46977178216293" lon="0.19434467404725667">
    <tag k="addr:postcode" v="DA8 2LZ"/>
    <tag k="removemelater" v="yes"/>
  </node>
  <node id="-1123" lat="51.468690161201614" lon="0.19351524424621303">
    <tag k="addr:postcode" v="DA8 2NA"/>
    <tag k="removemelater" v="yes"/>
  </node>
  <node id="-1124" lat="51.46837450956211" lon="0.19308254546897272">
    <tag k="addr:postcode" v="DA8 2NB"/>
    <tag k="removemelater" v="yes"/>
  </node>
  <node id="-1125" lat="51.468131777798924" lon="0.19500029990818887">
    <tag k="addr:postcode" v="DA8 2ND"/>
    <tag k="removemelater" v="yes"/>
  </node>
  <node id="-1126" lat="51.463975817489015" lon="0.19746431697060166">
    <tag k="addr:postcode" v="DA8 2NE"/>
    <tag k="removemelater" v="yes"/>
  </node>
  <node id="-1127" lat="51.46814175786171" lon="0.19734773108126588">
    <tag k="addr:postcode" v="DA8 2NF"/>
    <tag k="removemelater" v="yes"/>
  </node>
  <node id="-1128" lat="51.4675659237592" lon="0.1920790830754203">
    <tag k="addr:postcode" v="DA8 2NG"/>
    <tag k="removemelater" v="yes"/>
  </node>
  <node id="-1129" lat="51.47379068331117" lon="0.2001536564161765">
    <tag k="addr:postcode" v="DA8 2NH"/>
    <tag k="removemelater" v="yes"/>
  </node>
  <node id="-1130" lat="51.46482970823979" lon="0.19364683152651502">
    <tag k="addr:postcode" v="DA8 2NJ"/>
    <tag k="removemelater" v="yes"/>
  </node>
  <node id="-1131" lat="51.466797631639125" lon="0.19228702317378238">
    <tag k="addr:postcode" v="DA8 2NL"/>
    <tag k="removemelater" v="yes"/>
  </node>
  <node id="-1132" lat="51.47003279548585" lon="0.19144858777924612">
    <tag k="addr:postcode" v="DA8 2NN"/>
    <tag k="removemelater" v="yes"/>
  </node>
  <node id="-1133" lat="51.4683323326092" lon="0.19197183583341462">
    <tag k="addr:postcode" v="DA8 2NP"/>
    <tag k="removemelater" v="yes"/>
  </node>
  <node id="-1134" lat="51.46732316864372" lon="0.19255698611411834">
    <tag k="addr:postcode" v="DA8 2NQ"/>
    <tag k="removemelater" v="yes"/>
  </node>
  <node id="-1135" lat="51.46889945900321" lon="0.19194142565006223">
    <tag k="addr:postcode" v="DA8 2NR"/>
    <tag k="removemelater" v="yes"/>
  </node>
  <node id="-1136" lat="51.46960517165863" lon="0.19075134459169601">
    <tag k="addr:postcode" v="DA8 2NS"/>
    <tag k="removemelater" v="yes"/>
  </node>
  <node id="-1137" lat="51.469651210058615" lon="0.1897312253342284">
    <tag k="addr:postcode" v="DA8 2NT"/>
    <tag k="removemelater" v="yes"/>
  </node>
  <node id="-1138" lat="51.468347549673815" lon="0.1906766971961175">
    <tag k="addr:postcode" v="DA8 2NU"/>
    <tag k="removemelater" v="yes"/>
  </node>
  <node id="-1139" lat="51.4701605765336" lon="0.1918290884229856">
    <tag k="addr:postcode" v="DA8 2NW"/>
    <tag k="removemelater" v="yes"/>
  </node>
  <node id="-1140" lat="51.46832209301115" lon="0.19011393527075932">
    <tag k="addr:postcode" v="DA8 2NX"/>
    <tag k="removemelater" v="yes"/>
  </node>
  <node id="-1141" lat="51.47382720048104" lon="0.198686585316048">
    <tag k="addr:postcode" v="DA8 2NY"/>
    <tag k="removemelater" v="yes"/>
  </node>
  <node id="-1142" lat="51.469545102124535" lon="0.19492415192031898">
    <tag k="addr:postcode" v="DA8 2PA"/>
    <tag k="removemelater" v="yes"/>
  </node>
  <node id="-1143" lat="51.46868095302509" lon="0.19015991944388366">
    <tag k="addr:postcode" v="DA8 2PB"/>
    <tag k="removemelater" v="yes"/>
  </node>
  <node id="-1144" lat="51.4779193097587" lon="0.18713172869445313">
    <tag k="addr:postcode" v="DA8 2PE"/>
    <tag k="removemelater" v="yes"/>
  </node>
  <node id="-1145" lat="51.47762012227811" lon="0.18726142903814802">
    <tag k="addr:postcode" v="DA8 2PF"/>
    <tag k="removemelater" v="yes"/>
  </node>
  <node id="-1146" lat="51.47642619859581" lon="0.1871467021457533">
    <tag k="addr:postcode" v="DA8 2PG"/>
    <tag k="removemelater" v="yes"/>
  </node>
  <node id="-1147" lat="51.47650546409249" lon="0.186272027536911">
    <tag k="addr:postcode" v="DA8 2PJ"/>
    <tag k="removemelater" v="yes"/>
  </node>
  <node id="-1148" lat="51.47586471000389" lon="0.18687502491841054">
    <tag k="addr:postcode" v="DA8 2PL"/>
    <tag k="removemelater" v="yes"/>
  </node>
  <node id="-1149" lat="51.4769017362517" lon="0.18672301506952493">
    <tag k="addr:postcode" v="DA8 2PN"/>
    <tag k="removemelater" v="yes"/>
  </node>
  <node id="-1150" lat="51.47374341482293" lon="0.18199268696759305">
    <tag k="addr:postcode" v="DA8 2PP"/>
    <tag k="removemelater" v="yes"/>
  </node>
  <node id="-1151" lat="51.477000555178634" lon="0.18769262579462434">
    <tag k="addr:postcode" v="DA8 2PQ"/>
    <tag k="removemelater" v="yes"/>
  </node>
  <node id="-1152" lat="51.4741330077559" lon="0.1828032987233239">
    <tag k="addr:postcode" v="DA8 2PR"/>
    <tag k="removemelater" v="yes"/>
  </node>
  <node id="-1153" lat="51.47443606155587" lon="0.1819825422475888">
    <tag k="addr:postcode" v="DA8 2PS"/>
    <tag k="removemelater" v="yes"/>
  </node>
  <node id="-1154" lat="51.47527800446071" lon="0.18699096764896223">
    <tag k="addr:postcode" v="DA8 2PT"/>
    <tag k="removemelater" v="yes"/>
  </node>
  <node id="-1155" lat="51.474452874576045" lon="0.185425050188418">
    <tag k="addr:postcode" v="DA8 2PU"/>
    <tag k="removemelater" v="yes"/>
  </node>
  <node id="-1156" lat="51.475785708656076" lon="0.18773529809531636">
    <tag k="addr:postcode" v="DA8 2PW"/>
    <tag k="removemelater" v="yes"/>
  </node>
  <node id="-1157" lat="51.47470753619272" lon="0.18478919959458162">
    <tag k="addr:postcode" v="DA8 2PX"/>
    <tag k="removemelater" v="yes"/>
  </node>
  <node id="-1158" lat="51.47101189202726" lon="0.19535454531387292">
    <tag k="addr:postcode" v="DA8 2PY"/>
    <tag k="removemelater" v="yes"/>
  </node>
  <node id="-1159" lat="51.471409298757486" lon="0.19622319678102776">
    <tag k="addr:postcode" v="DA8 2PZ"/>
    <tag k="removemelater" v="yes"/>
  </node>
  <node id="-1160" lat="51.47693294665833" lon="0.1917937427931207">
    <tag k="addr:postcode" v="DA8 2QA"/>
    <tag k="removemelater" v="yes"/>
  </node>
  <node id="-1161" lat="51.470638932399496" lon="0.197021353157681">
    <tag k="addr:postcode" v="DA8 2QB"/>
    <tag k="removemelater" v="yes"/>
  </node>
  <node id="-1162" lat="51.471336604048524" lon="0.19770285239407562">
    <tag k="addr:postcode" v="DA8 2QD"/>
    <tag k="removemelater" v="yes"/>
  </node>
  <node id="-1163" lat="51.47588311090467" lon="0.21034941210179012">
    <tag k="addr:postcode" v="DA8 2SP"/>
    <tag k="removemelater" v="yes"/>
  </node>
  <node id="-1164" lat="51.47645512364237" lon="0.19570233303597936">
    <tag k="addr:postcode" v="DA8 2ZU"/>
    <tag k="removemelater" v="yes"/>
  </node>
  <node id="-1165" lat="51.47338480297347" lon="0.17854834951331533">
    <tag k="addr:postcode" v="DA8 3AQ"/>
    <tag k="removemelater" v="yes"/>
  </node>
  <node id="-1166" lat="51.476926702974424" lon="0.16600087426824806">
    <tag k="addr:postcode" v="DA8 3DB"/>
    <tag k="removemelater" v="yes"/>
  </node>
  <node id="-1167" lat="51.47805105485561" lon="0.16696144401070373">
    <tag k="addr:postcode" v="DA8 3ED"/>
    <tag k="removemelater" v="yes"/>
  </node>
  <node id="-1168" lat="51.47711267593422" lon="0.166643340279817">
    <tag k="addr:postcode" v="DA8 3EE"/>
    <tag k="removemelater" v="yes"/>
  </node>
  <node id="-1169" lat="51.47746644152914" lon="0.16501835242794485">
    <tag k="addr:postcode" v="DA8 3EF"/>
    <tag k="removemelater" v="yes"/>
  </node>
  <node id="-1170" lat="51.47315134878335" lon="0.16347482154492735">
    <tag k="addr:postcode" v="DA8 3EN"/>
    <tag k="removemelater" v="yes"/>
  </node>
  <node id="-1171" lat="51.477991295775844" lon="0.16484158800194515">
    <tag k="addr:postcode" v="DA8 3EP"/>
    <tag k="removemelater" v="yes"/>
  </node>
  <node id="-1172" lat="51.47815877323905" lon="0.16551199129656918">
    <tag k="addr:postcode" v="DA8 3ER"/>
    <tag k="removemelater" v="yes"/>
  </node>
  <node id="-1173" lat="51.47315236771015" lon="0.1639068694272035">
    <tag k="addr:postcode" v="DA8 3EW"/>
    <tag k="removemelater" v="yes"/>
  </node>
  <node id="-1174" lat="51.47342431913716" lon="0.18029264547622062">
    <tag k="addr:postcode" v="DA8 3FE"/>
    <tag k="removemelater" v="yes"/>
  </node>
  <node id="-1175" lat="51.474307725510975" lon="0.1767922782595918">
    <tag k="addr:postcode" v="DA8 3FJ"/>
    <tag k="removemelater" v="yes"/>
  </node>
  <node id="-1176" lat="51.47256083783724" lon="0.16184850262597372">
    <tag k="addr:postcode" v="DA8 3HB"/>
    <tag k="removemelater" v="yes"/>
  </node>
  <node id="-1177" lat="51.469059200499345" lon="0.15861603721719522">
    <tag k="addr:postcode" v="DA8 3LU"/>
    <tag k="removemelater" v="yes"/>
  </node>
  <node id="-1178" lat="51.46915620346943" lon="0.1582318507872864">
    <tag k="addr:postcode" v="DA8 3NH"/>
    <tag k="removemelater" v="yes"/>
  </node>
  <node id="-1179" lat="51.4713976120613" lon="0.1804695949503846">
    <tag k="addr:postcode" v="DA8 3PP"/>
    <tag k="removemelater" v="yes"/>
  </node>
  <node id="-1180" lat="51.47194248526962" lon="0.1806683742851623">
    <tag k="addr:postcode" v="DA8 3PQ"/>
    <tag k="removemelater" v="yes"/>
  </node>
  <node id="-1181" lat="51.47192145572662" lon="0.18131535505053803">
    <tag k="addr:postcode" v="DA8 3PW"/>
    <tag k="removemelater" v="yes"/>
  </node>
  <node id="-1182" lat="51.47027479377432" lon="0.18136639503353066">
    <tag k="addr:postcode" v="DA8 3PY"/>
    <tag k="removemelater" v="yes"/>
  </node>
  <node id="-1183" lat="51.46667330183907" lon="0.18159774947824042">
    <tag k="addr:postcode" v="DA8 3QF"/>
    <tag k="removemelater" v="yes"/>
  </node>
  <node id="-1184" lat="51.475108564754976" lon="0.18112179819678562">
    <tag k="addr:postcode" v="DA8 3RA"/>
    <tag k="removemelater" v="yes"/>
  </node>
  <node id="-1185" lat="51.47450846265046" lon="0.1785730905293573">
    <tag k="addr:postcode" v="DA8 3RD"/>
    <tag k="removemelater" v="yes"/>
  </node>
  <node id="-1186" lat="51.47359249347264" lon="0.1760814186598896">
    <tag k="addr:postcode" v="DA8 3SA"/>
    <tag k="removemelater" v="yes"/>
  </node>
  <node id="-1187" lat="51.47645512364237" lon="0.19570233303597936">
    <tag k="addr:postcode" v="DA8 3WY"/>
    <tag k="removemelater" v="yes"/>
  </node>
  <node id="-1188" lat="51.47645512364237" lon="0.19570233303597936">
    <tag k="addr:postcode" v="DA8 9AA"/>
    <tag k="removemelater" v="yes"/>
  </node>
  <node id="-1189" lat="51.47645512364237" lon="0.19570233303597936">
    <tag k="addr:postcode" v="DA8 9AB"/>
    <tag k="removemelater" v="yes"/>
  </node>
  <node id="-1190" lat="51.47645512364237" lon="0.19570233303597936">
    <tag k="addr:postcode" v="DA8 9BJ"/>
    <tag k="removemelater" v="yes"/>
  </node>
  <node id="-1191" lat="51.47645512364237" lon="0.19570233303597936">
    <tag k="addr:postcode" v="DA8 9BY"/>
    <tag k="removemelater" v="yes"/>
  </node>
  <node id="-1192" lat="51.47645512364237" lon="0.19570233303597936">
    <tag k="addr:postcode" v="DA8 9DE"/>
    <tag k="removemelater" v="yes"/>
  </node>
  <node id="-1193" lat="51.47645512364237" lon="0.19570233303597936">
    <tag k="addr:postcode" v="DA8 9DQ"/>
    <tag k="removemelater" v="yes"/>
  </node>
  <node id="-1194" lat="51.47645512364237" lon="0.19570233303597936">
    <tag k="addr:postcode" v="DA8 9DR"/>
    <tag k="removemelater" v="yes"/>
  </node>
  <node id="-1195" lat="51.47645512364237" lon="0.19570233303597936">
    <tag k="addr:postcode" v="DA8 9DS"/>
    <tag k="removemelater" v="yes"/>
  </node>
  <node id="-1196" lat="51.47645512364237" lon="0.19570233303597936">
    <tag k="addr:postcode" v="DA8 9DW"/>
    <tag k="removemelater" v="yes"/>
  </node>
  <node id="-1197" lat="51.47645512364237" lon="0.19570233303597936">
    <tag k="addr:postcode" v="DA8 9DX"/>
    <tag k="removemelater" v="yes"/>
  </node>
  <node id="-1198" lat="51.47645512364237" lon="0.19570233303597936">
    <tag k="addr:postcode" v="DA8 9EE"/>
    <tag k="removemelater" v="yes"/>
  </node>
  <node id="-1199" lat="51.47645512364237" lon="0.19570233303597936">
    <tag k="addr:postcode" v="DA8 9EF"/>
    <tag k="removemelater" v="yes"/>
  </node>
  <node id="-1200" lat="51.47645512364237" lon="0.19570233303597936">
    <tag k="addr:postcode" v="DA8 9EH"/>
    <tag k="removemelater" v="yes"/>
  </node>
  <node id="-1201" lat="51.47645512364237" lon="0.19570233303597936">
    <tag k="addr:postcode" v="DA8 9EL"/>
    <tag k="removemelater" v="yes"/>
  </node>
  <node id="-1202" lat="51.47645512364237" lon="0.19570233303597936">
    <tag k="addr:postcode" v="DA8 9EU"/>
    <tag k="removemelater" v="yes"/>
  </node>
  <node id="-1203" lat="51.47645512364237" lon="0.19570233303597936">
    <tag k="addr:postcode" v="DA8 9EW"/>
    <tag k="removemelater" v="yes"/>
  </node>
  <node id="-1204" lat="51.47645512364237" lon="0.19570233303597936">
    <tag k="addr:postcode" v="DA8 9EY"/>
    <tag k="removemelater" v="yes"/>
  </node>
  <node id="-1205" lat="51.47645512364237" lon="0.19570233303597936">
    <tag k="addr:postcode" v="DA8 9EZ"/>
    <tag k="removemelater" v="yes"/>
  </node>
  <node id="-1206" lat="51.47645512364237" lon="0.19570233303597936">
    <tag k="addr:postcode" v="DA8 9FD"/>
    <tag k="removemelater" v="yes"/>
  </node>
  <node id="-1207" lat="51.47645512364237" lon="0.19570233303597936">
    <tag k="addr:postcode" v="DA8 9FG"/>
    <tag k="removemelater" v="yes"/>
  </node>
  <node id="-1208" lat="51.47645512364237" lon="0.19570233303597936">
    <tag k="addr:postcode" v="DA8 9FL"/>
    <tag k="removemelater" v="yes"/>
  </node>
  <node id="-1209" lat="51.47645512364237" lon="0.19570233303597936">
    <tag k="addr:postcode" v="DA8 9FN"/>
    <tag k="removemelater" v="yes"/>
  </node>
  <node id="-1210" lat="51.47645512364237" lon="0.19570233303597936">
    <tag k="addr:postcode" v="DA8 9FP"/>
    <tag k="removemelater" v="yes"/>
  </node>
  <node id="-1211" lat="51.47645512364237" lon="0.19570233303597936">
    <tag k="addr:postcode" v="DA8 9FQ"/>
    <tag k="removemelater" v="yes"/>
  </node>
  <node id="-1212" lat="51.47645512364237" lon="0.19570233303597936">
    <tag k="addr:postcode" v="DA8 9FU"/>
    <tag k="removemelater" v="yes"/>
  </node>
  <node id="-1213" lat="51.47645512364237" lon="0.19570233303597936">
    <tag k="addr:postcode" v="DA8 9FX"/>
    <tag k="removemelater" v="yes"/>
  </node>
  <node id="-1214" lat="51.47645512364237" lon="0.19570233303597936">
    <tag k="addr:postcode" v="DA8 9GN"/>
    <tag k="removemelater" v="yes"/>
  </node>
  <node id="-1215" lat="51.47645512364237" lon="0.19570233303597936">
    <tag k="addr:postcode" v="DA8 9GS"/>
    <tag k="removemelater" v="yes"/>
  </node>
  <node id="-1216" lat="51.47645512364237" lon="0.19570233303597936">
    <tag k="addr:postcode" v="DA8 9GT"/>
    <tag k="removemelater" v="yes"/>
  </node>
  <node id="-1217" lat="51.47645512364237" lon="0.19570233303597936">
    <tag k="addr:postcode" v="DA8 9GU"/>
    <tag k="removemelater" v="yes"/>
  </node>
  <node id="-1218" lat="51.47645512364237" lon="0.19570233303597936">
    <tag k="addr:postcode" v="DA8 9GW"/>
    <tag k="removemelater" v="yes"/>
  </node>
  <node id="-1219" lat="51.47645512364237" lon="0.19570233303597936">
    <tag k="addr:postcode" v="DA8 9GX"/>
    <tag k="removemelater" v="yes"/>
  </node>
  <node id="-1220" lat="51.451333420139065" lon="0.2644622668639866">
    <tag k="addr:postcode" v="DA9 9AW"/>
    <tag k="removemelater" v="yes"/>
  </node>
  <node id="-1221" lat="51.45086385522055" lon="0.2613013144732343">
    <tag k="addr:postcode" v="DA9 9AX"/>
    <tag k="removemelater" v="yes"/>
  </node>
  <node id="-1222" lat="51.45083973470632" lon="0.26022063462064426">
    <tag k="addr:postcode" v="DA9 9BF"/>
    <tag k="removemelater" v="yes"/>
  </node>
  <node id="-1223" lat="51.442195161078295" lon="0.2608010624427134">
    <tag k="addr:postcode" v="DA9 9DS"/>
    <tag k="removemelater" v="yes"/>
  </node>
  <node id="-1224" lat="51.44235588226166" lon="0.26132705914314397">
    <tag k="addr:postcode" v="DA9 9EF"/>
    <tag k="removemelater" v="yes"/>
  </node>
  <node id="-1225" lat="51.44830590112969" lon="0.28883711183194516">
    <tag k="addr:postcode" v="DA9 9HB"/>
    <tag k="removemelater" v="yes"/>
  </node>
  <node id="-1226" lat="51.444297417273795" lon="0.2702159630750219">
    <tag k="addr:postcode" v="DA9 9LD"/>
    <tag k="removemelater" v="yes"/>
  </node>
  <node id="-1227" lat="51.45126228675575" lon="0.2857320966894382">
    <tag k="addr:postcode" v="DA9 9NX"/>
    <tag k="removemelater" v="yes"/>
  </node>
  <node id="-1228" lat="51.45054215536485" lon="0.28022673497852607">
    <tag k="addr:postcode" v="DA9 9RE"/>
    <tag k="removemelater" v="yes"/>
  </node>
  <node id="-1229" lat="51.440440776654654" lon="0.2715356236269824">
    <tag k="addr:postcode" v="DA9 9SA"/>
    <tag k="removemelater" v="yes"/>
  </node>
  <node id="-1230" lat="51.4389802342042" lon="0.2680096766913857">
    <tag k="addr:postcode" v="DA9 9SB"/>
    <tag k="removemelater" v="yes"/>
  </node>
  <node id="-1231" lat="51.43827081518446" lon="0.27398923029703726">
    <tag k="addr:postcode" v="DA9 9SD"/>
    <tag k="removemelater" v="yes"/>
  </node>
  <node id="-1232" lat="51.43919163413868" lon="0.2733442757250253">
    <tag k="addr:postcode" v="DA9 9SF"/>
    <tag k="removemelater" v="yes"/>
  </node>
  <node id="-1233" lat="51.43922939776547" lon="0.27232449356512006">
    <tag k="addr:postcode" v="DA9 9SH"/>
    <tag k="removemelater" v="yes"/>
  </node>
  <node id="-1234" lat="51.4380864931123" lon="0.2709727347881111">
    <tag k="addr:postcode" v="DA9 9SJ"/>
    <tag k="removemelater" v="yes"/>
  </node>
  <node id="-1235" lat="51.43823860119" lon="0.2705486039064343">
    <tag k="addr:postcode" v="DA9 9SL"/>
    <tag k="removemelater" v="yes"/>
  </node>
  <node id="-1236" lat="51.43953285252334" lon="0.2701235534411108">
    <tag k="addr:postcode" v="DA9 9SN"/>
    <tag k="removemelater" v="yes"/>
  </node>
  <node id="-1237" lat="51.43925495750688" lon="0.27239771011711894">
    <tag k="addr:postcode" v="DA9 9SP"/>
    <tag k="removemelater" v="yes"/>
  </node>
  <node id="-1238" lat="51.43800047581571" lon="0.2703065665747756">
    <tag k="addr:postcode" v="DA9 9SQ"/>
    <tag k="removemelater" v="yes"/>
  </node>
  <node id="-1239" lat="51.438263675758044" lon="0.271111027786133">
    <tag k="addr:postcode" v="DA9 9SR"/>
    <tag k="removemelater" v="yes"/>
  </node>
  <node id="-1240" lat="51.439596857840236" lon="0.2700691690410079">
    <tag k="addr:postcode" v="DA9 9SS"/>
    <tag k="removemelater" v="yes"/>
  </node>
  <node id="-1241" lat="51.43942600512625" lon="0.2728522790831244">
    <tag k="addr:postcode" v="DA9 9ST"/>
    <tag k="removemelater" v="yes"/>
  </node>
  <node id="-1242" lat="51.44286120304713" lon="0.26635997709102693">
    <tag k="addr:postcode" v="DA9 9SU"/>
    <tag k="removemelater" v="yes"/>
  </node>
  <node id="-1243" lat="51.437976169859226" lon="0.27526961767732055">
    <tag k="addr:postcode" v="DA9 9SX"/>
    <tag k="removemelater" v="yes"/>
  </node>
  <node id="-1244" lat="51.45472825954978" lon="0.29199411344645976">
    <tag k="addr:postcode" v="DA9 9TD"/>
    <tag k="removemelater" v="yes"/>
  </node>
  <node id="-1245" lat="51.45199213717342" lon="0.2782695016902693">
    <tag k="addr:postcode" v="DA9 9UE"/>
    <tag k="removemelater" v="yes"/>
  </node>
  <node id="-1246" lat="51.45212537762411" lon="0.2889706006600151">
    <tag k="addr:postcode" v="DA9 9UR"/>
    <tag k="removemelater" v="yes"/>
  </node>
  <node id="-1247" lat="51.45119126302446" lon="0.28614595547358784">
    <tag k="addr:postcode" v="DA9 9XG"/>
    <tag k="removemelater" v="yes"/>
  </node>
  <node id="-1248" lat="51.45175532292897" lon="0.28673548588391284">
    <tag k="addr:postcode" v="DA9 9XJ"/>
    <tag k="removemelater" v="yes"/>
  </node>
  <node id="-1249" lat="51.4433513485532" lon="0.2777242288128922">
    <tag k="addr:postcode" v="DA9 9XL"/>
    <tag k="removemelater" v="yes"/>
  </node>
  <node id="-1250" lat="51.45527423836859" lon="0.2944253714168079">
    <tag k="addr:postcode" v="DA9 9XN"/>
    <tag k="removemelater" v="yes"/>
  </node>
  <node id="-1251" lat="51.44470008680806" lon="0.20962023319737275">
    <tag k="addr:postcode" v="DA9 9ZG"/>
    <tag k="removemelater" v="yes"/>
  </node>
</osm>
