<?xml version="1.0" encoding="UTF-8"?><osm version="0.6" generator="import_postcodes.py" upload="false">
  <node id="-1" lat="55.0708572523966" lon="-3.6157624886197226">
    <tag k="addr:postcode" v="DG1 1EG"/>
    <tag k="removemelater" v="yes"/>
  </node>
  <node id="-2" lat="55.07407565350752" lon="-3.6075437348991417">
    <tag k="addr:postcode" v="DG1 1JQ"/>
    <tag k="removemelater" v="yes"/>
  </node>
  <node id="-3" lat="55.0801281374597" lon="-3.6010973389208845">
    <tag k="addr:postcode" v="DG1 1JX"/>
    <tag k="removemelater" v="yes"/>
  </node>
  <node id="-4" lat="55.072530557969806" lon="-3.604082982396611">
    <tag k="addr:postcode" v="DG1 1LU"/>
    <tag k="removemelater" v="yes"/>
  </node>
  <node id="-5" lat="55.07611741137807" lon="-3.5992297298552884">
    <tag k="addr:postcode" v="DG1 1NP"/>
    <tag k="removemelater" v="yes"/>
  </node>
  <node id="-6" lat="55.074564429360166" lon="-3.6072813980028573">
    <tag k="addr:postcode" v="DG1 1NW"/>
    <tag k="removemelater" v="yes"/>
  </node>
  <node id="-7" lat="55.07600076041936" lon="-3.5951054604500357">
    <tag k="addr:postcode" v="DG1 1PW"/>
    <tag k="removemelater" v="yes"/>
  </node>
  <node id="-8" lat="55.1062309847046" lon="-3.5794583624218106">
    <tag k="addr:postcode" v="DG1 1QE"/>
    <tag k="removemelater" v="yes"/>
  </node>
  <node id="-9" lat="55.11615712263564" lon="-3.5874233696951157">
    <tag k="addr:postcode" v="DG1 1QX"/>
    <tag k="removemelater" v="yes"/>
  </node>
  <node id="-10" lat="55.18629302368785" lon="-3.597028557317738">
    <tag k="addr:postcode" v="DG1 1RH"/>
    <tag k="removemelater" v="yes"/>
  </node>
  <node id="-11" lat="55.185806599857216" lon="-3.5964279352592152">
    <tag k="addr:postcode" v="DG1 1RQ"/>
    <tag k="removemelater" v="yes"/>
  </node>
  <node id="-12" lat="55.098286280143824" lon="-3.582922082940666">
    <tag k="addr:postcode" v="DG1 1UF"/>
    <tag k="removemelater" v="yes"/>
  </node>
  <node id="-13" lat="55.06977068312376" lon="-3.6143404758959745">
    <tag k="addr:postcode" v="DG1 2AH"/>
    <tag k="removemelater" v="yes"/>
  </node>
  <node id="-14" lat="55.06940411742795" lon="-3.614873862966919">
    <tag k="addr:postcode" v="DG1 2AN"/>
    <tag k="removemelater" v="yes"/>
  </node>
  <node id="-15" lat="55.06963220915101" lon="-3.6146168061924002">
    <tag k="addr:postcode" v="DG1 2AP"/>
    <tag k="removemelater" v="yes"/>
  </node>
  <node id="-16" lat="55.06988403108201" lon="-3.606451605183331">
    <tag k="addr:postcode" v="DG1 2DD"/>
    <tag k="removemelater" v="yes"/>
  </node>
  <node id="-17" lat="55.06957222502568" lon="-3.6055620688221506">
    <tag k="addr:postcode" v="DG1 2DF"/>
    <tag k="removemelater" v="yes"/>
  </node>
  <node id="-18" lat="55.06975101335618" lon="-3.6029067730232147">
    <tag k="addr:postcode" v="DG1 2DP"/>
    <tag k="removemelater" v="yes"/>
  </node>
  <node id="-19" lat="55.068876639705614" lon="-3.604469250141255">
    <tag k="addr:postcode" v="DG1 2HT"/>
    <tag k="removemelater" v="yes"/>
  </node>
  <node id="-20" lat="55.06637625858016" lon="-3.6093804465410857">
    <tag k="addr:postcode" v="DG1 2PN"/>
    <tag k="removemelater" v="yes"/>
  </node>
  <node id="-21" lat="55.06136465389829" lon="-3.6036832565427024">
    <tag k="addr:postcode" v="DG1 2RZ"/>
    <tag k="removemelater" v="yes"/>
  </node>
  <node id="-22" lat="55.06243799213421" lon="-3.6027083717483426">
    <tag k="addr:postcode" v="DG1 2SA"/>
    <tag k="removemelater" v="yes"/>
  </node>
  <node id="-23" lat="55.06288081544696" lon="-3.602522507095579">
    <tag k="addr:postcode" v="DG1 2SD"/>
    <tag k="removemelater" v="yes"/>
  </node>
  <node id="-24" lat="55.07073405670429" lon="-3.600596799222059">
    <tag k="addr:postcode" v="DG1 3AW"/>
    <tag k="removemelater" v="yes"/>
  </node>
  <node id="-25" lat="55.073598109900686" lon="-3.595338763054716">
    <tag k="addr:postcode" v="DG1 3BA"/>
    <tag k="removemelater" v="yes"/>
  </node>
  <node id="-26" lat="55.1026894866338" lon="-3.5808860821820336">
    <tag k="addr:postcode" v="DG1 3NU"/>
    <tag k="removemelater" v="yes"/>
  </node>
  <node id="-27" lat="55.10328806519224" lon="-3.5811605106410114">
    <tag k="addr:postcode" v="DG1 3NX"/>
    <tag k="removemelater" v="yes"/>
  </node>
  <node id="-28" lat="55.104377322162875" lon="-3.579636030827031">
    <tag k="addr:postcode" v="DG1 3NY"/>
    <tag k="removemelater" v="yes"/>
  </node>
  <node id="-29" lat="55.09652274755417" lon="-3.5733708692004167">
    <tag k="addr:postcode" v="DG1 3TL"/>
    <tag k="removemelater" v="yes"/>
  </node>
  <node id="-30" lat="55.05630039711754" lon="-3.5992379099324143">
    <tag k="addr:postcode" v="DG1 4AP"/>
    <tag k="removemelater" v="yes"/>
  </node>
  <node id="-31" lat="55.063914091483284" lon="-3.5867636671898597">
    <tag k="addr:postcode" v="DG1 4EJ"/>
    <tag k="removemelater" v="yes"/>
  </node>
  <node id="-32" lat="55.05630039711754" lon="-3.5992379099324143">
    <tag k="addr:postcode" v="DG1 4GG"/>
    <tag k="removemelater" v="yes"/>
  </node>
  <node id="-33" lat="55.05055711387818" lon="-3.5910410583851218">
    <tag k="addr:postcode" v="DG1 4GW"/>
    <tag k="removemelater" v="yes"/>
  </node>
  <node id="-34" lat="55.04252374846385" lon="-3.474641295412687">
    <tag k="addr:postcode" v="DG1 4LT"/>
    <tag k="removemelater" v="yes"/>
  </node>
  <node id="-35" lat="55.00281929888201" lon="-3.570778969597959">
    <tag k="addr:postcode" v="DG1 4QX"/>
    <tag k="removemelater" v="yes"/>
  </node>
  <node id="-36" lat="55.001833412219476" lon="-3.5719599612305597">
    <tag k="addr:postcode" v="DG1 4QZ"/>
    <tag k="removemelater" v="yes"/>
  </node>
  <node id="-37" lat="55.00092402459731" lon="-3.5727842943421186">
    <tag k="addr:postcode" v="DG1 4RA"/>
    <tag k="removemelater" v="yes"/>
  </node>
  <node id="-38" lat="55.001192586217776" lon="-3.5735609045549994">
    <tag k="addr:postcode" v="DG1 4RB"/>
    <tag k="removemelater" v="yes"/>
  </node>
  <node id="-39" lat="55.002192907125036" lon="-3.573349910583685">
    <tag k="addr:postcode" v="DG1 4RE"/>
    <tag k="removemelater" v="yes"/>
  </node>
  <node id="-40" lat="55.000323482122255" lon="-3.573354898883238">
    <tag k="addr:postcode" v="DG1 4RF"/>
    <tag k="removemelater" v="yes"/>
  </node>
  <node id="-41" lat="54.97958187196687" lon="-3.544525560915707">
    <tag k="addr:postcode" v="DG1 4RQ"/>
    <tag k="removemelater" v="yes"/>
  </node>
  <node id="-42" lat="54.97570884140203" lon="-3.5238303820595647">
    <tag k="addr:postcode" v="DG1 4RU"/>
    <tag k="removemelater" v="yes"/>
  </node>
  <node id="-43" lat="55.053567044378866" lon="-3.596592789814743">
    <tag k="addr:postcode" v="DG1 4SG"/>
    <tag k="removemelater" v="yes"/>
  </node>
  <node id="-44" lat="55.0463483462721" lon="-3.605618673665431">
    <tag k="addr:postcode" v="DG1 4SU"/>
    <tag k="removemelater" v="yes"/>
  </node>
  <node id="-45" lat="55.04876072909339" lon="-3.593020394666805">
    <tag k="addr:postcode" v="DG1 4TA"/>
    <tag k="removemelater" v="yes"/>
  </node>
  <node id="-46" lat="55.053566839117856" lon="-3.596608436813948">
    <tag k="addr:postcode" v="DG1 4TG"/>
    <tag k="removemelater" v="yes"/>
  </node>
  <node id="-47" lat="55.04709364994705" lon="-3.592672453706772">
    <tag k="addr:postcode" v="DG1 4TT"/>
    <tag k="removemelater" v="yes"/>
  </node>
  <node id="-48" lat="55.05232050196347" lon="-3.5929582523294874">
    <tag k="addr:postcode" v="DG1 4UQ"/>
    <tag k="removemelater" v="yes"/>
  </node>
  <node id="-49" lat="55.050548131267156" lon="-3.5910407021198867">
    <tag k="addr:postcode" v="DG1 4ZE"/>
    <tag k="removemelater" v="yes"/>
  </node>
  <node id="-50" lat="55.04686814694313" lon="-3.5872320712369645">
    <tag k="addr:postcode" v="DG1 4ZJ"/>
    <tag k="removemelater" v="yes"/>
  </node>
  <node id="-51" lat="55.04809264089651" lon="-3.5891275709120056">
    <tag k="addr:postcode" v="DG1 4ZL"/>
    <tag k="removemelater" v="yes"/>
  </node>
  <node id="-52" lat="55.049483517150755" lon="-3.589292241235008">
    <tag k="addr:postcode" v="DG1 4ZN"/>
    <tag k="removemelater" v="yes"/>
  </node>
  <node id="-53" lat="55.050548131267156" lon="-3.5910407021198867">
    <tag k="addr:postcode" v="DG1 4ZS"/>
    <tag k="removemelater" v="yes"/>
  </node>
  <node id="-54" lat="55.04728062147242" lon="-3.596921760842783">
    <tag k="addr:postcode" v="DG1 4ZW"/>
    <tag k="removemelater" v="yes"/>
  </node>
  <node id="-55" lat="55.04944890784401" lon="-3.5933138321147817">
    <tag k="addr:postcode" v="DG1 4ZZ"/>
    <tag k="removemelater" v="yes"/>
  </node>
  <node id="-56" lat="55.06978924775062" lon="-3.606823683518591">
    <tag k="addr:postcode" v="DG1 9SA"/>
    <tag k="removemelater" v="yes"/>
  </node>
  <node id="-57" lat="55.06978924775062" lon="-3.606823683518591">
    <tag k="addr:postcode" v="DG1 9SB"/>
    <tag k="removemelater" v="yes"/>
  </node>
  <node id="-58" lat="55.06978924775062" lon="-3.606823683518591">
    <tag k="addr:postcode" v="DG1 9SD"/>
    <tag k="removemelater" v="yes"/>
  </node>
  <node id="-59" lat="55.06978924775062" lon="-3.606823683518591">
    <tag k="addr:postcode" v="DG1 9SE"/>
    <tag k="removemelater" v="yes"/>
  </node>
  <node id="-60" lat="55.06978924775062" lon="-3.606823683518591">
    <tag k="addr:postcode" v="DG1 9SF"/>
    <tag k="removemelater" v="yes"/>
  </node>
  <node id="-61" lat="55.06978924775062" lon="-3.606823683518591">
    <tag k="addr:postcode" v="DG1 9SG"/>
    <tag k="removemelater" v="yes"/>
  </node>
  <node id="-62" lat="55.06978924775062" lon="-3.606823683518591">
    <tag k="addr:postcode" v="DG1 9SH"/>
    <tag k="removemelater" v="yes"/>
  </node>
  <node id="-63" lat="55.06978924775062" lon="-3.606823683518591">
    <tag k="addr:postcode" v="DG1 9SJ"/>
    <tag k="removemelater" v="yes"/>
  </node>
  <node id="-64" lat="55.06978924775062" lon="-3.606823683518591">
    <tag k="addr:postcode" v="DG1 9SL"/>
    <tag k="removemelater" v="yes"/>
  </node>
  <node id="-65" lat="55.06978924775062" lon="-3.606823683518591">
    <tag k="addr:postcode" v="DG1 9SN"/>
    <tag k="removemelater" v="yes"/>
  </node>
  <node id="-66" lat="55.06978924775062" lon="-3.606823683518591">
    <tag k="addr:postcode" v="DG1 9SP"/>
    <tag k="removemelater" v="yes"/>
  </node>
  <node id="-67" lat="55.06978924775062" lon="-3.606823683518591">
    <tag k="addr:postcode" v="DG1 9SQ"/>
    <tag k="removemelater" v="yes"/>
  </node>
  <node id="-68" lat="55.06978924775062" lon="-3.606823683518591">
    <tag k="addr:postcode" v="DG1 9SR"/>
    <tag k="removemelater" v="yes"/>
  </node>
  <node id="-69" lat="55.06978924775062" lon="-3.606823683518591">
    <tag k="addr:postcode" v="DG1 9SS"/>
    <tag k="removemelater" v="yes"/>
  </node>
  <node id="-70" lat="55.06978924775062" lon="-3.606823683518591">
    <tag k="addr:postcode" v="DG1 9ST"/>
    <tag k="removemelater" v="yes"/>
  </node>
  <node id="-71" lat="55.06978924775062" lon="-3.606823683518591">
    <tag k="addr:postcode" v="DG1 9SU"/>
    <tag k="removemelater" v="yes"/>
  </node>
  <node id="-72" lat="55.06978924775062" lon="-3.606823683518591">
    <tag k="addr:postcode" v="DG1 9SW"/>
    <tag k="removemelater" v="yes"/>
  </node>
  <node id="-73" lat="55.06978924775062" lon="-3.606823683518591">
    <tag k="addr:postcode" v="DG1 9SX"/>
    <tag k="removemelater" v="yes"/>
  </node>
  <node id="-74" lat="55.06978924775062" lon="-3.606823683518591">
    <tag k="addr:postcode" v="DG1 9SY"/>
    <tag k="removemelater" v="yes"/>
  </node>
  <node id="-75" lat="55.06978924775062" lon="-3.606823683518591">
    <tag k="addr:postcode" v="DG1 9SZ"/>
    <tag k="removemelater" v="yes"/>
  </node>
  <node id="-76" lat="55.06978924775062" lon="-3.606823683518591">
    <tag k="addr:postcode" v="DG1 9TA"/>
    <tag k="removemelater" v="yes"/>
  </node>
  <node id="-77" lat="55.06978924775062" lon="-3.606823683518591">
    <tag k="addr:postcode" v="DG1 9TB"/>
    <tag k="removemelater" v="yes"/>
  </node>
  <node id="-78" lat="55.06978924775062" lon="-3.606823683518591">
    <tag k="addr:postcode" v="DG1 9TD"/>
    <tag k="removemelater" v="yes"/>
  </node>
  <node id="-79" lat="55.06978924775062" lon="-3.606823683518591">
    <tag k="addr:postcode" v="DG1 9TE"/>
    <tag k="removemelater" v="yes"/>
  </node>
  <node id="-80" lat="55.06978924775062" lon="-3.606823683518591">
    <tag k="addr:postcode" v="DG1 9TF"/>
    <tag k="removemelater" v="yes"/>
  </node>
  <node id="-81" lat="55.06978924775062" lon="-3.606823683518591">
    <tag k="addr:postcode" v="DG1 9TG"/>
    <tag k="removemelater" v="yes"/>
  </node>
  <node id="-82" lat="55.06978924775062" lon="-3.606823683518591">
    <tag k="addr:postcode" v="DG1 9TH"/>
    <tag k="removemelater" v="yes"/>
  </node>
  <node id="-83" lat="55.06978924775062" lon="-3.606823683518591">
    <tag k="addr:postcode" v="DG1 9TJ"/>
    <tag k="removemelater" v="yes"/>
  </node>
  <node id="-84" lat="55.06978924775062" lon="-3.606823683518591">
    <tag k="addr:postcode" v="DG1 9TL"/>
    <tag k="removemelater" v="yes"/>
  </node>
  <node id="-85" lat="55.06978924775062" lon="-3.606823683518591">
    <tag k="addr:postcode" v="DG1 9TN"/>
    <tag k="removemelater" v="yes"/>
  </node>
  <node id="-86" lat="55.06978924775062" lon="-3.606823683518591">
    <tag k="addr:postcode" v="DG1 9TP"/>
    <tag k="removemelater" v="yes"/>
  </node>
  <node id="-87" lat="55.06978924775062" lon="-3.606823683518591">
    <tag k="addr:postcode" v="DG1 9TQ"/>
    <tag k="removemelater" v="yes"/>
  </node>
  <node id="-88" lat="55.06978924775062" lon="-3.606823683518591">
    <tag k="addr:postcode" v="DG1 9TR"/>
    <tag k="removemelater" v="yes"/>
  </node>
  <node id="-89" lat="55.06978924775062" lon="-3.606823683518591">
    <tag k="addr:postcode" v="DG1 9TS"/>
    <tag k="removemelater" v="yes"/>
  </node>
  <node id="-90" lat="55.06978924775062" lon="-3.606823683518591">
    <tag k="addr:postcode" v="DG1 9TT"/>
    <tag k="removemelater" v="yes"/>
  </node>
  <node id="-91" lat="55.06978924775062" lon="-3.606823683518591">
    <tag k="addr:postcode" v="DG1 9TU"/>
    <tag k="removemelater" v="yes"/>
  </node>
  <node id="-92" lat="55.06978924775062" lon="-3.606823683518591">
    <tag k="addr:postcode" v="DG1 9TW"/>
    <tag k="removemelater" v="yes"/>
  </node>
  <node id="-93" lat="55.06978924775062" lon="-3.606823683518591">
    <tag k="addr:postcode" v="DG1 9TX"/>
    <tag k="removemelater" v="yes"/>
  </node>
  <node id="-94" lat="55.06978924775062" lon="-3.606823683518591">
    <tag k="addr:postcode" v="DG1 9TY"/>
    <tag k="removemelater" v="yes"/>
  </node>
  <node id="-95" lat="55.06978924775062" lon="-3.606823683518591">
    <tag k="addr:postcode" v="DG1 9TZ"/>
    <tag k="removemelater" v="yes"/>
  </node>
  <node id="-96" lat="55.06978924775062" lon="-3.606823683518591">
    <tag k="addr:postcode" v="DG1 9UA"/>
    <tag k="removemelater" v="yes"/>
  </node>
  <node id="-97" lat="55.06978924775062" lon="-3.606823683518591">
    <tag k="addr:postcode" v="DG1 9UB"/>
    <tag k="removemelater" v="yes"/>
  </node>
  <node id="-98" lat="55.06978924775062" lon="-3.606823683518591">
    <tag k="addr:postcode" v="DG1 9UD"/>
    <tag k="removemelater" v="yes"/>
  </node>
  <node id="-99" lat="55.06978924775062" lon="-3.606823683518591">
    <tag k="addr:postcode" v="DG1 9UE"/>
    <tag k="removemelater" v="yes"/>
  </node>
  <node id="-100" lat="55.06978924775062" lon="-3.606823683518591">
    <tag k="addr:postcode" v="DG1 9UF"/>
    <tag k="removemelater" v="yes"/>
  </node>
  <node id="-101" lat="55.06978924775062" lon="-3.606823683518591">
    <tag k="addr:postcode" v="DG1 9UG"/>
    <tag k="removemelater" v="yes"/>
  </node>
  <node id="-102" lat="55.06978924775062" lon="-3.606823683518591">
    <tag k="addr:postcode" v="DG1 9UH"/>
    <tag k="removemelater" v="yes"/>
  </node>
  <node id="-103" lat="55.06978924775062" lon="-3.606823683518591">
    <tag k="addr:postcode" v="DG1 9UJ"/>
    <tag k="removemelater" v="yes"/>
  </node>
  <node id="-104" lat="55.06978924775062" lon="-3.606823683518591">
    <tag k="addr:postcode" v="DG1 9UL"/>
    <tag k="removemelater" v="yes"/>
  </node>
  <node id="-105" lat="55.06978924775062" lon="-3.606823683518591">
    <tag k="addr:postcode" v="DG1 9UN"/>
    <tag k="removemelater" v="yes"/>
  </node>
  <node id="-106" lat="55.06978924775062" lon="-3.606823683518591">
    <tag k="addr:postcode" v="DG1 9UP"/>
    <tag k="removemelater" v="yes"/>
  </node>
  <node id="-107" lat="55.06978924775062" lon="-3.606823683518591">
    <tag k="addr:postcode" v="DG1 9UQ"/>
    <tag k="removemelater" v="yes"/>
  </node>
  <node id="-108" lat="55.06978924775062" lon="-3.606823683518591">
    <tag k="addr:postcode" v="DG1 9UR"/>
    <tag k="removemelater" v="yes"/>
  </node>
  <node id="-109" lat="55.06978924775062" lon="-3.606823683518591">
    <tag k="addr:postcode" v="DG1 9US"/>
    <tag k="removemelater" v="yes"/>
  </node>
  <node id="-110" lat="55.06978924775062" lon="-3.606823683518591">
    <tag k="addr:postcode" v="DG1 9UT"/>
    <tag k="removemelater" v="yes"/>
  </node>
  <node id="-111" lat="55.06978924775062" lon="-3.606823683518591">
    <tag k="addr:postcode" v="DG1 9UU"/>
    <tag k="removemelater" v="yes"/>
  </node>
  <node id="-112" lat="55.06978924775062" lon="-3.606823683518591">
    <tag k="addr:postcode" v="DG1 9UW"/>
    <tag k="removemelater" v="yes"/>
  </node>
  <node id="-113" lat="55.06978924775062" lon="-3.606823683518591">
    <tag k="addr:postcode" v="DG1 9UX"/>
    <tag k="removemelater" v="yes"/>
  </node>
  <node id="-114" lat="55.06978924775062" lon="-3.606823683518591">
    <tag k="addr:postcode" v="DG1 9UY"/>
    <tag k="removemelater" v="yes"/>
  </node>
  <node id="-115" lat="55.06978924775062" lon="-3.606823683518591">
    <tag k="addr:postcode" v="DG1 9UZ"/>
    <tag k="removemelater" v="yes"/>
  </node>
  <node id="-116" lat="55.334576919214456" lon="-3.444844367486856">
    <tag k="addr:postcode" v="DG10 9AA"/>
    <tag k="removemelater" v="yes"/>
  </node>
  <node id="-117" lat="55.33425801106803" lon="-3.4444543919201878">
    <tag k="addr:postcode" v="DG10 9AB"/>
    <tag k="removemelater" v="yes"/>
  </node>
  <node id="-118" lat="55.33405867206876" lon="-3.443832294243772">
    <tag k="addr:postcode" v="DG10 9AD"/>
    <tag k="removemelater" v="yes"/>
  </node>
  <node id="-119" lat="55.333688842724754" lon="-3.443188239134105">
    <tag k="addr:postcode" v="DG10 9AE"/>
    <tag k="removemelater" v="yes"/>
  </node>
  <node id="-120" lat="55.33457315438184" lon="-3.444402798399813">
    <tag k="addr:postcode" v="DG10 9AG"/>
    <tag k="removemelater" v="yes"/>
  </node>
  <node id="-121" lat="55.334672808345395" lon="-3.442814112539633">
    <tag k="addr:postcode" v="DG10 9AH"/>
    <tag k="removemelater" v="yes"/>
  </node>
  <node id="-122" lat="55.33625101371947" lon="-3.440821890341665">
    <tag k="addr:postcode" v="DG10 9AL"/>
    <tag k="removemelater" v="yes"/>
  </node>
  <node id="-123" lat="55.33523217648489" lon="-3.440343467373184">
    <tag k="addr:postcode" v="DG10 9AN"/>
    <tag k="removemelater" v="yes"/>
  </node>
  <node id="-124" lat="55.33441392975986" lon="-3.4419060769606307">
    <tag k="addr:postcode" v="DG10 9AP"/>
    <tag k="removemelater" v="yes"/>
  </node>
  <node id="-125" lat="55.33431414372634" lon="-3.4442672506744776">
    <tag k="addr:postcode" v="DG10 9AQ"/>
    <tag k="removemelater" v="yes"/>
  </node>
  <node id="-126" lat="55.33344001056956" lon="-3.4414292801505173">
    <tag k="addr:postcode" v="DG10 9AR"/>
    <tag k="removemelater" v="yes"/>
  </node>
  <node id="-127" lat="55.33331759778772" lon="-3.4411410664054034">
    <tag k="addr:postcode" v="DG10 9AS"/>
    <tag k="removemelater" v="yes"/>
  </node>
  <node id="-128" lat="55.33301401523018" lon="-3.4432582935351004">
    <tag k="addr:postcode" v="DG10 9AT"/>
    <tag k="removemelater" v="yes"/>
  </node>
  <node id="-129" lat="55.334131556134736" lon="-3.4422268897493575">
    <tag k="addr:postcode" v="DG10 9AW"/>
    <tag k="removemelater" v="yes"/>
  </node>
  <node id="-130" lat="55.33416303563249" lon="-3.440320437163824">
    <tag k="addr:postcode" v="DG10 9AX"/>
    <tag k="removemelater" v="yes"/>
  </node>
  <node id="-131" lat="55.33294494498995" lon="-3.4384475261003935">
    <tag k="addr:postcode" v="DG10 9AY"/>
    <tag k="removemelater" v="yes"/>
  </node>
  <node id="-132" lat="55.33252656766467" lon="-3.4373446081295986">
    <tag k="addr:postcode" v="DG10 9AZ"/>
    <tag k="removemelater" v="yes"/>
  </node>
  <node id="-133" lat="55.332184393353344" lon="-3.436638582257945">
    <tag k="addr:postcode" v="DG10 9BA"/>
    <tag k="removemelater" v="yes"/>
  </node>
  <node id="-134" lat="55.332656596627146" lon="-3.4354575584337823">
    <tag k="addr:postcode" v="DG10 9BB"/>
    <tag k="removemelater" v="yes"/>
  </node>
  <node id="-135" lat="55.33274707311538" lon="-3.4361702409364097">
    <tag k="addr:postcode" v="DG10 9BD"/>
    <tag k="removemelater" v="yes"/>
  </node>
  <node id="-136" lat="55.333784801779636" lon="-3.4335119554657543">
    <tag k="addr:postcode" v="DG10 9BE"/>
    <tag k="removemelater" v="yes"/>
  </node>
  <node id="-137" lat="55.3346739902213" lon="-3.4389043211556785">
    <tag k="addr:postcode" v="DG10 9BF"/>
    <tag k="removemelater" v="yes"/>
  </node>
  <node id="-138" lat="55.33373620356592" lon="-3.435354713942696">
    <tag k="addr:postcode" v="DG10 9BG"/>
    <tag k="removemelater" v="yes"/>
  </node>
  <node id="-139" lat="55.333468064577865" lon="-3.439049786799905">
    <tag k="addr:postcode" v="DG10 9BJ"/>
    <tag k="removemelater" v="yes"/>
  </node>
  <node id="-140" lat="55.334364338701654" lon="-3.437726461600235">
    <tag k="addr:postcode" v="DG10 9BL"/>
    <tag k="removemelater" v="yes"/>
  </node>
  <node id="-141" lat="55.334604196908096" lon="-3.4371991250381355">
    <tag k="addr:postcode" v="DG10 9BN"/>
    <tag k="removemelater" v="yes"/>
  </node>
  <node id="-142" lat="55.33371497850773" lon="-3.437923652834714">
    <tag k="addr:postcode" v="DG10 9BP"/>
    <tag k="removemelater" v="yes"/>
  </node>
  <node id="-143" lat="55.3329765505283" lon="-3.436525368390587">
    <tag k="addr:postcode" v="DG10 9BQ"/>
    <tag k="removemelater" v="yes"/>
  </node>
  <node id="-144" lat="55.335457479750275" lon="-3.4364732646792873">
    <tag k="addr:postcode" v="DG10 9BS"/>
    <tag k="removemelater" v="yes"/>
  </node>
  <node id="-145" lat="55.33501954146043" lon="-3.4347389668397463">
    <tag k="addr:postcode" v="DG10 9BT"/>
    <tag k="removemelater" v="yes"/>
  </node>
  <node id="-146" lat="55.33589763821903" lon="-3.4349598988297534">
    <tag k="addr:postcode" v="DG10 9BU"/>
    <tag k="removemelater" v="yes"/>
  </node>
  <node id="-147" lat="55.33570657519346" lon="-3.4336286595253362">
    <tag k="addr:postcode" v="DG10 9BW"/>
    <tag k="removemelater" v="yes"/>
  </node>
  <node id="-148" lat="55.33717848062692" lon="-3.4353215358623435">
    <tag k="addr:postcode" v="DG10 9BX"/>
    <tag k="removemelater" v="yes"/>
  </node>
  <node id="-149" lat="55.33719375986045" lon="-3.4363153747495843">
    <tag k="addr:postcode" v="DG10 9BY"/>
    <tag k="removemelater" v="yes"/>
  </node>
  <node id="-150" lat="55.335139828992574" lon="-3.437502300849559">
    <tag k="addr:postcode" v="DG10 9BZ"/>
    <tag k="removemelater" v="yes"/>
  </node>
  <node id="-151" lat="55.331964889145226" lon="-3.438490834884327">
    <tag k="addr:postcode" v="DG10 9DB"/>
    <tag k="removemelater" v="yes"/>
  </node>
  <node id="-152" lat="55.331573004660655" lon="-3.4366637489955254">
    <tag k="addr:postcode" v="DG10 9DD"/>
    <tag k="removemelater" v="yes"/>
  </node>
  <node id="-153" lat="55.33321814290903" lon="-3.433554551147842">
    <tag k="addr:postcode" v="DG10 9DE"/>
    <tag k="removemelater" v="yes"/>
  </node>
  <node id="-154" lat="55.332856609897064" lon="-3.433730671554637">
    <tag k="addr:postcode" v="DG10 9DF"/>
    <tag k="removemelater" v="yes"/>
  </node>
  <node id="-155" lat="55.334577294307124" lon="-3.4417701225560164">
    <tag k="addr:postcode" v="DG10 9DG"/>
    <tag k="removemelater" v="yes"/>
  </node>
  <node id="-156" lat="55.332171796306724" lon="-3.434651805088263">
    <tag k="addr:postcode" v="DG10 9DH"/>
    <tag k="removemelater" v="yes"/>
  </node>
  <node id="-157" lat="55.33351165229878" lon="-3.443733572190934">
    <tag k="addr:postcode" v="DG10 9DJ"/>
    <tag k="removemelater" v="yes"/>
  </node>
  <node id="-158" lat="55.33333069250591" lon="-3.443837345103238">
    <tag k="addr:postcode" v="DG10 9DL"/>
    <tag k="removemelater" v="yes"/>
  </node>
  <node id="-159" lat="55.333340747140525" lon="-3.442986404183655">
    <tag k="addr:postcode" v="DG10 9DN"/>
    <tag k="removemelater" v="yes"/>
  </node>
  <node id="-160" lat="55.332833800563066" lon="-3.4432990354938102">
    <tag k="addr:postcode" v="DG10 9DP"/>
    <tag k="removemelater" v="yes"/>
  </node>
  <node id="-161" lat="55.33297561611719" lon="-3.4427051297034112">
    <tag k="addr:postcode" v="DG10 9DR"/>
    <tag k="removemelater" v="yes"/>
  </node>
  <node id="-162" lat="55.3327964657778" lon="-3.4418946179940235">
    <tag k="addr:postcode" v="DG10 9DS"/>
    <tag k="removemelater" v="yes"/>
  </node>
  <node id="-163" lat="55.331745476652124" lon="-3.441856443568946">
    <tag k="addr:postcode" v="DG10 9DT"/>
    <tag k="removemelater" v="yes"/>
  </node>
  <node id="-164" lat="55.33313055698975" lon="-3.4425215827109326">
    <tag k="addr:postcode" v="DG10 9DU"/>
    <tag k="removemelater" v="yes"/>
  </node>
  <node id="-165" lat="55.33296370123616" lon="-3.4437136430679725">
    <tag k="addr:postcode" v="DG10 9DW"/>
    <tag k="removemelater" v="yes"/>
  </node>
  <node id="-166" lat="55.33281772017582" lon="-3.4408549181755204">
    <tag k="addr:postcode" v="DG10 9DX"/>
    <tag k="removemelater" v="yes"/>
  </node>
  <node id="-167" lat="55.33125514124846" lon="-3.4415233521745696">
    <tag k="addr:postcode" v="DG10 9DY"/>
    <tag k="removemelater" v="yes"/>
  </node>
  <node id="-168" lat="55.33221593055499" lon="-3.4415897704981537">
    <tag k="addr:postcode" v="DG10 9EA"/>
    <tag k="removemelater" v="yes"/>
  </node>
  <node id="-169" lat="55.33195962812334" lon="-3.442747027503613">
    <tag k="addr:postcode" v="DG10 9EB"/>
    <tag k="removemelater" v="yes"/>
  </node>
  <node id="-170" lat="55.33256301305339" lon="-3.4433995424118407">
    <tag k="addr:postcode" v="DG10 9ED"/>
    <tag k="removemelater" v="yes"/>
  </node>
  <node id="-171" lat="55.33108930169494" lon="-3.441107465217747">
    <tag k="addr:postcode" v="DG10 9EE"/>
    <tag k="removemelater" v="yes"/>
  </node>
  <node id="-172" lat="55.33191252675179" lon="-3.443691177863229">
    <tag k="addr:postcode" v="DG10 9EG"/>
    <tag k="removemelater" v="yes"/>
  </node>
  <node id="-173" lat="55.3321556212044" lon="-3.4436527252988514">
    <tag k="addr:postcode" v="DG10 9EH"/>
    <tag k="removemelater" v="yes"/>
  </node>
  <node id="-174" lat="55.331312807776904" lon="-3.4450093193558566">
    <tag k="addr:postcode" v="DG10 9EJ"/>
    <tag k="removemelater" v="yes"/>
  </node>
  <node id="-175" lat="55.33131179600791" lon="-3.4435747463194764">
    <tag k="addr:postcode" v="DG10 9EL"/>
    <tag k="removemelater" v="yes"/>
  </node>
  <node id="-176" lat="55.330166651000226" lon="-3.4431390139591325">
    <tag k="addr:postcode" v="DG10 9EP"/>
    <tag k="removemelater" v="yes"/>
  </node>
  <node id="-177" lat="55.33009736556081" lon="-3.445958189148904">
    <tag k="addr:postcode" v="DG10 9ER"/>
    <tag k="removemelater" v="yes"/>
  </node>
  <node id="-178" lat="55.33208081900392" lon="-3.4446589290829017">
    <tag k="addr:postcode" v="DG10 9ES"/>
    <tag k="removemelater" v="yes"/>
  </node>
  <node id="-179" lat="55.332616021560234" lon="-3.4442369963664596">
    <tag k="addr:postcode" v="DG10 9ET"/>
    <tag k="removemelater" v="yes"/>
  </node>
  <node id="-180" lat="55.332613040472395" lon="-3.4444891223248297">
    <tag k="addr:postcode" v="DG10 9EU"/>
    <tag k="removemelater" v="yes"/>
  </node>
  <node id="-181" lat="55.332801679315416" lon="-3.4444959866875733">
    <tag k="addr:postcode" v="DG10 9EX"/>
    <tag k="removemelater" v="yes"/>
  </node>
  <node id="-182" lat="55.33227228978656" lon="-3.445186126243458">
    <tag k="addr:postcode" v="DG10 9EY"/>
    <tag k="removemelater" v="yes"/>
  </node>
  <node id="-183" lat="55.3323834386897" lon="-3.444906410613707">
    <tag k="addr:postcode" v="DG10 9EZ"/>
    <tag k="removemelater" v="yes"/>
  </node>
  <node id="-184" lat="55.336065826580224" lon="-3.445087759014734">
    <tag k="addr:postcode" v="DG10 9FA"/>
    <tag k="removemelater" v="yes"/>
  </node>
  <node id="-185" lat="55.331915994067366" lon="-3.445677615217674">
    <tag k="addr:postcode" v="DG10 9HA"/>
    <tag k="removemelater" v="yes"/>
  </node>
  <node id="-186" lat="55.33176464687607" lon="-3.4470751279258436">
    <tag k="addr:postcode" v="DG10 9HB"/>
    <tag k="removemelater" v="yes"/>
  </node>
  <node id="-187" lat="55.33254550187659" lon="-3.4448807803144974">
    <tag k="addr:postcode" v="DG10 9HD"/>
    <tag k="removemelater" v="yes"/>
  </node>
  <node id="-188" lat="55.332860272663446" lon="-3.444860708103443">
    <tag k="addr:postcode" v="DG10 9HE"/>
    <tag k="removemelater" v="yes"/>
  </node>
  <node id="-189" lat="55.33315800971103" lon="-3.44476119127606">
    <tag k="addr:postcode" v="DG10 9HF"/>
    <tag k="removemelater" v="yes"/>
  </node>
  <node id="-190" lat="55.334110000084664" lon="-3.4448116064801613">
    <tag k="addr:postcode" v="DG10 9HG"/>
    <tag k="removemelater" v="yes"/>
  </node>
  <node id="-191" lat="55.33262249170182" lon="-3.446728047662657">
    <tag k="addr:postcode" v="DG10 9HH"/>
    <tag k="removemelater" v="yes"/>
  </node>
  <node id="-192" lat="55.33363219604403" lon="-3.444179378026121">
    <tag k="addr:postcode" v="DG10 9HJ"/>
    <tag k="removemelater" v="yes"/>
  </node>
  <node id="-193" lat="55.33403369596012" lon="-3.4459439247842076">
    <tag k="addr:postcode" v="DG10 9HL"/>
    <tag k="removemelater" v="yes"/>
  </node>
  <node id="-194" lat="55.334795523766196" lon="-3.445356821449005">
    <tag k="addr:postcode" v="DG10 9HN"/>
    <tag k="removemelater" v="yes"/>
  </node>
  <node id="-195" lat="55.33530117045663" lon="-3.4451545140317568">
    <tag k="addr:postcode" v="DG10 9HP"/>
    <tag k="removemelater" v="yes"/>
  </node>
  <node id="-196" lat="55.33361181815137" lon="-3.430636475180578">
    <tag k="addr:postcode" v="DG10 9HQ"/>
    <tag k="removemelater" v="yes"/>
  </node>
  <node id="-197" lat="55.33474199988986" lon="-3.445323341460558">
    <tag k="addr:postcode" v="DG10 9HR"/>
    <tag k="removemelater" v="yes"/>
  </node>
  <node id="-198" lat="55.33501670351458" lon="-3.4448919072130675">
    <tag k="addr:postcode" v="DG10 9HS"/>
    <tag k="removemelater" v="yes"/>
  </node>
  <node id="-199" lat="55.335142424365905" lon="-3.4441397322457608">
    <tag k="addr:postcode" v="DG10 9HT"/>
    <tag k="removemelater" v="yes"/>
  </node>
  <node id="-200" lat="55.33565932767564" lon="-3.444505388159069">
    <tag k="addr:postcode" v="DG10 9HU"/>
    <tag k="removemelater" v="yes"/>
  </node>
  <node id="-201" lat="55.33500607589782" lon="-3.4457901597689298">
    <tag k="addr:postcode" v="DG10 9HW"/>
    <tag k="removemelater" v="yes"/>
  </node>
  <node id="-202" lat="55.33717260732835" lon="-3.445727182284323">
    <tag k="addr:postcode" v="DG10 9HX"/>
    <tag k="removemelater" v="yes"/>
  </node>
  <node id="-203" lat="55.33588660400655" lon="-3.4465632335851057">
    <tag k="addr:postcode" v="DG10 9HY"/>
    <tag k="removemelater" v="yes"/>
  </node>
  <node id="-204" lat="55.33541259314861" lon="-3.44712929176894">
    <tag k="addr:postcode" v="DG10 9HZ"/>
    <tag k="removemelater" v="yes"/>
  </node>
  <node id="-205" lat="55.336397356662005" lon="-3.4482057631252467">
    <tag k="addr:postcode" v="DG10 9JA"/>
    <tag k="removemelater" v="yes"/>
  </node>
  <node id="-206" lat="55.33597722078358" lon="-3.4480170076512406">
    <tag k="addr:postcode" v="DG10 9JB"/>
    <tag k="removemelater" v="yes"/>
  </node>
  <node id="-207" lat="55.335318262224234" lon="-3.446747474999736">
    <tag k="addr:postcode" v="DG10 9JD"/>
    <tag k="removemelater" v="yes"/>
  </node>
  <node id="-208" lat="55.334472200257025" lon="-3.4468585260139024">
    <tag k="addr:postcode" v="DG10 9JE"/>
    <tag k="removemelater" v="yes"/>
  </node>
  <node id="-209" lat="55.334689626436536" lon="-3.4459520535671366">
    <tag k="addr:postcode" v="DG10 9JF"/>
    <tag k="removemelater" v="yes"/>
  </node>
  <node id="-210" lat="55.33454422292052" lon="-3.446088645574108">
    <tag k="addr:postcode" v="DG10 9JG"/>
    <tag k="removemelater" v="yes"/>
  </node>
  <node id="-211" lat="55.333930118823254" lon="-3.44406409584911">
    <tag k="addr:postcode" v="DG10 9JH"/>
    <tag k="removemelater" v="yes"/>
  </node>
  <node id="-212" lat="55.33258074471989" lon="-3.4426592493115202">
    <tag k="addr:postcode" v="DG10 9JJ"/>
    <tag k="removemelater" v="yes"/>
  </node>
  <node id="-213" lat="55.33660848349376" lon="-3.4440354124465276">
    <tag k="addr:postcode" v="DG10 9JL"/>
    <tag k="removemelater" v="yes"/>
  </node>
  <node id="-214" lat="55.33531111784578" lon="-3.445832802402438">
    <tag k="addr:postcode" v="DG10 9JN"/>
    <tag k="removemelater" v="yes"/>
  </node>
  <node id="-215" lat="55.3332220732872" lon="-3.4461823635686017">
    <tag k="addr:postcode" v="DG10 9JP"/>
    <tag k="removemelater" v="yes"/>
  </node>
  <node id="-216" lat="55.33455712270729" lon="-3.4457580415670868">
    <tag k="addr:postcode" v="DG10 9JQ"/>
    <tag k="removemelater" v="yes"/>
  </node>
  <node id="-217" lat="55.33732377409559" lon="-3.4344280998154275">
    <tag k="addr:postcode" v="DG10 9JT"/>
    <tag k="removemelater" v="yes"/>
  </node>
  <node id="-218" lat="55.33235593644883" lon="-3.4319784912411335">
    <tag k="addr:postcode" v="DG10 9JU"/>
    <tag k="removemelater" v="yes"/>
  </node>
  <node id="-219" lat="55.33211890692797" lon="-3.4337986144297425">
    <tag k="addr:postcode" v="DG10 9JW"/>
    <tag k="removemelater" v="yes"/>
  </node>
  <node id="-220" lat="55.3350720120084" lon="-3.432565210434761">
    <tag k="addr:postcode" v="DG10 9JX"/>
    <tag k="removemelater" v="yes"/>
  </node>
  <node id="-221" lat="55.33104499404565" lon="-3.431883911408875">
    <tag k="addr:postcode" v="DG10 9JY"/>
    <tag k="removemelater" v="yes"/>
  </node>
  <node id="-222" lat="55.33079550574035" lon="-3.4317015098086454">
    <tag k="addr:postcode" v="DG10 9JZ"/>
    <tag k="removemelater" v="yes"/>
  </node>
  <node id="-223" lat="55.330187256829426" lon="-3.4314588831250483">
    <tag k="addr:postcode" v="DG10 9LA"/>
    <tag k="removemelater" v="yes"/>
  </node>
  <node id="-224" lat="55.338762066904756" lon="-3.431326671168574">
    <tag k="addr:postcode" v="DG10 9LB"/>
    <tag k="removemelater" v="yes"/>
  </node>
  <node id="-225" lat="55.34667980721063" lon="-3.43511328528492">
    <tag k="addr:postcode" v="DG10 9LD"/>
    <tag k="removemelater" v="yes"/>
  </node>
  <node id="-226" lat="55.329958899436484" lon="-3.4209994136113386">
    <tag k="addr:postcode" v="DG10 9LE"/>
    <tag k="removemelater" v="yes"/>
  </node>
  <node id="-227" lat="55.39106444933062" lon="-3.32611195733612">
    <tag k="addr:postcode" v="DG10 9LH"/>
    <tag k="removemelater" v="yes"/>
  </node>
  <node id="-228" lat="55.33064083072493" lon="-3.4310969058505902">
    <tag k="addr:postcode" v="DG10 9LJ"/>
    <tag k="removemelater" v="yes"/>
  </node>
  <node id="-229" lat="55.32890332377916" lon="-3.430592906521092">
    <tag k="addr:postcode" v="DG10 9LL"/>
    <tag k="removemelater" v="yes"/>
  </node>
  <node id="-230" lat="55.33067853734917" lon="-3.429411533329912">
    <tag k="addr:postcode" v="DG10 9LN"/>
    <tag k="removemelater" v="yes"/>
  </node>
  <node id="-231" lat="55.329916046441774" lon="-3.430061912014643">
    <tag k="addr:postcode" v="DG10 9LP"/>
    <tag k="removemelater" v="yes"/>
  </node>
  <node id="-232" lat="55.32842433760139" lon="-3.43005546973829">
    <tag k="addr:postcode" v="DG10 9LR"/>
    <tag k="removemelater" v="yes"/>
  </node>
  <node id="-233" lat="55.35653379690211" lon="-3.4590048832916866">
    <tag k="addr:postcode" v="DG10 9LS"/>
    <tag k="removemelater" v="yes"/>
  </node>
  <node id="-234" lat="55.38268467446629" lon="-3.463535016284436">
    <tag k="addr:postcode" v="DG10 9LT"/>
    <tag k="removemelater" v="yes"/>
  </node>
  <node id="-235" lat="55.32565238900345" lon="-3.431169297316289">
    <tag k="addr:postcode" v="DG10 9QG"/>
    <tag k="removemelater" v="yes"/>
  </node>
  <node id="-236" lat="55.328207266104634" lon="-3.432475132952601">
    <tag k="addr:postcode" v="DG10 9QJ"/>
    <tag k="removemelater" v="yes"/>
  </node>
  <node id="-237" lat="55.3105523140802" lon="-3.4466332681667136">
    <tag k="addr:postcode" v="DG10 9QT"/>
    <tag k="removemelater" v="yes"/>
  </node>
  <node id="-238" lat="55.30914603611522" lon="-3.4605885798296003">
    <tag k="addr:postcode" v="DG10 9RN"/>
    <tag k="removemelater" v="yes"/>
  </node>
  <node id="-239" lat="55.33636705643551" lon="-3.4492452236326296">
    <tag k="addr:postcode" v="DG10 9RR"/>
    <tag k="removemelater" v="yes"/>
  </node>
  <node id="-240" lat="55.33812503959481" lon="-3.4480165357985952">
    <tag k="addr:postcode" v="DG10 9RS"/>
    <tag k="removemelater" v="yes"/>
  </node>
  <node id="-241" lat="55.34021466394058" lon="-3.4483765991975597">
    <tag k="addr:postcode" v="DG10 9RT"/>
    <tag k="removemelater" v="yes"/>
  </node>
  <node id="-242" lat="55.342272111891056" lon="-3.4506908219322527">
    <tag k="addr:postcode" v="DG10 9RU"/>
    <tag k="removemelater" v="yes"/>
  </node>
  <node id="-243" lat="55.34303246054334" lon="-3.449472884002025">
    <tag k="addr:postcode" v="DG10 9RX"/>
    <tag k="removemelater" v="yes"/>
  </node>
  <node id="-244" lat="55.33686579136633" lon="-3.4496260606723435">
    <tag k="addr:postcode" v="DG10 9RY"/>
    <tag k="removemelater" v="yes"/>
  </node>
  <node id="-245" lat="55.32800855257135" lon="-3.4478051798867777">
    <tag k="addr:postcode" v="DG10 9SA"/>
    <tag k="removemelater" v="yes"/>
  </node>
  <node id="-246" lat="55.3258466625206" lon="-3.4467175836249546">
    <tag k="addr:postcode" v="DG10 9SD"/>
    <tag k="removemelater" v="yes"/>
  </node>
  <node id="-247" lat="55.32741807424233" lon="-3.4790882415791438">
    <tag k="addr:postcode" v="DG10 9SH"/>
    <tag k="removemelater" v="yes"/>
  </node>
  <node id="-248" lat="55.326513501066124" lon="-3.448838258406282">
    <tag k="addr:postcode" v="DG10 9ST"/>
    <tag k="removemelater" v="yes"/>
  </node>
  <node id="-249" lat="55.0398110899671" lon="-3.319519497491395">
    <tag k="addr:postcode" v="DG11 1AS"/>
    <tag k="removemelater" v="yes"/>
  </node>
  <node id="-250" lat="55.084353139260294" lon="-3.334083238410923">
    <tag k="addr:postcode" v="DG11 1BD"/>
    <tag k="removemelater" v="yes"/>
  </node>
  <node id="-251" lat="55.04448100928333" lon="-3.3231319231746994">
    <tag k="addr:postcode" v="DG11 1BE"/>
    <tag k="removemelater" v="yes"/>
  </node>
  <node id="-252" lat="55.04465539372776" lon="-3.4007046463631103">
    <tag k="addr:postcode" v="DG11 1DU"/>
    <tag k="removemelater" v="yes"/>
  </node>
  <node id="-253" lat="55.12844177276373" lon="-3.4399299430496892">
    <tag k="addr:postcode" v="DG11 1NE"/>
    <tag k="removemelater" v="yes"/>
  </node>
  <node id="-254" lat="55.128239140433415" lon="-3.4403461164896436">
    <tag k="addr:postcode" v="DG11 1NH"/>
    <tag k="removemelater" v="yes"/>
  </node>
  <node id="-255" lat="55.12944110770862" lon="-3.441299097814427">
    <tag k="addr:postcode" v="DG11 1PR"/>
    <tag k="removemelater" v="yes"/>
  </node>
  <node id="-256" lat="55.12460890035324" lon="-3.45618028697517">
    <tag k="addr:postcode" v="DG11 1RL"/>
    <tag k="removemelater" v="yes"/>
  </node>
  <node id="-257" lat="55.11415653364781" lon="-3.4711805885389833">
    <tag k="addr:postcode" v="DG11 1RW"/>
    <tag k="removemelater" v="yes"/>
  </node>
  <node id="-258" lat="55.107059862921275" lon="-3.3457969800168046">
    <tag k="addr:postcode" v="DG11 2QT"/>
    <tag k="removemelater" v="yes"/>
  </node>
  <node id="-259" lat="55.09956214453044" lon="-3.3321449748415195">
    <tag k="addr:postcode" v="DG11 2QX"/>
    <tag k="removemelater" v="yes"/>
  </node>
  <node id="-260" lat="55.17392790263529" lon="-3.3932393010722737">
    <tag k="addr:postcode" v="DG11 2SH"/>
    <tag k="removemelater" v="yes"/>
  </node>
  <node id="-261" lat="55.06281827972809" lon="-3.2592100616627686">
    <tag k="addr:postcode" v="DG11 3BF"/>
    <tag k="removemelater" v="yes"/>
  </node>
  <node id="-262" lat="55.05882541051704" lon="-3.2646740399607435">
    <tag k="addr:postcode" v="DG11 3BT"/>
    <tag k="removemelater" v="yes"/>
  </node>
  <node id="-263" lat="55.060646310839054" lon="-3.268457867372736">
    <tag k="addr:postcode" v="DG11 3BU"/>
    <tag k="removemelater" v="yes"/>
  </node>
  <node id="-264" lat="55.05898930497253" lon="-3.26619788968786">
    <tag k="addr:postcode" v="DG11 3BX"/>
    <tag k="removemelater" v="yes"/>
  </node>
  <node id="-265" lat="55.05853538922155" lon="-3.2666375924713695">
    <tag k="addr:postcode" v="DG11 3BY"/>
    <tag k="removemelater" v="yes"/>
  </node>
  <node id="-266" lat="55.05905118345335" lon="-3.265432673129773">
    <tag k="addr:postcode" v="DG11 3DB"/>
    <tag k="removemelater" v="yes"/>
  </node>
  <node id="-267" lat="55.059241959861005" lon="-3.265235156864621">
    <tag k="addr:postcode" v="DG11 3DD"/>
    <tag k="removemelater" v="yes"/>
  </node>
  <node id="-268" lat="55.05942834336798" lon="-3.2654602305524842">
    <tag k="addr:postcode" v="DG11 3DE"/>
    <tag k="removemelater" v="yes"/>
  </node>
  <node id="-269" lat="55.06021306479717" lon="-3.266048644091807">
    <tag k="addr:postcode" v="DG11 3DF"/>
    <tag k="removemelater" v="yes"/>
  </node>
  <node id="-270" lat="55.06111249284444" lon="-3.2685665572371314">
    <tag k="addr:postcode" v="DG11 3DH"/>
    <tag k="removemelater" v="yes"/>
  </node>
  <node id="-271" lat="55.060666869955114" lon="-3.267346858611409">
    <tag k="addr:postcode" v="DG11 3DJ"/>
    <tag k="removemelater" v="yes"/>
  </node>
  <node id="-272" lat="55.05945980957419" lon="-3.2641617179981157">
    <tag k="addr:postcode" v="DG11 3DL"/>
    <tag k="removemelater" v="yes"/>
  </node>
  <node id="-273" lat="55.059209026359696" lon="-3.263214417358915">
    <tag k="addr:postcode" v="DG11 3DN"/>
    <tag k="removemelater" v="yes"/>
  </node>
  <node id="-274" lat="55.059139069491536" lon="-3.2656233250444293">
    <tag k="addr:postcode" v="DG11 3DP"/>
    <tag k="removemelater" v="yes"/>
  </node>
  <node id="-275" lat="55.05929305985678" lon="-3.2646418171562757">
    <tag k="addr:postcode" v="DG11 3DQ"/>
    <tag k="removemelater" v="yes"/>
  </node>
  <node id="-276" lat="55.05819278613898" lon="-3.259816327765196">
    <tag k="addr:postcode" v="DG11 3DR"/>
    <tag k="removemelater" v="yes"/>
  </node>
  <node id="-277" lat="55.06067393311595" lon="-3.2640747337092892">
    <tag k="addr:postcode" v="DG11 3DS"/>
    <tag k="removemelater" v="yes"/>
  </node>
  <node id="-278" lat="55.06145683045365" lon="-3.2639741524453667">
    <tag k="addr:postcode" v="DG11 3DT"/>
    <tag k="removemelater" v="yes"/>
  </node>
  <node id="-279" lat="55.06177414150529" lon="-3.262841149803236">
    <tag k="addr:postcode" v="DG11 3DU"/>
    <tag k="removemelater" v="yes"/>
  </node>
  <node id="-280" lat="55.0599139922161" lon="-3.2662897124365253">
    <tag k="addr:postcode" v="DG11 3DW"/>
    <tag k="removemelater" v="yes"/>
  </node>
  <node id="-281" lat="55.06288315307228" lon="-3.264222665990836">
    <tag k="addr:postcode" v="DG11 3DX"/>
    <tag k="removemelater" v="yes"/>
  </node>
  <node id="-282" lat="55.06193503651679" lon="-3.2663848474339154">
    <tag k="addr:postcode" v="DG11 3DY"/>
    <tag k="removemelater" v="yes"/>
  </node>
  <node id="-283" lat="55.06169491450085" lon="-3.2661424008389957">
    <tag k="addr:postcode" v="DG11 3DZ"/>
    <tag k="removemelater" v="yes"/>
  </node>
  <node id="-284" lat="55.061409513056546" lon="-3.2650686827118185">
    <tag k="addr:postcode" v="DG11 3EA"/>
    <tag k="removemelater" v="yes"/>
  </node>
  <node id="-285" lat="55.06125958829041" lon="-3.2656589341191715">
    <tag k="addr:postcode" v="DG11 3EB"/>
    <tag k="removemelater" v="yes"/>
  </node>
  <node id="-286" lat="55.06220118480264" lon="-3.270166775042525">
    <tag k="addr:postcode" v="DG11 3ED"/>
    <tag k="removemelater" v="yes"/>
  </node>
  <node id="-287" lat="55.06353268856864" lon="-3.257040338739716">
    <tag k="addr:postcode" v="DG11 3EE"/>
    <tag k="removemelater" v="yes"/>
  </node>
  <node id="-288" lat="55.06060775102315" lon="-3.267846018964076">
    <tag k="addr:postcode" v="DG11 3EF"/>
    <tag k="removemelater" v="yes"/>
  </node>
  <node id="-289" lat="55.05995566288841" lon="-3.263143994217721">
    <tag k="addr:postcode" v="DG11 3EG"/>
    <tag k="removemelater" v="yes"/>
  </node>
  <node id="-290" lat="55.05757581286352" lon="-3.2595151406598304">
    <tag k="addr:postcode" v="DG11 3EH"/>
    <tag k="removemelater" v="yes"/>
  </node>
  <node id="-291" lat="55.061886597312586" lon="-3.261529449976496">
    <tag k="addr:postcode" v="DG11 3EJ"/>
    <tag k="removemelater" v="yes"/>
  </node>
  <node id="-292" lat="55.05938540926623" lon="-3.2661321123997493">
    <tag k="addr:postcode" v="DG11 3EL"/>
    <tag k="removemelater" v="yes"/>
  </node>
  <node id="-293" lat="55.05930600999394" lon="-3.2625285805278437">
    <tag k="addr:postcode" v="DG11 3EN"/>
    <tag k="removemelater" v="yes"/>
  </node>
  <node id="-294" lat="55.062244524890254" lon="-3.265141998767561">
    <tag k="addr:postcode" v="DG11 3EQ"/>
    <tag k="removemelater" v="yes"/>
  </node>
  <node id="-295" lat="55.05923618938157" lon="-3.2614617337695453">
    <tag k="addr:postcode" v="DG11 3EW"/>
    <tag k="removemelater" v="yes"/>
  </node>
  <node id="-296" lat="55.05991971922056" lon="-3.2666030307722336">
    <tag k="addr:postcode" v="DG11 3FW"/>
    <tag k="removemelater" v="yes"/>
  </node>
  <node id="-297" lat="55.11480477230665" lon="-3.173925054010395">
    <tag k="addr:postcode" v="DG11 3HJ"/>
    <tag k="removemelater" v="yes"/>
  </node>
  <node id="-298" lat="55.08776612445258" lon="-3.17834991981529">
    <tag k="addr:postcode" v="DG11 3HN"/>
    <tag k="removemelater" v="yes"/>
  </node>
  <node id="-299" lat="55.06850022638827" lon="-3.282236802876363">
    <tag k="addr:postcode" v="DG11 3JD"/>
    <tag k="removemelater" v="yes"/>
  </node>
  <node id="-300" lat="55.08313909377839" lon="-3.181018017227544">
    <tag k="addr:postcode" v="DG11 3JR"/>
    <tag k="removemelater" v="yes"/>
  </node>
  <node id="-301" lat="55.05549786570304" lon="-3.2501194347231332">
    <tag k="addr:postcode" v="DG11 3LG"/>
    <tag k="removemelater" v="yes"/>
  </node>
  <node id="-302" lat="55.06218569904379" lon="-3.177864297641095">
    <tag k="addr:postcode" v="DG11 3NL"/>
    <tag k="removemelater" v="yes"/>
  </node>
  <node id="-303" lat="55.062241580580036" lon="-3.182297042241645">
    <tag k="addr:postcode" v="DG11 3NY"/>
    <tag k="removemelater" v="yes"/>
  </node>
  <node id="-304" lat="54.979404834048836" lon="-3.332334643829023">
    <tag k="addr:postcode" v="DG12 5PG"/>
    <tag k="removemelater" v="yes"/>
  </node>
  <node id="-305" lat="54.97842739898467" lon="-3.3313178764782454">
    <tag k="addr:postcode" v="DG12 5PJ"/>
    <tag k="removemelater" v="yes"/>
  </node>
  <node id="-306" lat="54.979651755011986" lon="-3.3311240138286875">
    <tag k="addr:postcode" v="DG12 5PQ"/>
    <tag k="removemelater" v="yes"/>
  </node>
  <node id="-307" lat="54.97510947490557" lon="-3.3550659467347113">
    <tag k="addr:postcode" v="DG12 5PU"/>
    <tag k="removemelater" v="yes"/>
  </node>
  <node id="-308" lat="54.9909122196506" lon="-3.353941692656777">
    <tag k="addr:postcode" v="DG12 5QA"/>
    <tag k="removemelater" v="yes"/>
  </node>
  <node id="-309" lat="54.97480662780951" lon="-3.278467677250778">
    <tag k="addr:postcode" v="DG12 5QU"/>
    <tag k="removemelater" v="yes"/>
  </node>
  <node id="-310" lat="54.98794968284542" lon="-3.246908917896617">
    <tag k="addr:postcode" v="DG12 6FB"/>
    <tag k="removemelater" v="yes"/>
  </node>
  <node id="-311" lat="54.98669433749229" lon="-3.248385938978501">
    <tag k="addr:postcode" v="DG12 6LY"/>
    <tag k="removemelater" v="yes"/>
  </node>
  <node id="-312" lat="54.98624735909939" lon="-3.246402917321324">
    <tag k="addr:postcode" v="DG12 6QS"/>
    <tag k="removemelater" v="yes"/>
  </node>
  <node id="-313" lat="55.01424257019496" lon="-3.2268468231327025">
    <tag k="addr:postcode" v="DG12 6RF"/>
    <tag k="removemelater" v="yes"/>
  </node>
  <node id="-314" lat="54.987065847361336" lon="-3.245459322280887">
    <tag k="addr:postcode" v="DG12 6RX"/>
    <tag k="removemelater" v="yes"/>
  </node>
  <node id="-315" lat="54.974057484694555" lon="-3.125132266337831">
    <tag k="addr:postcode" v="DG12 6TG"/>
    <tag k="removemelater" v="yes"/>
  </node>
  <node id="-316" lat="54.978876215249535" lon="-3.138454592149178">
    <tag k="addr:postcode" v="DG12 6TH"/>
    <tag k="removemelater" v="yes"/>
  </node>
  <node id="-317" lat="54.985273015006555" lon="-3.1698908322996">
    <tag k="addr:postcode" v="DG12 6UA"/>
    <tag k="removemelater" v="yes"/>
  </node>
  <node id="-318" lat="55.14833690535748" lon="-2.997019218056696">
    <tag k="addr:postcode" v="DG13 0EH"/>
    <tag k="removemelater" v="yes"/>
  </node>
  <node id="-319" lat="55.15081599862712" lon="-2.998257956077442">
    <tag k="addr:postcode" v="DG13 0JQ"/>
    <tag k="removemelater" v="yes"/>
  </node>
  <node id="-320" lat="55.1508362436191" lon="-3.000172881763881">
    <tag k="addr:postcode" v="DG13 0JY"/>
    <tag k="removemelater" v="yes"/>
  </node>
  <node id="-321" lat="55.18947813488767" lon="-3.0440687999032274">
    <tag k="addr:postcode" v="DG13 0NG"/>
    <tag k="removemelater" v="yes"/>
  </node>
  <node id="-322" lat="55.20284048665795" lon="-3.082254270332484">
    <tag k="addr:postcode" v="DG13 0NH"/>
    <tag k="removemelater" v="yes"/>
  </node>
  <node id="-323" lat="55.21382133737178" lon="-3.1103083549980424">
    <tag k="addr:postcode" v="DG13 0NJ"/>
    <tag k="removemelater" v="yes"/>
  </node>
  <node id="-324" lat="55.19307710212716" lon="-3.0705064012723944">
    <tag k="addr:postcode" v="DG13 0NQ"/>
    <tag k="removemelater" v="yes"/>
  </node>
  <node id="-325" lat="55.2067653105902" lon="-3.102569129199297">
    <tag k="addr:postcode" v="DG13 0PD"/>
    <tag k="removemelater" v="yes"/>
  </node>
  <node id="-326" lat="55.25464188065719" lon="-3.1844009304429672">
    <tag k="addr:postcode" v="DG13 0PL"/>
    <tag k="removemelater" v="yes"/>
  </node>
  <node id="-327" lat="55.2738563865484" lon="-3.1823913967107624">
    <tag k="addr:postcode" v="DG13 0QF"/>
    <tag k="removemelater" v="yes"/>
  </node>
  <node id="-328" lat="55.217417450133084" lon="-3.1364852912328702">
    <tag k="addr:postcode" v="DG13 0QG"/>
    <tag k="removemelater" v="yes"/>
  </node>
  <node id="-329" lat="55.274302080537176" lon="-3.181837968400906">
    <tag k="addr:postcode" v="DG13 0QJ"/>
    <tag k="removemelater" v="yes"/>
  </node>
  <node id="-330" lat="55.287437163112195" lon="-3.1877079886427504">
    <tag k="addr:postcode" v="DG13 0QL"/>
    <tag k="removemelater" v="yes"/>
  </node>
  <node id="-331" lat="55.3259577387028" lon="-3.204637149371257">
    <tag k="addr:postcode" v="DG13 0QP"/>
    <tag k="removemelater" v="yes"/>
  </node>
  <node id="-332" lat="55.251411436357536" lon="-3.173685804867787">
    <tag k="addr:postcode" v="DG13 0QQ"/>
    <tag k="removemelater" v="yes"/>
  </node>
  <node id="-333" lat="55.29231136833666" lon="-3.1630661307658428">
    <tag k="addr:postcode" v="DG13 0QT"/>
    <tag k="removemelater" v="yes"/>
  </node>
  <node id="-334" lat="55.30849948817653" lon="-3.2034933618645693">
    <tag k="addr:postcode" v="DG13 0QW"/>
    <tag k="removemelater" v="yes"/>
  </node>
  <node id="-335" lat="55.09607202268686" lon="-2.896414221858018">
    <tag k="addr:postcode" v="DG14 0RP"/>
    <tag k="removemelater" v="yes"/>
  </node>
  <node id="-336" lat="55.097165188036506" lon="-2.894401490385886">
    <tag k="addr:postcode" v="DG14 0RR"/>
    <tag k="removemelater" v="yes"/>
  </node>
  <node id="-337" lat="55.05636272039393" lon="-2.958693944492024">
    <tag k="addr:postcode" v="DG14 0TF"/>
    <tag k="removemelater" v="yes"/>
  </node>
  <node id="-338" lat="55.0039072256232" lon="-3.0667591329566077">
    <tag k="addr:postcode" v="DG16 5DY"/>
    <tag k="removemelater" v="yes"/>
  </node>
  <node id="-339" lat="55.00480081318579" lon="-3.0632337057902883">
    <tag k="addr:postcode" v="DG16 5DZ"/>
    <tag k="removemelater" v="yes"/>
  </node>
  <node id="-340" lat="55.00524327108539" lon="-3.061963327615565">
    <tag k="addr:postcode" v="DG16 5EA"/>
    <tag k="removemelater" v="yes"/>
  </node>
  <node id="-341" lat="55.00513233755605" lon="-3.0612880852491977">
    <tag k="addr:postcode" v="DG16 5EB"/>
    <tag k="removemelater" v="yes"/>
  </node>
  <node id="-342" lat="55.005214164950495" lon="-3.0601488792317317">
    <tag k="addr:postcode" v="DG16 5ED"/>
    <tag k="removemelater" v="yes"/>
  </node>
  <node id="-343" lat="55.00560335488182" lon="-3.0608627359113525">
    <tag k="addr:postcode" v="DG16 5EE"/>
    <tag k="removemelater" v="yes"/>
  </node>
  <node id="-344" lat="54.99485271898374" lon="-3.0580624075534586">
    <tag k="addr:postcode" v="DG16 5EN"/>
    <tag k="removemelater" v="yes"/>
  </node>
  <node id="-345" lat="54.99672096232643" lon="-3.0571424059815957">
    <tag k="addr:postcode" v="DG16 5GG"/>
    <tag k="removemelater" v="yes"/>
  </node>
  <node id="-346" lat="55.00821585371376" lon="-3.075489148004431">
    <tag k="addr:postcode" v="DG16 5HG"/>
    <tag k="removemelater" v="yes"/>
  </node>
  <node id="-347" lat="55.00445273626608" lon="-3.0629587037549735">
    <tag k="addr:postcode" v="DG16 5HY"/>
    <tag k="removemelater" v="yes"/>
  </node>
  <node id="-348" lat="54.99360657970744" lon="-3.0535748782813443">
    <tag k="addr:postcode" v="DG16 5JD"/>
    <tag k="removemelater" v="yes"/>
  </node>
  <node id="-349" lat="55.08515379347188" lon="-3.638790680469453">
    <tag k="addr:postcode" v="DG2 0EB"/>
    <tag k="removemelater" v="yes"/>
  </node>
  <node id="-350" lat="55.088657291966555" lon="-3.6449038971021324">
    <tag k="addr:postcode" v="DG2 0GY"/>
    <tag k="removemelater" v="yes"/>
  </node>
  <node id="-351" lat="55.08914497156088" lon="-3.645393999130513">
    <tag k="addr:postcode" v="DG2 0HS"/>
    <tag k="removemelater" v="yes"/>
  </node>
  <node id="-352" lat="55.087955835762365" lon="-3.6436059262542604">
    <tag k="addr:postcode" v="DG2 0HT"/>
    <tag k="removemelater" v="yes"/>
  </node>
  <node id="-353" lat="55.088098495946866" lon="-3.6436901235242254">
    <tag k="addr:postcode" v="DG2 0JE"/>
    <tag k="removemelater" v="yes"/>
  </node>
  <node id="-354" lat="55.08978632173623" lon="-3.6484758880687713">
    <tag k="addr:postcode" v="DG2 0NR"/>
    <tag k="removemelater" v="yes"/>
  </node>
  <node id="-355" lat="55.08481497999404" lon="-3.6265248564937456">
    <tag k="addr:postcode" v="DG2 0PP"/>
    <tag k="removemelater" v="yes"/>
  </node>
  <node id="-356" lat="55.12956478735406" lon="-3.6662549025543516">
    <tag k="addr:postcode" v="DG2 0RW"/>
    <tag k="removemelater" v="yes"/>
  </node>
  <node id="-357" lat="55.159996482845145" lon="-3.7038940531563473">
    <tag k="addr:postcode" v="DG2 0XE"/>
    <tag k="removemelater" v="yes"/>
  </node>
  <node id="-358" lat="55.059230504107475" lon="-3.6223085323734168">
    <tag k="addr:postcode" v="DG2 7LU"/>
    <tag k="removemelater" v="yes"/>
  </node>
  <node id="-359" lat="55.06191690696712" lon="-3.624390189527195">
    <tag k="addr:postcode" v="DG2 7PU"/>
    <tag k="removemelater" v="yes"/>
  </node>
  <node id="-360" lat="55.06166205423757" lon="-3.6239570885281642">
    <tag k="addr:postcode" v="DG2 7PY"/>
    <tag k="removemelater" v="yes"/>
  </node>
  <node id="-361" lat="55.06382788579448" lon="-3.612472635739034">
    <tag k="addr:postcode" v="DG2 7RF"/>
    <tag k="removemelater" v="yes"/>
  </node>
  <node id="-362" lat="55.065121699383816" lon="-3.6138557464779058">
    <tag k="addr:postcode" v="DG2 7SR"/>
    <tag k="removemelater" v="yes"/>
  </node>
  <node id="-363" lat="55.06492070404781" lon="-3.6134248454839035">
    <tag k="addr:postcode" v="DG2 7SS"/>
    <tag k="removemelater" v="yes"/>
  </node>
  <node id="-364" lat="54.87417851237007" lon="-3.5972847198119755">
    <tag k="addr:postcode" v="DG2 8AZ"/>
    <tag k="removemelater" v="yes"/>
  </node>
  <node id="-365" lat="54.91807085846096" lon="-3.57198423145884">
    <tag k="addr:postcode" v="DG2 8BL"/>
    <tag k="removemelater" v="yes"/>
  </node>
  <node id="-366" lat="54.9797574681194" lon="-3.6234924687665635">
    <tag k="addr:postcode" v="DG2 8BU"/>
    <tag k="removemelater" v="yes"/>
  </node>
  <node id="-367" lat="54.977574589530455" lon="-3.6146383827735513">
    <tag k="addr:postcode" v="DG2 8BW"/>
    <tag k="removemelater" v="yes"/>
  </node>
  <node id="-368" lat="54.97914457922999" lon="-3.6189048650131372">
    <tag k="addr:postcode" v="DG2 8BY"/>
    <tag k="removemelater" v="yes"/>
  </node>
  <node id="-369" lat="54.9763524541327" lon="-3.61597996559284">
    <tag k="addr:postcode" v="DG2 8BZ"/>
    <tag k="removemelater" v="yes"/>
  </node>
  <node id="-370" lat="54.97674514293477" lon="-3.6182145348120995">
    <tag k="addr:postcode" v="DG2 8DA"/>
    <tag k="removemelater" v="yes"/>
  </node>
  <node id="-371" lat="54.97380524817024" lon="-3.620314910487401">
    <tag k="addr:postcode" v="DG2 8DB"/>
    <tag k="removemelater" v="yes"/>
  </node>
  <node id="-372" lat="54.97528357933914" lon="-3.6166088915761363">
    <tag k="addr:postcode" v="DG2 8DD"/>
    <tag k="removemelater" v="yes"/>
  </node>
  <node id="-373" lat="54.97520159009075" lon="-3.618043069999908">
    <tag k="addr:postcode" v="DG2 8DE"/>
    <tag k="removemelater" v="yes"/>
  </node>
  <node id="-374" lat="54.975229212847125" lon="-3.611903668445595">
    <tag k="addr:postcode" v="DG2 8DF"/>
    <tag k="removemelater" v="yes"/>
  </node>
  <node id="-375" lat="54.95681856197606" lon="-3.6013585708054685">
    <tag k="addr:postcode" v="DG2 8DH"/>
    <tag k="removemelater" v="yes"/>
  </node>
  <node id="-376" lat="54.9468353796195" lon="-3.59026621892366">
    <tag k="addr:postcode" v="DG2 8DJ"/>
    <tag k="removemelater" v="yes"/>
  </node>
  <node id="-377" lat="54.97717304175535" lon="-3.6164504445820342">
    <tag k="addr:postcode" v="DG2 8DP"/>
    <tag k="removemelater" v="yes"/>
  </node>
  <node id="-378" lat="54.92273348205459" lon="-3.572821448295875">
    <tag k="addr:postcode" v="DG2 8DR"/>
    <tag k="removemelater" v="yes"/>
  </node>
  <node id="-379" lat="54.92333826023021" lon="-3.5733131822993296">
    <tag k="addr:postcode" v="DG2 8DS"/>
    <tag k="removemelater" v="yes"/>
  </node>
  <node id="-380" lat="54.97999227672885" lon="-3.6287837354297916">
    <tag k="addr:postcode" v="DG2 8DU"/>
    <tag k="removemelater" v="yes"/>
  </node>
  <node id="-381" lat="54.98121121217039" lon="-3.6256764313783636">
    <tag k="addr:postcode" v="DG2 8DX"/>
    <tag k="removemelater" v="yes"/>
  </node>
  <node id="-382" lat="54.97734015733803" lon="-3.619426013143642">
    <tag k="addr:postcode" v="DG2 8EH"/>
    <tag k="removemelater" v="yes"/>
  </node>
  <node id="-383" lat="54.9765056816827" lon="-3.6172986391246393">
    <tag k="addr:postcode" v="DG2 8EJ"/>
    <tag k="removemelater" v="yes"/>
  </node>
  <node id="-384" lat="54.92410940135044" lon="-3.5769167798201855">
    <tag k="addr:postcode" v="DG2 8EN"/>
    <tag k="removemelater" v="yes"/>
  </node>
  <node id="-385" lat="55.019735659945454" lon="-3.642736785865583">
    <tag k="addr:postcode" v="DG2 8HB"/>
    <tag k="removemelater" v="yes"/>
  </node>
  <node id="-386" lat="55.01658681464932" lon="-3.7101456848614838">
    <tag k="addr:postcode" v="DG2 8JE"/>
    <tag k="removemelater" v="yes"/>
  </node>
  <node id="-387" lat="54.98114855912979" lon="-3.7630372359483535">
    <tag k="addr:postcode" v="DG2 8JP"/>
    <tag k="removemelater" v="yes"/>
  </node>
  <node id="-388" lat="54.96422801577627" lon="-3.7708561003613172">
    <tag k="addr:postcode" v="DG2 8JU"/>
    <tag k="removemelater" v="yes"/>
  </node>
  <node id="-389" lat="54.98158915936142" lon="-3.766119559782533">
    <tag k="addr:postcode" v="DG2 8JX"/>
    <tag k="removemelater" v="yes"/>
  </node>
  <node id="-390" lat="54.98356525186829" lon="-3.775458347007189">
    <tag k="addr:postcode" v="DG2 8JZ"/>
    <tag k="removemelater" v="yes"/>
  </node>
  <node id="-391" lat="54.983249848998746" lon="-3.771818663989486">
    <tag k="addr:postcode" v="DG2 8LA"/>
    <tag k="removemelater" v="yes"/>
  </node>
  <node id="-392" lat="54.98196027811792" lon="-3.7739653631402046">
    <tag k="addr:postcode" v="DG2 8LB"/>
    <tag k="removemelater" v="yes"/>
  </node>
  <node id="-393" lat="55.03660045071425" lon="-3.7115304170943535">
    <tag k="addr:postcode" v="DG2 8NL"/>
    <tag k="removemelater" v="yes"/>
  </node>
  <node id="-394" lat="55.07036979537471" lon="-3.6233544712355124">
    <tag k="addr:postcode" v="DG2 9AN"/>
    <tag k="removemelater" v="yes"/>
  </node>
  <node id="-395" lat="55.076305068555364" lon="-3.627119307336299">
    <tag k="addr:postcode" v="DG2 9BF"/>
    <tag k="removemelater" v="yes"/>
  </node>
  <node id="-396" lat="55.078510638420326" lon="-3.6771804082355115">
    <tag k="addr:postcode" v="DG2 9RA"/>
    <tag k="removemelater" v="yes"/>
  </node>
  <node id="-397" lat="55.07787103733381" lon="-3.676636698263371">
    <tag k="addr:postcode" v="DG2 9RU"/>
    <tag k="removemelater" v="yes"/>
  </node>
  <node id="-398" lat="55.07777402897852" lon="-3.6758493975765205">
    <tag k="addr:postcode" v="DG2 9RX"/>
    <tag k="removemelater" v="yes"/>
  </node>
  <node id="-399" lat="55.07597275501877" lon="-3.6787345964020606">
    <tag k="addr:postcode" v="DG2 9RY"/>
    <tag k="removemelater" v="yes"/>
  </node>
  <node id="-400" lat="55.064982562997336" lon="-3.769994867743832">
    <tag k="addr:postcode" v="DG2 9SL"/>
    <tag k="removemelater" v="yes"/>
  </node>
  <node id="-401" lat="55.06457826086609" lon="-3.770603416646007">
    <tag k="addr:postcode" v="DG2 9SN"/>
    <tag k="removemelater" v="yes"/>
  </node>
  <node id="-402" lat="55.08073318638283" lon="-3.7610088303359532">
    <tag k="addr:postcode" v="DG2 9SQ"/>
    <tag k="removemelater" v="yes"/>
  </node>
  <node id="-403" lat="55.08031118346398" lon="-3.6802166148837125">
    <tag k="addr:postcode" v="DG2 9TJ"/>
    <tag k="removemelater" v="yes"/>
  </node>
  <node id="-404" lat="55.33040874769034" lon="-3.8385637506814723">
    <tag k="addr:postcode" v="DG3 4AN"/>
    <tag k="removemelater" v="yes"/>
  </node>
  <node id="-405" lat="55.273650738711325" lon="-3.8086896345550865">
    <tag k="addr:postcode" v="DG3 4AQ"/>
    <tag k="removemelater" v="yes"/>
  </node>
  <node id="-406" lat="55.233443015596556" lon="-3.8164411820139117">
    <tag k="addr:postcode" v="DG3 4BA"/>
    <tag k="removemelater" v="yes"/>
  </node>
  <node id="-407" lat="55.22967218532812" lon="-3.8155773816085437">
    <tag k="addr:postcode" v="DG3 4BD"/>
    <tag k="removemelater" v="yes"/>
  </node>
  <node id="-408" lat="55.23275922251897" lon="-3.8146801318864694">
    <tag k="addr:postcode" v="DG3 4BG"/>
    <tag k="removemelater" v="yes"/>
  </node>
  <node id="-409" lat="55.23211472522976" lon="-3.8096656773098103">
    <tag k="addr:postcode" v="DG3 4BH"/>
    <tag k="removemelater" v="yes"/>
  </node>
  <node id="-410" lat="55.23279042248504" lon="-3.811976657445271">
    <tag k="addr:postcode" v="DG3 4BJ"/>
    <tag k="removemelater" v="yes"/>
  </node>
  <node id="-411" lat="55.23344287097334" lon="-3.81403503618728">
    <tag k="addr:postcode" v="DG3 4BL"/>
    <tag k="removemelater" v="yes"/>
  </node>
  <node id="-412" lat="55.232400671944205" lon="-3.814616622893087">
    <tag k="addr:postcode" v="DG3 4BP"/>
    <tag k="removemelater" v="yes"/>
  </node>
  <node id="-413" lat="55.23101479122526" lon="-3.8165506359775305">
    <tag k="addr:postcode" v="DG3 4BS"/>
    <tag k="removemelater" v="yes"/>
  </node>
  <node id="-414" lat="55.23211284880739" lon="-3.8164434414065287">
    <tag k="addr:postcode" v="DG3 4BT"/>
    <tag k="removemelater" v="yes"/>
  </node>
  <node id="-415" lat="55.2314942486782" lon="-3.8175474851294697">
    <tag k="addr:postcode" v="DG3 4BU"/>
    <tag k="removemelater" v="yes"/>
  </node>
  <node id="-416" lat="55.230923660710104" lon="-3.817238399250111">
    <tag k="addr:postcode" v="DG3 4BX"/>
    <tag k="removemelater" v="yes"/>
  </node>
  <node id="-417" lat="55.23216552170703" lon="-3.8147159941567472">
    <tag k="addr:postcode" v="DG3 4BY"/>
    <tag k="removemelater" v="yes"/>
  </node>
  <node id="-418" lat="55.231303451642916" lon="-3.814063433286473">
    <tag k="addr:postcode" v="DG3 4BZ"/>
    <tag k="removemelater" v="yes"/>
  </node>
  <node id="-419" lat="55.23264204281878" lon="-3.816514746580698">
    <tag k="addr:postcode" v="DG3 4DA"/>
    <tag k="removemelater" v="yes"/>
  </node>
  <node id="-420" lat="55.22013862506855" lon="-3.792347496040722">
    <tag k="addr:postcode" v="DG3 4DB"/>
    <tag k="removemelater" v="yes"/>
  </node>
  <node id="-421" lat="55.22393637137102" lon="-3.803586992822406">
    <tag k="addr:postcode" v="DG3 4DD"/>
    <tag k="removemelater" v="yes"/>
  </node>
  <node id="-422" lat="55.21882329251435" lon="-3.7950080113343136">
    <tag k="addr:postcode" v="DG3 4DE"/>
    <tag k="removemelater" v="yes"/>
  </node>
  <node id="-423" lat="55.21969111958294" lon="-3.7934435581804955">
    <tag k="addr:postcode" v="DG3 4DF"/>
    <tag k="removemelater" v="yes"/>
  </node>
  <node id="-424" lat="55.21975837847221" lon="-3.793147886600008">
    <tag k="addr:postcode" v="DG3 4DG"/>
    <tag k="removemelater" v="yes"/>
  </node>
  <node id="-425" lat="55.21938806125699" lon="-3.793272715053404">
    <tag k="addr:postcode" v="DG3 4DL"/>
    <tag k="removemelater" v="yes"/>
  </node>
  <node id="-426" lat="55.19744856321903" lon="-3.9202476138063176">
    <tag k="addr:postcode" v="DG3 4HN"/>
    <tag k="removemelater" v="yes"/>
  </node>
  <node id="-427" lat="55.23113480694379" lon="-3.8217612485597767">
    <tag k="addr:postcode" v="DG3 4LX"/>
    <tag k="removemelater" v="yes"/>
  </node>
  <node id="-428" lat="55.29732417290855" lon="-4.070022508068926">
    <tag k="addr:postcode" v="DG3 4NN"/>
    <tag k="removemelater" v="yes"/>
  </node>
  <node id="-429" lat="55.33960530327746" lon="-3.7577983229610386">
    <tag k="addr:postcode" v="DG3 5BP"/>
    <tag k="removemelater" v="yes"/>
  </node>
  <node id="-430" lat="55.2429049951915" lon="-3.7601501282402907">
    <tag k="addr:postcode" v="DG3 5DF"/>
    <tag k="removemelater" v="yes"/>
  </node>
  <node id="-431" lat="55.24325164663788" lon="-3.760417130506074">
    <tag k="addr:postcode" v="DG3 5DG"/>
    <tag k="removemelater" v="yes"/>
  </node>
  <node id="-432" lat="55.24364774202741" lon="-3.7603717180808522">
    <tag k="addr:postcode" v="DG3 5DR"/>
    <tag k="removemelater" v="yes"/>
  </node>
  <node id="-433" lat="55.24347636721961" lon="-3.7660112871837814">
    <tag k="addr:postcode" v="DG3 5LH"/>
    <tag k="removemelater" v="yes"/>
  </node>
  <node id="-434" lat="55.365032500467514" lon="-3.9212089201858418">
    <tag k="addr:postcode" v="DG4 6AD"/>
    <tag k="removemelater" v="yes"/>
  </node>
  <node id="-435" lat="55.365688576863626" lon="-3.9212091575717123">
    <tag k="addr:postcode" v="DG4 6AE"/>
    <tag k="removemelater" v="yes"/>
  </node>
  <node id="-436" lat="55.36529020962476" lon="-3.921394978574099">
    <tag k="addr:postcode" v="DG4 6AF"/>
    <tag k="removemelater" v="yes"/>
  </node>
  <node id="-437" lat="55.3654405038864" lon="-3.9226961466614183">
    <tag k="addr:postcode" v="DG4 6AG"/>
    <tag k="removemelater" v="yes"/>
  </node>
  <node id="-438" lat="55.36433098139137" lon="-3.9235259392077366">
    <tag k="addr:postcode" v="DG4 6AJ"/>
    <tag k="removemelater" v="yes"/>
  </node>
  <node id="-439" lat="55.3637142029616" lon="-3.922170629638471">
    <tag k="addr:postcode" v="DG4 6AL"/>
    <tag k="removemelater" v="yes"/>
  </node>
  <node id="-440" lat="55.36392745137887" lon="-3.921754950322104">
    <tag k="addr:postcode" v="DG4 6AP"/>
    <tag k="removemelater" v="yes"/>
  </node>
  <node id="-441" lat="55.36370901881379" lon="-3.9202138595646274">
    <tag k="addr:postcode" v="DG4 6AS"/>
    <tag k="removemelater" v="yes"/>
  </node>
  <node id="-442" lat="55.36390169383607" lon="-3.9211067851207773">
    <tag k="addr:postcode" v="DG4 6AW"/>
    <tag k="removemelater" v="yes"/>
  </node>
  <node id="-443" lat="55.36780099029572" lon="-3.9211852995335534">
    <tag k="addr:postcode" v="DG4 6BG"/>
    <tag k="removemelater" v="yes"/>
  </node>
  <node id="-444" lat="55.37353359692403" lon="-3.9360776135041395">
    <tag k="addr:postcode" v="DG4 6BQ"/>
    <tag k="removemelater" v="yes"/>
  </node>
  <node id="-445" lat="55.36856042992165" lon="-3.931731804944387">
    <tag k="addr:postcode" v="DG4 6DB"/>
    <tag k="removemelater" v="yes"/>
  </node>
  <node id="-446" lat="55.36864502797139" lon="-3.9258025098644955">
    <tag k="addr:postcode" v="DG4 6DF"/>
    <tag k="removemelater" v="yes"/>
  </node>
  <node id="-447" lat="55.36779717682363" lon="-3.923141835647601">
    <tag k="addr:postcode" v="DG4 6DP"/>
    <tag k="removemelater" v="yes"/>
  </node>
  <node id="-448" lat="55.36628786464802" lon="-3.9196760410761944">
    <tag k="addr:postcode" v="DG4 6DX"/>
    <tag k="removemelater" v="yes"/>
  </node>
  <node id="-449" lat="55.36664200307826" lon="-3.9211606881851853">
    <tag k="addr:postcode" v="DG4 6DZ"/>
    <tag k="removemelater" v="yes"/>
  </node>
  <node id="-450" lat="55.35170742118454" lon="-3.885230690424653">
    <tag k="addr:postcode" v="DG4 6HR"/>
    <tag k="removemelater" v="yes"/>
  </node>
  <node id="-451" lat="55.37450676098255" lon="-3.8677706548100956">
    <tag k="addr:postcode" v="DG4 6HZ"/>
    <tag k="removemelater" v="yes"/>
  </node>
  <node id="-452" lat="55.38018004385333" lon="-3.8927413058695435">
    <tag k="addr:postcode" v="DG4 6JA"/>
    <tag k="removemelater" v="yes"/>
  </node>
  <node id="-453" lat="55.36753590855252" lon="-3.93456960596386">
    <tag k="addr:postcode" v="DG4 6JJ"/>
    <tag k="removemelater" v="yes"/>
  </node>
  <node id="-454" lat="55.35729964632562" lon="-3.9334076067119597">
    <tag k="addr:postcode" v="DG4 6LA"/>
    <tag k="removemelater" v="yes"/>
  </node>
  <node id="-455" lat="55.40618988670102" lon="-4.018563371071733">
    <tag k="addr:postcode" v="DG4 6NY"/>
    <tag k="removemelater" v="yes"/>
  </node>
  <node id="-456" lat="54.9282473415118" lon="-3.827504265038754">
    <tag k="addr:postcode" v="DG5 4AZ"/>
    <tag k="removemelater" v="yes"/>
  </node>
  <node id="-457" lat="54.93127237204215" lon="-3.8229746031197545">
    <tag k="addr:postcode" v="DG5 4BB"/>
    <tag k="removemelater" v="yes"/>
  </node>
  <node id="-458" lat="54.88080705513318" lon="-3.8150829602536764">
    <tag k="addr:postcode" v="DG5 4GA"/>
    <tag k="removemelater" v="yes"/>
  </node>
  <node id="-459" lat="54.880610384059366" lon="-3.8101948819015625">
    <tag k="addr:postcode" v="DG5 4GZ"/>
    <tag k="removemelater" v="yes"/>
  </node>
  <node id="-460" lat="54.878398348354715" lon="-3.8132755971500445">
    <tag k="addr:postcode" v="DG5 4LB"/>
    <tag k="removemelater" v="yes"/>
  </node>
  <node id="-461" lat="54.882742062656746" lon="-3.813704563921861">
    <tag k="addr:postcode" v="DG5 4LH"/>
    <tag k="removemelater" v="yes"/>
  </node>
  <node id="-462" lat="54.871576504759744" lon="-3.811473085536655">
    <tag k="addr:postcode" v="DG5 4LJ"/>
    <tag k="removemelater" v="yes"/>
  </node>
  <node id="-463" lat="54.881330467025855" lon="-3.812534328063461">
    <tag k="addr:postcode" v="DG5 4LL"/>
    <tag k="removemelater" v="yes"/>
  </node>
  <node id="-464" lat="54.87698727033304" lon="-3.813274569876466">
    <tag k="addr:postcode" v="DG5 4LN"/>
    <tag k="removemelater" v="yes"/>
  </node>
  <node id="-465" lat="54.87463830199014" lon="-3.812280659296803">
    <tag k="addr:postcode" v="DG5 4LW"/>
    <tag k="removemelater" v="yes"/>
  </node>
  <node id="-466" lat="54.94614891654805" lon="-3.80962663542548">
    <tag k="addr:postcode" v="DG5 4NA"/>
    <tag k="removemelater" v="yes"/>
  </node>
  <node id="-467" lat="54.94890497761668" lon="-3.814060249613346">
    <tag k="addr:postcode" v="DG5 4NF"/>
    <tag k="removemelater" v="yes"/>
  </node>
  <node id="-468" lat="54.96577562823236" lon="-3.796465370405561">
    <tag k="addr:postcode" v="DG5 4NJ"/>
    <tag k="removemelater" v="yes"/>
  </node>
  <node id="-469" lat="54.96288597242766" lon="-3.8022409003387625">
    <tag k="addr:postcode" v="DG5 4NL"/>
    <tag k="removemelater" v="yes"/>
  </node>
  <node id="-470" lat="54.95497365977608" lon="-3.8054786510898957">
    <tag k="addr:postcode" v="DG5 4NN"/>
    <tag k="removemelater" v="yes"/>
  </node>
  <node id="-471" lat="54.96297134749704" lon="-3.8266283376354098">
    <tag k="addr:postcode" v="DG5 4NQ"/>
    <tag k="removemelater" v="yes"/>
  </node>
  <node id="-472" lat="54.87953790386241" lon="-3.811596492561365">
    <tag k="addr:postcode" v="DG5 4PB"/>
    <tag k="removemelater" v="yes"/>
  </node>
  <node id="-473" lat="54.957480324333936" lon="-3.7799458112527518">
    <tag k="addr:postcode" v="DG5 4PJ"/>
    <tag k="removemelater" v="yes"/>
  </node>
  <node id="-474" lat="54.94420170528907" lon="-3.78877360551704">
    <tag k="addr:postcode" v="DG5 4PL"/>
    <tag k="removemelater" v="yes"/>
  </node>
  <node id="-475" lat="54.860289583554845" lon="-3.7852587435413914">
    <tag k="addr:postcode" v="DG5 4QL"/>
    <tag k="removemelater" v="yes"/>
  </node>
  <node id="-476" lat="54.94106740111478" lon="-3.9296120728930535">
    <tag k="addr:postcode" v="DG5 4WA"/>
    <tag k="removemelater" v="yes"/>
  </node>
  <node id="-477" lat="54.834823250720106" lon="-4.049998057579341">
    <tag k="addr:postcode" v="DG6 4BE"/>
    <tag k="removemelater" v="yes"/>
  </node>
  <node id="-478" lat="54.83450765734297" lon="-4.0505893479166435">
    <tag k="addr:postcode" v="DG6 4BJ"/>
    <tag k="removemelater" v="yes"/>
  </node>
  <node id="-479" lat="54.83738777100912" lon="-4.050361680581633">
    <tag k="addr:postcode" v="DG6 4DH"/>
    <tag k="removemelater" v="yes"/>
  </node>
  <node id="-480" lat="54.83664108390709" lon="-4.047738798539167">
    <tag k="addr:postcode" v="DG6 4DZ"/>
    <tag k="removemelater" v="yes"/>
  </node>
  <node id="-481" lat="54.83783533847355" lon="-4.046210858398404">
    <tag k="addr:postcode" v="DG6 4EB"/>
    <tag k="removemelater" v="yes"/>
  </node>
  <node id="-482" lat="54.838021308730646" lon="-4.046375999902011">
    <tag k="addr:postcode" v="DG6 4ED"/>
    <tag k="removemelater" v="yes"/>
  </node>
  <node id="-483" lat="54.83950311716992" lon="-4.046451007931188">
    <tag k="addr:postcode" v="DG6 4EQ"/>
    <tag k="removemelater" v="yes"/>
  </node>
  <node id="-484" lat="54.837586396525296" lon="-4.050309462819642">
    <tag k="addr:postcode" v="DG6 4HY"/>
    <tag k="removemelater" v="yes"/>
  </node>
  <node id="-485" lat="54.8358638268299" lon="-4.058086019325166">
    <tag k="addr:postcode" v="DG6 4JU"/>
    <tag k="removemelater" v="yes"/>
  </node>
  <node id="-486" lat="54.835460655876794" lon="-4.0548265315157455">
    <tag k="addr:postcode" v="DG6 4JW"/>
    <tag k="removemelater" v="yes"/>
  </node>
  <node id="-487" lat="54.86503292465233" lon="-4.075919123974575">
    <tag k="addr:postcode" v="DG6 4PX"/>
    <tag k="removemelater" v="yes"/>
  </node>
  <node id="-488" lat="54.81550744783266" lon="-3.9311060432045264">
    <tag k="addr:postcode" v="DG6 4QP"/>
    <tag k="removemelater" v="yes"/>
  </node>
  <node id="-489" lat="54.79978443177325" lon="-3.958189063348121">
    <tag k="addr:postcode" v="DG6 4QZ"/>
    <tag k="removemelater" v="yes"/>
  </node>
  <node id="-490" lat="54.83979373827293" lon="-4.053723016707736">
    <tag k="addr:postcode" v="DG6 4RT"/>
    <tag k="removemelater" v="yes"/>
  </node>
  <node id="-491" lat="54.83738777100912" lon="-4.050361680581633">
    <tag k="addr:postcode" v="DG6 4WA"/>
    <tag k="removemelater" v="yes"/>
  </node>
  <node id="-492" lat="54.941898835852484" lon="-3.9270602036007554">
    <tag k="addr:postcode" v="DG7 1BE"/>
    <tag k="removemelater" v="yes"/>
  </node>
  <node id="-493" lat="54.938006050447655" lon="-3.934476605611239">
    <tag k="addr:postcode" v="DG7 1DN"/>
    <tag k="removemelater" v="yes"/>
  </node>
  <node id="-494" lat="54.93828943141455" lon="-3.9341779893294446">
    <tag k="addr:postcode" v="DG7 1EF"/>
    <tag k="removemelater" v="yes"/>
  </node>
  <node id="-495" lat="54.933797744357925" lon="-3.9244092958317385">
    <tag k="addr:postcode" v="DG7 1GD"/>
    <tag k="removemelater" v="yes"/>
  </node>
  <node id="-496" lat="54.936625645397555" lon="-3.9336766130398497">
    <tag k="addr:postcode" v="DG7 1HA"/>
    <tag k="removemelater" v="yes"/>
  </node>
  <node id="-497" lat="54.93664092004605" lon="-3.9344110471677185">
    <tag k="addr:postcode" v="DG7 1HD"/>
    <tag k="removemelater" v="yes"/>
  </node>
  <node id="-498" lat="54.93679963972876" lon="-3.9351679837864175">
    <tag k="addr:postcode" v="DG7 1HE"/>
    <tag k="removemelater" v="yes"/>
  </node>
  <node id="-499" lat="54.93759345577431" lon="-3.934987565729194">
    <tag k="addr:postcode" v="DG7 1HP"/>
    <tag k="removemelater" v="yes"/>
  </node>
  <node id="-500" lat="54.822343878941155" lon="-3.9057477111382686">
    <tag k="addr:postcode" v="DG7 1RF"/>
    <tag k="removemelater" v="yes"/>
  </node>
  <node id="-501" lat="54.81528956616221" lon="-3.911376366806389">
    <tag k="addr:postcode" v="DG7 1RG"/>
    <tag k="removemelater" v="yes"/>
  </node>
  <node id="-502" lat="54.84155662425075" lon="-3.877732828344184">
    <tag k="addr:postcode" v="DG7 1RW"/>
    <tag k="removemelater" v="yes"/>
  </node>
  <node id="-503" lat="54.92411983837941" lon="-3.9468408632741543">
    <tag k="addr:postcode" v="DG7 1RX"/>
    <tag k="removemelater" v="yes"/>
  </node>
  <node id="-504" lat="54.908032035476786" lon="-3.91854643943079">
    <tag k="addr:postcode" v="DG7 1SH"/>
    <tag k="removemelater" v="yes"/>
  </node>
  <node id="-505" lat="54.90715007063733" lon="-3.9220298972958414">
    <tag k="addr:postcode" v="DG7 1SJ"/>
    <tag k="removemelater" v="yes"/>
  </node>
  <node id="-506" lat="54.907267849712156" lon="-3.92083436916548">
    <tag k="addr:postcode" v="DG7 1SL"/>
    <tag k="removemelater" v="yes"/>
  </node>
  <node id="-507" lat="54.906813716194065" lon="-3.921701884889538">
    <tag k="addr:postcode" v="DG7 1SN"/>
    <tag k="removemelater" v="yes"/>
  </node>
  <node id="-508" lat="54.88728157809758" lon="-4.1839012156709625">
    <tag k="addr:postcode" v="DG7 2BB"/>
    <tag k="removemelater" v="yes"/>
  </node>
  <node id="-509" lat="54.91016734653756" lon="-4.198791786447814">
    <tag k="addr:postcode" v="DG7 2BJ"/>
    <tag k="removemelater" v="yes"/>
  </node>
  <node id="-510" lat="54.91871804435569" lon="-4.203112569994302">
    <tag k="addr:postcode" v="DG7 2BL"/>
    <tag k="removemelater" v="yes"/>
  </node>
  <node id="-511" lat="54.93145377291639" lon="-4.215032270668585">
    <tag k="addr:postcode" v="DG7 2BN"/>
    <tag k="removemelater" v="yes"/>
  </node>
  <node id="-512" lat="54.94751730170022" lon="-4.258438021512299">
    <tag k="addr:postcode" v="DG7 2BP"/>
    <tag k="removemelater" v="yes"/>
  </node>
  <node id="-513" lat="54.90224303438931" lon="-4.203553940300625">
    <tag k="addr:postcode" v="DG7 2BS"/>
    <tag k="removemelater" v="yes"/>
  </node>
  <node id="-514" lat="54.92131487582053" lon="-4.224368978538927">
    <tag k="addr:postcode" v="DG7 2BW"/>
    <tag k="removemelater" v="yes"/>
  </node>
  <node id="-515" lat="54.89073309933488" lon="-4.200336714583222">
    <tag k="addr:postcode" v="DG7 2EE"/>
    <tag k="removemelater" v="yes"/>
  </node>
  <node id="-516" lat="54.84200239564086" lon="-4.258752997947602">
    <tag k="addr:postcode" v="DG7 2ET"/>
    <tag k="removemelater" v="yes"/>
  </node>
  <node id="-517" lat="54.880685705247664" lon="-4.186802592823339">
    <tag k="addr:postcode" v="DG7 2JP"/>
    <tag k="removemelater" v="yes"/>
  </node>
  <node id="-518" lat="55.00534612526585" lon="-4.072372585794744">
    <tag k="addr:postcode" v="DG7 2NE"/>
    <tag k="removemelater" v="yes"/>
  </node>
  <node id="-519" lat="55.01156043888563" lon="-4.096294336729151">
    <tag k="addr:postcode" v="DG7 2NF"/>
    <tag k="removemelater" v="yes"/>
  </node>
  <node id="-520" lat="54.960467699741926" lon="-4.0607668575987175">
    <tag k="addr:postcode" v="DG7 2PN"/>
    <tag k="removemelater" v="yes"/>
  </node>
  <node id="-521" lat="54.96486865126571" lon="-4.059898701919861">
    <tag k="addr:postcode" v="DG7 2PP"/>
    <tag k="removemelater" v="yes"/>
  </node>
  <node id="-522" lat="54.96088399944258" lon="-4.059538537288963">
    <tag k="addr:postcode" v="DG7 2PW"/>
    <tag k="removemelater" v="yes"/>
  </node>
  <node id="-523" lat="54.97454850146791" lon="-3.867388638408772">
    <tag k="addr:postcode" v="DG7 3JL"/>
    <tag k="removemelater" v="yes"/>
  </node>
  <node id="-524" lat="55.08065380592551" lon="-4.130380949231859">
    <tag k="addr:postcode" v="DG7 3PR"/>
    <tag k="removemelater" v="yes"/>
  </node>
  <node id="-525" lat="55.073635769914006" lon="-4.140017565671289">
    <tag k="addr:postcode" v="DG7 3RG"/>
    <tag k="removemelater" v="yes"/>
  </node>
  <node id="-526" lat="55.073897116563536" lon="-4.1379324422698485">
    <tag k="addr:postcode" v="DG7 3RY"/>
    <tag k="removemelater" v="yes"/>
  </node>
  <node id="-527" lat="55.186607855398556" lon="-4.253224332259919">
    <tag k="addr:postcode" v="DG7 3SN"/>
    <tag k="removemelater" v="yes"/>
  </node>
  <node id="-528" lat="55.21228005318859" lon="-4.252647291542919">
    <tag k="addr:postcode" v="DG7 3TF"/>
    <tag k="removemelater" v="yes"/>
  </node>
  <node id="-529" lat="55.19997731989912" lon="-4.2354362790592">
    <tag k="addr:postcode" v="DG7 3TG"/>
    <tag k="removemelater" v="yes"/>
  </node>
  <node id="-530" lat="55.22037539816537" lon="-4.273638783816013">
    <tag k="addr:postcode" v="DG7 3TH"/>
    <tag k="removemelater" v="yes"/>
  </node>
  <node id="-531" lat="55.21414499172324" lon="-4.2645428997546775">
    <tag k="addr:postcode" v="DG7 3TR"/>
    <tag k="removemelater" v="yes"/>
  </node>
  <node id="-532" lat="55.110521320902016" lon="-4.15135001754877">
    <tag k="addr:postcode" v="DG7 3TU"/>
    <tag k="removemelater" v="yes"/>
  </node>
  <node id="-533" lat="55.10615426941831" lon="-4.162951769794939">
    <tag k="addr:postcode" v="DG7 3UP"/>
    <tag k="removemelater" v="yes"/>
  </node>
  <node id="-534" lat="55.10651532197229" lon="-4.162359853765725">
    <tag k="addr:postcode" v="DG7 3UW"/>
    <tag k="removemelater" v="yes"/>
  </node>
  <node id="-535" lat="55.11723416507534" lon="-4.230857670603586">
    <tag k="addr:postcode" v="DG7 3XR"/>
    <tag k="removemelater" v="yes"/>
  </node>
  <node id="-536" lat="55.14758586027009" lon="-4.248559612997884">
    <tag k="addr:postcode" v="DG7 3XS"/>
    <tag k="removemelater" v="yes"/>
  </node>
  <node id="-537" lat="54.94106740111478" lon="-3.9296120728930535">
    <tag k="addr:postcode" v="DG7 9AE"/>
    <tag k="removemelater" v="yes"/>
  </node>
  <node id="-538" lat="54.94106740111478" lon="-3.9296120728930535">
    <tag k="addr:postcode" v="DG7 9AJ"/>
    <tag k="removemelater" v="yes"/>
  </node>
  <node id="-539" lat="54.87551280889428" lon="-4.825362579900082">
    <tag k="addr:postcode" v="DG8 0AB"/>
    <tag k="removemelater" v="yes"/>
  </node>
  <node id="-540" lat="54.878468590907396" lon="-4.82196787699426">
    <tag k="addr:postcode" v="DG8 0AD"/>
    <tag k="removemelater" v="yes"/>
  </node>
  <node id="-541" lat="54.87969719962078" lon="-4.823644183713152">
    <tag k="addr:postcode" v="DG8 0AE"/>
    <tag k="removemelater" v="yes"/>
  </node>
  <node id="-542" lat="54.935754448151464" lon="-4.843484098131923">
    <tag k="addr:postcode" v="DG8 0AH"/>
    <tag k="removemelater" v="yes"/>
  </node>
  <node id="-543" lat="54.923628628662826" lon="-4.85146292925121">
    <tag k="addr:postcode" v="DG8 0AQ"/>
    <tag k="removemelater" v="yes"/>
  </node>
  <node id="-544" lat="55.04404342912127" lon="-4.914673820955682">
    <tag k="addr:postcode" v="DG8 0BA"/>
    <tag k="removemelater" v="yes"/>
  </node>
  <node id="-545" lat="54.91088371349014" lon="-4.59812526674126">
    <tag k="addr:postcode" v="DG8 0BN"/>
    <tag k="removemelater" v="yes"/>
  </node>
  <node id="-546" lat="54.90977373335492" lon="-4.590751680811506">
    <tag k="addr:postcode" v="DG8 0BW"/>
    <tag k="removemelater" v="yes"/>
  </node>
  <node id="-547" lat="54.86024796717148" lon="-4.654536468093544">
    <tag k="addr:postcode" v="DG8 0DR"/>
    <tag k="removemelater" v="yes"/>
  </node>
  <node id="-548" lat="54.924174901533924" lon="-4.594955359746877">
    <tag k="addr:postcode" v="DG8 0EA"/>
    <tag k="removemelater" v="yes"/>
  </node>
  <node id="-549" lat="54.9837472374387" lon="-4.6188544751906875">
    <tag k="addr:postcode" v="DG8 0EL"/>
    <tag k="removemelater" v="yes"/>
  </node>
  <node id="-550" lat="54.9755218763985" lon="-4.668860969903202">
    <tag k="addr:postcode" v="DG8 0EN"/>
    <tag k="removemelater" v="yes"/>
  </node>
  <node id="-551" lat="54.95202513251265" lon="-4.703742761560181">
    <tag k="addr:postcode" v="DG8 0EP"/>
    <tag k="removemelater" v="yes"/>
  </node>
  <node id="-552" lat="54.95353447579141" lon="-4.662669810358974">
    <tag k="addr:postcode" v="DG8 0ET"/>
    <tag k="removemelater" v="yes"/>
  </node>
  <node id="-553" lat="54.85191981013209" lon="-4.782312861511028">
    <tag k="addr:postcode" v="DG8 0JJ"/>
    <tag k="removemelater" v="yes"/>
  </node>
  <node id="-554" lat="54.84680257309683" lon="-4.791790894967079">
    <tag k="addr:postcode" v="DG8 0JL"/>
    <tag k="removemelater" v="yes"/>
  </node>
  <node id="-555" lat="54.85460018720503" lon="-4.798282242535963">
    <tag k="addr:postcode" v="DG8 0JN"/>
    <tag k="removemelater" v="yes"/>
  </node>
  <node id="-556" lat="54.8390626892185" lon="-4.752424979695742">
    <tag k="addr:postcode" v="DG8 0JP"/>
    <tag k="removemelater" v="yes"/>
  </node>
  <node id="-557" lat="54.83344824516636" lon="-4.752634481333747">
    <tag k="addr:postcode" v="DG8 0JR"/>
    <tag k="removemelater" v="yes"/>
  </node>
  <node id="-558" lat="54.83552522828617" lon="-4.745082055283749">
    <tag k="addr:postcode" v="DG8 0JS"/>
    <tag k="removemelater" v="yes"/>
  </node>
  <node id="-559" lat="54.83004876126248" lon="-4.747933699377442">
    <tag k="addr:postcode" v="DG8 0JT"/>
    <tag k="removemelater" v="yes"/>
  </node>
  <node id="-560" lat="54.82777269165451" lon="-4.728890654518882">
    <tag k="addr:postcode" v="DG8 0JU"/>
    <tag k="removemelater" v="yes"/>
  </node>
  <node id="-561" lat="54.8454388265082" lon="-4.760632979087239">
    <tag k="addr:postcode" v="DG8 0JW"/>
    <tag k="removemelater" v="yes"/>
  </node>
  <node id="-562" lat="54.831321011526164" lon="-4.756445186552269">
    <tag k="addr:postcode" v="DG8 0JX"/>
    <tag k="removemelater" v="yes"/>
  </node>
  <node id="-563" lat="54.83483345214895" lon="-4.756560112739738">
    <tag k="addr:postcode" v="DG8 0JY"/>
    <tag k="removemelater" v="yes"/>
  </node>
  <node id="-564" lat="54.841464655632365" lon="-4.7650034209133025">
    <tag k="addr:postcode" v="DG8 0JZ"/>
    <tag k="removemelater" v="yes"/>
  </node>
  <node id="-565" lat="54.83534154409188" lon="-4.777246739262053">
    <tag k="addr:postcode" v="DG8 0LA"/>
    <tag k="removemelater" v="yes"/>
  </node>
  <node id="-566" lat="54.851920179696194" lon="-4.722450784727521">
    <tag k="addr:postcode" v="DG8 0LE"/>
    <tag k="removemelater" v="yes"/>
  </node>
  <node id="-567" lat="54.88848439865942" lon="-4.771983770009309">
    <tag k="addr:postcode" v="DG8 0LF"/>
    <tag k="removemelater" v="yes"/>
  </node>
  <node id="-568" lat="54.89884023753243" lon="-4.729548484896998">
    <tag k="addr:postcode" v="DG8 0LG"/>
    <tag k="removemelater" v="yes"/>
  </node>
  <node id="-569" lat="54.94930538966427" lon="-4.82949396186144">
    <tag k="addr:postcode" v="DG8 0NA"/>
    <tag k="removemelater" v="yes"/>
  </node>
  <node id="-570" lat="54.95589750781654" lon="-4.808852800463887">
    <tag k="addr:postcode" v="DG8 0NB"/>
    <tag k="removemelater" v="yes"/>
  </node>
  <node id="-571" lat="54.86713677693138" lon="-4.811698735574435">
    <tag k="addr:postcode" v="DG8 0NH"/>
    <tag k="removemelater" v="yes"/>
  </node>
  <node id="-572" lat="54.85954864451828" lon="-4.800838076948777">
    <tag k="addr:postcode" v="DG8 0NJ"/>
    <tag k="removemelater" v="yes"/>
  </node>
  <node id="-573" lat="54.87792632511139" lon="-4.818609004689122">
    <tag k="addr:postcode" v="DG8 0NL"/>
    <tag k="removemelater" v="yes"/>
  </node>
  <node id="-574" lat="54.872772851810055" lon="-4.831063560274548">
    <tag k="addr:postcode" v="DG8 0NN"/>
    <tag k="removemelater" v="yes"/>
  </node>
  <node id="-575" lat="54.953708278856936" lon="-4.491287121344299">
    <tag k="addr:postcode" v="DG8 1AB"/>
    <tag k="removemelater" v="yes"/>
  </node>
  <node id="-576" lat="54.949757174119334" lon="-4.479219971297932">
    <tag k="addr:postcode" v="DG8 6AS"/>
    <tag k="removemelater" v="yes"/>
  </node>
  <node id="-577" lat="54.948830021798415" lon="-4.482364424318384">
    <tag k="addr:postcode" v="DG8 6AT"/>
    <tag k="removemelater" v="yes"/>
  </node>
  <node id="-578" lat="54.94149947842815" lon="-4.468905628305335">
    <tag k="addr:postcode" v="DG8 6AU"/>
    <tag k="removemelater" v="yes"/>
  </node>
  <node id="-579" lat="54.932631012442215" lon="-4.451408500241752">
    <tag k="addr:postcode" v="DG8 6AY"/>
    <tag k="removemelater" v="yes"/>
  </node>
  <node id="-580" lat="54.927147744222054" lon="-4.434420284983404">
    <tag k="addr:postcode" v="DG8 6BA"/>
    <tag k="removemelater" v="yes"/>
  </node>
  <node id="-581" lat="54.91631075237273" lon="-4.421640973117848">
    <tag k="addr:postcode" v="DG8 6BB"/>
    <tag k="removemelater" v="yes"/>
  </node>
  <node id="-582" lat="54.905861857947365" lon="-4.415054011249224">
    <tag k="addr:postcode" v="DG8 6BD"/>
    <tag k="removemelater" v="yes"/>
  </node>
  <node id="-583" lat="54.89338787273806" lon="-4.425738745394359">
    <tag k="addr:postcode" v="DG8 6BE"/>
    <tag k="removemelater" v="yes"/>
  </node>
  <node id="-584" lat="54.92536491776104" lon="-4.469305973109132">
    <tag k="addr:postcode" v="DG8 6BN"/>
    <tag k="removemelater" v="yes"/>
  </node>
  <node id="-585" lat="54.95409664430524" lon="-4.487687455985614">
    <tag k="addr:postcode" v="DG8 6BP"/>
    <tag k="removemelater" v="yes"/>
  </node>
  <node id="-586" lat="54.90304962859084" lon="-4.463321811062058">
    <tag k="addr:postcode" v="DG8 6BQ"/>
    <tag k="removemelater" v="yes"/>
  </node>
  <node id="-587" lat="54.954482970313485" lon="-4.487258367938104">
    <tag k="addr:postcode" v="DG8 6BS"/>
    <tag k="removemelater" v="yes"/>
  </node>
  <node id="-588" lat="54.95818571744606" lon="-4.482019880308371">
    <tag k="addr:postcode" v="DG8 6DH"/>
    <tag k="removemelater" v="yes"/>
  </node>
  <node id="-589" lat="54.95698981587891" lon="-4.4824772188515425">
    <tag k="addr:postcode" v="DG8 6EG"/>
    <tag k="removemelater" v="yes"/>
  </node>
  <node id="-590" lat="54.95583995621375" lon="-4.484639959818652">
    <tag k="addr:postcode" v="DG8 6EX"/>
    <tag k="removemelater" v="yes"/>
  </node>
  <node id="-591" lat="55.09253797960577" lon="-4.478805647948207">
    <tag k="addr:postcode" v="DG8 6FA"/>
    <tag k="removemelater" v="yes"/>
  </node>
  <node id="-592" lat="54.95908063345688" lon="-4.488807875509482">
    <tag k="addr:postcode" v="DG8 6GY"/>
    <tag k="removemelater" v="yes"/>
  </node>
  <node id="-593" lat="54.95507716956415" lon="-4.488091699791209">
    <tag k="addr:postcode" v="DG8 6HB"/>
    <tag k="removemelater" v="yes"/>
  </node>
  <node id="-594" lat="54.95593081696403" lon="-4.4898626900068725">
    <tag k="addr:postcode" v="DG8 6HE"/>
    <tag k="removemelater" v="yes"/>
  </node>
  <node id="-595" lat="54.95642594662454" lon="-4.491142949607947">
    <tag k="addr:postcode" v="DG8 6HX"/>
    <tag k="removemelater" v="yes"/>
  </node>
  <node id="-596" lat="54.956647059884325" lon="-4.489125983498811">
    <tag k="addr:postcode" v="DG8 6HY"/>
    <tag k="removemelater" v="yes"/>
  </node>
  <node id="-597" lat="54.95932291001525" lon="-4.4923376870978045">
    <tag k="addr:postcode" v="DG8 6JD"/>
    <tag k="removemelater" v="yes"/>
  </node>
  <node id="-598" lat="54.96007402327151" lon="-4.489900352964273">
    <tag k="addr:postcode" v="DG8 6JQ"/>
    <tag k="removemelater" v="yes"/>
  </node>
  <node id="-599" lat="54.954684546001616" lon="-4.483116004119775">
    <tag k="addr:postcode" v="DG8 6JR"/>
    <tag k="removemelater" v="yes"/>
  </node>
  <node id="-600" lat="54.95665205113809" lon="-4.492390959098352">
    <tag k="addr:postcode" v="DG8 6JT"/>
    <tag k="removemelater" v="yes"/>
  </node>
  <node id="-601" lat="54.95328321090385" lon="-4.481748784404179">
    <tag k="addr:postcode" v="DG8 6JW"/>
    <tag k="removemelater" v="yes"/>
  </node>
  <node id="-602" lat="54.951904909137276" lon="-4.480133184831898">
    <tag k="addr:postcode" v="DG8 6LA"/>
    <tag k="removemelater" v="yes"/>
  </node>
  <node id="-603" lat="54.95173872331732" lon="-4.479466969483697">
    <tag k="addr:postcode" v="DG8 6LB"/>
    <tag k="removemelater" v="yes"/>
  </node>
  <node id="-604" lat="54.95296494072639" lon="-4.48939807068841">
    <tag k="addr:postcode" v="DG8 6LE"/>
    <tag k="removemelater" v="yes"/>
  </node>
  <node id="-605" lat="54.95138953457197" lon="-4.481600789252631">
    <tag k="addr:postcode" v="DG8 6LF"/>
    <tag k="removemelater" v="yes"/>
  </node>
  <node id="-606" lat="54.95184134863127" lon="-4.481925396891783">
    <tag k="addr:postcode" v="DG8 6LG"/>
    <tag k="removemelater" v="yes"/>
  </node>
  <node id="-607" lat="54.953303827194695" lon="-4.482499771494827">
    <tag k="addr:postcode" v="DG8 6LH"/>
    <tag k="removemelater" v="yes"/>
  </node>
  <node id="-608" lat="54.95312251478195" lon="-4.483894299635239">
    <tag k="addr:postcode" v="DG8 6LJ"/>
    <tag k="removemelater" v="yes"/>
  </node>
  <node id="-609" lat="54.95311682245732" lon="-4.484612423109446">
    <tag k="addr:postcode" v="DG8 6LL"/>
    <tag k="removemelater" v="yes"/>
  </node>
  <node id="-610" lat="54.95461385444947" lon="-4.494029753765806">
    <tag k="addr:postcode" v="DG8 6LP"/>
    <tag k="removemelater" v="yes"/>
  </node>
  <node id="-611" lat="54.95664202766938" lon="-4.490687713083025">
    <tag k="addr:postcode" v="DG8 6LQ"/>
    <tag k="removemelater" v="yes"/>
  </node>
  <node id="-612" lat="54.954372581959085" lon="-4.4904535480895005">
    <tag k="addr:postcode" v="DG8 6LT"/>
    <tag k="removemelater" v="yes"/>
  </node>
  <node id="-613" lat="54.95295133227333" lon="-4.492692833750943">
    <tag k="addr:postcode" v="DG8 6LU"/>
    <tag k="removemelater" v="yes"/>
  </node>
  <node id="-614" lat="54.95386179074073" lon="-4.485986053567135">
    <tag k="addr:postcode" v="DG8 6LW"/>
    <tag k="removemelater" v="yes"/>
  </node>
  <node id="-615" lat="54.952890346683695" lon="-4.4912833503933065">
    <tag k="addr:postcode" v="DG8 6LX"/>
    <tag k="removemelater" v="yes"/>
  </node>
  <node id="-616" lat="54.95237696870595" lon="-4.490455017820056">
    <tag k="addr:postcode" v="DG8 6LY"/>
    <tag k="removemelater" v="yes"/>
  </node>
  <node id="-617" lat="54.95325329954703" lon="-4.486729423264866">
    <tag k="addr:postcode" v="DG8 6NA"/>
    <tag k="removemelater" v="yes"/>
  </node>
  <node id="-618" lat="54.95208559378533" lon="-4.491951997618421">
    <tag k="addr:postcode" v="DG8 6NB"/>
    <tag k="removemelater" v="yes"/>
  </node>
  <node id="-619" lat="54.95395696554447" lon="-4.489240758429356">
    <tag k="addr:postcode" v="DG8 6ND"/>
    <tag k="removemelater" v="yes"/>
  </node>
  <node id="-620" lat="54.95325467103878" lon="-4.493242669928139">
    <tag k="addr:postcode" v="DG8 6NE"/>
    <tag k="removemelater" v="yes"/>
  </node>
  <node id="-621" lat="54.95896524506429" lon="-4.482583463941131">
    <tag k="addr:postcode" v="DG8 6NG"/>
    <tag k="removemelater" v="yes"/>
  </node>
  <node id="-622" lat="54.95874489636177" lon="-4.4950980887690015">
    <tag k="addr:postcode" v="DG8 6NU"/>
    <tag k="removemelater" v="yes"/>
  </node>
  <node id="-623" lat="54.95426249120899" lon="-4.4966945353896515">
    <tag k="addr:postcode" v="DG8 6QD"/>
    <tag k="removemelater" v="yes"/>
  </node>
  <node id="-624" lat="54.954221349638026" lon="-4.492568438498857">
    <tag k="addr:postcode" v="DG8 6QY"/>
    <tag k="removemelater" v="yes"/>
  </node>
  <node id="-625" lat="54.95237124047846" lon="-4.481067804664808">
    <tag k="addr:postcode" v="DG8 6QZ"/>
    <tag k="removemelater" v="yes"/>
  </node>
  <node id="-626" lat="55.05943351716125" lon="-4.583720379655408">
    <tag k="addr:postcode" v="DG8 6RN"/>
    <tag k="removemelater" v="yes"/>
  </node>
  <node id="-627" lat="55.04593953329604" lon="-4.590960628089481">
    <tag k="addr:postcode" v="DG8 6RR"/>
    <tag k="removemelater" v="yes"/>
  </node>
  <node id="-628" lat="55.01875945975921" lon="-4.6260034787033675">
    <tag k="addr:postcode" v="DG8 6RT"/>
    <tag k="removemelater" v="yes"/>
  </node>
  <node id="-629" lat="55.008639538499516" lon="-4.639606558880232">
    <tag k="addr:postcode" v="DG8 6RU"/>
    <tag k="removemelater" v="yes"/>
  </node>
  <node id="-630" lat="55.02152160584151" lon="-4.690866236227824">
    <tag k="addr:postcode" v="DG8 6RZ"/>
    <tag k="removemelater" v="yes"/>
  </node>
  <node id="-631" lat="55.0611810166002" lon="-4.544303525456834">
    <tag k="addr:postcode" v="DG8 6SS"/>
    <tag k="removemelater" v="yes"/>
  </node>
  <node id="-632" lat="55.07838632772617" lon="-4.560155532433682">
    <tag k="addr:postcode" v="DG8 6SX"/>
    <tag k="removemelater" v="yes"/>
  </node>
  <node id="-633" lat="55.072315348072834" lon="-4.573099223843847">
    <tag k="addr:postcode" v="DG8 6SY"/>
    <tag k="removemelater" v="yes"/>
  </node>
  <node id="-634" lat="55.07714036186464" lon="-4.5685207921390365">
    <tag k="addr:postcode" v="DG8 6SZ"/>
    <tag k="removemelater" v="yes"/>
  </node>
  <node id="-635" lat="54.956144863892966" lon="-4.452371977182964">
    <tag k="addr:postcode" v="DG8 7AN"/>
    <tag k="removemelater" v="yes"/>
  </node>
  <node id="-636" lat="54.94953177757363" lon="-4.4721937911379905">
    <tag k="addr:postcode" v="DG8 7AW"/>
    <tag k="removemelater" v="yes"/>
  </node>
  <node id="-637" lat="54.93646843528419" lon="-4.406038437032419">
    <tag k="addr:postcode" v="DG8 7BA"/>
    <tag k="removemelater" v="yes"/>
  </node>
  <node id="-638" lat="54.94687167253148" lon="-4.390856479190859">
    <tag k="addr:postcode" v="DG8 7BB"/>
    <tag k="removemelater" v="yes"/>
  </node>
  <node id="-639" lat="54.90306036250702" lon="-4.380755020611014">
    <tag k="addr:postcode" v="DG8 7DB"/>
    <tag k="removemelater" v="yes"/>
  </node>
  <node id="-640" lat="54.920867872849314" lon="-4.396273811497351">
    <tag k="addr:postcode" v="DG8 7DE"/>
    <tag k="removemelater" v="yes"/>
  </node>
  <node id="-641" lat="54.92768921426897" lon="-4.398615006445696">
    <tag k="addr:postcode" v="DG8 7DF"/>
    <tag k="removemelater" v="yes"/>
  </node>
  <node id="-642" lat="54.85962131074142" lon="-4.346826639793217">
    <tag k="addr:postcode" v="DG8 7DY"/>
    <tag k="removemelater" v="yes"/>
  </node>
  <node id="-643" lat="54.905422930391516" lon="-4.385870954363742">
    <tag k="addr:postcode" v="DG8 7EN"/>
    <tag k="removemelater" v="yes"/>
  </node>
  <node id="-644" lat="54.91758186218354" lon="-4.368114573509895">
    <tag k="addr:postcode" v="DG8 7EP"/>
    <tag k="removemelater" v="yes"/>
  </node>
  <node id="-645" lat="54.92460465508457" lon="-4.329399473552589">
    <tag k="addr:postcode" v="DG8 7ER"/>
    <tag k="removemelater" v="yes"/>
  </node>
  <node id="-646" lat="54.91708231398946" lon="-4.3251104157473375">
    <tag k="addr:postcode" v="DG8 7ES"/>
    <tag k="removemelater" v="yes"/>
  </node>
  <node id="-647" lat="54.907138468888654" lon="-4.320527616473397">
    <tag k="addr:postcode" v="DG8 7ET"/>
    <tag k="removemelater" v="yes"/>
  </node>
  <node id="-648" lat="54.90234088461794" lon="-4.346597832667912">
    <tag k="addr:postcode" v="DG8 7EU"/>
    <tag k="removemelater" v="yes"/>
  </node>
  <node id="-649" lat="54.91060433334871" lon="-4.384305332308273">
    <tag k="addr:postcode" v="DG8 7EW"/>
    <tag k="removemelater" v="yes"/>
  </node>
  <node id="-650" lat="54.90201427056994" lon="-4.380927245210133">
    <tag k="addr:postcode" v="DG8 7HX"/>
    <tag k="removemelater" v="yes"/>
  </node>
  <node id="-651" lat="54.89956843241268" lon="-4.37867714346526">
    <tag k="addr:postcode" v="DG8 7JH"/>
    <tag k="removemelater" v="yes"/>
  </node>
  <node id="-652" lat="54.78858299383438" lon="-4.390477658446864">
    <tag k="addr:postcode" v="DG8 8AF"/>
    <tag k="removemelater" v="yes"/>
  </node>
  <node id="-653" lat="54.79106402065393" lon="-4.369405721877702">
    <tag k="addr:postcode" v="DG8 8BA"/>
    <tag k="removemelater" v="yes"/>
  </node>
  <node id="-654" lat="54.791784621826295" lon="-4.369790124300053">
    <tag k="addr:postcode" v="DG8 8BD"/>
    <tag k="removemelater" v="yes"/>
  </node>
  <node id="-655" lat="54.79097076305479" lon="-4.370038058512515">
    <tag k="addr:postcode" v="DG8 8BE"/>
    <tag k="removemelater" v="yes"/>
  </node>
  <node id="-656" lat="54.78849773484257" lon="-4.368711150126433">
    <tag k="addr:postcode" v="DG8 8BQ"/>
    <tag k="removemelater" v="yes"/>
  </node>
  <node id="-657" lat="54.7901297949839" lon="-4.369833283709115">
    <tag k="addr:postcode" v="DG8 8BR"/>
    <tag k="removemelater" v="yes"/>
  </node>
  <node id="-658" lat="54.79414720738924" lon="-4.368948300138671">
    <tag k="addr:postcode" v="DG8 8BU"/>
    <tag k="removemelater" v="yes"/>
  </node>
  <node id="-659" lat="54.78908279158365" lon="-4.370052007952316">
    <tag k="addr:postcode" v="DG8 8BW"/>
    <tag k="removemelater" v="yes"/>
  </node>
  <node id="-660" lat="54.787195735614304" lon="-4.365415223667454">
    <tag k="addr:postcode" v="DG8 8BY"/>
    <tag k="removemelater" v="yes"/>
  </node>
  <node id="-661" lat="54.761921202221" lon="-4.462339716740507">
    <tag k="addr:postcode" v="DG8 8DR"/>
    <tag k="removemelater" v="yes"/>
  </node>
  <node id="-662" lat="54.719350291740135" lon="-4.46752160207645">
    <tag k="addr:postcode" v="DG8 8ND"/>
    <tag k="removemelater" v="yes"/>
  </node>
  <node id="-663" lat="54.86252487918568" lon="-4.4469641591277655">
    <tag k="addr:postcode" v="DG8 9AA"/>
    <tag k="removemelater" v="yes"/>
  </node>
  <node id="-664" lat="54.858086440119585" lon="-4.458864892330527">
    <tag k="addr:postcode" v="DG8 9AB"/>
    <tag k="removemelater" v="yes"/>
  </node>
  <node id="-665" lat="54.85683841034748" lon="-4.486150386331418">
    <tag k="addr:postcode" v="DG8 9AY"/>
    <tag k="removemelater" v="yes"/>
  </node>
  <node id="-666" lat="54.85598053432712" lon="-4.510357937727385">
    <tag k="addr:postcode" v="DG8 9AZ"/>
    <tag k="removemelater" v="yes"/>
  </node>
  <node id="-667" lat="54.85174925177096" lon="-4.5236651160417525">
    <tag k="addr:postcode" v="DG8 9BA"/>
    <tag k="removemelater" v="yes"/>
  </node>
  <node id="-668" lat="54.8489180494796" lon="-4.5322747555214296">
    <tag k="addr:postcode" v="DG8 9BB"/>
    <tag k="removemelater" v="yes"/>
  </node>
  <node id="-669" lat="54.8556281240977" lon="-4.5393954276274995">
    <tag k="addr:postcode" v="DG8 9BE"/>
    <tag k="removemelater" v="yes"/>
  </node>
  <node id="-670" lat="54.855863512248824" lon="-4.456330065212455">
    <tag k="addr:postcode" v="DG8 9BF"/>
    <tag k="removemelater" v="yes"/>
  </node>
  <node id="-671" lat="54.86512207601358" lon="-4.5457745501036495">
    <tag k="addr:postcode" v="DG8 9BG"/>
    <tag k="removemelater" v="yes"/>
  </node>
  <node id="-672" lat="54.85586454441008" lon="-4.466473541561609">
    <tag k="addr:postcode" v="DG8 9BX"/>
    <tag k="removemelater" v="yes"/>
  </node>
  <node id="-673" lat="54.85053175284184" lon="-4.4776143191228455">
    <tag k="addr:postcode" v="DG8 9BY"/>
    <tag k="removemelater" v="yes"/>
  </node>
  <node id="-674" lat="54.86406229080374" lon="-4.439358635595505">
    <tag k="addr:postcode" v="DG8 9ED"/>
    <tag k="removemelater" v="yes"/>
  </node>
  <node id="-675" lat="54.86789413090109" lon="-4.442364407115884">
    <tag k="addr:postcode" v="DG8 9EH"/>
    <tag k="removemelater" v="yes"/>
  </node>
  <node id="-676" lat="54.8685027641754" lon="-4.441154336533205">
    <tag k="addr:postcode" v="DG8 9EJ"/>
    <tag k="removemelater" v="yes"/>
  </node>
  <node id="-677" lat="54.868141969627885" lon="-4.441662445198708">
    <tag k="addr:postcode" v="DG8 9ET"/>
    <tag k="removemelater" v="yes"/>
  </node>
  <node id="-678" lat="54.867365552101695" lon="-4.44406244171748">
    <tag k="addr:postcode" v="DG8 9HG"/>
    <tag k="removemelater" v="yes"/>
  </node>
  <node id="-679" lat="54.86824897059326" lon="-4.443492476296583">
    <tag k="addr:postcode" v="DG8 9HL"/>
    <tag k="removemelater" v="yes"/>
  </node>
  <node id="-680" lat="54.86879320168472" lon="-4.442356447296833">
    <tag k="addr:postcode" v="DG8 9HN"/>
    <tag k="removemelater" v="yes"/>
  </node>
  <node id="-681" lat="54.870506010935884" lon="-4.4389841931968945">
    <tag k="addr:postcode" v="DG8 9HU"/>
    <tag k="removemelater" v="yes"/>
  </node>
  <node id="-682" lat="54.86876457900158" lon="-4.444225058644966">
    <tag k="addr:postcode" v="DG8 9JA"/>
    <tag k="removemelater" v="yes"/>
  </node>
  <node id="-683" lat="54.86856060216636" lon="-4.441407211063336">
    <tag k="addr:postcode" v="DG8 9JH"/>
    <tag k="removemelater" v="yes"/>
  </node>
  <node id="-684" lat="54.87057917950089" lon="-4.43847424656838">
    <tag k="addr:postcode" v="DG8 9JJ"/>
    <tag k="removemelater" v="yes"/>
  </node>
  <node id="-685" lat="54.81090629015012" lon="-4.6259277123433735">
    <tag k="addr:postcode" v="DG8 9RF"/>
    <tag k="removemelater" v="yes"/>
  </node>
  <node id="-686" lat="54.817955623583266" lon="-4.600823852688199">
    <tag k="addr:postcode" v="DG8 9RH"/>
    <tag k="removemelater" v="yes"/>
  </node>
  <node id="-687" lat="54.83162773688988" lon="-4.5937302061694">
    <tag k="addr:postcode" v="DG8 9RJ"/>
    <tag k="removemelater" v="yes"/>
  </node>
  <node id="-688" lat="54.839386535710695" lon="-4.574696515765158">
    <tag k="addr:postcode" v="DG8 9RL"/>
    <tag k="removemelater" v="yes"/>
  </node>
  <node id="-689" lat="54.833623315723415" lon="-4.59583604280699">
    <tag k="addr:postcode" v="DG8 9RN"/>
    <tag k="removemelater" v="yes"/>
  </node>
  <node id="-690" lat="54.82536865830823" lon="-4.638030626205684">
    <tag k="addr:postcode" v="DG8 9RP"/>
    <tag k="removemelater" v="yes"/>
  </node>
  <node id="-691" lat="54.83869732168232" lon="-4.643946938827774">
    <tag k="addr:postcode" v="DG8 9RR"/>
    <tag k="removemelater" v="yes"/>
  </node>
  <node id="-692" lat="54.852910929968026" lon="-4.637289262683468">
    <tag k="addr:postcode" v="DG8 9RS"/>
    <tag k="removemelater" v="yes"/>
  </node>
  <node id="-693" lat="54.81429884945988" lon="-4.67757810732828">
    <tag k="addr:postcode" v="DG8 9RT"/>
    <tag k="removemelater" v="yes"/>
  </node>
  <node id="-694" lat="54.809857316359306" lon="-4.665361827896187">
    <tag k="addr:postcode" v="DG8 9RU"/>
    <tag k="removemelater" v="yes"/>
  </node>
  <node id="-695" lat="54.88294038856147" lon="-4.4402034003015896">
    <tag k="addr:postcode" v="DG8 9TA"/>
    <tag k="removemelater" v="yes"/>
  </node>
  <node id="-696" lat="54.87467926804328" lon="-4.446017319849526">
    <tag k="addr:postcode" v="DG8 9TB"/>
    <tag k="removemelater" v="yes"/>
  </node>
  <node id="-697" lat="54.88121647737892" lon="-4.44903280925397">
    <tag k="addr:postcode" v="DG8 9TE"/>
    <tag k="removemelater" v="yes"/>
  </node>
  <node id="-698" lat="54.89393780231007" lon="-4.455622385434992">
    <tag k="addr:postcode" v="DG8 9TG"/>
    <tag k="removemelater" v="yes"/>
  </node>
  <node id="-699" lat="54.880624264397454" lon="-4.453876793657043">
    <tag k="addr:postcode" v="DG8 9TJ"/>
    <tag k="removemelater" v="yes"/>
  </node>
  <node id="-700" lat="54.88049629328717" lon="-4.4513121282605">
    <tag k="addr:postcode" v="DG8 9TL"/>
    <tag k="removemelater" v="yes"/>
  </node>
  <node id="-701" lat="54.90571683463229" lon="-5.034463077401673">
    <tag k="addr:postcode" v="DG9 0AB"/>
    <tag k="removemelater" v="yes"/>
  </node>
  <node id="-702" lat="54.90542392530255" lon="-5.0364694144251185">
    <tag k="addr:postcode" v="DG9 0AD"/>
    <tag k="removemelater" v="yes"/>
  </node>
  <node id="-703" lat="54.905003346068405" lon="-5.0367497887378105">
    <tag k="addr:postcode" v="DG9 0AF"/>
    <tag k="removemelater" v="yes"/>
  </node>
  <node id="-704" lat="54.90528781263705" lon="-5.037957042948938">
    <tag k="addr:postcode" v="DG9 0AG"/>
    <tag k="removemelater" v="yes"/>
  </node>
  <node id="-705" lat="54.90525193687768" lon="-5.038672073804289">
    <tag k="addr:postcode" v="DG9 0AH"/>
    <tag k="removemelater" v="yes"/>
  </node>
  <node id="-706" lat="54.9054692230493" lon="-5.037533831178016">
    <tag k="addr:postcode" v="DG9 0AQ"/>
    <tag k="removemelater" v="yes"/>
  </node>
  <node id="-707" lat="54.904815726628826" lon="-5.038139902185964">
    <tag k="addr:postcode" v="DG9 0DG"/>
    <tag k="removemelater" v="yes"/>
  </node>
  <node id="-708" lat="54.906420418742655" lon="-5.037246635258328">
    <tag k="addr:postcode" v="DG9 0DJ"/>
    <tag k="removemelater" v="yes"/>
  </node>
  <node id="-709" lat="54.90468150093216" lon="-5.037755320613952">
    <tag k="addr:postcode" v="DG9 0DQ"/>
    <tag k="removemelater" v="yes"/>
  </node>
  <node id="-710" lat="54.90670753396536" lon="-5.036191629975146">
    <tag k="addr:postcode" v="DG9 0DS"/>
    <tag k="removemelater" v="yes"/>
  </node>
  <node id="-711" lat="54.90708481745441" lon="-5.036204446506364">
    <tag k="addr:postcode" v="DG9 0DT"/>
    <tag k="removemelater" v="yes"/>
  </node>
  <node id="-712" lat="54.907621274323546" lon="-5.035963988835896">
    <tag k="addr:postcode" v="DG9 0DU"/>
    <tag k="removemelater" v="yes"/>
  </node>
  <node id="-713" lat="54.90772509274169" lon="-5.0368456260602255">
    <tag k="addr:postcode" v="DG9 0DY"/>
    <tag k="removemelater" v="yes"/>
  </node>
  <node id="-714" lat="54.89903393493296" lon="-5.046424904128582">
    <tag k="addr:postcode" v="DG9 0LA"/>
    <tag k="removemelater" v="yes"/>
  </node>
  <node id="-715" lat="54.8953009509416" lon="-5.019874073425911">
    <tag k="addr:postcode" v="DG9 7DD"/>
    <tag k="removemelater" v="yes"/>
  </node>
  <node id="-716" lat="54.90529789851052" lon="-5.023868375227653">
    <tag k="addr:postcode" v="DG9 7EE"/>
    <tag k="removemelater" v="yes"/>
  </node>
  <node id="-717" lat="54.904711601914045" lon="-5.02466693676581">
    <tag k="addr:postcode" v="DG9 7EJ"/>
    <tag k="removemelater" v="yes"/>
  </node>
  <node id="-718" lat="54.90460658193659" lon="-5.024190978246404">
    <tag k="addr:postcode" v="DG9 7EL"/>
    <tag k="removemelater" v="yes"/>
  </node>
  <node id="-719" lat="54.904449656761585" lon="-5.023633116091517">
    <tag k="addr:postcode" v="DG9 7EN"/>
    <tag k="removemelater" v="yes"/>
  </node>
  <node id="-720" lat="54.90466463947964" lon="-5.023664844484332">
    <tag k="addr:postcode" v="DG9 7HS"/>
    <tag k="removemelater" v="yes"/>
  </node>
  <node id="-721" lat="54.904098074715634" lon="-5.023310298764321">
    <tag k="addr:postcode" v="DG9 7HU"/>
    <tag k="removemelater" v="yes"/>
  </node>
  <node id="-722" lat="54.90490615437706" lon="-5.026600671305558">
    <tag k="addr:postcode" v="DG9 7LD"/>
    <tag k="removemelater" v="yes"/>
  </node>
  <node id="-723" lat="54.90529556360962" lon="-5.026848350545851">
    <tag k="addr:postcode" v="DG9 7LG"/>
    <tag k="removemelater" v="yes"/>
  </node>
  <node id="-724" lat="54.90552239415121" lon="-5.024961821012035">
    <tag k="addr:postcode" v="DG9 7RA"/>
    <tag k="removemelater" v="yes"/>
  </node>
  <node id="-725" lat="54.90476499051144" lon="-5.027214179552516">
    <tag k="addr:postcode" v="DG9 7RL"/>
    <tag k="removemelater" v="yes"/>
  </node>
  <node id="-726" lat="54.90504908493034" lon="-5.027719201640363">
    <tag k="addr:postcode" v="DG9 7RQ"/>
    <tag k="removemelater" v="yes"/>
  </node>
  <node id="-727" lat="54.902976139283744" lon="-5.015643606473416">
    <tag k="addr:postcode" v="DG9 8AA"/>
    <tag k="removemelater" v="yes"/>
  </node>
  <node id="-728" lat="54.90330283093187" lon="-5.0162453217344325">
    <tag k="addr:postcode" v="DG9 8AB"/>
    <tag k="removemelater" v="yes"/>
  </node>
  <node id="-729" lat="54.90373713495754" lon="-5.014686390312957">
    <tag k="addr:postcode" v="DG9 8AD"/>
    <tag k="removemelater" v="yes"/>
  </node>
  <node id="-730" lat="54.841907181929976" lon="-5.120009261010978">
    <tag k="addr:postcode" v="DG9 8AN"/>
    <tag k="removemelater" v="yes"/>
  </node>
  <node id="-731" lat="54.90462423114031" lon="-5.015891721245722">
    <tag k="addr:postcode" v="DG9 8AP"/>
    <tag k="removemelater" v="yes"/>
  </node>
  <node id="-732" lat="54.904381937496645" lon="-5.015873593654703">
    <tag k="addr:postcode" v="DG9 8AR"/>
    <tag k="removemelater" v="yes"/>
  </node>
  <node id="-733" lat="54.904296764416166" lon="-5.015321135694041">
    <tag k="addr:postcode" v="DG9 8AS"/>
    <tag k="removemelater" v="yes"/>
  </node>
  <node id="-734" lat="54.9061734460594" lon="-5.013604746420635">
    <tag k="addr:postcode" v="DG9 8AT"/>
    <tag k="removemelater" v="yes"/>
  </node>
  <node id="-735" lat="54.90518462775924" lon="-5.016495349871864">
    <tag k="addr:postcode" v="DG9 8AW"/>
    <tag k="removemelater" v="yes"/>
  </node>
  <node id="-736" lat="54.90577569445573" lon="-5.009705464723804">
    <tag k="addr:postcode" v="DG9 8BH"/>
    <tag k="removemelater" v="yes"/>
  </node>
  <node id="-737" lat="54.90653452003679" lon="-5.009559282304618">
    <tag k="addr:postcode" v="DG9 8BJ"/>
    <tag k="removemelater" v="yes"/>
  </node>
  <node id="-738" lat="54.90657696398161" lon="-5.0107483025271025">
    <tag k="addr:postcode" v="DG9 8BL"/>
    <tag k="removemelater" v="yes"/>
  </node>
  <node id="-739" lat="54.90514518645388" lon="-5.011203060085517">
    <tag k="addr:postcode" v="DG9 8BN"/>
    <tag k="removemelater" v="yes"/>
  </node>
  <node id="-740" lat="54.90390881227867" lon="-5.011391544840583">
    <tag k="addr:postcode" v="DG9 8BP"/>
    <tag k="removemelater" v="yes"/>
  </node>
  <node id="-741" lat="54.84543513775448" lon="-5.120920523904288">
    <tag k="addr:postcode" v="DG9 8DN"/>
    <tag k="removemelater" v="yes"/>
  </node>
  <node id="-742" lat="54.90445071213243" lon="-5.022868670573772">
    <tag k="addr:postcode" v="DG9 8ED"/>
    <tag k="removemelater" v="yes"/>
  </node>
  <node id="-743" lat="54.90522821752355" lon="-5.022334069154835">
    <tag k="addr:postcode" v="DG9 8EG"/>
    <tag k="removemelater" v="yes"/>
  </node>
  <node id="-744" lat="54.909392800447606" lon="-5.025143079634642">
    <tag k="addr:postcode" v="DG9 8EJ"/>
    <tag k="removemelater" v="yes"/>
  </node>
  <node id="-745" lat="54.9041956688795" lon="-5.0211956864016924">
    <tag k="addr:postcode" v="DG9 8ES"/>
    <tag k="removemelater" v="yes"/>
  </node>
  <node id="-746" lat="54.895065633458536" lon="-5.066201099856066">
    <tag k="addr:postcode" v="DG9 8HX"/>
    <tag k="removemelater" v="yes"/>
  </node>
  <node id="-747" lat="54.88387226406583" lon="-5.026800174112889">
    <tag k="addr:postcode" v="DG9 8LX"/>
    <tag k="removemelater" v="yes"/>
  </node>
  <node id="-748" lat="54.87892587824978" lon="-5.017837547048823">
    <tag k="addr:postcode" v="DG9 8LY"/>
    <tag k="removemelater" v="yes"/>
  </node>
  <node id="-749" lat="54.88827215958312" lon="-5.017632212583199">
    <tag k="addr:postcode" v="DG9 8LZ"/>
    <tag k="removemelater" v="yes"/>
  </node>
  <node id="-750" lat="54.87377191455075" lon="-5.011418549924264">
    <tag k="addr:postcode" v="DG9 8NE"/>
    <tag k="removemelater" v="yes"/>
  </node>
  <node id="-751" lat="54.88676921625714" lon="-4.989354116984975">
    <tag k="addr:postcode" v="DG9 8NJ"/>
    <tag k="removemelater" v="yes"/>
  </node>
  <node id="-752" lat="54.87815696946753" lon="-4.982385620211544">
    <tag k="addr:postcode" v="DG9 8NN"/>
    <tag k="removemelater" v="yes"/>
  </node>
  <node id="-753" lat="54.87302447835079" lon="-4.8583005467621545">
    <tag k="addr:postcode" v="DG9 8PY"/>
    <tag k="removemelater" v="yes"/>
  </node>
  <node id="-754" lat="54.871387646630424" lon="-4.879245398261347">
    <tag k="addr:postcode" v="DG9 8QA"/>
    <tag k="removemelater" v="yes"/>
  </node>
  <node id="-755" lat="54.86934865617808" lon="-4.891648546025096">
    <tag k="addr:postcode" v="DG9 8QB"/>
    <tag k="removemelater" v="yes"/>
  </node>
  <node id="-756" lat="54.97402365590459" lon="-5.02594035688048">
    <tag k="addr:postcode" v="DG9 8RB"/>
    <tag k="removemelater" v="yes"/>
  </node>
  <node id="-757" lat="54.96565979329403" lon="-5.015200839748271">
    <tag k="addr:postcode" v="DG9 8RF"/>
    <tag k="removemelater" v="yes"/>
  </node>
  <node id="-758" lat="54.90642294072853" lon="-4.941849193455802">
    <tag k="addr:postcode" v="DG9 8SJ"/>
    <tag k="removemelater" v="yes"/>
  </node>
  <node id="-759" lat="54.907744103285" lon="-4.928105406431338">
    <tag k="addr:postcode" v="DG9 8SL"/>
    <tag k="removemelater" v="yes"/>
  </node>
  <node id="-760" lat="54.84406408006151" lon="-5.122839962757825">
    <tag k="addr:postcode" v="DG9 8TE"/>
    <tag k="removemelater" v="yes"/>
  </node>
  <node id="-761" lat="54.844844333258074" lon="-5.1229158585005665">
    <tag k="addr:postcode" v="DG9 8TF"/>
    <tag k="removemelater" v="yes"/>
  </node>
  <node id="-762" lat="54.88633452174095" lon="-5.110765327522695">
    <tag k="addr:postcode" v="DG9 8TP"/>
    <tag k="removemelater" v="yes"/>
  </node>
  <node id="-763" lat="54.843522678918326" lon="-5.120819519724169">
    <tag k="addr:postcode" v="DG9 8TQ"/>
    <tag k="removemelater" v="yes"/>
  </node>
  <node id="-764" lat="54.88118468898585" lon="-5.1015576426414455">
    <tag k="addr:postcode" v="DG9 8TR"/>
    <tag k="removemelater" v="yes"/>
  </node>
  <node id="-765" lat="54.8669444969695" lon="-5.132310640088761">
    <tag k="addr:postcode" v="DG9 8TW"/>
    <tag k="removemelater" v="yes"/>
  </node>
  <node id="-766" lat="54.86699290058292" lon="-4.9990815406782785">
    <tag k="addr:postcode" v="DG9 9AL"/>
    <tag k="removemelater" v="yes"/>
  </node>
  <node id="-767" lat="54.86374354487486" lon="-4.991950849109798">
    <tag k="addr:postcode" v="DG9 9BB"/>
    <tag k="removemelater" v="yes"/>
  </node>
  <node id="-768" lat="54.867915384102794" lon="-4.9046084632274525">
    <tag k="addr:postcode" v="DG9 9ES"/>
    <tag k="removemelater" v="yes"/>
  </node>
  <node id="-769" lat="54.86149722653176" lon="-4.935208513725727">
    <tag k="addr:postcode" v="DG9 9ET"/>
    <tag k="removemelater" v="yes"/>
  </node>
  <node id="-770" lat="54.8613850100925" lon="-4.95907737117228">
    <tag k="addr:postcode" v="DG9 9EU"/>
    <tag k="removemelater" v="yes"/>
  </node>
  <node id="-771" lat="54.86393253127574" lon="-4.981350317976766">
    <tag k="addr:postcode" v="DG9 9EX"/>
    <tag k="removemelater" v="yes"/>
  </node>
  <node id="-772" lat="54.713347921984386" lon="-4.912329200008151">
    <tag k="addr:postcode" v="DG9 9HA"/>
    <tag k="removemelater" v="yes"/>
  </node>
  <node id="-773" lat="54.66796102912227" lon="-4.924387528797356">
    <tag k="addr:postcode" v="DG9 9HH"/>
    <tag k="removemelater" v="yes"/>
  </node>
  <node id="-774" lat="54.64806632876101" lon="-4.889144757192105">
    <tag k="addr:postcode" v="DG9 9HP"/>
    <tag k="removemelater" v="yes"/>
  </node>
  <node id="-775" lat="54.66860044552548" lon="-4.9336317712158655">
    <tag k="addr:postcode" v="DG9 9HQ"/>
    <tag k="removemelater" v="yes"/>
  </node>
  <node id="-776" lat="54.67238342489028" lon="-4.904259733366998">
    <tag k="addr:postcode" v="DG9 9HR"/>
    <tag k="removemelater" v="yes"/>
  </node>
  <node id="-777" lat="54.66408626596268" lon="-4.90121675703188">
    <tag k="addr:postcode" v="DG9 9HW"/>
    <tag k="removemelater" v="yes"/>
  </node>
  <node id="-778" lat="54.69078148161011" lon="-4.889077072064366">
    <tag k="addr:postcode" v="DG9 9PX"/>
    <tag k="removemelater" v="yes"/>
  </node>
  <node id="-779" lat="54.69017768899505" lon="-4.885744019507947">
    <tag k="addr:postcode" v="DG9 9QY"/>
    <tag k="removemelater" v="yes"/>
  </node>
  <node id="-780" lat="54.68231496167998" lon="-4.878405105873641">
    <tag k="addr:postcode" v="DG9 9QZ"/>
    <tag k="removemelater" v="yes"/>
  </node>
  <node id="-781" lat="54.67976463954663" lon="-4.887719982395927">
    <tag k="addr:postcode" v="DG9 9RB"/>
    <tag k="removemelater" v="yes"/>
  </node>
  <node id="-782" lat="54.66929916390525" lon="-4.886992306221895">
    <tag k="addr:postcode" v="DG9 9RD"/>
    <tag k="removemelater" v="yes"/>
  </node>
</osm>
