<?xml version="1.0" encoding="UTF-8"?><osm version="0.6" generator="import_postcodes.py" upload="false">
  <node id="-1" lat="53.818782246777445" lon="-3.0516723609174328">
    <tag k="addr:postcode" v="FY1 1AD"/>
    <tag k="removemelater" v="yes"/>
  </node>
  <node id="-2" lat="53.81732061520538" lon="-3.056390079716192">
    <tag k="addr:postcode" v="FY1 1AP"/>
    <tag k="removemelater" v="yes"/>
  </node>
  <node id="-3" lat="53.819104359559326" lon="-3.0508145884892395">
    <tag k="addr:postcode" v="FY1 1BA"/>
    <tag k="removemelater" v="yes"/>
  </node>
  <node id="-4" lat="53.81872047201573" lon="-3.0505163704794818">
    <tag k="addr:postcode" v="FY1 1BH"/>
    <tag k="removemelater" v="yes"/>
  </node>
  <node id="-5" lat="53.81912039998493" lon="-3.052060585275648">
    <tag k="addr:postcode" v="FY1 1DA"/>
    <tag k="removemelater" v="yes"/>
  </node>
  <node id="-6" lat="53.81831861111011" lon="-3.0522683445197982">
    <tag k="addr:postcode" v="FY1 1DG"/>
    <tag k="removemelater" v="yes"/>
  </node>
  <node id="-7" lat="53.81925858488658" lon="-3.0527020376882996">
    <tag k="addr:postcode" v="FY1 1DH"/>
    <tag k="removemelater" v="yes"/>
  </node>
  <node id="-8" lat="53.81857508487646" lon="-3.052745661624316">
    <tag k="addr:postcode" v="FY1 1DW"/>
    <tag k="removemelater" v="yes"/>
  </node>
  <node id="-9" lat="53.817971129079986" lon="-3.0529431763924944">
    <tag k="addr:postcode" v="FY1 1EG"/>
    <tag k="removemelater" v="yes"/>
  </node>
  <node id="-10" lat="53.818782246777445" lon="-3.0516723609174328">
    <tag k="addr:postcode" v="FY1 1EQ"/>
    <tag k="removemelater" v="yes"/>
  </node>
  <node id="-11" lat="53.818782246777445" lon="-3.0516723609174328">
    <tag k="addr:postcode" v="FY1 1GB"/>
    <tag k="removemelater" v="yes"/>
  </node>
  <node id="-12" lat="53.818782246777445" lon="-3.0516723609174328">
    <tag k="addr:postcode" v="FY1 1GG"/>
    <tag k="removemelater" v="yes"/>
  </node>
  <node id="-13" lat="53.818129764577854" lon="-3.05534714796255">
    <tag k="addr:postcode" v="FY1 1HA"/>
    <tag k="removemelater" v="yes"/>
  </node>
  <node id="-14" lat="53.81786715409157" lon="-3.055568393798045">
    <tag k="addr:postcode" v="FY1 1HB"/>
    <tag k="removemelater" v="yes"/>
  </node>
  <node id="-15" lat="53.817527007622" lon="-3.055407946945045">
    <tag k="addr:postcode" v="FY1 1HH"/>
    <tag k="removemelater" v="yes"/>
  </node>
  <node id="-16" lat="53.81768490586133" lon="-3.050733497156696">
    <tag k="addr:postcode" v="FY1 1HU"/>
    <tag k="removemelater" v="yes"/>
  </node>
  <node id="-17" lat="53.81810652723014" lon="-3.0498022788408448">
    <tag k="addr:postcode" v="FY1 1JA"/>
    <tag k="removemelater" v="yes"/>
  </node>
  <node id="-18" lat="53.818605029107104" lon="-3.0534299625298016">
    <tag k="addr:postcode" v="FY1 1JD"/>
    <tag k="removemelater" v="yes"/>
  </node>
  <node id="-19" lat="53.818782246777445" lon="-3.0516723609174328">
    <tag k="addr:postcode" v="FY1 1NA"/>
    <tag k="removemelater" v="yes"/>
  </node>
  <node id="-20" lat="53.818782246777445" lon="-3.0516723609174328">
    <tag k="addr:postcode" v="FY1 1NB"/>
    <tag k="removemelater" v="yes"/>
  </node>
  <node id="-21" lat="53.81596444314846" lon="-3.0552471623226567">
    <tag k="addr:postcode" v="FY1 1NE"/>
    <tag k="removemelater" v="yes"/>
  </node>
  <node id="-22" lat="53.82008084522338" lon="-3.0542568978246027">
    <tag k="addr:postcode" v="FY1 1PD"/>
    <tag k="removemelater" v="yes"/>
  </node>
  <node id="-23" lat="53.820516330416666" lon="-3.053796921125977">
    <tag k="addr:postcode" v="FY1 1PP"/>
    <tag k="removemelater" v="yes"/>
  </node>
  <node id="-24" lat="53.820414975254785" lon="-3.052032260953108">
    <tag k="addr:postcode" v="FY1 1PU"/>
    <tag k="removemelater" v="yes"/>
  </node>
  <node id="-25" lat="53.82043442456063" lon="-3.054934165410731">
    <tag k="addr:postcode" v="FY1 1QT"/>
    <tag k="removemelater" v="yes"/>
  </node>
  <node id="-26" lat="53.820708557792315" lon="-3.054424567214702">
    <tag k="addr:postcode" v="FY1 1QW"/>
    <tag k="removemelater" v="yes"/>
  </node>
  <node id="-27" lat="53.82043442456063" lon="-3.054934165410731">
    <tag k="addr:postcode" v="FY1 1RE"/>
    <tag k="removemelater" v="yes"/>
  </node>
  <node id="-28" lat="53.821538243673224" lon="-3.054111200919677">
    <tag k="addr:postcode" v="FY1 1RL"/>
    <tag k="removemelater" v="yes"/>
  </node>
  <node id="-29" lat="53.822053044373845" lon="-3.0548533064439782">
    <tag k="addr:postcode" v="FY1 1RT"/>
    <tag k="removemelater" v="yes"/>
  </node>
  <node id="-30" lat="53.8224916407352" lon="-3.0550618148275572">
    <tag k="addr:postcode" v="FY1 1RU"/>
    <tag k="removemelater" v="yes"/>
  </node>
  <node id="-31" lat="53.82260899830276" lon="-3.055003998298474">
    <tag k="addr:postcode" v="FY1 1RX"/>
    <tag k="removemelater" v="yes"/>
  </node>
  <node id="-32" lat="53.82455112762222" lon="-3.0549312685311505">
    <tag k="addr:postcode" v="FY1 1SA"/>
    <tag k="removemelater" v="yes"/>
  </node>
  <node id="-33" lat="53.82354772425554" lon="-3.0545566430158937">
    <tag k="addr:postcode" v="FY1 1SD"/>
    <tag k="removemelater" v="yes"/>
  </node>
  <node id="-34" lat="53.823518761488806" lon="-3.054783792229969">
    <tag k="addr:postcode" v="FY1 1SE"/>
    <tag k="removemelater" v="yes"/>
  </node>
  <node id="-35" lat="53.82266421281683" lon="-3.0538356423400126">
    <tag k="addr:postcode" v="FY1 1SQ"/>
    <tag k="removemelater" v="yes"/>
  </node>
  <node id="-36" lat="53.82214514803043" lon="-3.0494779065722617">
    <tag k="addr:postcode" v="FY1 2AB"/>
    <tag k="removemelater" v="yes"/>
  </node>
  <node id="-37" lat="53.82278370489727" lon="-3.0535348114847043">
    <tag k="addr:postcode" v="FY1 2AW"/>
    <tag k="removemelater" v="yes"/>
  </node>
  <node id="-38" lat="53.82152369935581" lon="-3.0506472745280817">
    <tag k="addr:postcode" v="FY1 2AZ"/>
    <tag k="removemelater" v="yes"/>
  </node>
  <node id="-39" lat="53.82620502389628" lon="-3.054927253931878">
    <tag k="addr:postcode" v="FY1 2EY"/>
    <tag k="removemelater" v="yes"/>
  </node>
  <node id="-40" lat="53.818277003194474" lon="-3.0498369207609066">
    <tag k="addr:postcode" v="FY1 3AA"/>
    <tag k="removemelater" v="yes"/>
  </node>
  <node id="-41" lat="53.82001491419017" lon="-3.050503185836434">
    <tag k="addr:postcode" v="FY1 3AB"/>
    <tag k="removemelater" v="yes"/>
  </node>
  <node id="-42" lat="53.82038979037091" lon="-3.048750450613929">
    <tag k="addr:postcode" v="FY1 3AH"/>
    <tag k="removemelater" v="yes"/>
  </node>
  <node id="-43" lat="53.81993456864735" lon="-3.050440413686623">
    <tag k="addr:postcode" v="FY1 3AX"/>
    <tag k="removemelater" v="yes"/>
  </node>
  <node id="-44" lat="53.820130273953325" lon="-3.0506731681946024">
    <tag k="addr:postcode" v="FY1 3AY"/>
    <tag k="removemelater" v="yes"/>
  </node>
  <node id="-45" lat="53.81836539950683" lon="-3.046922668237263">
    <tag k="addr:postcode" v="FY1 3DR"/>
    <tag k="removemelater" v="yes"/>
  </node>
  <node id="-46" lat="53.81812764156201" lon="-3.047387624722373">
    <tag k="addr:postcode" v="FY1 3PS"/>
    <tag k="removemelater" v="yes"/>
  </node>
  <node id="-47" lat="53.816204679781706" lon="-3.047324472184576">
    <tag k="addr:postcode" v="FY1 4BA"/>
    <tag k="removemelater" v="yes"/>
  </node>
  <node id="-48" lat="53.81607344416211" lon="-3.054095530595035">
    <tag k="addr:postcode" v="FY1 4HU"/>
    <tag k="removemelater" v="yes"/>
  </node>
  <node id="-49" lat="53.814854896285276" lon="-3.0536548505154895">
    <tag k="addr:postcode" v="FY1 4PX"/>
    <tag k="removemelater" v="yes"/>
  </node>
  <node id="-50" lat="53.81646106087916" lon="-3.053968557513252">
    <tag k="addr:postcode" v="FY1 4RN"/>
    <tag k="removemelater" v="yes"/>
  </node>
  <node id="-51" lat="53.81679680309552" lon="-3.0546301265208085">
    <tag k="addr:postcode" v="FY1 4RS"/>
    <tag k="removemelater" v="yes"/>
  </node>
  <node id="-52" lat="53.816540374601125" lon="-3.0551704996538724">
    <tag k="addr:postcode" v="FY1 4RU"/>
    <tag k="removemelater" v="yes"/>
  </node>
  <node id="-53" lat="53.81671993128932" lon="-3.0541725161770206">
    <tag k="addr:postcode" v="FY1 4RW"/>
    <tag k="removemelater" v="yes"/>
  </node>
  <node id="-54" lat="53.81607344416211" lon="-3.054095530595035">
    <tag k="addr:postcode" v="FY1 4RZ"/>
    <tag k="removemelater" v="yes"/>
  </node>
  <node id="-55" lat="53.815596897716475" lon="-3.0541139464407743">
    <tag k="addr:postcode" v="FY1 4SS"/>
    <tag k="removemelater" v="yes"/>
  </node>
  <node id="-56" lat="53.81491423663965" lon="-3.0550840743796934">
    <tag k="addr:postcode" v="FY1 4TH"/>
    <tag k="removemelater" v="yes"/>
  </node>
  <node id="-57" lat="53.81491423663965" lon="-3.0550840743796934">
    <tag k="addr:postcode" v="FY1 4TQ"/>
    <tag k="removemelater" v="yes"/>
  </node>
  <node id="-58" lat="53.81586518487433" lon="-3.0470881699925902">
    <tag k="addr:postcode" v="FY1 4TR"/>
    <tag k="removemelater" v="yes"/>
  </node>
  <node id="-59" lat="53.816204679781706" lon="-3.047324472184576">
    <tag k="addr:postcode" v="FY1 4TT"/>
    <tag k="removemelater" v="yes"/>
  </node>
  <node id="-60" lat="53.81249836301845" lon="-3.0548563160523208">
    <tag k="addr:postcode" v="FY1 5AR"/>
    <tag k="removemelater" v="yes"/>
  </node>
  <node id="-61" lat="53.81225719922474" lon="-3.054683194074238">
    <tag k="addr:postcode" v="FY1 5AS"/>
    <tag k="removemelater" v="yes"/>
  </node>
  <node id="-62" lat="53.809995598721294" lon="-3.0553098142649358">
    <tag k="addr:postcode" v="FY1 5BE"/>
    <tag k="removemelater" v="yes"/>
  </node>
  <node id="-63" lat="53.80874097472112" lon="-3.0548834455173055">
    <tag k="addr:postcode" v="FY1 5BJ"/>
    <tag k="removemelater" v="yes"/>
  </node>
  <node id="-64" lat="53.80742254568575" lon="-3.052511698187757">
    <tag k="addr:postcode" v="FY1 5DD"/>
    <tag k="removemelater" v="yes"/>
  </node>
  <node id="-65" lat="53.8084825056541" lon="-3.054633972910626">
    <tag k="addr:postcode" v="FY1 5DJ"/>
    <tag k="removemelater" v="yes"/>
  </node>
  <node id="-66" lat="53.80737647292807" lon="-3.0495644714186687">
    <tag k="addr:postcode" v="FY1 5FE"/>
    <tag k="removemelater" v="yes"/>
  </node>
  <node id="-67" lat="53.818782246777445" lon="-3.0516723609174328">
    <tag k="addr:postcode" v="FY1 5GL"/>
    <tag k="removemelater" v="yes"/>
  </node>
  <node id="-68" lat="53.818782246777445" lon="-3.0516723609174328">
    <tag k="addr:postcode" v="FY1 5GX"/>
    <tag k="removemelater" v="yes"/>
  </node>
  <node id="-69" lat="53.805742377693335" lon="-3.046273980330079">
    <tag k="addr:postcode" v="FY1 5JD"/>
    <tag k="removemelater" v="yes"/>
  </node>
  <node id="-70" lat="53.80558801827279" lon="-3.046452359303547">
    <tag k="addr:postcode" v="FY1 5JE"/>
    <tag k="removemelater" v="yes"/>
  </node>
  <node id="-71" lat="53.80478043079319" lon="-3.0462955777015606">
    <tag k="addr:postcode" v="FY1 5JG"/>
    <tag k="removemelater" v="yes"/>
  </node>
  <node id="-72" lat="53.8049469548927" lon="-3.0457530631569174">
    <tag k="addr:postcode" v="FY1 5JN"/>
    <tag k="removemelater" v="yes"/>
  </node>
  <node id="-73" lat="53.804773982943395" lon="-3.043941743550961">
    <tag k="addr:postcode" v="FY1 5JP"/>
    <tag k="removemelater" v="yes"/>
  </node>
  <node id="-74" lat="53.80531660050227" lon="-3.04252782033059">
    <tag k="addr:postcode" v="FY1 5JR"/>
    <tag k="removemelater" v="yes"/>
  </node>
  <node id="-75" lat="53.80543817536731" lon="-3.0419841692467706">
    <tag k="addr:postcode" v="FY1 5JS"/>
    <tag k="removemelater" v="yes"/>
  </node>
  <node id="-76" lat="53.8117972484639" lon="-3.053836328975841">
    <tag k="addr:postcode" v="FY1 5RJ"/>
    <tag k="removemelater" v="yes"/>
  </node>
  <node id="-77" lat="53.812143535029854" lon="-3.0532982619528832">
    <tag k="addr:postcode" v="FY1 5RL"/>
    <tag k="removemelater" v="yes"/>
  </node>
  <node id="-78" lat="53.802836630870374" lon="-3.054765560299663">
    <tag k="addr:postcode" v="FY1 6BN"/>
    <tag k="removemelater" v="yes"/>
  </node>
  <node id="-79" lat="53.80082824823913" lon="-3.0459845876856098">
    <tag k="addr:postcode" v="FY1 6BW"/>
    <tag k="removemelater" v="yes"/>
  </node>
  <node id="-80" lat="53.80694609560988" lon="-3.054565027570064">
    <tag k="addr:postcode" v="FY1 6DX"/>
    <tag k="removemelater" v="yes"/>
  </node>
  <node id="-81" lat="53.800030949043425" lon="-3.0467087203054706">
    <tag k="addr:postcode" v="FY1 6JA"/>
    <tag k="removemelater" v="yes"/>
  </node>
  <node id="-82" lat="53.80080351864653" lon="-3.0467583334961463">
    <tag k="addr:postcode" v="FY1 6JB"/>
    <tag k="removemelater" v="yes"/>
  </node>
  <node id="-83" lat="53.802074715593385" lon="-3.046319299598282">
    <tag k="addr:postcode" v="FY1 6JE"/>
    <tag k="removemelater" v="yes"/>
  </node>
  <node id="-84" lat="53.803160353260665" lon="-3.046543734298951">
    <tag k="addr:postcode" v="FY1 6JF"/>
    <tag k="removemelater" v="yes"/>
  </node>
  <node id="-85" lat="53.80296355127015" lon="-3.0474650766578546">
    <tag k="addr:postcode" v="FY1 6JH"/>
    <tag k="removemelater" v="yes"/>
  </node>
  <node id="-86" lat="53.80376522745328" lon="-3.0462399248758594">
    <tag k="addr:postcode" v="FY1 6JL"/>
    <tag k="removemelater" v="yes"/>
  </node>
  <node id="-87" lat="53.80402876500294" lon="-3.042814741078007">
    <tag k="addr:postcode" v="FY1 6JN"/>
    <tag k="removemelater" v="yes"/>
  </node>
  <node id="-88" lat="53.80324520571758" lon="-3.0460903147898843">
    <tag k="addr:postcode" v="FY1 6JP"/>
    <tag k="removemelater" v="yes"/>
  </node>
  <node id="-89" lat="53.80275095110371" lon="-3.0460780083271604">
    <tag k="addr:postcode" v="FY1 6JQ"/>
    <tag k="removemelater" v="yes"/>
  </node>
  <node id="-90" lat="53.80215111038896" lon="-3.04580494461815">
    <tag k="addr:postcode" v="FY1 6JR"/>
    <tag k="removemelater" v="yes"/>
  </node>
  <node id="-91" lat="53.8005134724287" lon="-3.044974643708552">
    <tag k="addr:postcode" v="FY1 6JT"/>
    <tag k="removemelater" v="yes"/>
  </node>
  <node id="-92" lat="53.80179655035808" lon="-3.045234314274432">
    <tag k="addr:postcode" v="FY1 6JU"/>
    <tag k="removemelater" v="yes"/>
  </node>
  <node id="-93" lat="53.80548896948515" lon="-3.0485302715954226">
    <tag k="addr:postcode" v="FY1 6JX"/>
    <tag k="removemelater" v="yes"/>
  </node>
  <node id="-94" lat="53.80237735438065" lon="-3.041498285449591">
    <tag k="addr:postcode" v="FY1 6JZ"/>
    <tag k="removemelater" v="yes"/>
  </node>
  <node id="-95" lat="53.80067140161032" lon="-3.0433539362549484">
    <tag k="addr:postcode" v="FY1 6LA"/>
    <tag k="removemelater" v="yes"/>
  </node>
  <node id="-96" lat="53.800996631974016" lon="-3.044197111737879">
    <tag k="addr:postcode" v="FY1 6LB"/>
    <tag k="removemelater" v="yes"/>
  </node>
  <node id="-97" lat="53.80239362562171" lon="-3.0447936444968233">
    <tag k="addr:postcode" v="FY1 6LD"/>
    <tag k="removemelater" v="yes"/>
  </node>
  <node id="-98" lat="53.80337895971261" lon="-3.04518257595894">
    <tag k="addr:postcode" v="FY1 6LE"/>
    <tag k="removemelater" v="yes"/>
  </node>
  <node id="-99" lat="53.802014480949204" lon="-3.0439490965422475">
    <tag k="addr:postcode" v="FY1 6LF"/>
    <tag k="removemelater" v="yes"/>
  </node>
  <node id="-100" lat="53.803480991209476" lon="-3.043788138226848">
    <tag k="addr:postcode" v="FY1 6LH"/>
    <tag k="removemelater" v="yes"/>
  </node>
  <node id="-101" lat="53.8028126882018" lon="-3.0431186106722095">
    <tag k="addr:postcode" v="FY1 6LJ"/>
    <tag k="removemelater" v="yes"/>
  </node>
  <node id="-102" lat="53.800662803086965" lon="-3.042275694114775">
    <tag k="addr:postcode" v="FY1 6LL"/>
    <tag k="removemelater" v="yes"/>
  </node>
  <node id="-103" lat="53.80353926202456" lon="-3.042255947271943">
    <tag k="addr:postcode" v="FY1 6LP"/>
    <tag k="removemelater" v="yes"/>
  </node>
  <node id="-104" lat="53.80207289268357" lon="-3.0434342914941834">
    <tag k="addr:postcode" v="FY1 6LQ"/>
    <tag k="removemelater" v="yes"/>
  </node>
  <node id="-105" lat="53.80299636515075" lon="-3.0416351053376505">
    <tag k="addr:postcode" v="FY1 6LR"/>
    <tag k="removemelater" v="yes"/>
  </node>
  <node id="-106" lat="53.802301373805705" lon="-3.0419671088062565">
    <tag k="addr:postcode" v="FY1 6LW"/>
    <tag k="removemelater" v="yes"/>
  </node>
  <node id="-107" lat="53.80551880599087" lon="-3.049229538510887">
    <tag k="addr:postcode" v="FY1 6NZ"/>
    <tag k="removemelater" v="yes"/>
  </node>
  <node id="-108" lat="53.818782246777445" lon="-3.0516723609174328">
    <tag k="addr:postcode" v="FY1 9DP"/>
    <tag k="removemelater" v="yes"/>
  </node>
  <node id="-109" lat="53.818782246777445" lon="-3.0516723609174328">
    <tag k="addr:postcode" v="FY1 9EE"/>
    <tag k="removemelater" v="yes"/>
  </node>
  <node id="-110" lat="53.818782246777445" lon="-3.0516723609174328">
    <tag k="addr:postcode" v="FY1 9EG"/>
    <tag k="removemelater" v="yes"/>
  </node>
  <node id="-111" lat="53.818782246777445" lon="-3.0516723609174328">
    <tag k="addr:postcode" v="FY1 9ET"/>
    <tag k="removemelater" v="yes"/>
  </node>
  <node id="-112" lat="53.818782246777445" lon="-3.0516723609174328">
    <tag k="addr:postcode" v="FY1 9FJ"/>
    <tag k="removemelater" v="yes"/>
  </node>
  <node id="-113" lat="53.818782246777445" lon="-3.0516723609174328">
    <tag k="addr:postcode" v="FY1 9FS"/>
    <tag k="removemelater" v="yes"/>
  </node>
  <node id="-114" lat="53.818782246777445" lon="-3.0516723609174328">
    <tag k="addr:postcode" v="FY1 9GA"/>
    <tag k="removemelater" v="yes"/>
  </node>
  <node id="-115" lat="53.818782246777445" lon="-3.0516723609174328">
    <tag k="addr:postcode" v="FY1 9GJ"/>
    <tag k="removemelater" v="yes"/>
  </node>
  <node id="-116" lat="53.818782246777445" lon="-3.0516723609174328">
    <tag k="addr:postcode" v="FY1 9GU"/>
    <tag k="removemelater" v="yes"/>
  </node>
  <node id="-117" lat="53.818782246777445" lon="-3.0516723609174328">
    <tag k="addr:postcode" v="FY1 9HF"/>
    <tag k="removemelater" v="yes"/>
  </node>
  <node id="-118" lat="53.818782246777445" lon="-3.0516723609174328">
    <tag k="addr:postcode" v="FY1 9HP"/>
    <tag k="removemelater" v="yes"/>
  </node>
  <node id="-119" lat="53.818782246777445" lon="-3.0516723609174328">
    <tag k="addr:postcode" v="FY1 9HS"/>
    <tag k="removemelater" v="yes"/>
  </node>
  <node id="-120" lat="53.818782246777445" lon="-3.0516723609174328">
    <tag k="addr:postcode" v="FY1 9HT"/>
    <tag k="removemelater" v="yes"/>
  </node>
  <node id="-121" lat="53.818782246777445" lon="-3.0516723609174328">
    <tag k="addr:postcode" v="FY1 9HW"/>
    <tag k="removemelater" v="yes"/>
  </node>
  <node id="-122" lat="53.818782246777445" lon="-3.0516723609174328">
    <tag k="addr:postcode" v="FY1 9JE"/>
    <tag k="removemelater" v="yes"/>
  </node>
  <node id="-123" lat="53.818782246777445" lon="-3.0516723609174328">
    <tag k="addr:postcode" v="FY1 9JG"/>
    <tag k="removemelater" v="yes"/>
  </node>
  <node id="-124" lat="53.818782246777445" lon="-3.0516723609174328">
    <tag k="addr:postcode" v="FY1 9JH"/>
    <tag k="removemelater" v="yes"/>
  </node>
  <node id="-125" lat="53.818782246777445" lon="-3.0516723609174328">
    <tag k="addr:postcode" v="FY1 9JQ"/>
    <tag k="removemelater" v="yes"/>
  </node>
  <node id="-126" lat="53.818782246777445" lon="-3.0516723609174328">
    <tag k="addr:postcode" v="FY1 9JR"/>
    <tag k="removemelater" v="yes"/>
  </node>
  <node id="-127" lat="53.818782246777445" lon="-3.0516723609174328">
    <tag k="addr:postcode" v="FY1 9JU"/>
    <tag k="removemelater" v="yes"/>
  </node>
  <node id="-128" lat="53.818782246777445" lon="-3.0516723609174328">
    <tag k="addr:postcode" v="FY1 9JW"/>
    <tag k="removemelater" v="yes"/>
  </node>
  <node id="-129" lat="53.818782246777445" lon="-3.0516723609174328">
    <tag k="addr:postcode" v="FY1 9JX"/>
    <tag k="removemelater" v="yes"/>
  </node>
  <node id="-130" lat="53.818782246777445" lon="-3.0516723609174328">
    <tag k="addr:postcode" v="FY1 9JY"/>
    <tag k="removemelater" v="yes"/>
  </node>
  <node id="-131" lat="53.818782246777445" lon="-3.0516723609174328">
    <tag k="addr:postcode" v="FY1 9JZ"/>
    <tag k="removemelater" v="yes"/>
  </node>
  <node id="-132" lat="53.818782246777445" lon="-3.0516723609174328">
    <tag k="addr:postcode" v="FY1 9LA"/>
    <tag k="removemelater" v="yes"/>
  </node>
  <node id="-133" lat="53.818782246777445" lon="-3.0516723609174328">
    <tag k="addr:postcode" v="FY1 9LB"/>
    <tag k="removemelater" v="yes"/>
  </node>
  <node id="-134" lat="53.818782246777445" lon="-3.0516723609174328">
    <tag k="addr:postcode" v="FY1 9LD"/>
    <tag k="removemelater" v="yes"/>
  </node>
  <node id="-135" lat="53.818782246777445" lon="-3.0516723609174328">
    <tag k="addr:postcode" v="FY1 9LE"/>
    <tag k="removemelater" v="yes"/>
  </node>
  <node id="-136" lat="53.818782246777445" lon="-3.0516723609174328">
    <tag k="addr:postcode" v="FY1 9LF"/>
    <tag k="removemelater" v="yes"/>
  </node>
  <node id="-137" lat="53.818782246777445" lon="-3.0516723609174328">
    <tag k="addr:postcode" v="FY1 9LH"/>
    <tag k="removemelater" v="yes"/>
  </node>
  <node id="-138" lat="53.818782246777445" lon="-3.0516723609174328">
    <tag k="addr:postcode" v="FY1 9LL"/>
    <tag k="removemelater" v="yes"/>
  </node>
  <node id="-139" lat="53.818782246777445" lon="-3.0516723609174328">
    <tag k="addr:postcode" v="FY1 9LN"/>
    <tag k="removemelater" v="yes"/>
  </node>
  <node id="-140" lat="53.818782246777445" lon="-3.0516723609174328">
    <tag k="addr:postcode" v="FY1 9LS"/>
    <tag k="removemelater" v="yes"/>
  </node>
  <node id="-141" lat="53.818782246777445" lon="-3.0516723609174328">
    <tag k="addr:postcode" v="FY1 9LU"/>
    <tag k="removemelater" v="yes"/>
  </node>
  <node id="-142" lat="53.818782246777445" lon="-3.0516723609174328">
    <tag k="addr:postcode" v="FY1 9LX"/>
    <tag k="removemelater" v="yes"/>
  </node>
  <node id="-143" lat="53.818782246777445" lon="-3.0516723609174328">
    <tag k="addr:postcode" v="FY1 9LY"/>
    <tag k="removemelater" v="yes"/>
  </node>
  <node id="-144" lat="53.818782246777445" lon="-3.0516723609174328">
    <tag k="addr:postcode" v="FY1 9NA"/>
    <tag k="removemelater" v="yes"/>
  </node>
  <node id="-145" lat="53.818782246777445" lon="-3.0516723609174328">
    <tag k="addr:postcode" v="FY1 9NB"/>
    <tag k="removemelater" v="yes"/>
  </node>
  <node id="-146" lat="53.818782246777445" lon="-3.0516723609174328">
    <tag k="addr:postcode" v="FY1 9ND"/>
    <tag k="removemelater" v="yes"/>
  </node>
  <node id="-147" lat="53.818782246777445" lon="-3.0516723609174328">
    <tag k="addr:postcode" v="FY1 9NE"/>
    <tag k="removemelater" v="yes"/>
  </node>
  <node id="-148" lat="53.818782246777445" lon="-3.0516723609174328">
    <tag k="addr:postcode" v="FY1 9NF"/>
    <tag k="removemelater" v="yes"/>
  </node>
  <node id="-149" lat="53.818782246777445" lon="-3.0516723609174328">
    <tag k="addr:postcode" v="FY1 9NG"/>
    <tag k="removemelater" v="yes"/>
  </node>
  <node id="-150" lat="53.818782246777445" lon="-3.0516723609174328">
    <tag k="addr:postcode" v="FY1 9NH"/>
    <tag k="removemelater" v="yes"/>
  </node>
  <node id="-151" lat="53.818782246777445" lon="-3.0516723609174328">
    <tag k="addr:postcode" v="FY1 9NJ"/>
    <tag k="removemelater" v="yes"/>
  </node>
  <node id="-152" lat="53.81866664223046" lon="-3.054601140368212">
    <tag k="addr:postcode" v="FY1 9SA"/>
    <tag k="removemelater" v="yes"/>
  </node>
  <node id="-153" lat="53.818711307111236" lon="-3.0546326422698784">
    <tag k="addr:postcode" v="FY1 9SB"/>
    <tag k="removemelater" v="yes"/>
  </node>
  <node id="-154" lat="53.818711307111236" lon="-3.0546326422698784">
    <tag k="addr:postcode" v="FY1 9SD"/>
    <tag k="removemelater" v="yes"/>
  </node>
  <node id="-155" lat="53.818711307111236" lon="-3.0546326422698784">
    <tag k="addr:postcode" v="FY1 9SE"/>
    <tag k="removemelater" v="yes"/>
  </node>
  <node id="-156" lat="53.818711307111236" lon="-3.0546326422698784">
    <tag k="addr:postcode" v="FY1 9SF"/>
    <tag k="removemelater" v="yes"/>
  </node>
  <node id="-157" lat="53.818711307111236" lon="-3.0546326422698784">
    <tag k="addr:postcode" v="FY1 9SG"/>
    <tag k="removemelater" v="yes"/>
  </node>
  <node id="-158" lat="53.818711307111236" lon="-3.0546326422698784">
    <tag k="addr:postcode" v="FY1 9SH"/>
    <tag k="removemelater" v="yes"/>
  </node>
  <node id="-159" lat="53.818711307111236" lon="-3.0546326422698784">
    <tag k="addr:postcode" v="FY1 9SJ"/>
    <tag k="removemelater" v="yes"/>
  </node>
  <node id="-160" lat="53.818711307111236" lon="-3.0546326422698784">
    <tag k="addr:postcode" v="FY1 9SL"/>
    <tag k="removemelater" v="yes"/>
  </node>
  <node id="-161" lat="53.818711307111236" lon="-3.0546326422698784">
    <tag k="addr:postcode" v="FY1 9SN"/>
    <tag k="removemelater" v="yes"/>
  </node>
  <node id="-162" lat="53.818711307111236" lon="-3.0546326422698784">
    <tag k="addr:postcode" v="FY1 9SP"/>
    <tag k="removemelater" v="yes"/>
  </node>
  <node id="-163" lat="53.818711307111236" lon="-3.0546326422698784">
    <tag k="addr:postcode" v="FY1 9SQ"/>
    <tag k="removemelater" v="yes"/>
  </node>
  <node id="-164" lat="53.818711307111236" lon="-3.0546326422698784">
    <tag k="addr:postcode" v="FY1 9SR"/>
    <tag k="removemelater" v="yes"/>
  </node>
  <node id="-165" lat="53.818711307111236" lon="-3.0546326422698784">
    <tag k="addr:postcode" v="FY1 9SS"/>
    <tag k="removemelater" v="yes"/>
  </node>
  <node id="-166" lat="53.818711307111236" lon="-3.0546326422698784">
    <tag k="addr:postcode" v="FY1 9ST"/>
    <tag k="removemelater" v="yes"/>
  </node>
  <node id="-167" lat="53.818711307111236" lon="-3.0546326422698784">
    <tag k="addr:postcode" v="FY1 9SU"/>
    <tag k="removemelater" v="yes"/>
  </node>
  <node id="-168" lat="53.818711307111236" lon="-3.0546326422698784">
    <tag k="addr:postcode" v="FY1 9SW"/>
    <tag k="removemelater" v="yes"/>
  </node>
  <node id="-169" lat="53.818711307111236" lon="-3.0546326422698784">
    <tag k="addr:postcode" v="FY1 9SX"/>
    <tag k="removemelater" v="yes"/>
  </node>
  <node id="-170" lat="53.818711307111236" lon="-3.0546326422698784">
    <tag k="addr:postcode" v="FY1 9SY"/>
    <tag k="removemelater" v="yes"/>
  </node>
  <node id="-171" lat="53.818711307111236" lon="-3.0546326422698784">
    <tag k="addr:postcode" v="FY1 9SZ"/>
    <tag k="removemelater" v="yes"/>
  </node>
  <node id="-172" lat="53.818711307111236" lon="-3.0546326422698784">
    <tag k="addr:postcode" v="FY1 9TA"/>
    <tag k="removemelater" v="yes"/>
  </node>
  <node id="-173" lat="53.818711307111236" lon="-3.0546326422698784">
    <tag k="addr:postcode" v="FY1 9TB"/>
    <tag k="removemelater" v="yes"/>
  </node>
  <node id="-174" lat="53.818711307111236" lon="-3.0546326422698784">
    <tag k="addr:postcode" v="FY1 9TD"/>
    <tag k="removemelater" v="yes"/>
  </node>
  <node id="-175" lat="53.818711307111236" lon="-3.0546326422698784">
    <tag k="addr:postcode" v="FY1 9TE"/>
    <tag k="removemelater" v="yes"/>
  </node>
  <node id="-176" lat="53.83997388650892" lon="-3.0344373408103205">
    <tag k="addr:postcode" v="FY2 0AX"/>
    <tag k="removemelater" v="yes"/>
  </node>
  <node id="-177" lat="53.85066795218225" lon="-3.0325880714857285">
    <tag k="addr:postcode" v="FY2 0DL"/>
    <tag k="removemelater" v="yes"/>
  </node>
  <node id="-178" lat="53.83997388650892" lon="-3.0344373408103205">
    <tag k="addr:postcode" v="FY2 0UZ"/>
    <tag k="removemelater" v="yes"/>
  </node>
  <node id="-179" lat="53.839983003971284" lon="-3.034422367890463">
    <tag k="addr:postcode" v="FY2 0XE"/>
    <tag k="removemelater" v="yes"/>
  </node>
  <node id="-180" lat="53.83997388650892" lon="-3.0344373408103205">
    <tag k="addr:postcode" v="FY2 0XW"/>
    <tag k="removemelater" v="yes"/>
  </node>
  <node id="-181" lat="53.83997388650892" lon="-3.0344373408103205">
    <tag k="addr:postcode" v="FY2 0YE"/>
    <tag k="removemelater" v="yes"/>
  </node>
  <node id="-182" lat="53.85130809579513" lon="-3.0520165674787774">
    <tag k="addr:postcode" v="FY2 9HB"/>
    <tag k="removemelater" v="yes"/>
  </node>
  <node id="-183" lat="53.84937834883173" lon="-3.052728220325821">
    <tag k="addr:postcode" v="FY2 9HP"/>
    <tag k="removemelater" v="yes"/>
  </node>
  <node id="-184" lat="53.85003237119578" lon="-3.0509204709578945">
    <tag k="addr:postcode" v="FY2 9HX"/>
    <tag k="removemelater" v="yes"/>
  </node>
  <node id="-185" lat="53.85090921395652" lon="-3.048297348112386">
    <tag k="addr:postcode" v="FY2 9JF"/>
    <tag k="removemelater" v="yes"/>
  </node>
  <node id="-186" lat="53.841827315264595" lon="-3.053845796589064">
    <tag k="addr:postcode" v="FY2 9NY"/>
    <tag k="removemelater" v="yes"/>
  </node>
  <node id="-187" lat="53.842286554406705" lon="-3.053750942611389">
    <tag k="addr:postcode" v="FY2 9PG"/>
    <tag k="removemelater" v="yes"/>
  </node>
  <node id="-188" lat="53.843276255960625" lon="-3.053639012018078">
    <tag k="addr:postcode" v="FY2 9PR"/>
    <tag k="removemelater" v="yes"/>
  </node>
  <node id="-189" lat="53.84424566891284" lon="-3.052766602672884">
    <tag k="addr:postcode" v="FY2 9PY"/>
    <tag k="removemelater" v="yes"/>
  </node>
  <node id="-190" lat="53.818782246777445" lon="-3.0516723609174328">
    <tag k="addr:postcode" v="FY3 7AN"/>
    <tag k="removemelater" v="yes"/>
  </node>
  <node id="-191" lat="53.818782246777445" lon="-3.0516723609174328">
    <tag k="addr:postcode" v="FY3 8XA"/>
    <tag k="removemelater" v="yes"/>
  </node>
  <node id="-192" lat="53.803673064368546" lon="-3.008746932728606">
    <tag k="addr:postcode" v="FY3 9EU"/>
    <tag k="removemelater" v="yes"/>
  </node>
  <node id="-193" lat="53.818782246777445" lon="-3.0516723609174328">
    <tag k="addr:postcode" v="FY3 9GP"/>
    <tag k="removemelater" v="yes"/>
  </node>
  <node id="-194" lat="53.818782246777445" lon="-3.0516723609174328">
    <tag k="addr:postcode" v="FY3 9GZ"/>
    <tag k="removemelater" v="yes"/>
  </node>
  <node id="-195" lat="53.80402393971792" lon="-3.0065687657727884">
    <tag k="addr:postcode" v="FY3 9JD"/>
    <tag k="removemelater" v="yes"/>
  </node>
  <node id="-196" lat="53.80403311125137" lon="-3.0054756894952974">
    <tag k="addr:postcode" v="FY3 9LT"/>
    <tag k="removemelater" v="yes"/>
  </node>
  <node id="-197" lat="53.80300614697525" lon="-3.00467671247624">
    <tag k="addr:postcode" v="FY3 9TN"/>
    <tag k="removemelater" v="yes"/>
  </node>
  <node id="-198" lat="53.80324656202507" lon="-3.0081596854567216">
    <tag k="addr:postcode" v="FY3 9TW"/>
    <tag k="removemelater" v="yes"/>
  </node>
  <node id="-199" lat="53.818782246777445" lon="-3.0516723609174328">
    <tag k="addr:postcode" v="FY3 9YZ"/>
    <tag k="removemelater" v="yes"/>
  </node>
  <node id="-200" lat="53.818782246777445" lon="-3.0516723609174328">
    <tag k="addr:postcode" v="FY3 9ZN"/>
    <tag k="removemelater" v="yes"/>
  </node>
  <node id="-201" lat="53.796627045632135" lon="-3.0556268928861408">
    <tag k="addr:postcode" v="FY4 1AX"/>
    <tag k="removemelater" v="yes"/>
  </node>
  <node id="-202" lat="53.7831471179996" lon="-3.0553187657196457">
    <tag k="addr:postcode" v="FY4 1DH"/>
    <tag k="removemelater" v="yes"/>
  </node>
  <node id="-203" lat="53.78348753435333" lon="-3.0554487289766676">
    <tag k="addr:postcode" v="FY4 1DQ"/>
    <tag k="removemelater" v="yes"/>
  </node>
  <node id="-204" lat="53.78568456194329" lon="-3.0570520540810615">
    <tag k="addr:postcode" v="FY4 1NN"/>
    <tag k="removemelater" v="yes"/>
  </node>
  <node id="-205" lat="53.78688133765763" lon="-3.055883042014088">
    <tag k="addr:postcode" v="FY4 1NU"/>
    <tag k="removemelater" v="yes"/>
  </node>
  <node id="-206" lat="53.78534735803376" lon="-3.0565578797713853">
    <tag k="addr:postcode" v="FY4 1NX"/>
    <tag k="removemelater" v="yes"/>
  </node>
  <node id="-207" lat="53.7899300604651" lon="-3.0577356435654077">
    <tag k="addr:postcode" v="FY4 1PL"/>
    <tag k="removemelater" v="yes"/>
  </node>
  <node id="-208" lat="53.783404881638035" lon="-3.0546270805667133">
    <tag k="addr:postcode" v="FY4 1PS"/>
    <tag k="removemelater" v="yes"/>
  </node>
  <node id="-209" lat="53.78111286898349" lon="-3.0566639425853874">
    <tag k="addr:postcode" v="FY4 1SS"/>
    <tag k="removemelater" v="yes"/>
  </node>
  <node id="-210" lat="53.78063337652658" lon="-3.057016123756394">
    <tag k="addr:postcode" v="FY4 1ST"/>
    <tag k="removemelater" v="yes"/>
  </node>
  <node id="-211" lat="53.78000552907974" lon="-3.056863756299111">
    <tag k="addr:postcode" v="FY4 1SU"/>
    <tag k="removemelater" v="yes"/>
  </node>
  <node id="-212" lat="53.78657553123666" lon="-3.0559057178921414">
    <tag k="addr:postcode" v="FY4 1SW"/>
    <tag k="removemelater" v="yes"/>
  </node>
  <node id="-213" lat="53.77853402471078" lon="-3.056568788570026">
    <tag k="addr:postcode" v="FY4 1SY"/>
    <tag k="removemelater" v="yes"/>
  </node>
  <node id="-214" lat="53.77756875504413" lon="-3.0539040543709466">
    <tag k="addr:postcode" v="FY4 1TF"/>
    <tag k="removemelater" v="yes"/>
  </node>
  <node id="-215" lat="53.786206953354316" lon="-3.0559116384862812">
    <tag k="addr:postcode" v="FY4 1TH"/>
    <tag k="removemelater" v="yes"/>
  </node>
  <node id="-216" lat="53.77725200584762" lon="-3.03454792620167">
    <tag k="addr:postcode" v="FY4 2DP"/>
    <tag k="removemelater" v="yes"/>
  </node>
  <node id="-217" lat="53.79874310318853" lon="-3.0469954788839257">
    <tag k="addr:postcode" v="FY4 2FA"/>
    <tag k="removemelater" v="yes"/>
  </node>
  <node id="-218" lat="53.77721204791057" lon="-3.0339702923505634">
    <tag k="addr:postcode" v="FY4 2FB"/>
    <tag k="removemelater" v="yes"/>
  </node>
  <node id="-219" lat="53.777647535830994" lon="-3.030369308067727">
    <tag k="addr:postcode" v="FY4 2FD"/>
    <tag k="removemelater" v="yes"/>
  </node>
  <node id="-220" lat="53.777090720035595" lon="-3.032404286614768">
    <tag k="addr:postcode" v="FY4 2FE"/>
    <tag k="removemelater" v="yes"/>
  </node>
  <node id="-221" lat="53.775979099810584" lon="-3.0247290143714918">
    <tag k="addr:postcode" v="FY4 2FF"/>
    <tag k="removemelater" v="yes"/>
  </node>
  <node id="-222" lat="53.77616762674406" lon="-3.0299992066325907">
    <tag k="addr:postcode" v="FY4 2FG"/>
    <tag k="removemelater" v="yes"/>
  </node>
  <node id="-223" lat="53.780970873666845" lon="-3.0400118645818757">
    <tag k="addr:postcode" v="FY4 2PZ"/>
    <tag k="removemelater" v="yes"/>
  </node>
  <node id="-224" lat="53.78068247751437" lon="-3.0390638018293017">
    <tag k="addr:postcode" v="FY4 2QH"/>
    <tag k="removemelater" v="yes"/>
  </node>
  <node id="-225" lat="53.780632634877826" lon="-3.0385921059831724">
    <tag k="addr:postcode" v="FY4 2QJ"/>
    <tag k="removemelater" v="yes"/>
  </node>
  <node id="-226" lat="53.778906700257345" lon="-3.038610179468892">
    <tag k="addr:postcode" v="FY4 2QX"/>
    <tag k="removemelater" v="yes"/>
  </node>
  <node id="-227" lat="53.776032012708264" lon="-3.0258987466111664">
    <tag k="addr:postcode" v="FY4 2RF"/>
    <tag k="removemelater" v="yes"/>
  </node>
  <node id="-228" lat="53.776568757288" lon="-3.0272472209488885">
    <tag k="addr:postcode" v="FY4 2RG"/>
    <tag k="removemelater" v="yes"/>
  </node>
  <node id="-229" lat="53.77464590844919" lon="-3.0282169181374847">
    <tag k="addr:postcode" v="FY4 2RH"/>
    <tag k="removemelater" v="yes"/>
  </node>
  <node id="-230" lat="53.77464590844919" lon="-3.0282169181374847">
    <tag k="addr:postcode" v="FY4 2RJ"/>
    <tag k="removemelater" v="yes"/>
  </node>
  <node id="-231" lat="53.77464590844919" lon="-3.0282169181374847">
    <tag k="addr:postcode" v="FY4 2RL"/>
    <tag k="removemelater" v="yes"/>
  </node>
  <node id="-232" lat="53.77487213715606" lon="-3.029087376764382">
    <tag k="addr:postcode" v="FY4 2RN"/>
    <tag k="removemelater" v="yes"/>
  </node>
  <node id="-233" lat="53.77689775453879" lon="-3.0287120478050418">
    <tag k="addr:postcode" v="FY4 2RP"/>
    <tag k="removemelater" v="yes"/>
  </node>
  <node id="-234" lat="53.774689930101935" lon="-3.028324213118482">
    <tag k="addr:postcode" v="FY4 2RQ"/>
    <tag k="removemelater" v="yes"/>
  </node>
  <node id="-235" lat="53.775988216062856" lon="-3.024714061936384">
    <tag k="addr:postcode" v="FY4 2RS"/>
    <tag k="removemelater" v="yes"/>
  </node>
  <node id="-236" lat="53.776709274621524" lon="-3.026582960848247">
    <tag k="addr:postcode" v="FY4 2RT"/>
    <tag k="removemelater" v="yes"/>
  </node>
  <node id="-237" lat="53.77499193516058" lon="-3.026647260011172">
    <tag k="addr:postcode" v="FY4 2RX"/>
    <tag k="removemelater" v="yes"/>
  </node>
  <node id="-238" lat="53.77891474955914" lon="-3.031432301704803">
    <tag k="addr:postcode" v="FY4 3AW"/>
    <tag k="removemelater" v="yes"/>
  </node>
  <node id="-239" lat="53.78166166602376" lon="-3.023456077738653">
    <tag k="addr:postcode" v="FY4 3RL"/>
    <tag k="removemelater" v="yes"/>
  </node>
  <node id="-240" lat="53.777797270315624" lon="-3.025486554719836">
    <tag k="addr:postcode" v="FY4 3RS"/>
    <tag k="removemelater" v="yes"/>
  </node>
  <node id="-241" lat="53.79654926587948" lon="-3.0199624013471804">
    <tag k="addr:postcode" v="FY4 4NB"/>
    <tag k="removemelater" v="yes"/>
  </node>
  <node id="-242" lat="53.795307149642255" lon="-3.000970535164112">
    <tag k="addr:postcode" v="FY4 4QE"/>
    <tag k="removemelater" v="yes"/>
  </node>
  <node id="-243" lat="53.79792105881676" lon="-3.0033253500442343">
    <tag k="addr:postcode" v="FY4 4QJ"/>
    <tag k="removemelater" v="yes"/>
  </node>
  <node id="-244" lat="53.7983208601682" lon="-3.0177431924468148">
    <tag k="addr:postcode" v="FY4 4TH"/>
    <tag k="removemelater" v="yes"/>
  </node>
  <node id="-245" lat="53.79603568109439" lon="-3.001989885005065">
    <tag k="addr:postcode" v="FY4 4UN"/>
    <tag k="removemelater" v="yes"/>
  </node>
  <node id="-246" lat="53.79552950022293" lon="-2.9882536682739933">
    <tag k="addr:postcode" v="FY4 4UP"/>
    <tag k="removemelater" v="yes"/>
  </node>
  <node id="-247" lat="53.79600380826942" lon="-2.9874146448574894">
    <tag k="addr:postcode" v="FY4 4UY"/>
    <tag k="removemelater" v="yes"/>
  </node>
  <node id="-248" lat="53.79600380826942" lon="-2.9874146448574894">
    <tag k="addr:postcode" v="FY4 4WA"/>
    <tag k="removemelater" v="yes"/>
  </node>
  <node id="-249" lat="53.818782246777445" lon="-3.0516723609174328">
    <tag k="addr:postcode" v="FY4 4WX"/>
    <tag k="removemelater" v="yes"/>
  </node>
  <node id="-250" lat="53.795062484154926" lon="-3.020396941293475">
    <tag k="addr:postcode" v="FY4 4XL"/>
    <tag k="removemelater" v="yes"/>
  </node>
  <node id="-251" lat="53.791199144251536" lon="-2.9999315391787906">
    <tag k="addr:postcode" v="FY4 5DR"/>
    <tag k="removemelater" v="yes"/>
  </node>
  <node id="-252" lat="53.787192149374945" lon="-2.9834130172064377">
    <tag k="addr:postcode" v="FY4 5FN"/>
    <tag k="removemelater" v="yes"/>
  </node>
  <node id="-253" lat="53.79635097257764" lon="-3.0019063113969344">
    <tag k="addr:postcode" v="FY4 5LP"/>
    <tag k="removemelater" v="yes"/>
  </node>
  <node id="-254" lat="53.79091829831182" lon="-2.9904525913775237">
    <tag k="addr:postcode" v="FY4 5LW"/>
    <tag k="removemelater" v="yes"/>
  </node>
  <node id="-255" lat="53.792183377206655" lon="-2.9863685254359056">
    <tag k="addr:postcode" v="FY4 5PL"/>
    <tag k="removemelater" v="yes"/>
  </node>
  <node id="-256" lat="53.79139427729494" lon="-2.9883234167323014">
    <tag k="addr:postcode" v="FY4 5PN"/>
    <tag k="removemelater" v="yes"/>
  </node>
  <node id="-257" lat="53.79130480314202" lon="-2.9871828095589024">
    <tag k="addr:postcode" v="FY4 5PZ"/>
    <tag k="removemelater" v="yes"/>
  </node>
  <node id="-258" lat="53.79207752822575" lon="-2.9872161393237504">
    <tag k="addr:postcode" v="FY4 5QF"/>
    <tag k="removemelater" v="yes"/>
  </node>
  <node id="-259" lat="53.79139427729494" lon="-2.9883234167323014">
    <tag k="addr:postcode" v="FY4 5QN"/>
    <tag k="removemelater" v="yes"/>
  </node>
  <node id="-260" lat="53.788853813524746" lon="-2.987929742740451">
    <tag k="addr:postcode" v="FY4 5RT"/>
    <tag k="removemelater" v="yes"/>
  </node>
  <node id="-261" lat="53.78920879339807" lon="-2.987391631495142">
    <tag k="addr:postcode" v="FY4 5RU"/>
    <tag k="removemelater" v="yes"/>
  </node>
  <node id="-262" lat="53.818782246777445" lon="-3.0516723609174328">
    <tag k="addr:postcode" v="FY4 9AD"/>
    <tag k="removemelater" v="yes"/>
  </node>
  <node id="-263" lat="53.818782246777445" lon="-3.0516723609174328">
    <tag k="addr:postcode" v="FY4 9BP"/>
    <tag k="removemelater" v="yes"/>
  </node>
  <node id="-264" lat="53.88465699232329" lon="-3.038339870181653">
    <tag k="addr:postcode" v="FY5 2DE"/>
    <tag k="removemelater" v="yes"/>
  </node>
  <node id="-265" lat="53.87163331447536" lon="-3.019431536394736">
    <tag k="addr:postcode" v="FY5 3SY"/>
    <tag k="removemelater" v="yes"/>
  </node>
  <node id="-266" lat="53.87378248050755" lon="-3.0245943634270906">
    <tag k="addr:postcode" v="FY5 3TS"/>
    <tag k="removemelater" v="yes"/>
  </node>
  <node id="-267" lat="53.88489259933624" lon="-3.0053922233773185">
    <tag k="addr:postcode" v="FY5 4HX"/>
    <tag k="removemelater" v="yes"/>
  </node>
  <node id="-268" lat="53.850957073702496" lon="-2.989756922608992">
    <tag k="addr:postcode" v="FY6 6RF"/>
    <tag k="removemelater" v="yes"/>
  </node>
  <node id="-269" lat="53.850957073702496" lon="-2.989756922608992">
    <tag k="addr:postcode" v="FY6 6RG"/>
    <tag k="removemelater" v="yes"/>
  </node>
  <node id="-270" lat="53.850957073702496" lon="-2.989756922608992">
    <tag k="addr:postcode" v="FY6 6SA"/>
    <tag k="removemelater" v="yes"/>
  </node>
  <node id="-271" lat="53.850957073702496" lon="-2.989756922608992">
    <tag k="addr:postcode" v="FY6 6SB"/>
    <tag k="removemelater" v="yes"/>
  </node>
  <node id="-272" lat="53.850957073702496" lon="-2.989756922608992">
    <tag k="addr:postcode" v="FY6 6SD"/>
    <tag k="removemelater" v="yes"/>
  </node>
  <node id="-273" lat="53.850957073702496" lon="-2.989756922608992">
    <tag k="addr:postcode" v="FY6 6SE"/>
    <tag k="removemelater" v="yes"/>
  </node>
  <node id="-274" lat="53.850957073702496" lon="-2.989756922608992">
    <tag k="addr:postcode" v="FY6 6SF"/>
    <tag k="removemelater" v="yes"/>
  </node>
  <node id="-275" lat="53.850957073702496" lon="-2.989756922608992">
    <tag k="addr:postcode" v="FY6 6SG"/>
    <tag k="removemelater" v="yes"/>
  </node>
  <node id="-276" lat="53.850957073702496" lon="-2.989756922608992">
    <tag k="addr:postcode" v="FY6 6SH"/>
    <tag k="removemelater" v="yes"/>
  </node>
  <node id="-277" lat="53.850957073702496" lon="-2.989756922608992">
    <tag k="addr:postcode" v="FY6 6SJ"/>
    <tag k="removemelater" v="yes"/>
  </node>
  <node id="-278" lat="53.850957073702496" lon="-2.989756922608992">
    <tag k="addr:postcode" v="FY6 6SL"/>
    <tag k="removemelater" v="yes"/>
  </node>
  <node id="-279" lat="53.850957073702496" lon="-2.989756922608992">
    <tag k="addr:postcode" v="FY6 6SN"/>
    <tag k="removemelater" v="yes"/>
  </node>
  <node id="-280" lat="53.850957073702496" lon="-2.989756922608992">
    <tag k="addr:postcode" v="FY6 6SQ"/>
    <tag k="removemelater" v="yes"/>
  </node>
  <node id="-281" lat="53.850957073702496" lon="-2.989756922608992">
    <tag k="addr:postcode" v="FY6 6SR"/>
    <tag k="removemelater" v="yes"/>
  </node>
  <node id="-282" lat="53.850957073702496" lon="-2.989756922608992">
    <tag k="addr:postcode" v="FY6 6SS"/>
    <tag k="removemelater" v="yes"/>
  </node>
  <node id="-283" lat="53.850957073702496" lon="-2.989756922608992">
    <tag k="addr:postcode" v="FY6 6ST"/>
    <tag k="removemelater" v="yes"/>
  </node>
  <node id="-284" lat="53.850957073702496" lon="-2.989756922608992">
    <tag k="addr:postcode" v="FY6 6SU"/>
    <tag k="removemelater" v="yes"/>
  </node>
  <node id="-285" lat="53.850957073702496" lon="-2.989756922608992">
    <tag k="addr:postcode" v="FY6 6SW"/>
    <tag k="removemelater" v="yes"/>
  </node>
  <node id="-286" lat="53.850957073702496" lon="-2.989756922608992">
    <tag k="addr:postcode" v="FY6 6SX"/>
    <tag k="removemelater" v="yes"/>
  </node>
  <node id="-287" lat="53.850957073702496" lon="-2.989756922608992">
    <tag k="addr:postcode" v="FY6 6SY"/>
    <tag k="removemelater" v="yes"/>
  </node>
  <node id="-288" lat="53.850957073702496" lon="-2.989756922608992">
    <tag k="addr:postcode" v="FY6 6SZ"/>
    <tag k="removemelater" v="yes"/>
  </node>
  <node id="-289" lat="53.850957073702496" lon="-2.989756922608992">
    <tag k="addr:postcode" v="FY6 6TA"/>
    <tag k="removemelater" v="yes"/>
  </node>
  <node id="-290" lat="53.850957073702496" lon="-2.989756922608992">
    <tag k="addr:postcode" v="FY6 6TB"/>
    <tag k="removemelater" v="yes"/>
  </node>
  <node id="-291" lat="53.850957073702496" lon="-2.989756922608992">
    <tag k="addr:postcode" v="FY6 6TD"/>
    <tag k="removemelater" v="yes"/>
  </node>
  <node id="-292" lat="53.850957073702496" lon="-2.989756922608992">
    <tag k="addr:postcode" v="FY6 6TE"/>
    <tag k="removemelater" v="yes"/>
  </node>
  <node id="-293" lat="53.850957073702496" lon="-2.989756922608992">
    <tag k="addr:postcode" v="FY6 6TF"/>
    <tag k="removemelater" v="yes"/>
  </node>
  <node id="-294" lat="53.850957073702496" lon="-2.989756922608992">
    <tag k="addr:postcode" v="FY6 6TH"/>
    <tag k="removemelater" v="yes"/>
  </node>
  <node id="-295" lat="53.850957073702496" lon="-2.989756922608992">
    <tag k="addr:postcode" v="FY6 6TJ"/>
    <tag k="removemelater" v="yes"/>
  </node>
  <node id="-296" lat="53.85094746015762" lon="-2.9898327038430677">
    <tag k="addr:postcode" v="FY6 6TN"/>
    <tag k="removemelater" v="yes"/>
  </node>
  <node id="-297" lat="53.84952515498746" lon="-2.991182437257459">
    <tag k="addr:postcode" v="FY6 7AE"/>
    <tag k="removemelater" v="yes"/>
  </node>
  <node id="-298" lat="53.85187007537504" lon="-2.992393206901047">
    <tag k="addr:postcode" v="FY6 7AH"/>
    <tag k="removemelater" v="yes"/>
  </node>
  <node id="-299" lat="53.85072179353748" lon="-2.9899489900828455">
    <tag k="addr:postcode" v="FY6 7FU"/>
    <tag k="removemelater" v="yes"/>
  </node>
  <node id="-300" lat="53.849089703644864" lon="-2.9862166375102146">
    <tag k="addr:postcode" v="FY6 7HZ"/>
    <tag k="removemelater" v="yes"/>
  </node>
  <node id="-301" lat="53.85094746015762" lon="-2.9898327038430677">
    <tag k="addr:postcode" v="FY6 7PU"/>
    <tag k="removemelater" v="yes"/>
  </node>
  <node id="-302" lat="53.847010073824165" lon="-2.998571103076258">
    <tag k="addr:postcode" v="FY6 7SA"/>
    <tag k="removemelater" v="yes"/>
  </node>
  <node id="-303" lat="53.84734801296305" lon="-2.99792553416025">
    <tag k="addr:postcode" v="FY6 7SE"/>
    <tag k="removemelater" v="yes"/>
  </node>
  <node id="-304" lat="53.84783012526224" lon="-2.999396253037639">
    <tag k="addr:postcode" v="FY6 7SG"/>
    <tag k="removemelater" v="yes"/>
  </node>
  <node id="-305" lat="53.8474463637085" lon="-2.9990679015378907">
    <tag k="addr:postcode" v="FY6 7SQ"/>
    <tag k="removemelater" v="yes"/>
  </node>
  <node id="-306" lat="53.84826267347306" lon="-2.9949375654738475">
    <tag k="addr:postcode" v="FY6 7WJ"/>
    <tag k="removemelater" v="yes"/>
  </node>
  <node id="-307" lat="53.8488193067521" lon="-2.9917585898213033">
    <tag k="addr:postcode" v="FY6 7YX"/>
    <tag k="removemelater" v="yes"/>
  </node>
  <node id="-308" lat="53.91697373847943" lon="-3.0136844656447592">
    <tag k="addr:postcode" v="FY7 6AE"/>
    <tag k="removemelater" v="yes"/>
  </node>
  <node id="-309" lat="53.92432257609478" lon="-3.0076950986227344">
    <tag k="addr:postcode" v="FY7 6BS"/>
    <tag k="removemelater" v="yes"/>
  </node>
  <node id="-310" lat="53.92532636568881" lon="-3.008039085163765">
    <tag k="addr:postcode" v="FY7 6BZ"/>
    <tag k="removemelater" v="yes"/>
  </node>
  <node id="-311" lat="53.926940755819764" lon="-3.006311403329573">
    <tag k="addr:postcode" v="FY7 6DL"/>
    <tag k="removemelater" v="yes"/>
  </node>
  <node id="-312" lat="53.9202250844491" lon="-3.016092954051536">
    <tag k="addr:postcode" v="FY7 6GE"/>
    <tag k="removemelater" v="yes"/>
  </node>
  <node id="-313" lat="53.920956101809196" lon="-3.0104157819537365">
    <tag k="addr:postcode" v="FY7 6HP"/>
    <tag k="removemelater" v="yes"/>
  </node>
  <node id="-314" lat="53.92116152017379" lon="-3.012704816920233">
    <tag k="addr:postcode" v="FY7 6HY"/>
    <tag k="removemelater" v="yes"/>
  </node>
  <node id="-315" lat="53.92299096667237" lon="-3.0089269267522756">
    <tag k="addr:postcode" v="FY7 6JR"/>
    <tag k="removemelater" v="yes"/>
  </node>
  <node id="-316" lat="53.92283207545709" lon="-3.0139178001583833">
    <tag k="addr:postcode" v="FY7 6LA"/>
    <tag k="removemelater" v="yes"/>
  </node>
  <node id="-317" lat="53.922358611180044" lon="-3.0146372480656622">
    <tag k="addr:postcode" v="FY7 6LD"/>
    <tag k="removemelater" v="yes"/>
  </node>
  <node id="-318" lat="53.921989501797825" lon="-3.015770354334376">
    <tag k="addr:postcode" v="FY7 6LP"/>
    <tag k="removemelater" v="yes"/>
  </node>
  <node id="-319" lat="53.91313403658574" lon="-3.0170777943205516">
    <tag k="addr:postcode" v="FY7 6NB"/>
    <tag k="removemelater" v="yes"/>
  </node>
  <node id="-320" lat="53.91603306003315" lon="-3.0165088042283412">
    <tag k="addr:postcode" v="FY7 6NN"/>
    <tag k="removemelater" v="yes"/>
  </node>
  <node id="-321" lat="53.91975753625046" lon="-3.016112050931504">
    <tag k="addr:postcode" v="FY7 6NW"/>
    <tag k="removemelater" v="yes"/>
  </node>
  <node id="-322" lat="53.91526453656224" lon="-3.0127904546349287">
    <tag k="addr:postcode" v="FY7 6PP"/>
    <tag k="removemelater" v="yes"/>
  </node>
  <node id="-323" lat="53.913259782803024" lon="-3.022378904010979">
    <tag k="addr:postcode" v="FY7 6PR"/>
    <tag k="removemelater" v="yes"/>
  </node>
  <node id="-324" lat="53.91313648645138" lon="-3.016788593273556">
    <tag k="addr:postcode" v="FY7 6PS"/>
    <tag k="removemelater" v="yes"/>
  </node>
  <node id="-325" lat="53.917605322597424" lon="-3.0187090788614372">
    <tag k="addr:postcode" v="FY7 6RP"/>
    <tag k="removemelater" v="yes"/>
  </node>
  <node id="-326" lat="53.917988689359774" lon="-3.018018017456791">
    <tag k="addr:postcode" v="FY7 6RS"/>
    <tag k="removemelater" v="yes"/>
  </node>
  <node id="-327" lat="53.91994324488892" lon="-3.0175326465760874">
    <tag k="addr:postcode" v="FY7 6RU"/>
    <tag k="removemelater" v="yes"/>
  </node>
  <node id="-328" lat="53.920210512615135" lon="-3.0178132303027927">
    <tag k="addr:postcode" v="FY7 6SL"/>
    <tag k="removemelater" v="yes"/>
  </node>
  <node id="-329" lat="53.91566558883621" lon="-3.0248432680403776">
    <tag k="addr:postcode" v="FY7 6SP"/>
    <tag k="removemelater" v="yes"/>
  </node>
  <node id="-330" lat="53.92155743245635" lon="-3.0179678216790946">
    <tag k="addr:postcode" v="FY7 6TB"/>
    <tag k="removemelater" v="yes"/>
  </node>
  <node id="-331" lat="53.92184903713118" lon="-3.0164369494586385">
    <tag k="addr:postcode" v="FY7 6TE"/>
    <tag k="removemelater" v="yes"/>
  </node>
  <node id="-332" lat="53.91959486509465" lon="-3.0193970438054687">
    <tag k="addr:postcode" v="FY7 6TP"/>
    <tag k="removemelater" v="yes"/>
  </node>
  <node id="-333" lat="53.92035099945063" lon="-3.0213797362453887">
    <tag k="addr:postcode" v="FY7 6TW"/>
    <tag k="removemelater" v="yes"/>
  </node>
  <node id="-334" lat="53.91593671210971" lon="-3.023616662212131">
    <tag k="addr:postcode" v="FY7 6UL"/>
    <tag k="removemelater" v="yes"/>
  </node>
  <node id="-335" lat="53.91636922452932" lon="-3.023490215192919">
    <tag k="addr:postcode" v="FY7 6UQ"/>
    <tag k="removemelater" v="yes"/>
  </node>
  <node id="-336" lat="53.920203410710194" lon="-3.0207670599445753">
    <tag k="addr:postcode" v="FY7 6US"/>
    <tag k="removemelater" v="yes"/>
  </node>
  <node id="-337" lat="53.92779639136255" lon="-3.0103830562645744">
    <tag k="addr:postcode" v="FY7 6UW"/>
    <tag k="removemelater" v="yes"/>
  </node>
  <node id="-338" lat="53.91995914551001" lon="-3.022009691513425">
    <tag k="addr:postcode" v="FY7 7AD"/>
    <tag k="removemelater" v="yes"/>
  </node>
  <node id="-339" lat="53.91968787044106" lon="-3.0222010103206">
    <tag k="addr:postcode" v="FY7 7AE"/>
    <tag k="removemelater" v="yes"/>
  </node>
  <node id="-340" lat="53.92003665243677" lon="-3.022407480842958">
    <tag k="addr:postcode" v="FY7 7AF"/>
    <tag k="removemelater" v="yes"/>
  </node>
  <node id="-341" lat="53.920113379827875" lon="-3.022896613338077">
    <tag k="addr:postcode" v="FY7 7AG"/>
    <tag k="removemelater" v="yes"/>
  </node>
  <node id="-342" lat="53.91882957381884" lon="-3.025880034870599">
    <tag k="addr:postcode" v="FY7 7AL"/>
    <tag k="removemelater" v="yes"/>
  </node>
  <node id="-343" lat="53.9194461175354" lon="-3.0263062711222912">
    <tag k="addr:postcode" v="FY7 7AN"/>
    <tag k="removemelater" v="yes"/>
  </node>
  <node id="-344" lat="53.92030861442381" lon="-3.0231906976257">
    <tag k="addr:postcode" v="FY7 7AP"/>
    <tag k="removemelater" v="yes"/>
  </node>
  <node id="-345" lat="53.9205630443993" lon="-3.0218112682222062">
    <tag k="addr:postcode" v="FY7 7AR"/>
    <tag k="removemelater" v="yes"/>
  </node>
  <node id="-346" lat="53.92007305072278" lon="-3.0244639850914177">
    <tag k="addr:postcode" v="FY7 7AW"/>
    <tag k="removemelater" v="yes"/>
  </node>
  <node id="-347" lat="53.919803097155004" lon="-3.027654977057406">
    <tag k="addr:postcode" v="FY7 7BT"/>
    <tag k="removemelater" v="yes"/>
  </node>
  <node id="-348" lat="53.920108501844226" lon="-3.0276777063838183">
    <tag k="addr:postcode" v="FY7 7BY"/>
    <tag k="removemelater" v="yes"/>
  </node>
  <node id="-349" lat="53.919014383349186" lon="-3.026341358673306">
    <tag k="addr:postcode" v="FY7 7DB"/>
    <tag k="removemelater" v="yes"/>
  </node>
  <node id="-350" lat="53.91785653809293" lon="-3.030347837209128">
    <tag k="addr:postcode" v="FY7 7DE"/>
    <tag k="removemelater" v="yes"/>
  </node>
  <node id="-351" lat="53.91805893923372" lon="-3.029804684155495">
    <tag k="addr:postcode" v="FY7 7DF"/>
    <tag k="removemelater" v="yes"/>
  </node>
  <node id="-352" lat="53.91845104043173" lon="-3.0312455983746376">
    <tag k="addr:postcode" v="FY7 7DH"/>
    <tag k="removemelater" v="yes"/>
  </node>
  <node id="-353" lat="53.91658833433971" lon="-3.0262513924829793">
    <tag k="addr:postcode" v="FY7 7DR"/>
    <tag k="removemelater" v="yes"/>
  </node>
  <node id="-354" lat="53.91269942195083" lon="-3.0237962772108196">
    <tag k="addr:postcode" v="FY7 7HB"/>
    <tag k="removemelater" v="yes"/>
  </node>
  <node id="-355" lat="53.9128123192162" lon="-3.0232052982750193">
    <tag k="addr:postcode" v="FY7 7HP"/>
    <tag k="removemelater" v="yes"/>
  </node>
  <node id="-356" lat="53.91870086248262" lon="-3.033550926225949">
    <tag k="addr:postcode" v="FY7 7JZ"/>
    <tag k="removemelater" v="yes"/>
  </node>
  <node id="-357" lat="53.91936453861205" lon="-3.0337195883800696">
    <tag k="addr:postcode" v="FY7 7LD"/>
    <tag k="removemelater" v="yes"/>
  </node>
  <node id="-358" lat="53.92053872931609" lon="-3.0340988239942877">
    <tag k="addr:postcode" v="FY7 7LE"/>
    <tag k="removemelater" v="yes"/>
  </node>
  <node id="-359" lat="53.91950719447661" lon="-3.0328095184330004">
    <tag k="addr:postcode" v="FY7 7LF"/>
    <tag k="removemelater" v="yes"/>
  </node>
  <node id="-360" lat="53.92063658761535" lon="-3.033172396383475">
    <tag k="addr:postcode" v="FY7 7LG"/>
    <tag k="removemelater" v="yes"/>
  </node>
  <node id="-361" lat="53.92021728951153" lon="-3.0317611712077444">
    <tag k="addr:postcode" v="FY7 7LH"/>
    <tag k="removemelater" v="yes"/>
  </node>
  <node id="-362" lat="53.911291578929585" lon="-3.024462117700747">
    <tag k="addr:postcode" v="FY7 7LP"/>
    <tag k="removemelater" v="yes"/>
  </node>
  <node id="-363" lat="53.92020398471688" lon="-3.0322633286242966">
    <tag k="addr:postcode" v="FY7 7LQ"/>
    <tag k="removemelater" v="yes"/>
  </node>
  <node id="-364" lat="53.91808690982134" lon="-3.033870731937639">
    <tag k="addr:postcode" v="FY7 7LW"/>
    <tag k="removemelater" v="yes"/>
  </node>
  <node id="-365" lat="53.913925031817286" lon="-3.022364709724097">
    <tag k="addr:postcode" v="FY7 7NY"/>
    <tag k="removemelater" v="yes"/>
  </node>
  <node id="-366" lat="53.91244098795411" lon="-3.0224806903395516">
    <tag k="addr:postcode" v="FY7 7PA"/>
    <tag k="removemelater" v="yes"/>
  </node>
  <node id="-367" lat="53.91083942004834" lon="-3.0258363793064516">
    <tag k="addr:postcode" v="FY7 7PB"/>
    <tag k="removemelater" v="yes"/>
  </node>
  <node id="-368" lat="53.90768856055144" lon="-3.0306150524769486">
    <tag k="addr:postcode" v="FY7 7PQ"/>
    <tag k="removemelater" v="yes"/>
  </node>
  <node id="-369" lat="53.9070693262197" lon="-3.0284078281752875">
    <tag k="addr:postcode" v="FY7 7PW"/>
    <tag k="removemelater" v="yes"/>
  </node>
  <node id="-370" lat="53.900500125943495" lon="-3.037667416785892">
    <tag k="addr:postcode" v="FY7 8BB"/>
    <tag k="removemelater" v="yes"/>
  </node>
  <node id="-371" lat="53.913816643210055" lon="-3.0350136261566254">
    <tag k="addr:postcode" v="FY7 8BG"/>
    <tag k="removemelater" v="yes"/>
  </node>
  <node id="-372" lat="53.912428846033656" lon="-3.0395921751815167">
    <tag k="addr:postcode" v="FY7 8EB"/>
    <tag k="removemelater" v="yes"/>
  </node>
  <node id="-373" lat="53.911956814896875" lon="-3.0442693936410925">
    <tag k="addr:postcode" v="FY7 8ED"/>
    <tag k="removemelater" v="yes"/>
  </node>
  <node id="-374" lat="53.9115047196104" lon="-3.044577808949532">
    <tag k="addr:postcode" v="FY7 8EF"/>
    <tag k="removemelater" v="yes"/>
  </node>
  <node id="-375" lat="53.91251831565645" lon="-3.044816248466943">
    <tag k="addr:postcode" v="FY7 8EJ"/>
    <tag k="removemelater" v="yes"/>
  </node>
  <node id="-376" lat="53.91256418694577" lon="-3.0405698779528394">
    <tag k="addr:postcode" v="FY7 8EN"/>
    <tag k="removemelater" v="yes"/>
  </node>
  <node id="-377" lat="53.91209951575474" lon="-3.039218619763565">
    <tag k="addr:postcode" v="FY7 8EP"/>
    <tag k="removemelater" v="yes"/>
  </node>
  <node id="-378" lat="53.91199409129261" lon="-3.041012417042305">
    <tag k="addr:postcode" v="FY7 8EW"/>
    <tag k="removemelater" v="yes"/>
  </node>
  <node id="-379" lat="53.91269635319177" lon="-3.0325500585042118">
    <tag k="addr:postcode" v="FY7 8GT"/>
    <tag k="removemelater" v="yes"/>
  </node>
  <node id="-380" lat="53.91241843180704" lon="-3.0324670805013882">
    <tag k="addr:postcode" v="FY7 8GX"/>
    <tag k="removemelater" v="yes"/>
  </node>
  <node id="-381" lat="53.90989689291343" lon="-3.033029015433973">
    <tag k="addr:postcode" v="FY7 8HJ"/>
    <tag k="removemelater" v="yes"/>
  </node>
  <node id="-382" lat="53.911790124754226" lon="-3.0334106758151287">
    <tag k="addr:postcode" v="FY7 8HN"/>
    <tag k="removemelater" v="yes"/>
  </node>
  <node id="-383" lat="53.90018893264132" lon="-3.038314144452952">
    <tag k="addr:postcode" v="FY7 8JN"/>
    <tag k="removemelater" v="yes"/>
  </node>
  <node id="-384" lat="53.895492318892614" lon="-3.0178818531594516">
    <tag k="addr:postcode" v="FY7 8JT"/>
    <tag k="removemelater" v="yes"/>
  </node>
  <node id="-385" lat="53.90254589281628" lon="-3.0307776196469787">
    <tag k="addr:postcode" v="FY7 8LA"/>
    <tag k="removemelater" v="yes"/>
  </node>
  <node id="-386" lat="53.91223963434134" lon="-3.042754056185091">
    <tag k="addr:postcode" v="FY7 8LB"/>
    <tag k="removemelater" v="yes"/>
  </node>
  <node id="-387" lat="53.90815655772909" lon="-3.0368068939505632">
    <tag k="addr:postcode" v="FY7 8LG"/>
    <tag k="removemelater" v="yes"/>
  </node>
  <node id="-388" lat="53.907506746834045" lon="-3.04437146585074">
    <tag k="addr:postcode" v="FY7 8RP"/>
    <tag k="removemelater" v="yes"/>
  </node>
  <node id="-389" lat="53.912854860288505" lon="-3.0464231908341675">
    <tag k="addr:postcode" v="FY7 8RR"/>
    <tag k="removemelater" v="yes"/>
  </node>
  <node id="-390" lat="53.90851732476777" lon="-3.0366636057112344">
    <tag k="addr:postcode" v="FY7 8SS"/>
    <tag k="removemelater" v="yes"/>
  </node>
  <node id="-391" lat="53.9202250844491" lon="-3.016092954051536">
    <tag k="addr:postcode" v="FY7 8XA"/>
    <tag k="removemelater" v="yes"/>
  </node>
  <node id="-392" lat="53.90762373573611" lon="-3.0370981394588">
    <tag k="addr:postcode" v="FY7 8YA"/>
    <tag k="removemelater" v="yes"/>
  </node>
  <node id="-393" lat="53.90762373573611" lon="-3.0370981394588">
    <tag k="addr:postcode" v="FY7 8YB"/>
    <tag k="removemelater" v="yes"/>
  </node>
  <node id="-394" lat="53.90762373573611" lon="-3.0370981394588">
    <tag k="addr:postcode" v="FY7 8YD"/>
    <tag k="removemelater" v="yes"/>
  </node>
  <node id="-395" lat="53.90762373573611" lon="-3.0370981394588">
    <tag k="addr:postcode" v="FY7 8YE"/>
    <tag k="removemelater" v="yes"/>
  </node>
  <node id="-396" lat="53.90762373573611" lon="-3.0370981394588">
    <tag k="addr:postcode" v="FY7 8YF"/>
    <tag k="removemelater" v="yes"/>
  </node>
  <node id="-397" lat="53.90762373573611" lon="-3.0370981394588">
    <tag k="addr:postcode" v="FY7 8YG"/>
    <tag k="removemelater" v="yes"/>
  </node>
  <node id="-398" lat="53.90762373573611" lon="-3.0370981394588">
    <tag k="addr:postcode" v="FY7 8YH"/>
    <tag k="removemelater" v="yes"/>
  </node>
  <node id="-399" lat="53.90762373573611" lon="-3.0370981394588">
    <tag k="addr:postcode" v="FY7 8YJ"/>
    <tag k="removemelater" v="yes"/>
  </node>
  <node id="-400" lat="53.90762373573611" lon="-3.0370981394588">
    <tag k="addr:postcode" v="FY7 8YL"/>
    <tag k="removemelater" v="yes"/>
  </node>
  <node id="-401" lat="53.90762373573611" lon="-3.0370981394588">
    <tag k="addr:postcode" v="FY7 8YN"/>
    <tag k="removemelater" v="yes"/>
  </node>
  <node id="-402" lat="53.90762373573611" lon="-3.0370981394588">
    <tag k="addr:postcode" v="FY7 8YP"/>
    <tag k="removemelater" v="yes"/>
  </node>
  <node id="-403" lat="53.90762373573611" lon="-3.0370981394588">
    <tag k="addr:postcode" v="FY7 8YQ"/>
    <tag k="removemelater" v="yes"/>
  </node>
  <node id="-404" lat="53.90762373573611" lon="-3.0370981394588">
    <tag k="addr:postcode" v="FY7 8YR"/>
    <tag k="removemelater" v="yes"/>
  </node>
  <node id="-405" lat="53.90815655772909" lon="-3.0368068939505632">
    <tag k="addr:postcode" v="FY7 8YS"/>
    <tag k="removemelater" v="yes"/>
  </node>
  <node id="-406" lat="53.9202250844491" lon="-3.016092954051536">
    <tag k="addr:postcode" v="FY7 9AG"/>
    <tag k="removemelater" v="yes"/>
  </node>
  <node id="-407" lat="53.9202250844491" lon="-3.016092954051536">
    <tag k="addr:postcode" v="FY7 9AL"/>
    <tag k="removemelater" v="yes"/>
  </node>
  <node id="-408" lat="53.9202250844491" lon="-3.016092954051536">
    <tag k="addr:postcode" v="FY7 9AN"/>
    <tag k="removemelater" v="yes"/>
  </node>
  <node id="-409" lat="53.73877605905599" lon="-3.000247952585495">
    <tag k="addr:postcode" v="FY8 1BD"/>
    <tag k="removemelater" v="yes"/>
  </node>
  <node id="-410" lat="53.75410848861302" lon="-3.0270326242348946">
    <tag k="addr:postcode" v="FY8 1BU"/>
    <tag k="removemelater" v="yes"/>
  </node>
  <node id="-411" lat="53.74231289901851" lon="-3.0125680287878582">
    <tag k="addr:postcode" v="FY8 1DR"/>
    <tag k="removemelater" v="yes"/>
  </node>
  <node id="-412" lat="53.742826930514646" lon="-3.0123681138669474">
    <tag k="addr:postcode" v="FY8 1FB"/>
    <tag k="removemelater" v="yes"/>
  </node>
  <node id="-413" lat="53.743398210430996" lon="-3.0117753374829417">
    <tag k="addr:postcode" v="FY8 1FD"/>
    <tag k="removemelater" v="yes"/>
  </node>
  <node id="-414" lat="53.74289943807875" lon="-3.0112326604820683">
    <tag k="addr:postcode" v="FY8 1FE"/>
    <tag k="removemelater" v="yes"/>
  </node>
  <node id="-415" lat="53.743188573065204" lon="-3.0121190426972646">
    <tag k="addr:postcode" v="FY8 1FF"/>
    <tag k="removemelater" v="yes"/>
  </node>
  <node id="-416" lat="53.74242790986636" lon="-3.011721697139277">
    <tag k="addr:postcode" v="FY8 1FG"/>
    <tag k="removemelater" v="yes"/>
  </node>
  <node id="-417" lat="53.742237369056475" lon="-3.010868025424025">
    <tag k="addr:postcode" v="FY8 1FH"/>
    <tag k="removemelater" v="yes"/>
  </node>
  <node id="-418" lat="53.74317827968748" lon="-3.011209031883378">
    <tag k="addr:postcode" v="FY8 1FJ"/>
    <tag k="removemelater" v="yes"/>
  </node>
  <node id="-419" lat="53.74275421052582" lon="-3.0103345810654214">
    <tag k="addr:postcode" v="FY8 1FL"/>
    <tag k="removemelater" v="yes"/>
  </node>
  <node id="-420" lat="53.751704013419385" lon="-3.02861186331976">
    <tag k="addr:postcode" v="FY8 1QS"/>
    <tag k="removemelater" v="yes"/>
  </node>
  <node id="-421" lat="53.746868929503854" lon="-3.0327093391164364">
    <tag k="addr:postcode" v="FY8 1SJ"/>
    <tag k="removemelater" v="yes"/>
  </node>
  <node id="-422" lat="53.7470994718345" lon="-3.0320326069781327">
    <tag k="addr:postcode" v="FY8 1SW"/>
    <tag k="removemelater" v="yes"/>
  </node>
  <node id="-423" lat="53.75350484178933" lon="-3.028246378142038">
    <tag k="addr:postcode" v="FY8 1TA"/>
    <tag k="removemelater" v="yes"/>
  </node>
  <node id="-424" lat="53.75430918186041" lon="-3.0266886861918163">
    <tag k="addr:postcode" v="FY8 1UL"/>
    <tag k="removemelater" v="yes"/>
  </node>
  <node id="-425" lat="53.75536318002021" lon="-3.0253645231915263">
    <tag k="addr:postcode" v="FY8 2AB"/>
    <tag k="removemelater" v="yes"/>
  </node>
  <node id="-426" lat="53.753544308231135" lon="-3.0288843344930663">
    <tag k="addr:postcode" v="FY8 2AS"/>
    <tag k="removemelater" v="yes"/>
  </node>
  <node id="-427" lat="53.75396250639214" lon="-3.028333392209608">
    <tag k="addr:postcode" v="FY8 2AT"/>
    <tag k="removemelater" v="yes"/>
  </node>
  <node id="-428" lat="53.75406149234107" lon="-3.029367144068593">
    <tag k="addr:postcode" v="FY8 2AU"/>
    <tag k="removemelater" v="yes"/>
  </node>
  <node id="-429" lat="53.75466500642486" lon="-3.027122038872806">
    <tag k="addr:postcode" v="FY8 2AX"/>
    <tag k="removemelater" v="yes"/>
  </node>
  <node id="-430" lat="53.75526186205377" lon="-3.0256502295729746">
    <tag k="addr:postcode" v="FY8 2AY"/>
    <tag k="removemelater" v="yes"/>
  </node>
  <node id="-431" lat="53.75551504353912" lon="-3.0254743933963058">
    <tag k="addr:postcode" v="FY8 2AZ"/>
    <tag k="removemelater" v="yes"/>
  </node>
  <node id="-432" lat="53.755482784629486" lon="-3.0271419967154656">
    <tag k="addr:postcode" v="FY8 2BA"/>
    <tag k="removemelater" v="yes"/>
  </node>
  <node id="-433" lat="53.754478260531435" lon="-3.028982999894301">
    <tag k="addr:postcode" v="FY8 2BB"/>
    <tag k="removemelater" v="yes"/>
  </node>
  <node id="-434" lat="53.75427482506959" lon="-3.0296453630256654">
    <tag k="addr:postcode" v="FY8 2BD"/>
    <tag k="removemelater" v="yes"/>
  </node>
  <node id="-435" lat="53.755570972414965" lon="-3.02838786018529">
    <tag k="addr:postcode" v="FY8 2BG"/>
    <tag k="removemelater" v="yes"/>
  </node>
  <node id="-436" lat="53.756589894836075" lon="-3.024863545968605">
    <tag k="addr:postcode" v="FY8 2BH"/>
    <tag k="removemelater" v="yes"/>
  </node>
  <node id="-437" lat="53.756059890198" lon="-3.0279751203660705">
    <tag k="addr:postcode" v="FY8 2BJ"/>
    <tag k="removemelater" v="yes"/>
  </node>
  <node id="-438" lat="53.75481297686025" lon="-3.028733345308692">
    <tag k="addr:postcode" v="FY8 2BL"/>
    <tag k="removemelater" v="yes"/>
  </node>
  <node id="-439" lat="53.75575565527432" lon="-3.0288625585811957">
    <tag k="addr:postcode" v="FY8 2BN"/>
    <tag k="removemelater" v="yes"/>
  </node>
  <node id="-440" lat="53.75664623675535" lon="-3.02877815774312">
    <tag k="addr:postcode" v="FY8 2BP"/>
    <tag k="removemelater" v="yes"/>
  </node>
  <node id="-441" lat="53.75606481145182" lon="-3.026352330190195">
    <tag k="addr:postcode" v="FY8 2BQ"/>
    <tag k="removemelater" v="yes"/>
  </node>
  <node id="-442" lat="53.755641426829634" lon="-3.030649500153774">
    <tag k="addr:postcode" v="FY8 2BS"/>
    <tag k="removemelater" v="yes"/>
  </node>
  <node id="-443" lat="53.75627151339129" lon="-3.0315901461439108">
    <tag k="addr:postcode" v="FY8 2BT"/>
    <tag k="removemelater" v="yes"/>
  </node>
  <node id="-444" lat="53.75512020615748" lon="-3.0306367361603908">
    <tag k="addr:postcode" v="FY8 2BU"/>
    <tag k="removemelater" v="yes"/>
  </node>
  <node id="-445" lat="53.75671550464535" lon="-3.0269900716076426">
    <tag k="addr:postcode" v="FY8 2BW"/>
    <tag k="removemelater" v="yes"/>
  </node>
  <node id="-446" lat="53.757524316056305" lon="-3.029102981688191">
    <tag k="addr:postcode" v="FY8 2BX"/>
    <tag k="removemelater" v="yes"/>
  </node>
  <node id="-447" lat="53.75562696093997" lon="-3.031286169743036">
    <tag k="addr:postcode" v="FY8 2DA"/>
    <tag k="removemelater" v="yes"/>
  </node>
  <node id="-448" lat="53.75674209038293" lon="-3.03017592327579">
    <tag k="addr:postcode" v="FY8 2DB"/>
    <tag k="removemelater" v="yes"/>
  </node>
  <node id="-449" lat="53.756893520391756" lon="-3.0324244484246328">
    <tag k="addr:postcode" v="FY8 2DD"/>
    <tag k="removemelater" v="yes"/>
  </node>
  <node id="-450" lat="53.757461209823234" lon="-3.0333029456070477">
    <tag k="addr:postcode" v="FY8 2DE"/>
    <tag k="removemelater" v="yes"/>
  </node>
  <node id="-451" lat="53.75646788553232" lon="-3.0327931952334444">
    <tag k="addr:postcode" v="FY8 2DF"/>
    <tag k="removemelater" v="yes"/>
  </node>
  <node id="-452" lat="53.75810117765112" lon="-3.034137738525296">
    <tag k="addr:postcode" v="FY8 2DJ"/>
    <tag k="removemelater" v="yes"/>
  </node>
  <node id="-453" lat="53.75754851844292" lon="-3.031515273752816">
    <tag k="addr:postcode" v="FY8 2DL"/>
    <tag k="removemelater" v="yes"/>
  </node>
  <node id="-454" lat="53.75740057532796" lon="-3.0309504361521">
    <tag k="addr:postcode" v="FY8 2DN"/>
    <tag k="removemelater" v="yes"/>
  </node>
  <node id="-455" lat="53.75824272022641" lon="-3.0291812226135812">
    <tag k="addr:postcode" v="FY8 2DP"/>
    <tag k="removemelater" v="yes"/>
  </node>
  <node id="-456" lat="53.75770642376013" lon="-3.0340521979622914">
    <tag k="addr:postcode" v="FY8 2DQ"/>
    <tag k="removemelater" v="yes"/>
  </node>
  <node id="-457" lat="53.75882096100234" lon="-3.026738086856559">
    <tag k="addr:postcode" v="FY8 2DR"/>
    <tag k="removemelater" v="yes"/>
  </node>
  <node id="-458" lat="53.75892208597981" lon="-3.0243742816002195">
    <tag k="addr:postcode" v="FY8 2DS"/>
    <tag k="removemelater" v="yes"/>
  </node>
  <node id="-459" lat="53.757844438522696" lon="-3.03055177306198">
    <tag k="addr:postcode" v="FY8 2DT"/>
    <tag k="removemelater" v="yes"/>
  </node>
  <node id="-460" lat="53.75804787911297" lon="-3.0298893584354087">
    <tag k="addr:postcode" v="FY8 2DU"/>
    <tag k="removemelater" v="yes"/>
  </node>
  <node id="-461" lat="53.75675145544399" lon="-3.0311772167080213">
    <tag k="addr:postcode" v="FY8 2DW"/>
    <tag k="removemelater" v="yes"/>
  </node>
  <node id="-462" lat="53.75856949189027" lon="-3.028810007081187">
    <tag k="addr:postcode" v="FY8 2DX"/>
    <tag k="removemelater" v="yes"/>
  </node>
  <node id="-463" lat="53.75949198260658" lon="-3.029196607717077">
    <tag k="addr:postcode" v="FY8 2DY"/>
    <tag k="removemelater" v="yes"/>
  </node>
  <node id="-464" lat="53.75799213247097" lon="-3.0280071517469547">
    <tag k="addr:postcode" v="FY8 2DZ"/>
    <tag k="removemelater" v="yes"/>
  </node>
  <node id="-465" lat="53.75703075588098" lon="-3.0248136112171946">
    <tag k="addr:postcode" v="FY8 2EA"/>
    <tag k="removemelater" v="yes"/>
  </node>
  <node id="-466" lat="53.76006808848011" lon="-3.0249027508176947">
    <tag k="addr:postcode" v="FY8 2EB"/>
    <tag k="removemelater" v="yes"/>
  </node>
  <node id="-467" lat="53.75826373229941" lon="-3.024631282854447">
    <tag k="addr:postcode" v="FY8 2ED"/>
    <tag k="removemelater" v="yes"/>
  </node>
  <node id="-468" lat="53.75951567432505" lon="-3.027483131746717">
    <tag k="addr:postcode" v="FY8 2EE"/>
    <tag k="removemelater" v="yes"/>
  </node>
  <node id="-469" lat="53.75990105636726" lon="-3.027613891997012">
    <tag k="addr:postcode" v="FY8 2EF"/>
    <tag k="removemelater" v="yes"/>
  </node>
  <node id="-470" lat="53.76005839194124" lon="-3.028133474383692">
    <tag k="addr:postcode" v="FY8 2EG"/>
    <tag k="removemelater" v="yes"/>
  </node>
  <node id="-471" lat="53.757675130604746" lon="-3.0282875993834244">
    <tag k="addr:postcode" v="FY8 2EH"/>
    <tag k="removemelater" v="yes"/>
  </node>
  <node id="-472" lat="53.758394022122125" lon="-3.0262119504739586">
    <tag k="addr:postcode" v="FY8 2EJ"/>
    <tag k="removemelater" v="yes"/>
  </node>
  <node id="-473" lat="53.75470565039403" lon="-3.0307630866527906">
    <tag k="addr:postcode" v="FY8 2EP"/>
    <tag k="removemelater" v="yes"/>
  </node>
  <node id="-474" lat="53.76030519168598" lon="-3.0276540992302783">
    <tag k="addr:postcode" v="FY8 2EQ"/>
    <tag k="removemelater" v="yes"/>
  </node>
  <node id="-475" lat="53.755583050610674" lon="-3.0322102941603624">
    <tag k="addr:postcode" v="FY8 2ET"/>
    <tag k="removemelater" v="yes"/>
  </node>
  <node id="-476" lat="53.77087749983553" lon="-3.0502466583810337">
    <tag k="addr:postcode" v="FY8 2FA"/>
    <tag k="removemelater" v="yes"/>
  </node>
  <node id="-477" lat="53.771248338029714" lon="-3.0499828057213616">
    <tag k="addr:postcode" v="FY8 2FB"/>
    <tag k="removemelater" v="yes"/>
  </node>
  <node id="-478" lat="53.77103735347099" lon="-3.0484147389339618">
    <tag k="addr:postcode" v="FY8 2FD"/>
    <tag k="removemelater" v="yes"/>
  </node>
  <node id="-479" lat="53.758447018403615" lon="-3.032599075434938">
    <tag k="addr:postcode" v="FY8 2HA"/>
    <tag k="removemelater" v="yes"/>
  </node>
  <node id="-480" lat="53.75855540440604" lon="-3.031494449745028">
    <tag k="addr:postcode" v="FY8 2HB"/>
    <tag k="removemelater" v="yes"/>
  </node>
  <node id="-481" lat="53.758802036531975" lon="-3.0331235118894746">
    <tag k="addr:postcode" v="FY8 2HD"/>
    <tag k="removemelater" v="yes"/>
  </node>
  <node id="-482" lat="53.760629358219106" lon="-3.027586170957794">
    <tag k="addr:postcode" v="FY8 2HL"/>
    <tag k="removemelater" v="yes"/>
  </node>
  <node id="-483" lat="53.76363464931289" lon="-3.030359849989167">
    <tag k="addr:postcode" v="FY8 2LR"/>
    <tag k="removemelater" v="yes"/>
  </node>
  <node id="-484" lat="53.76714191186174" lon="-3.049834796722434">
    <tag k="addr:postcode" v="FY8 2RN"/>
    <tag k="removemelater" v="yes"/>
  </node>
  <node id="-485" lat="53.77662612594362" lon="-3.051725604175032">
    <tag k="addr:postcode" v="FY8 2SR"/>
    <tag k="removemelater" v="yes"/>
  </node>
  <node id="-486" lat="53.776965678177895" lon="-3.050929823375889">
    <tag k="addr:postcode" v="FY8 2SS"/>
    <tag k="removemelater" v="yes"/>
  </node>
  <node id="-487" lat="53.777226754993414" lon="-3.0519075512058964">
    <tag k="addr:postcode" v="FY8 2ST"/>
    <tag k="removemelater" v="yes"/>
  </node>
  <node id="-488" lat="53.77686242535738" lon="-3.05347662994471">
    <tag k="addr:postcode" v="FY8 2SU"/>
    <tag k="removemelater" v="yes"/>
  </node>
  <node id="-489" lat="53.7580507468816" lon="-3.0347735599737513">
    <tag k="addr:postcode" v="FY8 2SY"/>
    <tag k="removemelater" v="yes"/>
  </node>
  <node id="-490" lat="53.75657843527959" lon="-3.033523952072198">
    <tag k="addr:postcode" v="FY8 2TX"/>
    <tag k="removemelater" v="yes"/>
  </node>
  <node id="-491" lat="53.756183642162384" lon="-3.024019444443387">
    <tag k="addr:postcode" v="FY8 3BA"/>
    <tag k="removemelater" v="yes"/>
  </node>
  <node id="-492" lat="53.75714134660682" lon="-3.0223894611513957">
    <tag k="addr:postcode" v="FY8 3BB"/>
    <tag k="removemelater" v="yes"/>
  </node>
  <node id="-493" lat="53.758081883597114" lon="-3.023822945354236">
    <tag k="addr:postcode" v="FY8 3BD"/>
    <tag k="removemelater" v="yes"/>
  </node>
  <node id="-494" lat="53.76026393715807" lon="-3.02407323173143">
    <tag k="addr:postcode" v="FY8 3BE"/>
    <tag k="removemelater" v="yes"/>
  </node>
  <node id="-495" lat="53.761484028060195" lon="-3.01164890888128">
    <tag k="addr:postcode" v="FY8 3EX"/>
    <tag k="removemelater" v="yes"/>
  </node>
  <node id="-496" lat="53.76008728366337" lon="-3.0152558447933906">
    <tag k="addr:postcode" v="FY8 3HP"/>
    <tag k="removemelater" v="yes"/>
  </node>
  <node id="-497" lat="53.76188212692494" lon="-3.011339921702934">
    <tag k="addr:postcode" v="FY8 3HQ"/>
    <tag k="removemelater" v="yes"/>
  </node>
  <node id="-498" lat="53.760524019141066" lon="-3.0125056286991376">
    <tag k="addr:postcode" v="FY8 3HR"/>
    <tag k="removemelater" v="yes"/>
  </node>
  <node id="-499" lat="53.76129655855414" lon="-3.0104308616677042">
    <tag k="addr:postcode" v="FY8 3HT"/>
    <tag k="removemelater" v="yes"/>
  </node>
  <node id="-500" lat="53.75899987295505" lon="-3.017353189515718">
    <tag k="addr:postcode" v="FY8 3HW"/>
    <tag k="removemelater" v="yes"/>
  </node>
  <node id="-501" lat="53.75776541463724" lon="-3.019826064155084">
    <tag k="addr:postcode" v="FY8 3NF"/>
    <tag k="removemelater" v="yes"/>
  </node>
  <node id="-502" lat="53.7619708100787" lon="-3.0104167142463547">
    <tag k="addr:postcode" v="FY8 3RR"/>
    <tag k="removemelater" v="yes"/>
  </node>
  <node id="-503" lat="53.75959493810648" lon="-3.016078241380781">
    <tag k="addr:postcode" v="FY8 3UG"/>
    <tag k="removemelater" v="yes"/>
  </node>
  <node id="-504" lat="53.73997917102326" lon="-2.961993668526643">
    <tag k="addr:postcode" v="FY8 4TS"/>
    <tag k="removemelater" v="yes"/>
  </node>
  <node id="-505" lat="53.741221761242414" lon="-2.940204029715099">
    <tag k="addr:postcode" v="FY8 5AQ"/>
    <tag k="removemelater" v="yes"/>
  </node>
  <node id="-506" lat="53.73837622278959" lon="-2.956756854891852">
    <tag k="addr:postcode" v="FY8 5DJ"/>
    <tag k="removemelater" v="yes"/>
  </node>
  <node id="-507" lat="53.7387541521426" lon="-2.9567047969437357">
    <tag k="addr:postcode" v="FY8 5EG"/>
    <tag k="removemelater" v="yes"/>
  </node>
  <node id="-508" lat="53.74106519102818" lon="-2.944112295793063">
    <tag k="addr:postcode" v="FY8 5FG"/>
    <tag k="removemelater" v="yes"/>
  </node>
  <node id="-509" lat="53.743420730758736" lon="-2.9394646711479058">
    <tag k="addr:postcode" v="FY8 5FP"/>
    <tag k="removemelater" v="yes"/>
  </node>
  <node id="-510" lat="53.73866248009748" lon="-2.9410413888025957">
    <tag k="addr:postcode" v="FY8 5FQ"/>
    <tag k="removemelater" v="yes"/>
  </node>
  <node id="-511" lat="53.737491351074254" lon="-2.9470794532821367">
    <tag k="addr:postcode" v="FY8 5FT"/>
    <tag k="removemelater" v="yes"/>
  </node>
  <node id="-512" lat="53.739785176775044" lon="-2.940005179159747">
    <tag k="addr:postcode" v="FY8 5FW"/>
    <tag k="removemelater" v="yes"/>
  </node>
  <node id="-513" lat="53.74009172566179" lon="-2.9387384549399354">
    <tag k="addr:postcode" v="FY8 5JD"/>
    <tag k="removemelater" v="yes"/>
  </node>
  <node id="-514" lat="53.737268357174045" lon="-2.9648880491828047">
    <tag k="addr:postcode" v="FY8 5LS"/>
    <tag k="removemelater" v="yes"/>
  </node>
  <node id="-515" lat="53.737392709800034" lon="-2.97506364952055">
    <tag k="addr:postcode" v="FY8 5QL"/>
    <tag k="removemelater" v="yes"/>
  </node>
  <node id="-516" lat="53.741408161814775" lon="-2.9416485808088675">
    <tag k="addr:postcode" v="FY8 5TB"/>
    <tag k="removemelater" v="yes"/>
  </node>
  <node id="-517" lat="53.73822579835512" lon="-2.942850932306427">
    <tag k="addr:postcode" v="FY8 5TH"/>
    <tag k="removemelater" v="yes"/>
  </node>
  <node id="-518" lat="53.73728488793493" lon="-2.9459074507544094">
    <tag k="addr:postcode" v="FY8 5TQ"/>
    <tag k="removemelater" v="yes"/>
  </node>
  <node id="-519" lat="53.74116663700467" lon="-2.9426438654007274">
    <tag k="addr:postcode" v="FY8 5TS"/>
    <tag k="removemelater" v="yes"/>
  </node>
  <node id="-520" lat="53.73964174424624" lon="-2.9399564933555657">
    <tag k="addr:postcode" v="FY8 5TU"/>
    <tag k="removemelater" v="yes"/>
  </node>
</osm>
