<?xml version="1.0" encoding="UTF-8"?><osm version="0.6" generator="import_postcodes.py" upload="false">
  <node id="-1" lat="53.99365731181475" lon="-1.541446204504393">
    <tag k="addr:postcode" v="HG1 1AA"/>
    <tag k="removemelater" v="yes"/>
  </node>
  <node id="-2" lat="53.99495687119691" lon="-1.5404862166306823">
    <tag k="addr:postcode" v="HG1 1AB"/>
    <tag k="removemelater" v="yes"/>
  </node>
  <node id="-3" lat="53.99300941132902" lon="-1.5388908521784432">
    <tag k="addr:postcode" v="HG1 1AE"/>
    <tag k="removemelater" v="yes"/>
  </node>
  <node id="-4" lat="53.99300941132902" lon="-1.5388908521784432">
    <tag k="addr:postcode" v="HG1 1AF"/>
    <tag k="removemelater" v="yes"/>
  </node>
  <node id="-5" lat="53.99300941132902" lon="-1.5388908521784432">
    <tag k="addr:postcode" v="HG1 1AG"/>
    <tag k="removemelater" v="yes"/>
  </node>
  <node id="-6" lat="53.993596840978675" lon="-1.5420874942720524">
    <tag k="addr:postcode" v="HG1 1AH"/>
    <tag k="removemelater" v="yes"/>
  </node>
  <node id="-7" lat="53.995526809905655" lon="-1.5391071114304808">
    <tag k="addr:postcode" v="HG1 1AX"/>
    <tag k="removemelater" v="yes"/>
  </node>
  <node id="-8" lat="53.99554180104025" lon="-1.5383290069383506">
    <tag k="addr:postcode" v="HG1 1BA"/>
    <tag k="removemelater" v="yes"/>
  </node>
  <node id="-9" lat="53.99582175554742" lon="-1.538676749117604">
    <tag k="addr:postcode" v="HG1 1BB"/>
    <tag k="removemelater" v="yes"/>
  </node>
  <node id="-10" lat="53.98960903449829" lon="-1.5404535499617236">
    <tag k="addr:postcode" v="HG1 1BL"/>
    <tag k="removemelater" v="yes"/>
  </node>
  <node id="-11" lat="53.99478688699051" lon="-1.5430506632234813">
    <tag k="addr:postcode" v="HG1 1BS"/>
    <tag k="removemelater" v="yes"/>
  </node>
  <node id="-12" lat="53.99503029926052" lon="-1.543246295177259">
    <tag k="addr:postcode" v="HG1 1BT"/>
    <tag k="removemelater" v="yes"/>
  </node>
  <node id="-13" lat="53.99439207992241" lon="-1.543222769787008">
    <tag k="addr:postcode" v="HG1 1BW"/>
    <tag k="removemelater" v="yes"/>
  </node>
  <node id="-14" lat="53.9952409668553" lon="-1.5395678744503147">
    <tag k="addr:postcode" v="HG1 1BX"/>
    <tag k="removemelater" v="yes"/>
  </node>
  <node id="-15" lat="53.995110472165315" lon="-1.540698075930651">
    <tag k="addr:postcode" v="HG1 1BY"/>
    <tag k="removemelater" v="yes"/>
  </node>
  <node id="-16" lat="53.99469215338386" lon="-1.5394213921460818">
    <tag k="addr:postcode" v="HG1 1DA"/>
    <tag k="removemelater" v="yes"/>
  </node>
  <node id="-17" lat="53.9947785801246" lon="-1.5408695143349094">
    <tag k="addr:postcode" v="HG1 1DB"/>
    <tag k="removemelater" v="yes"/>
  </node>
  <node id="-18" lat="53.994454102908435" lon="-1.540629029200358">
    <tag k="addr:postcode" v="HG1 1DD"/>
    <tag k="removemelater" v="yes"/>
  </node>
  <node id="-19" lat="53.9948760651555" lon="-1.5428666457940534">
    <tag k="addr:postcode" v="HG1 1DJ"/>
    <tag k="removemelater" v="yes"/>
  </node>
  <node id="-20" lat="53.995651693724845" lon="-1.5412107498151053">
    <tag k="addr:postcode" v="HG1 1DL"/>
    <tag k="removemelater" v="yes"/>
  </node>
  <node id="-21" lat="53.99597822290384" lon="-1.539636013895695">
    <tag k="addr:postcode" v="HG1 1DP"/>
    <tag k="removemelater" v="yes"/>
  </node>
  <node id="-22" lat="53.99454630541342" lon="-1.5412381484935849">
    <tag k="addr:postcode" v="HG1 1DQ"/>
    <tag k="removemelater" v="yes"/>
  </node>
  <node id="-23" lat="53.99497548686689" lon="-1.5406538002461396">
    <tag k="addr:postcode" v="HG1 1DU"/>
    <tag k="removemelater" v="yes"/>
  </node>
  <node id="-24" lat="53.99562222784612" lon="-1.5405551630079173">
    <tag k="addr:postcode" v="HG1 1DW"/>
    <tag k="removemelater" v="yes"/>
  </node>
  <node id="-25" lat="53.99148239888413" lon="-1.536787654084728">
    <tag k="addr:postcode" v="HG1 1DX"/>
    <tag k="removemelater" v="yes"/>
  </node>
  <node id="-26" lat="53.99264493894705" lon="-1.537598401683854">
    <tag k="addr:postcode" v="HG1 1DY"/>
    <tag k="removemelater" v="yes"/>
  </node>
  <node id="-27" lat="53.99046253179036" lon="-1.538019114217408">
    <tag k="addr:postcode" v="HG1 1ED"/>
    <tag k="removemelater" v="yes"/>
  </node>
  <node id="-28" lat="53.99096804959192" lon="-1.5385930993504637">
    <tag k="addr:postcode" v="HG1 1EG"/>
    <tag k="removemelater" v="yes"/>
  </node>
  <node id="-29" lat="53.99025315088697" lon="-1.5396686219166533">
    <tag k="addr:postcode" v="HG1 1EL"/>
    <tag k="removemelater" v="yes"/>
  </node>
  <node id="-30" lat="53.98869331546415" lon="-1.5360407766854838">
    <tag k="addr:postcode" v="HG1 1EP"/>
    <tag k="removemelater" v="yes"/>
  </node>
  <node id="-31" lat="53.99083727186744" lon="-1.5396469313258219">
    <tag k="addr:postcode" v="HG1 1EQ"/>
    <tag k="removemelater" v="yes"/>
  </node>
  <node id="-32" lat="53.988658836280635" lon="-1.5364224395189463">
    <tag k="addr:postcode" v="HG1 1EY"/>
    <tag k="removemelater" v="yes"/>
  </node>
  <node id="-33" lat="53.98919660832914" lon="-1.536035185614072">
    <tag k="addr:postcode" v="HG1 1HB"/>
    <tag k="removemelater" v="yes"/>
  </node>
  <node id="-34" lat="53.9887213814901" lon="-1.5386636738085375">
    <tag k="addr:postcode" v="HG1 1HE"/>
    <tag k="removemelater" v="yes"/>
  </node>
  <node id="-35" lat="53.99063723358273" lon="-1.536705516975805">
    <tag k="addr:postcode" v="HG1 1HF"/>
    <tag k="removemelater" v="yes"/>
  </node>
  <node id="-36" lat="53.990288546518954" lon="-1.5371821905690446">
    <tag k="addr:postcode" v="HG1 1HH"/>
    <tag k="removemelater" v="yes"/>
  </node>
  <node id="-37" lat="53.988193607923286" lon="-1.536976640117169">
    <tag k="addr:postcode" v="HG1 1HL"/>
    <tag k="removemelater" v="yes"/>
  </node>
  <node id="-38" lat="53.98827760361551" lon="-1.5377840146995283">
    <tag k="addr:postcode" v="HG1 1HN"/>
    <tag k="removemelater" v="yes"/>
  </node>
  <node id="-39" lat="53.98889026851172" lon="-1.5381737674577127">
    <tag k="addr:postcode" v="HG1 1HP"/>
    <tag k="removemelater" v="yes"/>
  </node>
  <node id="-40" lat="53.9900003635873" lon="-1.5370328673974791">
    <tag k="addr:postcode" v="HG1 1HQ"/>
    <tag k="removemelater" v="yes"/>
  </node>
  <node id="-41" lat="53.989177513081685" lon="-1.538079082855616">
    <tag k="addr:postcode" v="HG1 1HR"/>
    <tag k="removemelater" v="yes"/>
  </node>
  <node id="-42" lat="53.98926033149162" lon="-1.5385814634247537">
    <tag k="addr:postcode" v="HG1 1HS"/>
    <tag k="removemelater" v="yes"/>
  </node>
  <node id="-43" lat="53.989802146809325" lon="-1.5392465480279938">
    <tag k="addr:postcode" v="HG1 1HT"/>
    <tag k="removemelater" v="yes"/>
  </node>
  <node id="-44" lat="54.002427074796216" lon="-1.5223863837160576">
    <tag k="addr:postcode" v="HG1 1HU"/>
    <tag k="removemelater" v="yes"/>
  </node>
  <node id="-45" lat="53.98860955025609" lon="-1.5376278293148453">
    <tag k="addr:postcode" v="HG1 1HW"/>
    <tag k="removemelater" v="yes"/>
  </node>
  <node id="-46" lat="53.98959822007195" lon="-1.5376321351992204">
    <tag k="addr:postcode" v="HG1 1HX"/>
    <tag k="removemelater" v="yes"/>
  </node>
  <node id="-47" lat="53.989696142764316" lon="-1.5373870259585054">
    <tag k="addr:postcode" v="HG1 1HY"/>
    <tag k="removemelater" v="yes"/>
  </node>
  <node id="-48" lat="53.990030083018624" lon="-1.5377493674982572">
    <tag k="addr:postcode" v="HG1 1HZ"/>
    <tag k="removemelater" v="yes"/>
  </node>
  <node id="-49" lat="53.98962758461814" lon="-1.5382571234590725">
    <tag k="addr:postcode" v="HG1 1JA"/>
    <tag k="removemelater" v="yes"/>
  </node>
  <node id="-50" lat="53.987598368814425" lon="-1.5387828337885532">
    <tag k="addr:postcode" v="HG1 1JB"/>
    <tag k="removemelater" v="yes"/>
  </node>
  <node id="-51" lat="53.99113288980835" lon="-1.5370508164507346">
    <tag k="addr:postcode" v="HG1 1JD"/>
    <tag k="removemelater" v="yes"/>
  </node>
  <node id="-52" lat="53.98934669087078" lon="-1.537665422757248">
    <tag k="addr:postcode" v="HG1 1JE"/>
    <tag k="removemelater" v="yes"/>
  </node>
  <node id="-53" lat="53.99186725487056" lon="-1.5387051830359164">
    <tag k="addr:postcode" v="HG1 1JG"/>
    <tag k="removemelater" v="yes"/>
  </node>
  <node id="-54" lat="53.991823487640794" lon="-1.5390107134423516">
    <tag k="addr:postcode" v="HG1 1JL"/>
    <tag k="removemelater" v="yes"/>
  </node>
  <node id="-55" lat="53.991521712887646" lon="-1.5400054400490366">
    <tag k="addr:postcode" v="HG1 1JX"/>
    <tag k="removemelater" v="yes"/>
  </node>
  <node id="-56" lat="53.99182091938521" lon="-1.5406884998018406">
    <tag k="addr:postcode" v="HG1 1JZ"/>
    <tag k="removemelater" v="yes"/>
  </node>
  <node id="-57" lat="53.9922012991664" lon="-1.5414469402471">
    <tag k="addr:postcode" v="HG1 1LA"/>
    <tag k="removemelater" v="yes"/>
  </node>
  <node id="-58" lat="53.99164315123986" lon="-1.5412090325294816">
    <tag k="addr:postcode" v="HG1 1LB"/>
    <tag k="removemelater" v="yes"/>
  </node>
  <node id="-59" lat="53.991108410347245" lon="-1.5400404966783638">
    <tag k="addr:postcode" v="HG1 1LE"/>
    <tag k="removemelater" v="yes"/>
  </node>
  <node id="-60" lat="53.99089037859324" lon="-1.5394328178347636">
    <tag k="addr:postcode" v="HG1 1LL"/>
    <tag k="removemelater" v="yes"/>
  </node>
  <node id="-61" lat="53.991292706441065" lon="-1.5388793032265822">
    <tag k="addr:postcode" v="HG1 1LT"/>
    <tag k="removemelater" v="yes"/>
  </node>
  <node id="-62" lat="53.99131412804285" lon="-1.5397789441716325">
    <tag k="addr:postcode" v="HG1 1LX"/>
    <tag k="removemelater" v="yes"/>
  </node>
  <node id="-63" lat="53.991455531449574" lon="-1.5391520451521905">
    <tag k="addr:postcode" v="HG1 1ND"/>
    <tag k="removemelater" v="yes"/>
  </node>
  <node id="-64" lat="53.99187898964602" lon="-1.5394219146722168">
    <tag k="addr:postcode" v="HG1 1NG"/>
    <tag k="removemelater" v="yes"/>
  </node>
  <node id="-65" lat="53.99200662264514" lon="-1.5398933318089671">
    <tag k="addr:postcode" v="HG1 1NH"/>
    <tag k="removemelater" v="yes"/>
  </node>
  <node id="-66" lat="53.99182652505152" lon="-1.5398038020019915">
    <tag k="addr:postcode" v="HG1 1NJ"/>
    <tag k="removemelater" v="yes"/>
  </node>
  <node id="-67" lat="53.9935656343816" lon="-1.5409743687896151">
    <tag k="addr:postcode" v="HG1 1NS"/>
    <tag k="removemelater" v="yes"/>
  </node>
  <node id="-68" lat="53.99354957965024" lon="-1.5414778934938596">
    <tag k="addr:postcode" v="HG1 1PB"/>
    <tag k="removemelater" v="yes"/>
  </node>
  <node id="-69" lat="53.993039333429635" lon="-1.542017343806896">
    <tag k="addr:postcode" v="HG1 1PE"/>
    <tag k="removemelater" v="yes"/>
  </node>
  <node id="-70" lat="53.993074527702206" lon="-1.5418186713872875">
    <tag k="addr:postcode" v="HG1 1PH"/>
    <tag k="removemelater" v="yes"/>
  </node>
  <node id="-71" lat="53.99342619702627" lon="-1.5421198713923905">
    <tag k="addr:postcode" v="HG1 1PN"/>
    <tag k="removemelater" v="yes"/>
  </node>
  <node id="-72" lat="53.993965265194625" lon="-1.5420682009871698">
    <tag k="addr:postcode" v="HG1 1PP"/>
    <tag k="removemelater" v="yes"/>
  </node>
  <node id="-73" lat="53.99312798702775" lon="-1.541696062246596">
    <tag k="addr:postcode" v="HG1 1PQ"/>
    <tag k="removemelater" v="yes"/>
  </node>
  <node id="-74" lat="53.99410382848023" lon="-1.5406938953225409">
    <tag k="addr:postcode" v="HG1 1PU"/>
    <tag k="removemelater" v="yes"/>
  </node>
  <node id="-75" lat="53.99373136118516" lon="-1.5420097539161641">
    <tag k="addr:postcode" v="HG1 1PW"/>
    <tag k="removemelater" v="yes"/>
  </node>
  <node id="-76" lat="53.994127700613205" lon="-1.5398852137592731">
    <tag k="addr:postcode" v="HG1 1PY"/>
    <tag k="removemelater" v="yes"/>
  </node>
  <node id="-77" lat="53.994037826915964" lon="-1.5398862040668448">
    <tag k="addr:postcode" v="HG1 1QA"/>
    <tag k="removemelater" v="yes"/>
  </node>
  <node id="-78" lat="53.99432542274229" lon="-1.539883035063625">
    <tag k="addr:postcode" v="HG1 1QE"/>
    <tag k="removemelater" v="yes"/>
  </node>
  <node id="-79" lat="53.994169600495134" lon="-1.5390915854511622">
    <tag k="addr:postcode" v="HG1 1QH"/>
    <tag k="removemelater" v="yes"/>
  </node>
  <node id="-80" lat="53.99469880272107" lon="-1.538811182888736">
    <tag k="addr:postcode" v="HG1 1QJ"/>
    <tag k="removemelater" v="yes"/>
  </node>
  <node id="-81" lat="53.993656735842286" lon="-1.538944716164939">
    <tag k="addr:postcode" v="HG1 1QQ"/>
    <tag k="removemelater" v="yes"/>
  </node>
  <node id="-82" lat="53.99218228081744" lon="-1.5388237229678339">
    <tag k="addr:postcode" v="HG1 1QS"/>
    <tag k="removemelater" v="yes"/>
  </node>
  <node id="-83" lat="53.992221035406985" lon="-1.539555414604099">
    <tag k="addr:postcode" v="HG1 1QU"/>
    <tag k="removemelater" v="yes"/>
  </node>
  <node id="-84" lat="53.99225896914932" lon="-1.5400735815365842">
    <tag k="addr:postcode" v="HG1 1QX"/>
    <tag k="removemelater" v="yes"/>
  </node>
  <node id="-85" lat="53.992306121064544" lon="-1.5406526580772708">
    <tag k="addr:postcode" v="HG1 1QY"/>
    <tag k="removemelater" v="yes"/>
  </node>
  <node id="-86" lat="53.9924168295457" lon="-1.5390499211559865">
    <tag k="addr:postcode" v="HG1 1RD"/>
    <tag k="removemelater" v="yes"/>
  </node>
  <node id="-87" lat="53.992426576701334" lon="-1.5392480969399773">
    <tag k="addr:postcode" v="HG1 1RE"/>
    <tag k="removemelater" v="yes"/>
  </node>
  <node id="-88" lat="53.99247309052968" lon="-1.5396594035011955">
    <tag k="addr:postcode" v="HG1 1RF"/>
    <tag k="removemelater" v="yes"/>
  </node>
  <node id="-89" lat="53.992685686655065" lon="-1.5411975786811287">
    <tag k="addr:postcode" v="HG1 1RH"/>
    <tag k="removemelater" v="yes"/>
  </node>
  <node id="-90" lat="53.99291889281335" lon="-1.5410729944872814">
    <tag k="addr:postcode" v="HG1 1RN"/>
    <tag k="removemelater" v="yes"/>
  </node>
  <node id="-91" lat="53.992841923015725" lon="-1.5397468538877914">
    <tag k="addr:postcode" v="HG1 1RP"/>
    <tag k="removemelater" v="yes"/>
  </node>
  <node id="-92" lat="53.99252975649901" lon="-1.5403756512445814">
    <tag k="addr:postcode" v="HG1 1RQ"/>
    <tag k="removemelater" v="yes"/>
  </node>
  <node id="-93" lat="53.99344815427394" lon="-1.5384589250411551">
    <tag k="addr:postcode" v="HG1 1RU"/>
    <tag k="removemelater" v="yes"/>
  </node>
  <node id="-94" lat="53.993076586676494" lon="-1.540003565150901">
    <tag k="addr:postcode" v="HG1 1RW"/>
    <tag k="removemelater" v="yes"/>
  </node>
  <node id="-95" lat="53.993335936546515" lon="-1.5396651444381306">
    <tag k="addr:postcode" v="HG1 1RX"/>
    <tag k="removemelater" v="yes"/>
  </node>
  <node id="-96" lat="53.98836624602486" lon="-1.5374627609251899">
    <tag k="addr:postcode" v="HG1 1SG"/>
    <tag k="removemelater" v="yes"/>
  </node>
  <node id="-97" lat="53.992129606955324" lon="-1.5368109799952725">
    <tag k="addr:postcode" v="HG1 1SP"/>
    <tag k="removemelater" v="yes"/>
  </node>
  <node id="-98" lat="53.99179848352055" lon="-1.5371807088420457">
    <tag k="addr:postcode" v="HG1 1SS"/>
    <tag k="removemelater" v="yes"/>
  </node>
  <node id="-99" lat="53.99143910610297" lon="-1.5372151961107392">
    <tag k="addr:postcode" v="HG1 1ST"/>
    <tag k="removemelater" v="yes"/>
  </node>
  <node id="-100" lat="53.99201775716725" lon="-1.5381086762211353">
    <tag k="addr:postcode" v="HG1 1SY"/>
    <tag k="removemelater" v="yes"/>
  </node>
  <node id="-101" lat="53.99209899492815" lon="-1.5381992923683365">
    <tag k="addr:postcode" v="HG1 1TB"/>
    <tag k="removemelater" v="yes"/>
  </node>
  <node id="-102" lat="53.99254994402164" lon="-1.538606126035156">
    <tag k="addr:postcode" v="HG1 1TD"/>
    <tag k="removemelater" v="yes"/>
  </node>
  <node id="-103" lat="53.992689641208536" lon="-1.5375368960322457">
    <tag k="addr:postcode" v="HG1 1TE"/>
    <tag k="removemelater" v="yes"/>
  </node>
  <node id="-104" lat="53.99264493894705" lon="-1.537598401683854">
    <tag k="addr:postcode" v="HG1 1TJ"/>
    <tag k="removemelater" v="yes"/>
  </node>
  <node id="-105" lat="53.99264493894705" lon="-1.537598401683854">
    <tag k="addr:postcode" v="HG1 1TS"/>
    <tag k="removemelater" v="yes"/>
  </node>
  <node id="-106" lat="53.992258482067506" lon="-1.537602680911282">
    <tag k="addr:postcode" v="HG1 1TT"/>
    <tag k="removemelater" v="yes"/>
  </node>
  <node id="-107" lat="53.993646169030214" lon="-1.5385330014755259">
    <tag k="addr:postcode" v="HG1 1TU"/>
    <tag k="removemelater" v="yes"/>
  </node>
  <node id="-108" lat="53.99418605478574" lon="-1.5386948203547186">
    <tag k="addr:postcode" v="HG1 1TX"/>
    <tag k="removemelater" v="yes"/>
  </node>
  <node id="-109" lat="53.99515786018895" lon="-1.538989155372585">
    <tag k="addr:postcode" v="HG1 1TY"/>
    <tag k="removemelater" v="yes"/>
  </node>
  <node id="-110" lat="53.996128788064844" lon="-1.53905470483693">
    <tag k="addr:postcode" v="HG1 1TZ"/>
    <tag k="removemelater" v="yes"/>
  </node>
  <node id="-111" lat="53.99617594496475" lon="-1.5396338338715656">
    <tag k="addr:postcode" v="HG1 1UA"/>
    <tag k="removemelater" v="yes"/>
  </node>
  <node id="-112" lat="53.99525818230619" lon="-1.539369387789095">
    <tag k="addr:postcode" v="HG1 1UB"/>
    <tag k="removemelater" v="yes"/>
  </node>
  <node id="-113" lat="53.995111168468725" lon="-1.5385320644219298">
    <tag k="addr:postcode" v="HG1 1UE"/>
    <tag k="removemelater" v="yes"/>
  </node>
  <node id="-114" lat="53.99506453359425" lon="-1.538090227388125">
    <tag k="addr:postcode" v="HG1 1UF"/>
    <tag k="removemelater" v="yes"/>
  </node>
  <node id="-115" lat="53.997404230425865" lon="-1.5411914923299648">
    <tag k="addr:postcode" v="HG1 2AA"/>
    <tag k="removemelater" v="yes"/>
  </node>
  <node id="-116" lat="54.000956404141306" lon="-1.53936753839348">
    <tag k="addr:postcode" v="HG1 2AD"/>
    <tag k="removemelater" v="yes"/>
  </node>
  <node id="-117" lat="54.001407815729344" lon="-1.5398965121678059">
    <tag k="addr:postcode" v="HG1 2AF"/>
    <tag k="removemelater" v="yes"/>
  </node>
  <node id="-118" lat="54.00384219252004" lon="-1.5372150065010972">
    <tag k="addr:postcode" v="HG1 2AG"/>
    <tag k="removemelater" v="yes"/>
  </node>
  <node id="-119" lat="54.003127659740166" lon="-1.5383824207635597">
    <tag k="addr:postcode" v="HG1 2AH"/>
    <tag k="removemelater" v="yes"/>
  </node>
  <node id="-120" lat="54.00372758609232" lon="-1.5377960317211172">
    <tag k="addr:postcode" v="HG1 2AJ"/>
    <tag k="removemelater" v="yes"/>
  </node>
  <node id="-121" lat="54.00393400204669" lon="-1.537717462209787">
    <tag k="addr:postcode" v="HG1 2AL"/>
    <tag k="removemelater" v="yes"/>
  </node>
  <node id="-122" lat="54.004244685189434" lon="-1.536707066714217">
    <tag k="addr:postcode" v="HG1 2AN"/>
    <tag k="removemelater" v="yes"/>
  </node>
  <node id="-123" lat="54.002446902704165" lon="-1.5389849418208055">
    <tag k="addr:postcode" v="HG1 2AP"/>
    <tag k="removemelater" v="yes"/>
  </node>
  <node id="-124" lat="54.00439300186802" lon="-1.5378802051571254">
    <tag k="addr:postcode" v="HG1 2AQ"/>
    <tag k="removemelater" v="yes"/>
  </node>
  <node id="-125" lat="54.00230916630183" lon="-1.5382236539305838">
    <tag k="addr:postcode" v="HG1 2AR"/>
    <tag k="removemelater" v="yes"/>
  </node>
  <node id="-126" lat="54.001783474771415" lon="-1.5394194361435172">
    <tag k="addr:postcode" v="HG1 2AS"/>
    <tag k="removemelater" v="yes"/>
  </node>
  <node id="-127" lat="54.00255866434337" lon="-1.540005877704846">
    <tag k="addr:postcode" v="HG1 2AT"/>
    <tag k="removemelater" v="yes"/>
  </node>
  <node id="-128" lat="54.003837291673165" lon="-1.5501375162636395">
    <tag k="addr:postcode" v="HG1 2AU"/>
    <tag k="removemelater" v="yes"/>
  </node>
  <node id="-129" lat="54.00359412365684" lon="-1.5381484124991527">
    <tag k="addr:postcode" v="HG1 2AW"/>
    <tag k="removemelater" v="yes"/>
  </node>
  <node id="-130" lat="54.005730999044175" lon="-1.5494152649011017">
    <tag k="addr:postcode" v="HG1 2BF"/>
    <tag k="removemelater" v="yes"/>
  </node>
  <node id="-131" lat="54.00459596014036" lon="-1.5487256949394876">
    <tag k="addr:postcode" v="HG1 2BS"/>
    <tag k="removemelater" v="yes"/>
  </node>
  <node id="-132" lat="53.993881131454565" lon="-1.5435791801976761">
    <tag k="addr:postcode" v="HG1 2BU"/>
    <tag k="removemelater" v="yes"/>
  </node>
  <node id="-133" lat="54.00597502896671" lon="-1.5497788108779607">
    <tag k="addr:postcode" v="HG1 2BX"/>
    <tag k="removemelater" v="yes"/>
  </node>
  <node id="-134" lat="54.00638793366473" lon="-1.5496370380254492">
    <tag k="addr:postcode" v="HG1 2BZ"/>
    <tag k="removemelater" v="yes"/>
  </node>
  <node id="-135" lat="54.00235260248202" lon="-1.547285352485862">
    <tag k="addr:postcode" v="HG1 2DR"/>
    <tag k="removemelater" v="yes"/>
  </node>
  <node id="-136" lat="54.002317294186135" lon="-1.5450735895114853">
    <tag k="addr:postcode" v="HG1 2DS"/>
    <tag k="removemelater" v="yes"/>
  </node>
  <node id="-137" lat="54.00176738978343" lon="-1.5470170913437133">
    <tag k="addr:postcode" v="HG1 2DT"/>
    <tag k="removemelater" v="yes"/>
  </node>
  <node id="-138" lat="54.001412971207266" lon="-1.545983539481036">
    <tag k="addr:postcode" v="HG1 2DU"/>
    <tag k="removemelater" v="yes"/>
  </node>
  <node id="-139" lat="54.00178136719653" lon="-1.5412196657908162">
    <tag k="addr:postcode" v="HG1 2DX"/>
    <tag k="removemelater" v="yes"/>
  </node>
  <node id="-140" lat="54.00207975248748" lon="-1.5440540199785593">
    <tag k="addr:postcode" v="HG1 2DY"/>
    <tag k="removemelater" v="yes"/>
  </node>
  <node id="-141" lat="54.00282801391007" lon="-1.5470360948033859">
    <tag k="addr:postcode" v="HG1 2DZ"/>
    <tag k="removemelater" v="yes"/>
  </node>
  <node id="-142" lat="54.00256192855079" lon="-1.540860192953243">
    <tag k="addr:postcode" v="HG1 2EA"/>
    <tag k="removemelater" v="yes"/>
  </node>
  <node id="-143" lat="54.00266874957442" lon="-1.5429491324784117">
    <tag k="addr:postcode" v="HG1 2EB"/>
    <tag k="removemelater" v="yes"/>
  </node>
  <node id="-144" lat="54.002475952369295" lon="-1.5418833066591269">
    <tag k="addr:postcode" v="HG1 2ED"/>
    <tag k="removemelater" v="yes"/>
  </node>
  <node id="-145" lat="54.00154364750635" lon="-1.5425190296862674">
    <tag k="addr:postcode" v="HG1 2EE"/>
    <tag k="removemelater" v="yes"/>
  </node>
  <node id="-146" lat="54.001460903497275" lon="-1.542031748684629">
    <tag k="addr:postcode" v="HG1 2EF"/>
    <tag k="removemelater" v="yes"/>
  </node>
  <node id="-147" lat="53.99368832231039" lon="-1.5448777947836707">
    <tag k="addr:postcode" v="HG1 2EG"/>
    <tag k="removemelater" v="yes"/>
  </node>
  <node id="-148" lat="54.00147469102645" lon="-1.5409331745385368">
    <tag k="addr:postcode" v="HG1 2EH"/>
    <tag k="removemelater" v="yes"/>
  </node>
  <node id="-149" lat="54.002430739727025" lon="-1.5394580632843384">
    <tag k="addr:postcode" v="HG1 2EJ"/>
    <tag k="removemelater" v="yes"/>
  </node>
  <node id="-150" lat="54.002998344551486" lon="-1.5398179554302849">
    <tag k="addr:postcode" v="HG1 2EL"/>
    <tag k="removemelater" v="yes"/>
  </node>
  <node id="-151" lat="53.99618292205561" lon="-1.5485878179978618">
    <tag k="addr:postcode" v="HG1 2FA"/>
    <tag k="removemelater" v="yes"/>
  </node>
  <node id="-152" lat="53.99943603816221" lon="-1.5460813143344676">
    <tag k="addr:postcode" v="HG1 2HJ"/>
    <tag k="removemelater" v="yes"/>
  </node>
  <node id="-153" lat="53.99468048346573" lon="-1.5481922190078197">
    <tag k="addr:postcode" v="HG1 2HL"/>
    <tag k="removemelater" v="yes"/>
  </node>
  <node id="-154" lat="53.99804051854863" lon="-1.5454405381135794">
    <tag k="addr:postcode" v="HG1 2HP"/>
    <tag k="removemelater" v="yes"/>
  </node>
  <node id="-155" lat="53.9978918711548" lon="-1.544160773331007">
    <tag k="addr:postcode" v="HG1 2HR"/>
    <tag k="removemelater" v="yes"/>
  </node>
  <node id="-156" lat="53.9983559158026" lon="-1.5432861871276202">
    <tag k="addr:postcode" v="HG1 2HS"/>
    <tag k="removemelater" v="yes"/>
  </node>
  <node id="-157" lat="53.99797154297563" lon="-1.5438395570636019">
    <tag k="addr:postcode" v="HG1 2HT"/>
    <tag k="removemelater" v="yes"/>
  </node>
  <node id="-158" lat="53.996937706187666" lon="-1.5437745810332046">
    <tag k="addr:postcode" v="HG1 2HU"/>
    <tag k="removemelater" v="yes"/>
  </node>
  <node id="-159" lat="53.998333696979174" lon="-1.5445373175045363">
    <tag k="addr:postcode" v="HG1 2HX"/>
    <tag k="removemelater" v="yes"/>
  </node>
  <node id="-160" lat="53.99659160908166" lon="-1.5425732898635844">
    <tag k="addr:postcode" v="HG1 2HY"/>
    <tag k="removemelater" v="yes"/>
  </node>
  <node id="-161" lat="53.99677081363398" lon="-1.547178080321538">
    <tag k="addr:postcode" v="HG1 2JA"/>
    <tag k="removemelater" v="yes"/>
  </node>
  <node id="-162" lat="53.998042880599485" lon="-1.5460659516501685">
    <tag k="addr:postcode" v="HG1 2JB"/>
    <tag k="removemelater" v="yes"/>
  </node>
  <node id="-163" lat="53.997410753998366" lon="-1.5476592801801068">
    <tag k="addr:postcode" v="HG1 2JD"/>
    <tag k="removemelater" v="yes"/>
  </node>
  <node id="-164" lat="53.99894518461615" lon="-1.544622176266481">
    <tag k="addr:postcode" v="HG1 2JE"/>
    <tag k="removemelater" v="yes"/>
  </node>
  <node id="-165" lat="53.999830906594624" lon="-1.5459244683575515">
    <tag k="addr:postcode" v="HG1 2JF"/>
    <tag k="removemelater" v="yes"/>
  </node>
  <node id="-166" lat="54.000384837550115" lon="-1.5450488815143935">
    <tag k="addr:postcode" v="HG1 2JG"/>
    <tag k="removemelater" v="yes"/>
  </node>
  <node id="-167" lat="54.00103768858158" lon="-1.5465673378948872">
    <tag k="addr:postcode" v="HG1 2JH"/>
    <tag k="removemelater" v="yes"/>
  </node>
  <node id="-168" lat="53.99984311600027" lon="-1.5467786308907017">
    <tag k="addr:postcode" v="HG1 2JJ"/>
    <tag k="removemelater" v="yes"/>
  </node>
  <node id="-169" lat="54.000580482606146" lon="-1.5468774146537936">
    <tag k="addr:postcode" v="HG1 2JQ"/>
    <tag k="removemelater" v="yes"/>
  </node>
  <node id="-170" lat="53.99916054507198" lon="-1.5421637680423788">
    <tag k="addr:postcode" v="HG1 2LB"/>
    <tag k="removemelater" v="yes"/>
  </node>
  <node id="-171" lat="53.998091018931" lon="-1.5565606136725434">
    <tag k="addr:postcode" v="HG1 2LN"/>
    <tag k="removemelater" v="yes"/>
  </node>
  <node id="-172" lat="54.003920023723104" lon="-1.5364207915134747">
    <tag k="addr:postcode" v="HG1 2LZ"/>
    <tag k="removemelater" v="yes"/>
  </node>
  <node id="-173" lat="54.00445837344605" lon="-1.5385202740224158">
    <tag k="addr:postcode" v="HG1 2PD"/>
    <tag k="removemelater" v="yes"/>
  </node>
  <node id="-174" lat="53.993879460327925" lon="-1.5478958240740204">
    <tag k="addr:postcode" v="HG1 2PH"/>
    <tag k="removemelater" v="yes"/>
  </node>
  <node id="-175" lat="53.99374545213794" lon="-1.5481108175654896">
    <tag k="addr:postcode" v="HG1 2PJ"/>
    <tag k="removemelater" v="yes"/>
  </node>
  <node id="-176" lat="53.99371116375334" lon="-1.5485535265162524">
    <tag k="addr:postcode" v="HG1 2PL"/>
    <tag k="removemelater" v="yes"/>
  </node>
  <node id="-177" lat="53.993903273308185" lon="-1.5494513825389618">
    <tag k="addr:postcode" v="HG1 2PN"/>
    <tag k="removemelater" v="yes"/>
  </node>
  <node id="-178" lat="53.99212156940048" lon="-1.551285646730271">
    <tag k="addr:postcode" v="HG1 2PQ"/>
    <tag k="removemelater" v="yes"/>
  </node>
  <node id="-179" lat="53.99459490164694" lon="-1.5493371465242722">
    <tag k="addr:postcode" v="HG1 2QA"/>
    <tag k="removemelater" v="yes"/>
  </node>
  <node id="-180" lat="53.9948135111274" lon="-1.5501127122190992">
    <tag k="addr:postcode" v="HG1 2QD"/>
    <tag k="removemelater" v="yes"/>
  </node>
  <node id="-181" lat="53.99442131530553" lon="-1.550986375198127">
    <tag k="addr:postcode" v="HG1 2QE"/>
    <tag k="removemelater" v="yes"/>
  </node>
  <node id="-182" lat="53.99519189378532" lon="-1.550352692571781">
    <tag k="addr:postcode" v="HG1 2QF"/>
    <tag k="removemelater" v="yes"/>
  </node>
  <node id="-183" lat="53.994890856388885" lon="-1.5491661642982382">
    <tag k="addr:postcode" v="HG1 2QH"/>
    <tag k="removemelater" v="yes"/>
  </node>
  <node id="-184" lat="53.99980050515452" lon="-1.5426449182276587">
    <tag k="addr:postcode" v="HG1 2QR"/>
    <tag k="removemelater" v="yes"/>
  </node>
  <node id="-185" lat="54.00028222262142" lon="-1.5416938038082444">
    <tag k="addr:postcode" v="HG1 2QS"/>
    <tag k="removemelater" v="yes"/>
  </node>
  <node id="-186" lat="54.00005910728165" lon="-1.5421081477662564">
    <tag k="addr:postcode" v="HG1 2QT"/>
    <tag k="removemelater" v="yes"/>
  </node>
  <node id="-187" lat="53.993222620296685" lon="-1.5429457578401362">
    <tag k="addr:postcode" v="HG1 2QU"/>
    <tag k="removemelater" v="yes"/>
  </node>
  <node id="-188" lat="53.99346411974034" lon="-1.542638055676449">
    <tag k="addr:postcode" v="HG1 2QZ"/>
    <tag k="removemelater" v="yes"/>
  </node>
  <node id="-189" lat="53.99353990059908" lon="-1.543659174769009">
    <tag k="addr:postcode" v="HG1 2RB"/>
    <tag k="removemelater" v="yes"/>
  </node>
  <node id="-190" lat="53.994034032586356" lon="-1.5436080152394578">
    <tag k="addr:postcode" v="HG1 2RE"/>
    <tag k="removemelater" v="yes"/>
  </node>
  <node id="-191" lat="53.994053924777766" lon="-1.5464906447323195">
    <tag k="addr:postcode" v="HG1 2RG"/>
    <tag k="removemelater" v="yes"/>
  </node>
  <node id="-192" lat="53.99433798188473" lon="-1.5431776017768237">
    <tag k="addr:postcode" v="HG1 2RJ"/>
    <tag k="removemelater" v="yes"/>
  </node>
  <node id="-193" lat="53.99448305397026" lon="-1.5435115876230807">
    <tag k="addr:postcode" v="HG1 2RL"/>
    <tag k="removemelater" v="yes"/>
  </node>
  <node id="-194" lat="53.994229148228655" lon="-1.542919487622988">
    <tag k="addr:postcode" v="HG1 2RN"/>
    <tag k="removemelater" v="yes"/>
  </node>
  <node id="-195" lat="54.00301589988581" lon="-1.5492004694863517">
    <tag k="addr:postcode" v="HG1 2RP"/>
    <tag k="removemelater" v="yes"/>
  </node>
  <node id="-196" lat="53.99395077150287" lon="-1.5429835472638562">
    <tag k="addr:postcode" v="HG1 2RQ"/>
    <tag k="removemelater" v="yes"/>
  </node>
  <node id="-197" lat="53.994087226569334" lon="-1.545788637248146">
    <tag k="addr:postcode" v="HG1 2RS"/>
    <tag k="removemelater" v="yes"/>
  </node>
  <node id="-198" lat="53.994087226569334" lon="-1.545788637248146">
    <tag k="addr:postcode" v="HG1 2RT"/>
    <tag k="removemelater" v="yes"/>
  </node>
  <node id="-199" lat="53.99430139498777" lon="-1.5430102162910597">
    <tag k="addr:postcode" v="HG1 2RX"/>
    <tag k="removemelater" v="yes"/>
  </node>
  <node id="-200" lat="53.994087226569334" lon="-1.545788637248146">
    <tag k="addr:postcode" v="HG1 2RY"/>
    <tag k="removemelater" v="yes"/>
  </node>
  <node id="-201" lat="53.99359315120278" lon="-1.545855023395943">
    <tag k="addr:postcode" v="HG1 2RZ"/>
    <tag k="removemelater" v="yes"/>
  </node>
  <node id="-202" lat="53.99410052877861" lon="-1.5469324806360716">
    <tag k="addr:postcode" v="HG1 2SA"/>
    <tag k="removemelater" v="yes"/>
  </node>
  <node id="-203" lat="53.99501655165078" lon="-1.546739499378729">
    <tag k="addr:postcode" v="HG1 2SB"/>
    <tag k="removemelater" v="yes"/>
  </node>
  <node id="-204" lat="53.99398553053069" lon="-1.547421828585491">
    <tag k="addr:postcode" v="HG1 2SE"/>
    <tag k="removemelater" v="yes"/>
  </node>
  <node id="-205" lat="53.994843030059016" lon="-1.54600921755007">
    <tag k="addr:postcode" v="HG1 2SG"/>
    <tag k="removemelater" v="yes"/>
  </node>
  <node id="-206" lat="53.99048239330755" lon="-1.555207731697426">
    <tag k="addr:postcode" v="HG1 2SL"/>
    <tag k="removemelater" v="yes"/>
  </node>
  <node id="-207" lat="53.9955689155056" lon="-1.5478317705180238">
    <tag k="addr:postcode" v="HG1 2SR"/>
    <tag k="removemelater" v="yes"/>
  </node>
  <node id="-208" lat="53.99572390801763" lon="-1.54603014752927">
    <tag k="addr:postcode" v="HG1 2SS"/>
    <tag k="removemelater" v="yes"/>
  </node>
  <node id="-209" lat="53.995640486512215" lon="-1.5453598900500096">
    <tag k="addr:postcode" v="HG1 2SX"/>
    <tag k="removemelater" v="yes"/>
  </node>
  <node id="-210" lat="53.99530662699919" lon="-1.5450126920164258">
    <tag k="addr:postcode" v="HG1 2SY"/>
    <tag k="removemelater" v="yes"/>
  </node>
  <node id="-211" lat="53.99320087130567" lon="-1.5466981961526416">
    <tag k="addr:postcode" v="HG1 2TA"/>
    <tag k="removemelater" v="yes"/>
  </node>
  <node id="-212" lat="53.99504109775801" lon="-1.5460985851666844">
    <tag k="addr:postcode" v="HG1 2TD"/>
    <tag k="removemelater" v="yes"/>
  </node>
  <node id="-213" lat="53.99336373750266" lon="-1.544606780119193">
    <tag k="addr:postcode" v="HG1 2TF"/>
    <tag k="removemelater" v="yes"/>
  </node>
  <node id="-214" lat="53.99291454189714" lon="-1.5446574369642125">
    <tag k="addr:postcode" v="HG1 2TG"/>
    <tag k="removemelater" v="yes"/>
  </node>
  <node id="-215" lat="53.99269421896985" lon="-1.5434396264090595">
    <tag k="addr:postcode" v="HG1 2TJ"/>
    <tag k="removemelater" v="yes"/>
  </node>
  <node id="-216" lat="53.994042264909034" lon="-1.5481686181405518">
    <tag k="addr:postcode" v="HG1 2TL"/>
    <tag k="removemelater" v="yes"/>
  </node>
  <node id="-217" lat="53.9930564332416" lon="-1.5441525475597315">
    <tag k="addr:postcode" v="HG1 2TQ"/>
    <tag k="removemelater" v="yes"/>
  </node>
  <node id="-218" lat="54.00033261490074" lon="-1.5431272633934783">
    <tag k="addr:postcode" v="HG1 2TR"/>
    <tag k="removemelater" v="yes"/>
  </node>
  <node id="-219" lat="54.000420459245404" lon="-1.5425923599984281">
    <tag k="addr:postcode" v="HG1 2TS"/>
    <tag k="removemelater" v="yes"/>
  </node>
  <node id="-220" lat="53.99433235149378" lon="-1.5440623525083872">
    <tag k="addr:postcode" v="HG1 2WH"/>
    <tag k="removemelater" v="yes"/>
  </node>
  <node id="-221" lat="53.994101106583294" lon="-1.5447055108186734">
    <tag k="addr:postcode" v="HG1 2WL"/>
    <tag k="removemelater" v="yes"/>
  </node>
  <node id="-222" lat="54.002427074796216" lon="-1.5223863837160576">
    <tag k="addr:postcode" v="HG1 2WW"/>
    <tag k="removemelater" v="yes"/>
  </node>
  <node id="-223" lat="54.002427074796216" lon="-1.5223863837160576">
    <tag k="addr:postcode" v="HG1 2YR"/>
    <tag k="removemelater" v="yes"/>
  </node>
  <node id="-224" lat="54.002427074796216" lon="-1.5223863837160576">
    <tag k="addr:postcode" v="HG1 2YS"/>
    <tag k="removemelater" v="yes"/>
  </node>
  <node id="-225" lat="54.002427074796216" lon="-1.5223863837160576">
    <tag k="addr:postcode" v="HG1 2ZB"/>
    <tag k="removemelater" v="yes"/>
  </node>
  <node id="-226" lat="54.006092958800096" lon="-1.5382123077116578">
    <tag k="addr:postcode" v="HG1 3BA"/>
    <tag k="removemelater" v="yes"/>
  </node>
  <node id="-227" lat="54.009980710947005" lon="-1.5538402632525652">
    <tag k="addr:postcode" v="HG1 3BF"/>
    <tag k="removemelater" v="yes"/>
  </node>
  <node id="-228" lat="54.00836943656771" lon="-1.5342199356548347">
    <tag k="addr:postcode" v="HG1 3DT"/>
    <tag k="removemelater" v="yes"/>
  </node>
  <node id="-229" lat="54.005121950634916" lon="-1.5428307273023718">
    <tag k="addr:postcode" v="HG1 3EY"/>
    <tag k="removemelater" v="yes"/>
  </node>
  <node id="-230" lat="54.00581947723514" lon="-1.54427254610116">
    <tag k="addr:postcode" v="HG1 3HD"/>
    <tag k="removemelater" v="yes"/>
  </node>
  <node id="-231" lat="54.007030905738695" lon="-1.5485315313143737">
    <tag k="addr:postcode" v="HG1 3HE"/>
    <tag k="removemelater" v="yes"/>
  </node>
  <node id="-232" lat="54.00777268370558" lon="-1.552215984834236">
    <tag k="addr:postcode" v="HG1 3HH"/>
    <tag k="removemelater" v="yes"/>
  </node>
  <node id="-233" lat="54.008898658199904" lon="-1.552890540215995">
    <tag k="addr:postcode" v="HG1 3HJ"/>
    <tag k="removemelater" v="yes"/>
  </node>
  <node id="-234" lat="54.00781192418321" lon="-1.5531005385011896">
    <tag k="addr:postcode" v="HG1 3HU"/>
    <tag k="removemelater" v="yes"/>
  </node>
  <node id="-235" lat="54.002427074796216" lon="-1.5223863837160576">
    <tag k="addr:postcode" v="HG1 3XA"/>
    <tag k="removemelater" v="yes"/>
  </node>
  <node id="-236" lat="54.002427074796216" lon="-1.5223863837160576">
    <tag k="addr:postcode" v="HG1 3XU"/>
    <tag k="removemelater" v="yes"/>
  </node>
  <node id="-237" lat="53.99701508433007" lon="-1.524309315186357">
    <tag k="addr:postcode" v="HG1 4AE"/>
    <tag k="removemelater" v="yes"/>
  </node>
  <node id="-238" lat="54.001286228294816" lon="-1.5225367388769686">
    <tag k="addr:postcode" v="HG1 4AP"/>
    <tag k="removemelater" v="yes"/>
  </node>
  <node id="-239" lat="54.00352516453398" lon="-1.5227857484218765">
    <tag k="addr:postcode" v="HG1 4AT"/>
    <tag k="removemelater" v="yes"/>
  </node>
  <node id="-240" lat="54.002427074796216" lon="-1.5223863837160576">
    <tag k="addr:postcode" v="HG1 4AY"/>
    <tag k="removemelater" v="yes"/>
  </node>
  <node id="-241" lat="54.0021265872026" lon="-1.5236713362170822">
    <tag k="addr:postcode" v="HG1 4BA"/>
    <tag k="removemelater" v="yes"/>
  </node>
  <node id="-242" lat="54.00265747134842" lon="-1.5215599063320122">
    <tag k="addr:postcode" v="HG1 4BB"/>
    <tag k="removemelater" v="yes"/>
  </node>
  <node id="-243" lat="54.00253485493717" lon="-1.5269162634279418">
    <tag k="addr:postcode" v="HG1 4DA"/>
    <tag k="removemelater" v="yes"/>
  </node>
  <node id="-244" lat="54.00069524509229" lon="-1.529942463554225">
    <tag k="addr:postcode" v="HG1 4DP"/>
    <tag k="removemelater" v="yes"/>
  </node>
  <node id="-245" lat="54.00352516453398" lon="-1.5227857484218765">
    <tag k="addr:postcode" v="HG1 4DS"/>
    <tag k="removemelater" v="yes"/>
  </node>
  <node id="-246" lat="54.00879563156148" lon="-1.4929254883535668">
    <tag k="addr:postcode" v="HG1 4DW"/>
    <tag k="removemelater" v="yes"/>
  </node>
  <node id="-247" lat="54.00576627165916" lon="-1.5057633129541437">
    <tag k="addr:postcode" v="HG1 4ED"/>
    <tag k="removemelater" v="yes"/>
  </node>
  <node id="-248" lat="54.002427074796216" lon="-1.5223863837160576">
    <tag k="addr:postcode" v="HG1 4EE"/>
    <tag k="removemelater" v="yes"/>
  </node>
  <node id="-249" lat="54.003629660824544" lon="-1.5020049538716087">
    <tag k="addr:postcode" v="HG1 4EF"/>
    <tag k="removemelater" v="yes"/>
  </node>
  <node id="-250" lat="53.99830003322279" lon="-1.5242336558241836">
    <tag k="addr:postcode" v="HG1 4FA"/>
    <tag k="removemelater" v="yes"/>
  </node>
  <node id="-251" lat="53.99859601202161" lon="-1.524077734577478">
    <tag k="addr:postcode" v="HG1 4FB"/>
    <tag k="removemelater" v="yes"/>
  </node>
  <node id="-252" lat="53.997680328838385" lon="-1.5243474991516326">
    <tag k="addr:postcode" v="HG1 4FE"/>
    <tag k="removemelater" v="yes"/>
  </node>
  <node id="-253" lat="54.00783584001631" lon="-1.5310521839542113">
    <tag k="addr:postcode" v="HG1 4HB"/>
    <tag k="removemelater" v="yes"/>
  </node>
  <node id="-254" lat="54.00823973476198" lon="-1.5309103204453587">
    <tag k="addr:postcode" v="HG1 4HW"/>
    <tag k="removemelater" v="yes"/>
  </node>
  <node id="-255" lat="54.006985237928866" lon="-1.5250043558518596">
    <tag k="addr:postcode" v="HG1 4JB"/>
    <tag k="removemelater" v="yes"/>
  </node>
  <node id="-256" lat="54.00752248841139" lon="-1.524494724178841">
    <tag k="addr:postcode" v="HG1 4JT"/>
    <tag k="removemelater" v="yes"/>
  </node>
  <node id="-257" lat="54.00621606572825" lon="-1.523685696659466">
    <tag k="addr:postcode" v="HG1 4JU"/>
    <tag k="removemelater" v="yes"/>
  </node>
  <node id="-258" lat="54.00708263350936" lon="-1.5223636244057628">
    <tag k="addr:postcode" v="HG1 4JX"/>
    <tag k="removemelater" v="yes"/>
  </node>
  <node id="-259" lat="54.00593207369873" lon="-1.5223310186753716">
    <tag k="addr:postcode" v="HG1 4JY"/>
    <tag k="removemelater" v="yes"/>
  </node>
  <node id="-260" lat="54.00801124702837" lon="-1.520827169081671">
    <tag k="addr:postcode" v="HG1 4JZ"/>
    <tag k="removemelater" v="yes"/>
  </node>
  <node id="-261" lat="54.00173156969521" lon="-1.5329514771527109">
    <tag k="addr:postcode" v="HG1 4LA"/>
    <tag k="removemelater" v="yes"/>
  </node>
  <node id="-262" lat="54.00173156969521" lon="-1.5329514771527109">
    <tag k="addr:postcode" v="HG1 4LB"/>
    <tag k="removemelater" v="yes"/>
  </node>
  <node id="-263" lat="54.00183185170349" lon="-1.5333164994053925">
    <tag k="addr:postcode" v="HG1 4LD"/>
    <tag k="removemelater" v="yes"/>
  </node>
  <node id="-264" lat="54.001375035161985" lon="-1.5337182582092939">
    <tag k="addr:postcode" v="HG1 4LE"/>
    <tag k="removemelater" v="yes"/>
  </node>
  <node id="-265" lat="54.00249259843585" lon="-1.5345143562543424">
    <tag k="addr:postcode" v="HG1 4LF"/>
    <tag k="removemelater" v="yes"/>
  </node>
  <node id="-266" lat="54.004369332431146" lon="-1.5364005445179745">
    <tag k="addr:postcode" v="HG1 4LJ"/>
    <tag k="removemelater" v="yes"/>
  </node>
  <node id="-267" lat="54.0044927427868" lon="-1.5357736376325706">
    <tag k="addr:postcode" v="HG1 4LL"/>
    <tag k="removemelater" v="yes"/>
  </node>
  <node id="-268" lat="54.00277256371996" lon="-1.5348621304314292">
    <tag k="addr:postcode" v="HG1 4LQ"/>
    <tag k="removemelater" v="yes"/>
  </node>
  <node id="-269" lat="53.996964649439285" lon="-1.5229217542882805">
    <tag k="addr:postcode" v="HG1 4PA"/>
    <tag k="removemelater" v="yes"/>
  </node>
  <node id="-270" lat="53.99988505839105" lon="-1.500630880189597">
    <tag k="addr:postcode" v="HG1 4PT"/>
    <tag k="removemelater" v="yes"/>
  </node>
  <node id="-271" lat="53.999218223266475" lon="-1.5002117146314227">
    <tag k="addr:postcode" v="HG1 4PY"/>
    <tag k="removemelater" v="yes"/>
  </node>
  <node id="-272" lat="54.00154858092026" lon="-1.5029909046802317">
    <tag k="addr:postcode" v="HG1 4QE"/>
    <tag k="removemelater" v="yes"/>
  </node>
  <node id="-273" lat="54.00218869624745" lon="-1.5034714802945413">
    <tag k="addr:postcode" v="HG1 4QG"/>
    <tag k="removemelater" v="yes"/>
  </node>
  <node id="-274" lat="54.003103322323106" lon="-1.5029571361512417">
    <tag k="addr:postcode" v="HG1 4QH"/>
    <tag k="removemelater" v="yes"/>
  </node>
  <node id="-275" lat="54.00331592611602" lon="-1.502207032403744">
    <tag k="addr:postcode" v="HG1 4QT"/>
    <tag k="removemelater" v="yes"/>
  </node>
  <node id="-276" lat="53.99392909868463" lon="-1.5257782654895022">
    <tag k="addr:postcode" v="HG1 4SW"/>
    <tag k="removemelater" v="yes"/>
  </node>
  <node id="-277" lat="54.002427074796216" lon="-1.5223863837160576">
    <tag k="addr:postcode" v="HG1 4WQ"/>
    <tag k="removemelater" v="yes"/>
  </node>
  <node id="-278" lat="54.002427074796216" lon="-1.5223863837160576">
    <tag k="addr:postcode" v="HG1 4WU"/>
    <tag k="removemelater" v="yes"/>
  </node>
  <node id="-279" lat="54.002427074796216" lon="-1.5223863837160576">
    <tag k="addr:postcode" v="HG1 4YW"/>
    <tag k="removemelater" v="yes"/>
  </node>
  <node id="-280" lat="53.9922538539051" lon="-1.529457892917212">
    <tag k="addr:postcode" v="HG1 5AD"/>
    <tag k="removemelater" v="yes"/>
  </node>
  <node id="-281" lat="53.99179591623605" lon="-1.5295698192911846">
    <tag k="addr:postcode" v="HG1 5AH"/>
    <tag k="removemelater" v="yes"/>
  </node>
  <node id="-282" lat="53.997252315031986" lon="-1.5297829201275333">
    <tag k="addr:postcode" v="HG1 5AT"/>
    <tag k="removemelater" v="yes"/>
  </node>
  <node id="-283" lat="53.994650881139975" lon="-1.5357000223400212">
    <tag k="addr:postcode" v="HG1 5BG"/>
    <tag k="removemelater" v="yes"/>
  </node>
  <node id="-284" lat="53.99536470630491" lon="-1.5366835716563516">
    <tag k="addr:postcode" v="HG1 5BW"/>
    <tag k="removemelater" v="yes"/>
  </node>
  <node id="-285" lat="53.995564173497876" lon="-1.5348051512125294">
    <tag k="addr:postcode" v="HG1 5BY"/>
    <tag k="removemelater" v="yes"/>
  </node>
  <node id="-286" lat="53.99816855944149" lon="-1.5342727287587488">
    <tag k="addr:postcode" v="HG1 5DB"/>
    <tag k="removemelater" v="yes"/>
  </node>
  <node id="-287" lat="53.99266958844939" lon="-1.5323512140703854">
    <tag k="addr:postcode" v="HG1 5DY"/>
    <tag k="removemelater" v="yes"/>
  </node>
  <node id="-288" lat="54.00001967282315" lon="-1.538843937071167">
    <tag k="addr:postcode" v="HG1 5DZ"/>
    <tag k="removemelater" v="yes"/>
  </node>
  <node id="-289" lat="53.996250819079926" lon="-1.5404109605173963">
    <tag k="addr:postcode" v="HG1 5EA"/>
    <tag k="removemelater" v="yes"/>
  </node>
  <node id="-290" lat="53.99675224538832" lon="-1.5399173084188222">
    <tag k="addr:postcode" v="HG1 5EB"/>
    <tag k="removemelater" v="yes"/>
  </node>
  <node id="-291" lat="53.99715387373188" lon="-1.5391806765797122">
    <tag k="addr:postcode" v="HG1 5ED"/>
    <tag k="removemelater" v="yes"/>
  </node>
  <node id="-292" lat="53.99764373129869" lon="-1.5380159298530387">
    <tag k="addr:postcode" v="HG1 5EE"/>
    <tag k="removemelater" v="yes"/>
  </node>
  <node id="-293" lat="53.996368755716375" lon="-1.538350371271929">
    <tag k="addr:postcode" v="HG1 5EF"/>
    <tag k="removemelater" v="yes"/>
  </node>
  <node id="-294" lat="53.9961318024777" lon="-1.537498771494827">
    <tag k="addr:postcode" v="HG1 5EG"/>
    <tag k="removemelater" v="yes"/>
  </node>
  <node id="-295" lat="53.998210403765896" lon="-1.5381316968943641">
    <tag k="addr:postcode" v="HG1 5EH"/>
    <tag k="removemelater" v="yes"/>
  </node>
  <node id="-296" lat="53.99897591037875" lon="-1.5385351121807125">
    <tag k="addr:postcode" v="HG1 5EJ"/>
    <tag k="removemelater" v="yes"/>
  </node>
  <node id="-297" lat="53.99995424448605" lon="-1.538188681070197">
    <tag k="addr:postcode" v="HG1 5EL"/>
    <tag k="removemelater" v="yes"/>
  </node>
  <node id="-298" lat="53.99959975014184" lon="-1.5371552494730492">
    <tag k="addr:postcode" v="HG1 5EN"/>
    <tag k="removemelater" v="yes"/>
  </node>
  <node id="-299" lat="54.000722031132824" lon="-1.534518843266627">
    <tag k="addr:postcode" v="HG1 5EP"/>
    <tag k="removemelater" v="yes"/>
  </node>
  <node id="-300" lat="53.996997812635506" lon="-1.5383281616678974">
    <tag k="addr:postcode" v="HG1 5EQ"/>
    <tag k="removemelater" v="yes"/>
  </node>
  <node id="-301" lat="54.00066178397516" lon="-1.5375401198419671">
    <tag k="addr:postcode" v="HG1 5EW"/>
    <tag k="removemelater" v="yes"/>
  </node>
  <node id="-302" lat="53.99943609821343" lon="-1.5366688996061595">
    <tag k="addr:postcode" v="HG1 5EX"/>
    <tag k="removemelater" v="yes"/>
  </node>
  <node id="-303" lat="53.99775552086432" lon="-1.5367028044733246">
    <tag k="addr:postcode" v="HG1 5EY"/>
    <tag k="removemelater" v="yes"/>
  </node>
  <node id="-304" lat="53.99850810708629" lon="-1.536084261407815">
    <tag k="addr:postcode" v="HG1 5EZ"/>
    <tag k="removemelater" v="yes"/>
  </node>
  <node id="-305" lat="53.99623964097904" lon="-1.5351637206485136">
    <tag k="addr:postcode" v="HG1 5FH"/>
    <tag k="removemelater" v="yes"/>
  </node>
  <node id="-306" lat="54.00265779184992" lon="-1.5353973801709153">
    <tag k="addr:postcode" v="HG1 5FL"/>
    <tag k="removemelater" v="yes"/>
  </node>
  <node id="-307" lat="53.997475972305956" lon="-1.5364618358651356">
    <tag k="addr:postcode" v="HG1 5HA"/>
    <tag k="removemelater" v="yes"/>
  </node>
  <node id="-308" lat="53.99662669394083" lon="-1.5376458305777494">
    <tag k="addr:postcode" v="HG1 5HB"/>
    <tag k="removemelater" v="yes"/>
  </node>
  <node id="-309" lat="53.997282654123914" lon="-1.5376080579108855">
    <tag k="addr:postcode" v="HG1 5HD"/>
    <tag k="removemelater" v="yes"/>
  </node>
  <node id="-310" lat="54.00040571979007" lon="-1.5387328842556527">
    <tag k="addr:postcode" v="HG1 5HG"/>
    <tag k="removemelater" v="yes"/>
  </node>
  <node id="-311" lat="53.99938420026007" lon="-1.5395374365078254">
    <tag k="addr:postcode" v="HG1 5HH"/>
    <tag k="removemelater" v="yes"/>
  </node>
  <node id="-312" lat="54.00027441612146" lon="-1.5396496612007025">
    <tag k="addr:postcode" v="HG1 5HJ"/>
    <tag k="removemelater" v="yes"/>
  </node>
  <node id="-313" lat="54.00114297566336" lon="-1.5388010168455093">
    <tag k="addr:postcode" v="HG1 5HP"/>
    <tag k="removemelater" v="yes"/>
  </node>
  <node id="-314" lat="54.00109823014143" lon="-1.5365131504298375">
    <tag k="addr:postcode" v="HG1 5HR"/>
    <tag k="removemelater" v="yes"/>
  </node>
  <node id="-315" lat="54.00140356503874" lon="-1.5364487369949034">
    <tag k="addr:postcode" v="HG1 5HS"/>
    <tag k="removemelater" v="yes"/>
  </node>
  <node id="-316" lat="54.00118256925402" lon="-1.5350781716274058">
    <tag k="addr:postcode" v="HG1 5HT"/>
    <tag k="removemelater" v="yes"/>
  </node>
  <node id="-317" lat="54.0016264841819" lon="-1.5359885836580378">
    <tag k="addr:postcode" v="HG1 5HX"/>
    <tag k="removemelater" v="yes"/>
  </node>
  <node id="-318" lat="54.00226364373344" lon="-1.5380715958613946">
    <tag k="addr:postcode" v="HG1 5HZ"/>
    <tag k="removemelater" v="yes"/>
  </node>
  <node id="-319" lat="54.00186391801024" lon="-1.5369623297014752">
    <tag k="addr:postcode" v="HG1 5JA"/>
    <tag k="removemelater" v="yes"/>
  </node>
  <node id="-320" lat="54.00241690033381" lon="-1.5358577479180338">
    <tag k="addr:postcode" v="HG1 5JB"/>
    <tag k="removemelater" v="yes"/>
  </node>
  <node id="-321" lat="54.00205345766018" lon="-1.5348396309500623">
    <tag k="addr:postcode" v="HG1 5JD"/>
    <tag k="removemelater" v="yes"/>
  </node>
  <node id="-322" lat="54.00201564558367" lon="-1.5366860373760236">
    <tag k="addr:postcode" v="HG1 5JE"/>
    <tag k="removemelater" v="yes"/>
  </node>
  <node id="-323" lat="54.00268769791325" lon="-1.5361598633588556">
    <tag k="addr:postcode" v="HG1 5JF"/>
    <tag k="removemelater" v="yes"/>
  </node>
  <node id="-324" lat="54.00307726944928" lon="-1.5369641270391208">
    <tag k="addr:postcode" v="HG1 5JG"/>
    <tag k="removemelater" v="yes"/>
  </node>
  <node id="-325" lat="54.002427074796216" lon="-1.5223863837160576">
    <tag k="addr:postcode" v="HG1 5JH"/>
    <tag k="removemelater" v="yes"/>
  </node>
  <node id="-326" lat="54.00240248875595" lon="-1.5344543361992427">
    <tag k="addr:postcode" v="HG1 5JN"/>
    <tag k="removemelater" v="yes"/>
  </node>
  <node id="-327" lat="53.99553846170374" lon="-1.542157723567519">
    <tag k="addr:postcode" v="HG1 5JP"/>
    <tag k="removemelater" v="yes"/>
  </node>
  <node id="-328" lat="54.00353456693686" lon="-1.5366844350303426">
    <tag k="addr:postcode" v="HG1 5JQ"/>
    <tag k="removemelater" v="yes"/>
  </node>
  <node id="-329" lat="53.99678982791207" lon="-1.5403440108113018">
    <tag k="addr:postcode" v="HG1 5JR"/>
    <tag k="removemelater" v="yes"/>
  </node>
  <node id="-330" lat="53.997631898118826" lon="-1.539617780162065">
    <tag k="addr:postcode" v="HG1 5JS"/>
    <tag k="removemelater" v="yes"/>
  </node>
  <node id="-331" lat="53.995806165576894" lon="-1.5416514127384178">
    <tag k="addr:postcode" v="HG1 5JT"/>
    <tag k="removemelater" v="yes"/>
  </node>
  <node id="-332" lat="53.99876313765893" lon="-1.5393002081790617">
    <tag k="addr:postcode" v="HG1 5JU"/>
    <tag k="removemelater" v="yes"/>
  </node>
  <node id="-333" lat="53.99567240105436" lon="-1.541927448636404">
    <tag k="addr:postcode" v="HG1 5JW"/>
    <tag k="removemelater" v="yes"/>
  </node>
  <node id="-334" lat="53.998498010153014" lon="-1.5404777523219004">
    <tag k="addr:postcode" v="HG1 5JX"/>
    <tag k="removemelater" v="yes"/>
  </node>
  <node id="-335" lat="53.99887734344106" lon="-1.5409617347259545">
    <tag k="addr:postcode" v="HG1 5JY"/>
    <tag k="removemelater" v="yes"/>
  </node>
  <node id="-336" lat="53.9968476536383" lon="-1.5413654044132428">
    <tag k="addr:postcode" v="HG1 5LA"/>
    <tag k="removemelater" v="yes"/>
  </node>
  <node id="-337" lat="53.99288378206149" lon="-1.5366043291036653">
    <tag k="addr:postcode" v="HG1 5LF"/>
    <tag k="removemelater" v="yes"/>
  </node>
  <node id="-338" lat="53.99616136384996" lon="-1.5335171670529588">
    <tag k="addr:postcode" v="HG1 5LG"/>
    <tag k="removemelater" v="yes"/>
  </node>
  <node id="-339" lat="53.992962316084885" lon="-1.5359933470070197">
    <tag k="addr:postcode" v="HG1 5LH"/>
    <tag k="removemelater" v="yes"/>
  </node>
  <node id="-340" lat="53.995954181243455" lon="-1.5333974508700832">
    <tag k="addr:postcode" v="HG1 5LP"/>
    <tag k="removemelater" v="yes"/>
  </node>
  <node id="-341" lat="53.995612720779725" lon="-1.5334165204306007">
    <tag k="addr:postcode" v="HG1 5LT"/>
    <tag k="removemelater" v="yes"/>
  </node>
  <node id="-342" lat="53.992789318596714" lon="-1.535415666609123">
    <tag k="addr:postcode" v="HG1 5LX"/>
    <tag k="removemelater" v="yes"/>
  </node>
  <node id="-343" lat="53.994411134391996" lon="-1.534131598730652">
    <tag k="addr:postcode" v="HG1 5LZ"/>
    <tag k="removemelater" v="yes"/>
  </node>
  <node id="-344" lat="53.992914434549625" lon="-1.5352312416525307">
    <tag k="addr:postcode" v="HG1 5ND"/>
    <tag k="removemelater" v="yes"/>
  </node>
  <node id="-345" lat="53.99265599719297" lon="-1.5334800627702545">
    <tag k="addr:postcode" v="HG1 5NE"/>
    <tag k="removemelater" v="yes"/>
  </node>
  <node id="-346" lat="53.99310364875204" lon="-1.5330327298899846">
    <tag k="addr:postcode" v="HG1 5NF"/>
    <tag k="removemelater" v="yes"/>
  </node>
  <node id="-347" lat="53.99325966208761" lon="-1.5292482717031126">
    <tag k="addr:postcode" v="HG1 5NS"/>
    <tag k="removemelater" v="yes"/>
  </node>
  <node id="-348" lat="53.996328653300225" lon="-1.5419660109890414">
    <tag k="addr:postcode" v="HG1 5NX"/>
    <tag k="removemelater" v="yes"/>
  </node>
  <node id="-349" lat="53.99169627374874" lon="-1.5363124603900833">
    <tag k="addr:postcode" v="HG1 5PA"/>
    <tag k="removemelater" v="yes"/>
  </node>
  <node id="-350" lat="53.99210356648923" lon="-1.5347216829705876">
    <tag k="addr:postcode" v="HG1 5PD"/>
    <tag k="removemelater" v="yes"/>
  </node>
  <node id="-351" lat="53.99218215005227" lon="-1.534125960640679">
    <tag k="addr:postcode" v="HG1 5PE"/>
    <tag k="removemelater" v="yes"/>
  </node>
  <node id="-352" lat="53.991921929977046" lon="-1.534235630367597">
    <tag k="addr:postcode" v="HG1 5PG"/>
    <tag k="removemelater" v="yes"/>
  </node>
  <node id="-353" lat="53.99059616521127" lon="-1.5353790572332129">
    <tag k="addr:postcode" v="HG1 5QN"/>
    <tag k="removemelater" v="yes"/>
  </node>
  <node id="-354" lat="53.990616752454414" lon="-1.5337316220202422">
    <tag k="addr:postcode" v="HG1 5QT"/>
    <tag k="removemelater" v="yes"/>
  </node>
  <node id="-355" lat="53.98980374408198" lon="-1.534991331160232">
    <tag k="addr:postcode" v="HG1 5QU"/>
    <tag k="removemelater" v="yes"/>
  </node>
  <node id="-356" lat="53.99077194955712" lon="-1.5320369209315428">
    <tag k="addr:postcode" v="HG1 5QX"/>
    <tag k="removemelater" v="yes"/>
  </node>
  <node id="-357" lat="53.99074002203908" lon="-1.5353927087084642">
    <tag k="addr:postcode" v="HG1 5QY"/>
    <tag k="removemelater" v="yes"/>
  </node>
  <node id="-358" lat="53.991343824783115" lon="-1.5358130520445805">
    <tag k="addr:postcode" v="HG1 5RD"/>
    <tag k="removemelater" v="yes"/>
  </node>
  <node id="-359" lat="53.98988989878201" lon="-1.534029518341013">
    <tag k="addr:postcode" v="HG1 5RL"/>
    <tag k="removemelater" v="yes"/>
  </node>
  <node id="-360" lat="53.99556653188786" lon="-1.5354152736437752">
    <tag k="addr:postcode" v="HG1 5RZ"/>
    <tag k="removemelater" v="yes"/>
  </node>
  <node id="-361" lat="53.99666797151422" lon="-1.5390334982382115">
    <tag k="addr:postcode" v="HG1 5SA"/>
    <tag k="removemelater" v="yes"/>
  </node>
  <node id="-362" lat="54.002427074796216" lon="-1.5223863837160576">
    <tag k="addr:postcode" v="HG1 5UU"/>
    <tag k="removemelater" v="yes"/>
  </node>
  <node id="-363" lat="54.002427074796216" lon="-1.5223863837160576">
    <tag k="addr:postcode" v="HG1 5WA"/>
    <tag k="removemelater" v="yes"/>
  </node>
  <node id="-364" lat="54.002427074796216" lon="-1.5223863837160576">
    <tag k="addr:postcode" v="HG1 5WE"/>
    <tag k="removemelater" v="yes"/>
  </node>
  <node id="-365" lat="54.002427074796216" lon="-1.5223863837160576">
    <tag k="addr:postcode" v="HG1 5ZS"/>
    <tag k="removemelater" v="yes"/>
  </node>
  <node id="-366" lat="54.002427074796216" lon="-1.5223863837160576">
    <tag k="addr:postcode" v="HG1 9BX"/>
    <tag k="removemelater" v="yes"/>
  </node>
  <node id="-367" lat="54.002427074796216" lon="-1.5223863837160576">
    <tag k="addr:postcode" v="HG1 9EP"/>
    <tag k="removemelater" v="yes"/>
  </node>
  <node id="-368" lat="54.002427074796216" lon="-1.5223863837160576">
    <tag k="addr:postcode" v="HG1 9FH"/>
    <tag k="removemelater" v="yes"/>
  </node>
  <node id="-369" lat="54.002427074796216" lon="-1.5223863837160576">
    <tag k="addr:postcode" v="HG1 9GU"/>
    <tag k="removemelater" v="yes"/>
  </node>
  <node id="-370" lat="54.002427074796216" lon="-1.5223863837160576">
    <tag k="addr:postcode" v="HG1 9HL"/>
    <tag k="removemelater" v="yes"/>
  </node>
  <node id="-371" lat="54.002427074796216" lon="-1.5223863837160576">
    <tag k="addr:postcode" v="HG1 9HQ"/>
    <tag k="removemelater" v="yes"/>
  </node>
  <node id="-372" lat="54.002427074796216" lon="-1.5223863837160576">
    <tag k="addr:postcode" v="HG1 9JL"/>
    <tag k="removemelater" v="yes"/>
  </node>
  <node id="-373" lat="54.002427074796216" lon="-1.5223863837160576">
    <tag k="addr:postcode" v="HG1 9LS"/>
    <tag k="removemelater" v="yes"/>
  </node>
  <node id="-374" lat="54.002427074796216" lon="-1.5223863837160576">
    <tag k="addr:postcode" v="HG1 9LZ"/>
    <tag k="removemelater" v="yes"/>
  </node>
  <node id="-375" lat="54.002427074796216" lon="-1.5223863837160576">
    <tag k="addr:postcode" v="HG1 9NJ"/>
    <tag k="removemelater" v="yes"/>
  </node>
  <node id="-376" lat="54.002427074796216" lon="-1.5223863837160576">
    <tag k="addr:postcode" v="HG1 9NU"/>
    <tag k="removemelater" v="yes"/>
  </node>
  <node id="-377" lat="54.002427074796216" lon="-1.5223863837160576">
    <tag k="addr:postcode" v="HG1 9PG"/>
    <tag k="removemelater" v="yes"/>
  </node>
  <node id="-378" lat="54.002427074796216" lon="-1.5223863837160576">
    <tag k="addr:postcode" v="HG1 9PW"/>
    <tag k="removemelater" v="yes"/>
  </node>
  <node id="-379" lat="54.002427074796216" lon="-1.5223863837160576">
    <tag k="addr:postcode" v="HG1 9PX"/>
    <tag k="removemelater" v="yes"/>
  </node>
  <node id="-380" lat="54.002427074796216" lon="-1.5223863837160576">
    <tag k="addr:postcode" v="HG1 9PZ"/>
    <tag k="removemelater" v="yes"/>
  </node>
  <node id="-381" lat="54.002427074796216" lon="-1.5223863837160576">
    <tag k="addr:postcode" v="HG1 9QE"/>
    <tag k="removemelater" v="yes"/>
  </node>
  <node id="-382" lat="54.002427074796216" lon="-1.5223863837160576">
    <tag k="addr:postcode" v="HG1 9QG"/>
    <tag k="removemelater" v="yes"/>
  </node>
  <node id="-383" lat="54.002427074796216" lon="-1.5223863837160576">
    <tag k="addr:postcode" v="HG1 9QR"/>
    <tag k="removemelater" v="yes"/>
  </node>
  <node id="-384" lat="54.002427074796216" lon="-1.5223863837160576">
    <tag k="addr:postcode" v="HG1 9QT"/>
    <tag k="removemelater" v="yes"/>
  </node>
  <node id="-385" lat="54.002427074796216" lon="-1.5223863837160576">
    <tag k="addr:postcode" v="HG1 9RP"/>
    <tag k="removemelater" v="yes"/>
  </node>
  <node id="-386" lat="54.002427074796216" lon="-1.5223863837160576">
    <tag k="addr:postcode" v="HG1 9RT"/>
    <tag k="removemelater" v="yes"/>
  </node>
  <node id="-387" lat="54.002427074796216" lon="-1.5223863837160576">
    <tag k="addr:postcode" v="HG1 9RU"/>
    <tag k="removemelater" v="yes"/>
  </node>
  <node id="-388" lat="54.002427074796216" lon="-1.5223863837160576">
    <tag k="addr:postcode" v="HG1 9RW"/>
    <tag k="removemelater" v="yes"/>
  </node>
  <node id="-389" lat="54.002427074796216" lon="-1.5223863837160576">
    <tag k="addr:postcode" v="HG1 9RX"/>
    <tag k="removemelater" v="yes"/>
  </node>
  <node id="-390" lat="54.002427074796216" lon="-1.5223863837160576">
    <tag k="addr:postcode" v="HG1 9RY"/>
    <tag k="removemelater" v="yes"/>
  </node>
  <node id="-391" lat="53.994843030059016" lon="-1.54600921755007">
    <tag k="addr:postcode" v="HG1 9SA"/>
    <tag k="removemelater" v="yes"/>
  </node>
  <node id="-392" lat="53.994843030059016" lon="-1.54600921755007">
    <tag k="addr:postcode" v="HG1 9SB"/>
    <tag k="removemelater" v="yes"/>
  </node>
  <node id="-393" lat="53.9949130856341" lon="-1.5455203447748742">
    <tag k="addr:postcode" v="HG1 9SD"/>
    <tag k="removemelater" v="yes"/>
  </node>
  <node id="-394" lat="53.9949130856341" lon="-1.5455203447748742">
    <tag k="addr:postcode" v="HG1 9SE"/>
    <tag k="removemelater" v="yes"/>
  </node>
  <node id="-395" lat="53.9949130856341" lon="-1.5455203447748742">
    <tag k="addr:postcode" v="HG1 9SF"/>
    <tag k="removemelater" v="yes"/>
  </node>
  <node id="-396" lat="53.9949130856341" lon="-1.5455203447748742">
    <tag k="addr:postcode" v="HG1 9SG"/>
    <tag k="removemelater" v="yes"/>
  </node>
  <node id="-397" lat="53.9949130856341" lon="-1.5455203447748742">
    <tag k="addr:postcode" v="HG1 9SH"/>
    <tag k="removemelater" v="yes"/>
  </node>
  <node id="-398" lat="53.9949130856341" lon="-1.5455203447748742">
    <tag k="addr:postcode" v="HG1 9SJ"/>
    <tag k="removemelater" v="yes"/>
  </node>
  <node id="-399" lat="53.9949130856341" lon="-1.5455203447748742">
    <tag k="addr:postcode" v="HG1 9SL"/>
    <tag k="removemelater" v="yes"/>
  </node>
  <node id="-400" lat="53.9949130856341" lon="-1.5455203447748742">
    <tag k="addr:postcode" v="HG1 9SN"/>
    <tag k="removemelater" v="yes"/>
  </node>
  <node id="-401" lat="53.9949130856341" lon="-1.5455203447748742">
    <tag k="addr:postcode" v="HG1 9SP"/>
    <tag k="removemelater" v="yes"/>
  </node>
  <node id="-402" lat="53.9949130856341" lon="-1.5455203447748742">
    <tag k="addr:postcode" v="HG1 9SQ"/>
    <tag k="removemelater" v="yes"/>
  </node>
  <node id="-403" lat="53.9949130856341" lon="-1.5455203447748742">
    <tag k="addr:postcode" v="HG1 9SR"/>
    <tag k="removemelater" v="yes"/>
  </node>
  <node id="-404" lat="53.994843030059016" lon="-1.54600921755007">
    <tag k="addr:postcode" v="HG1 9SS"/>
    <tag k="removemelater" v="yes"/>
  </node>
  <node id="-405" lat="53.9949130856341" lon="-1.5455203447748742">
    <tag k="addr:postcode" v="HG1 9ST"/>
    <tag k="removemelater" v="yes"/>
  </node>
  <node id="-406" lat="53.9949130856341" lon="-1.5455203447748742">
    <tag k="addr:postcode" v="HG1 9SU"/>
    <tag k="removemelater" v="yes"/>
  </node>
  <node id="-407" lat="53.9949130856341" lon="-1.5455203447748742">
    <tag k="addr:postcode" v="HG1 9SW"/>
    <tag k="removemelater" v="yes"/>
  </node>
  <node id="-408" lat="53.9949130856341" lon="-1.5455203447748742">
    <tag k="addr:postcode" v="HG1 9SX"/>
    <tag k="removemelater" v="yes"/>
  </node>
  <node id="-409" lat="53.9949130856341" lon="-1.5455203447748742">
    <tag k="addr:postcode" v="HG1 9SY"/>
    <tag k="removemelater" v="yes"/>
  </node>
  <node id="-410" lat="53.9949130856341" lon="-1.5455203447748742">
    <tag k="addr:postcode" v="HG1 9SZ"/>
    <tag k="removemelater" v="yes"/>
  </node>
  <node id="-411" lat="53.9949130856341" lon="-1.5455203447748742">
    <tag k="addr:postcode" v="HG1 9TA"/>
    <tag k="removemelater" v="yes"/>
  </node>
  <node id="-412" lat="53.9949130856341" lon="-1.5455203447748742">
    <tag k="addr:postcode" v="HG1 9TB"/>
    <tag k="removemelater" v="yes"/>
  </node>
  <node id="-413" lat="53.9949130856341" lon="-1.5455203447748742">
    <tag k="addr:postcode" v="HG1 9TD"/>
    <tag k="removemelater" v="yes"/>
  </node>
  <node id="-414" lat="53.9949130856341" lon="-1.5455203447748742">
    <tag k="addr:postcode" v="HG1 9TE"/>
    <tag k="removemelater" v="yes"/>
  </node>
  <node id="-415" lat="53.9949130856341" lon="-1.5455203447748742">
    <tag k="addr:postcode" v="HG1 9TF"/>
    <tag k="removemelater" v="yes"/>
  </node>
  <node id="-416" lat="53.9949130856341" lon="-1.5455203447748742">
    <tag k="addr:postcode" v="HG1 9TG"/>
    <tag k="removemelater" v="yes"/>
  </node>
  <node id="-417" lat="53.994843030059016" lon="-1.54600921755007">
    <tag k="addr:postcode" v="HG1 9TH"/>
    <tag k="removemelater" v="yes"/>
  </node>
  <node id="-418" lat="53.9949130856341" lon="-1.5455203447748742">
    <tag k="addr:postcode" v="HG1 9TJ"/>
    <tag k="removemelater" v="yes"/>
  </node>
  <node id="-419" lat="53.9949130856341" lon="-1.5455203447748742">
    <tag k="addr:postcode" v="HG1 9TL"/>
    <tag k="removemelater" v="yes"/>
  </node>
  <node id="-420" lat="53.9949130856341" lon="-1.5455203447748742">
    <tag k="addr:postcode" v="HG1 9TN"/>
    <tag k="removemelater" v="yes"/>
  </node>
  <node id="-421" lat="53.9949130856341" lon="-1.5455203447748742">
    <tag k="addr:postcode" v="HG1 9TP"/>
    <tag k="removemelater" v="yes"/>
  </node>
  <node id="-422" lat="53.9949130856341" lon="-1.5455203447748742">
    <tag k="addr:postcode" v="HG1 9TQ"/>
    <tag k="removemelater" v="yes"/>
  </node>
  <node id="-423" lat="53.9949130856341" lon="-1.5455203447748742">
    <tag k="addr:postcode" v="HG1 9TR"/>
    <tag k="removemelater" v="yes"/>
  </node>
  <node id="-424" lat="53.9949130856341" lon="-1.5455203447748742">
    <tag k="addr:postcode" v="HG1 9TS"/>
    <tag k="removemelater" v="yes"/>
  </node>
  <node id="-425" lat="53.9949130856341" lon="-1.5455203447748742">
    <tag k="addr:postcode" v="HG1 9TT"/>
    <tag k="removemelater" v="yes"/>
  </node>
  <node id="-426" lat="53.9949130856341" lon="-1.5455203447748742">
    <tag k="addr:postcode" v="HG1 9TU"/>
    <tag k="removemelater" v="yes"/>
  </node>
  <node id="-427" lat="53.9949130856341" lon="-1.5455203447748742">
    <tag k="addr:postcode" v="HG1 9TY"/>
    <tag k="removemelater" v="yes"/>
  </node>
  <node id="-428" lat="53.9949130856341" lon="-1.5455203447748742">
    <tag k="addr:postcode" v="HG1 9UB"/>
    <tag k="removemelater" v="yes"/>
  </node>
  <node id="-429" lat="54.002427074796216" lon="-1.5223863837160576">
    <tag k="addr:postcode" v="HG1 9UD"/>
    <tag k="removemelater" v="yes"/>
  </node>
  <node id="-430" lat="53.9949130856341" lon="-1.5455203447748742">
    <tag k="addr:postcode" v="HG1 9UR"/>
    <tag k="removemelater" v="yes"/>
  </node>
  <node id="-431" lat="53.9949130856341" lon="-1.5455203447748742">
    <tag k="addr:postcode" v="HG1 9US"/>
    <tag k="removemelater" v="yes"/>
  </node>
  <node id="-432" lat="53.9949130856341" lon="-1.5455203447748742">
    <tag k="addr:postcode" v="HG1 9UT"/>
    <tag k="removemelater" v="yes"/>
  </node>
  <node id="-433" lat="53.994843030059016" lon="-1.54600921755007">
    <tag k="addr:postcode" v="HG1 9UU"/>
    <tag k="removemelater" v="yes"/>
  </node>
  <node id="-434" lat="53.9949130856341" lon="-1.5455203447748742">
    <tag k="addr:postcode" v="HG1 9UW"/>
    <tag k="removemelater" v="yes"/>
  </node>
  <node id="-435" lat="53.9949130856341" lon="-1.5455203447748742">
    <tag k="addr:postcode" v="HG1 9UX"/>
    <tag k="removemelater" v="yes"/>
  </node>
  <node id="-436" lat="53.9949130856341" lon="-1.5455203447748742">
    <tag k="addr:postcode" v="HG1 9UZ"/>
    <tag k="removemelater" v="yes"/>
  </node>
  <node id="-437" lat="53.9949130856341" lon="-1.5455203447748742">
    <tag k="addr:postcode" v="HG1 9WA"/>
    <tag k="removemelater" v="yes"/>
  </node>
  <node id="-438" lat="53.9949130856341" lon="-1.5455203447748742">
    <tag k="addr:postcode" v="HG1 9WB"/>
    <tag k="removemelater" v="yes"/>
  </node>
  <node id="-439" lat="53.9949130856341" lon="-1.5455203447748742">
    <tag k="addr:postcode" v="HG1 9WD"/>
    <tag k="removemelater" v="yes"/>
  </node>
  <node id="-440" lat="54.002427074796216" lon="-1.5223863837160576">
    <tag k="addr:postcode" v="HG1 9WH"/>
    <tag k="removemelater" v="yes"/>
  </node>
  <node id="-441" lat="53.9949130856341" lon="-1.5455203447748742">
    <tag k="addr:postcode" v="HG1 9WQ"/>
    <tag k="removemelater" v="yes"/>
  </node>
  <node id="-442" lat="53.9949130856341" lon="-1.5455203447748742">
    <tag k="addr:postcode" v="HG1 9WR"/>
    <tag k="removemelater" v="yes"/>
  </node>
  <node id="-443" lat="54.002427074796216" lon="-1.5223863837160576">
    <tag k="addr:postcode" v="HG1 9WS"/>
    <tag k="removemelater" v="yes"/>
  </node>
  <node id="-444" lat="54.002427074796216" lon="-1.5223863837160576">
    <tag k="addr:postcode" v="HG1 9WT"/>
    <tag k="removemelater" v="yes"/>
  </node>
  <node id="-445" lat="54.002427074796216" lon="-1.5223863837160576">
    <tag k="addr:postcode" v="HG1 9WU"/>
    <tag k="removemelater" v="yes"/>
  </node>
  <node id="-446" lat="54.002427074796216" lon="-1.5223863837160576">
    <tag k="addr:postcode" v="HG1 9WW"/>
    <tag k="removemelater" v="yes"/>
  </node>
  <node id="-447" lat="54.002427074796216" lon="-1.5223863837160576">
    <tag k="addr:postcode" v="HG1 9WX"/>
    <tag k="removemelater" v="yes"/>
  </node>
  <node id="-448" lat="54.002427074796216" lon="-1.5223863837160576">
    <tag k="addr:postcode" v="HG1 9XA"/>
    <tag k="removemelater" v="yes"/>
  </node>
  <node id="-449" lat="54.002427074796216" lon="-1.5223863837160576">
    <tag k="addr:postcode" v="HG1 9XE"/>
    <tag k="removemelater" v="yes"/>
  </node>
  <node id="-450" lat="54.002427074796216" lon="-1.5223863837160576">
    <tag k="addr:postcode" v="HG1 9XF"/>
    <tag k="removemelater" v="yes"/>
  </node>
  <node id="-451" lat="54.002427074796216" lon="-1.5223863837160576">
    <tag k="addr:postcode" v="HG1 9XG"/>
    <tag k="removemelater" v="yes"/>
  </node>
  <node id="-452" lat="54.002427074796216" lon="-1.5223863837160576">
    <tag k="addr:postcode" v="HG1 9XJ"/>
    <tag k="removemelater" v="yes"/>
  </node>
  <node id="-453" lat="54.002427074796216" lon="-1.5223863837160576">
    <tag k="addr:postcode" v="HG1 9XL"/>
    <tag k="removemelater" v="yes"/>
  </node>
  <node id="-454" lat="54.002427074796216" lon="-1.5223863837160576">
    <tag k="addr:postcode" v="HG1 9XN"/>
    <tag k="removemelater" v="yes"/>
  </node>
  <node id="-455" lat="54.002427074796216" lon="-1.5223863837160576">
    <tag k="addr:postcode" v="HG1 9XQ"/>
    <tag k="removemelater" v="yes"/>
  </node>
  <node id="-456" lat="54.002427074796216" lon="-1.5223863837160576">
    <tag k="addr:postcode" v="HG1 9XR"/>
    <tag k="removemelater" v="yes"/>
  </node>
  <node id="-457" lat="54.002427074796216" lon="-1.5223863837160576">
    <tag k="addr:postcode" v="HG1 9XS"/>
    <tag k="removemelater" v="yes"/>
  </node>
  <node id="-458" lat="54.002427074796216" lon="-1.5223863837160576">
    <tag k="addr:postcode" v="HG1 9XT"/>
    <tag k="removemelater" v="yes"/>
  </node>
  <node id="-459" lat="54.002427074796216" lon="-1.5223863837160576">
    <tag k="addr:postcode" v="HG1 9XW"/>
    <tag k="removemelater" v="yes"/>
  </node>
  <node id="-460" lat="54.002427074796216" lon="-1.5223863837160576">
    <tag k="addr:postcode" v="HG1 9XX"/>
    <tag k="removemelater" v="yes"/>
  </node>
  <node id="-461" lat="54.002427074796216" lon="-1.5223863837160576">
    <tag k="addr:postcode" v="HG1 9XY"/>
    <tag k="removemelater" v="yes"/>
  </node>
  <node id="-462" lat="54.002427074796216" lon="-1.5223863837160576">
    <tag k="addr:postcode" v="HG1 9ZZ"/>
    <tag k="removemelater" v="yes"/>
  </node>
  <node id="-463" lat="53.98981860519597" lon="-1.5435625728763498">
    <tag k="addr:postcode" v="HG2 0EL"/>
    <tag k="removemelater" v="yes"/>
  </node>
  <node id="-464" lat="53.990421895843205" lon="-1.5486195869859678">
    <tag k="addr:postcode" v="HG2 0FL"/>
    <tag k="removemelater" v="yes"/>
  </node>
  <node id="-465" lat="53.98774353969243" lon="-1.5486180309676574">
    <tag k="addr:postcode" v="HG2 0HE"/>
    <tag k="removemelater" v="yes"/>
  </node>
  <node id="-466" lat="53.98756974285389" lon="-1.5478116175046333">
    <tag k="addr:postcode" v="HG2 0HF"/>
    <tag k="removemelater" v="yes"/>
  </node>
  <node id="-467" lat="53.98800650845832" lon="-1.546846079210566">
    <tag k="addr:postcode" v="HG2 0HG"/>
    <tag k="removemelater" v="yes"/>
  </node>
  <node id="-468" lat="53.988597431301514" lon="-1.551033737250052">
    <tag k="addr:postcode" v="HG2 0JE"/>
    <tag k="removemelater" v="yes"/>
  </node>
  <node id="-469" lat="53.990567010076134" lon="-1.5489688118387899">
    <tag k="addr:postcode" v="HG2 0JG"/>
    <tag k="removemelater" v="yes"/>
  </node>
  <node id="-470" lat="53.992459052732556" lon="-1.5478044339427046">
    <tag k="addr:postcode" v="HG2 0JJ"/>
    <tag k="removemelater" v="yes"/>
  </node>
  <node id="-471" lat="53.99202536299799" lon="-1.54719903347068">
    <tag k="addr:postcode" v="HG2 0JQ"/>
    <tag k="removemelater" v="yes"/>
  </node>
  <node id="-472" lat="53.989033024111535" lon="-1.5497479438778852">
    <tag k="addr:postcode" v="HG2 0JS"/>
    <tag k="removemelater" v="yes"/>
  </node>
  <node id="-473" lat="53.991948691162555" lon="-1.5459339166161676">
    <tag k="addr:postcode" v="HG2 0LH"/>
    <tag k="removemelater" v="yes"/>
  </node>
  <node id="-474" lat="53.99100499722155" lon="-1.5435648583076704">
    <tag k="addr:postcode" v="HG2 0LJ"/>
    <tag k="removemelater" v="yes"/>
  </node>
  <node id="-475" lat="53.99040110545899" lon="-1.5431139036774857">
    <tag k="addr:postcode" v="HG2 0LL"/>
    <tag k="removemelater" v="yes"/>
  </node>
  <node id="-476" lat="53.991834959016494" lon="-1.5443794138185751">
    <tag k="addr:postcode" v="HG2 0LN"/>
    <tag k="removemelater" v="yes"/>
  </node>
  <node id="-477" lat="53.99069676166526" lon="-1.542866638234669">
    <tag k="addr:postcode" v="HG2 0LQ"/>
    <tag k="removemelater" v="yes"/>
  </node>
  <node id="-478" lat="53.99113618623341" lon="-1.5473611952910087">
    <tag k="addr:postcode" v="HG2 0NA"/>
    <tag k="removemelater" v="yes"/>
  </node>
  <node id="-479" lat="53.991719350493696" lon="-1.5423368661178603">
    <tag k="addr:postcode" v="HG2 0NE"/>
    <tag k="removemelater" v="yes"/>
  </node>
  <node id="-480" lat="53.99263213509007" lon="-1.5460332537773465">
    <tag k="addr:postcode" v="HG2 0NF"/>
    <tag k="removemelater" v="yes"/>
  </node>
  <node id="-481" lat="53.99270811684039" lon="-1.5471153670206421">
    <tag k="addr:postcode" v="HG2 0NG"/>
    <tag k="removemelater" v="yes"/>
  </node>
  <node id="-482" lat="53.9917386278895" lon="-1.5474309271172326">
    <tag k="addr:postcode" v="HG2 0NH"/>
    <tag k="removemelater" v="yes"/>
  </node>
  <node id="-483" lat="53.98957524881419" lon="-1.548140688807709">
    <tag k="addr:postcode" v="HG2 0NJ"/>
    <tag k="removemelater" v="yes"/>
  </node>
  <node id="-484" lat="53.99097693712749" lon="-1.548034010722945">
    <tag k="addr:postcode" v="HG2 0NN"/>
    <tag k="removemelater" v="yes"/>
  </node>
  <node id="-485" lat="53.9905112544476" lon="-1.548481354432018">
    <tag k="addr:postcode" v="HG2 0NP"/>
    <tag k="removemelater" v="yes"/>
  </node>
  <node id="-486" lat="53.992237726334075" lon="-1.5463120862258266">
    <tag k="addr:postcode" v="HG2 0NQ"/>
    <tag k="removemelater" v="yes"/>
  </node>
  <node id="-487" lat="53.989676228923976" lon="-1.5487039038530876">
    <tag k="addr:postcode" v="HG2 0NT"/>
    <tag k="removemelater" v="yes"/>
  </node>
  <node id="-488" lat="53.99075351299322" lon="-1.548371971589363">
    <tag k="addr:postcode" v="HG2 0NW"/>
    <tag k="removemelater" v="yes"/>
  </node>
  <node id="-489" lat="53.98838604621227" lon="-1.5497854206860828">
    <tag k="addr:postcode" v="HG2 0NX"/>
    <tag k="removemelater" v="yes"/>
  </node>
  <node id="-490" lat="53.988560684466876" lon="-1.5508206162044038">
    <tag k="addr:postcode" v="HG2 0PH"/>
    <tag k="removemelater" v="yes"/>
  </node>
  <node id="-491" lat="53.98775648333777" lon="-1.5520798348373543">
    <tag k="addr:postcode" v="HG2 0PL"/>
    <tag k="removemelater" v="yes"/>
  </node>
  <node id="-492" lat="53.988398968374824" lon="-1.550837606485957">
    <tag k="addr:postcode" v="HG2 0PQ"/>
    <tag k="removemelater" v="yes"/>
  </node>
  <node id="-493" lat="53.99311831693969" lon="-1.546256760655917">
    <tag k="addr:postcode" v="HG2 0QA"/>
    <tag k="removemelater" v="yes"/>
  </node>
  <node id="-494" lat="53.98754755638638" lon="-1.5637031639666208">
    <tag k="addr:postcode" v="HG2 0QB"/>
    <tag k="removemelater" v="yes"/>
  </node>
  <node id="-495" lat="54.002427074796216" lon="-1.5223863837160576">
    <tag k="addr:postcode" v="HG2 0TU"/>
    <tag k="removemelater" v="yes"/>
  </node>
  <node id="-496" lat="54.002427074796216" lon="-1.5223863837160576">
    <tag k="addr:postcode" v="HG2 0WL"/>
    <tag k="removemelater" v="yes"/>
  </node>
  <node id="-497" lat="54.002427074796216" lon="-1.5223863837160576">
    <tag k="addr:postcode" v="HG2 0XF"/>
    <tag k="removemelater" v="yes"/>
  </node>
  <node id="-498" lat="54.002427074796216" lon="-1.5223863837160576">
    <tag k="addr:postcode" v="HG2 0XH"/>
    <tag k="removemelater" v="yes"/>
  </node>
  <node id="-499" lat="54.002427074796216" lon="-1.5223863837160576">
    <tag k="addr:postcode" v="HG2 0YP"/>
    <tag k="removemelater" v="yes"/>
  </node>
  <node id="-500" lat="53.99233101167816" lon="-1.517178726361577">
    <tag k="addr:postcode" v="HG2 7BF"/>
    <tag k="removemelater" v="yes"/>
  </node>
  <node id="-501" lat="53.998674606147006" lon="-1.4991656360215784">
    <tag k="addr:postcode" v="HG2 7JE"/>
    <tag k="removemelater" v="yes"/>
  </node>
  <node id="-502" lat="53.99832238526226" lon="-1.49875798320628">
    <tag k="addr:postcode" v="HG2 7JF"/>
    <tag k="removemelater" v="yes"/>
  </node>
  <node id="-503" lat="53.99745578566331" lon="-1.4978531215608026">
    <tag k="addr:postcode" v="HG2 7JG"/>
    <tag k="removemelater" v="yes"/>
  </node>
  <node id="-504" lat="53.99874338964357" lon="-1.4984173205433662">
    <tag k="addr:postcode" v="HG2 7JH"/>
    <tag k="removemelater" v="yes"/>
  </node>
  <node id="-505" lat="53.99901862166093" lon="-1.497605498417476">
    <tag k="addr:postcode" v="HG2 7JJ"/>
    <tag k="removemelater" v="yes"/>
  </node>
  <node id="-506" lat="53.99853400789468" lon="-1.497779133396113">
    <tag k="addr:postcode" v="HG2 7JL"/>
    <tag k="removemelater" v="yes"/>
  </node>
  <node id="-507" lat="53.998406911222624" lon="-1.4974755667052502">
    <tag k="addr:postcode" v="HG2 7JN"/>
    <tag k="removemelater" v="yes"/>
  </node>
  <node id="-508" lat="53.99877347778546" lon="-1.4970135067809454">
    <tag k="addr:postcode" v="HG2 7JW"/>
    <tag k="removemelater" v="yes"/>
  </node>
  <node id="-509" lat="53.99862769944953" lon="-1.4986932980316494">
    <tag k="addr:postcode" v="HG2 7LE"/>
    <tag k="removemelater" v="yes"/>
  </node>
  <node id="-510" lat="53.99707971338442" lon="-1.4960423833855039">
    <tag k="addr:postcode" v="HG2 7LF"/>
    <tag k="removemelater" v="yes"/>
  </node>
  <node id="-511" lat="54.002177814678966" lon="-1.4965300573583302">
    <tag k="addr:postcode" v="HG2 7LP"/>
    <tag k="removemelater" v="yes"/>
  </node>
  <node id="-512" lat="53.99928574314285" lon="-1.4991583042684364">
    <tag k="addr:postcode" v="HG2 7LQ"/>
    <tag k="removemelater" v="yes"/>
  </node>
  <node id="-513" lat="54.002427074796216" lon="-1.5223863837160576">
    <tag k="addr:postcode" v="HG2 7PW"/>
    <tag k="removemelater" v="yes"/>
  </node>
  <node id="-514" lat="53.9921413587699" lon="-1.5169521319953496">
    <tag k="addr:postcode" v="HG2 7RY"/>
    <tag k="removemelater" v="yes"/>
  </node>
  <node id="-515" lat="53.99471137067957" lon="-1.516830880274348">
    <tag k="addr:postcode" v="HG2 7SS"/>
    <tag k="removemelater" v="yes"/>
  </node>
  <node id="-516" lat="53.994894484876255" lon="-1.5176677029630057">
    <tag k="addr:postcode" v="HG2 7ST"/>
    <tag k="removemelater" v="yes"/>
  </node>
  <node id="-517" lat="53.99380658841851" lon="-1.5175734979261342">
    <tag k="addr:postcode" v="HG2 7SX"/>
    <tag k="removemelater" v="yes"/>
  </node>
  <node id="-518" lat="54.002427074796216" lon="-1.5223863837160576">
    <tag k="addr:postcode" v="HG2 7UG"/>
    <tag k="removemelater" v="yes"/>
  </node>
  <node id="-519" lat="54.002427074796216" lon="-1.5223863837160576">
    <tag k="addr:postcode" v="HG2 7WJ"/>
    <tag k="removemelater" v="yes"/>
  </node>
  <node id="-520" lat="54.002427074796216" lon="-1.5223863837160576">
    <tag k="addr:postcode" v="HG2 7WW"/>
    <tag k="removemelater" v="yes"/>
  </node>
  <node id="-521" lat="54.002427074796216" lon="-1.5223863837160576">
    <tag k="addr:postcode" v="HG2 7WX"/>
    <tag k="removemelater" v="yes"/>
  </node>
  <node id="-522" lat="54.002427074796216" lon="-1.5223863837160576">
    <tag k="addr:postcode" v="HG2 7YS"/>
    <tag k="removemelater" v="yes"/>
  </node>
  <node id="-523" lat="53.981724446648904" lon="-1.5351727592508924">
    <tag k="addr:postcode" v="HG2 8BA"/>
    <tag k="removemelater" v="yes"/>
  </node>
  <node id="-524" lat="53.977349641849216" lon="-1.5311199700151288">
    <tag k="addr:postcode" v="HG2 8BY"/>
    <tag k="removemelater" v="yes"/>
  </node>
  <node id="-525" lat="53.977943191320904" lon="-1.5335223794724644">
    <tag k="addr:postcode" v="HG2 8DF"/>
    <tag k="removemelater" v="yes"/>
  </node>
  <node id="-526" lat="53.97761398619973" lon="-1.5274729315967215">
    <tag k="addr:postcode" v="HG2 8DN"/>
    <tag k="removemelater" v="yes"/>
  </node>
  <node id="-527" lat="53.99098923040378" lon="-1.5210225056971052">
    <tag k="addr:postcode" v="HG2 8LS"/>
    <tag k="removemelater" v="yes"/>
  </node>
  <node id="-528" lat="53.97752949718011" lon="-1.5197588363931758">
    <tag k="addr:postcode" v="HG2 8NB"/>
    <tag k="removemelater" v="yes"/>
  </node>
  <node id="-529" lat="53.97838202795651" lon="-1.521685463038213">
    <tag k="addr:postcode" v="HG2 8PA"/>
    <tag k="removemelater" v="yes"/>
  </node>
  <node id="-530" lat="53.97784192257836" lon="-1.5192215914423723">
    <tag k="addr:postcode" v="HG2 8PD"/>
    <tag k="removemelater" v="yes"/>
  </node>
  <node id="-531" lat="53.98292399648627" lon="-1.506887566019766">
    <tag k="addr:postcode" v="HG2 8PW"/>
    <tag k="removemelater" v="yes"/>
  </node>
  <node id="-532" lat="53.979464098780305" lon="-1.5248446258989141">
    <tag k="addr:postcode" v="HG2 8RA"/>
    <tag k="removemelater" v="yes"/>
  </node>
  <node id="-533" lat="53.97937475846217" lon="-1.522710948647475">
    <tag k="addr:postcode" v="HG2 8RE"/>
    <tag k="removemelater" v="yes"/>
  </node>
  <node id="-534" lat="54.002427074796216" lon="-1.5223863837160576">
    <tag k="addr:postcode" v="HG2 8RX"/>
    <tag k="removemelater" v="yes"/>
  </node>
  <node id="-535" lat="54.002427074796216" lon="-1.5223863837160576">
    <tag k="addr:postcode" v="HG2 8WY"/>
    <tag k="removemelater" v="yes"/>
  </node>
  <node id="-536" lat="54.002427074796216" lon="-1.5223863837160576">
    <tag k="addr:postcode" v="HG2 8XB"/>
    <tag k="removemelater" v="yes"/>
  </node>
  <node id="-537" lat="54.002427074796216" lon="-1.5223863837160576">
    <tag k="addr:postcode" v="HG2 8XF"/>
    <tag k="removemelater" v="yes"/>
  </node>
  <node id="-538" lat="54.002427074796216" lon="-1.5223863837160576">
    <tag k="addr:postcode" v="HG2 8XQ"/>
    <tag k="removemelater" v="yes"/>
  </node>
  <node id="-539" lat="54.002427074796216" lon="-1.5223863837160576">
    <tag k="addr:postcode" v="HG2 8XT"/>
    <tag k="removemelater" v="yes"/>
  </node>
  <node id="-540" lat="54.002427074796216" lon="-1.5223863837160576">
    <tag k="addr:postcode" v="HG2 8YJ"/>
    <tag k="removemelater" v="yes"/>
  </node>
  <node id="-541" lat="54.002427074796216" lon="-1.5223863837160576">
    <tag k="addr:postcode" v="HG2 8YX"/>
    <tag k="removemelater" v="yes"/>
  </node>
  <node id="-542" lat="54.002427074796216" lon="-1.5223863837160576">
    <tag k="addr:postcode" v="HG2 8ZP"/>
    <tag k="removemelater" v="yes"/>
  </node>
  <node id="-543" lat="54.002427074796216" lon="-1.5223863837160576">
    <tag k="addr:postcode" v="HG2 8ZQ"/>
    <tag k="removemelater" v="yes"/>
  </node>
  <node id="-544" lat="53.98570728744195" lon="-1.5401762252563007">
    <tag k="addr:postcode" v="HG2 9AU"/>
    <tag k="removemelater" v="yes"/>
  </node>
  <node id="-545" lat="54.002427074796216" lon="-1.5223863837160576">
    <tag k="addr:postcode" v="HG2 9WZ"/>
    <tag k="removemelater" v="yes"/>
  </node>
  <node id="-546" lat="54.002427074796216" lon="-1.5223863837160576">
    <tag k="addr:postcode" v="HG2 9XG"/>
    <tag k="removemelater" v="yes"/>
  </node>
  <node id="-547" lat="53.95452305509415" lon="-1.4490561441408594">
    <tag k="addr:postcode" v="HG3 1AP"/>
    <tag k="removemelater" v="yes"/>
  </node>
  <node id="-548" lat="53.95446202903516" lon="-1.4494683951122138">
    <tag k="addr:postcode" v="HG3 1BG"/>
    <tag k="removemelater" v="yes"/>
  </node>
  <node id="-549" lat="53.96999475528109" lon="-1.4949055895301337">
    <tag k="addr:postcode" v="HG3 1DJ"/>
    <tag k="removemelater" v="yes"/>
  </node>
  <node id="-550" lat="53.96534607325571" lon="-1.5030556425358959">
    <tag k="addr:postcode" v="HG3 1DP"/>
    <tag k="removemelater" v="yes"/>
  </node>
  <node id="-551" lat="53.97549768277223" lon="-1.5669392453199835">
    <tag k="addr:postcode" v="HG3 1GY"/>
    <tag k="removemelater" v="yes"/>
  </node>
  <node id="-552" lat="53.94046238212368" lon="-1.506108544677931">
    <tag k="addr:postcode" v="HG3 1HF"/>
    <tag k="removemelater" v="yes"/>
  </node>
  <node id="-553" lat="53.92117979507176" lon="-1.5030470942357042">
    <tag k="addr:postcode" v="HG3 1HT"/>
    <tag k="removemelater" v="yes"/>
  </node>
  <node id="-554" lat="53.97299674377297" lon="-1.4970646561787766">
    <tag k="addr:postcode" v="HG3 1JH"/>
    <tag k="removemelater" v="yes"/>
  </node>
  <node id="-555" lat="53.95786472408244" lon="-1.5312775409424848">
    <tag k="addr:postcode" v="HG3 1JJ"/>
    <tag k="removemelater" v="yes"/>
  </node>
  <node id="-556" lat="53.979399451653045" lon="-1.5647488659393416">
    <tag k="addr:postcode" v="HG3 1PR"/>
    <tag k="removemelater" v="yes"/>
  </node>
  <node id="-557" lat="53.97628478333095" lon="-1.5658790689029507">
    <tag k="addr:postcode" v="HG3 1PU"/>
    <tag k="removemelater" v="yes"/>
  </node>
  <node id="-558" lat="53.97808028583007" lon="-1.565311510904123">
    <tag k="addr:postcode" v="HG3 1PY"/>
    <tag k="removemelater" v="yes"/>
  </node>
  <node id="-559" lat="53.974882442445754" lon="-1.6076527859030725">
    <tag k="addr:postcode" v="HG3 1QN"/>
    <tag k="removemelater" v="yes"/>
  </node>
  <node id="-560" lat="53.97365798869885" lon="-1.5934858039847137">
    <tag k="addr:postcode" v="HG3 1QW"/>
    <tag k="removemelater" v="yes"/>
  </node>
  <node id="-561" lat="53.98388802834703" lon="-1.7088240982015126">
    <tag k="addr:postcode" v="HG3 1RP"/>
    <tag k="removemelater" v="yes"/>
  </node>
  <node id="-562" lat="53.97443242174853" lon="-1.6074588134144248">
    <tag k="addr:postcode" v="HG3 1RQ"/>
    <tag k="removemelater" v="yes"/>
  </node>
  <node id="-563" lat="53.97671531761605" lon="-1.5681311238766764">
    <tag k="addr:postcode" v="HG3 1RY"/>
    <tag k="removemelater" v="yes"/>
  </node>
  <node id="-564" lat="53.97707134801745" lon="-1.5696673849698632">
    <tag k="addr:postcode" v="HG3 1RZ"/>
    <tag k="removemelater" v="yes"/>
  </node>
  <node id="-565" lat="53.97704330101066" lon="-1.5668622388152307">
    <tag k="addr:postcode" v="HG3 1SA"/>
    <tag k="removemelater" v="yes"/>
  </node>
  <node id="-566" lat="53.98025936009408" lon="-1.6848032270214215">
    <tag k="addr:postcode" v="HG3 1SB"/>
    <tag k="removemelater" v="yes"/>
  </node>
  <node id="-567" lat="53.998272224248076" lon="-1.692325111197375">
    <tag k="addr:postcode" v="HG3 1SD"/>
    <tag k="removemelater" v="yes"/>
  </node>
  <node id="-568" lat="53.98519162844839" lon="-1.5915283382890788">
    <tag k="addr:postcode" v="HG3 1SF"/>
    <tag k="removemelater" v="yes"/>
  </node>
  <node id="-569" lat="53.98582568279022" lon="-1.5983236922060555">
    <tag k="addr:postcode" v="HG3 1SG"/>
    <tag k="removemelater" v="yes"/>
  </node>
  <node id="-570" lat="53.9890590403779" lon="-1.6493386535268284">
    <tag k="addr:postcode" v="HG3 1SH"/>
    <tag k="removemelater" v="yes"/>
  </node>
  <node id="-571" lat="53.98728005406397" lon="-1.6784975132932716">
    <tag k="addr:postcode" v="HG3 1SL"/>
    <tag k="removemelater" v="yes"/>
  </node>
  <node id="-572" lat="53.99275145231365" lon="-1.6810788497627391">
    <tag k="addr:postcode" v="HG3 1SN"/>
    <tag k="removemelater" v="yes"/>
  </node>
  <node id="-573" lat="53.98511577808407" lon="-1.7110725138607148">
    <tag k="addr:postcode" v="HG3 1SS"/>
    <tag k="removemelater" v="yes"/>
  </node>
  <node id="-574" lat="53.967757989332384" lon="-1.7100339686163222">
    <tag k="addr:postcode" v="HG3 1ST"/>
    <tag k="removemelater" v="yes"/>
  </node>
  <node id="-575" lat="53.96998881400839" lon="-1.6998048268939459">
    <tag k="addr:postcode" v="HG3 1SX"/>
    <tag k="removemelater" v="yes"/>
  </node>
  <node id="-576" lat="53.9860988888752" lon="-1.6978438219945888">
    <tag k="addr:postcode" v="HG3 1SY"/>
    <tag k="removemelater" v="yes"/>
  </node>
  <node id="-577" lat="53.979508892800304" lon="-1.673022360861693">
    <tag k="addr:postcode" v="HG3 1TA"/>
    <tag k="removemelater" v="yes"/>
  </node>
  <node id="-578" lat="53.973791315230905" lon="-1.6859954284522851">
    <tag k="addr:postcode" v="HG3 1TD"/>
    <tag k="removemelater" v="yes"/>
  </node>
  <node id="-579" lat="53.97330846143999" lon="-1.6835140385351803">
    <tag k="addr:postcode" v="HG3 1TE"/>
    <tag k="removemelater" v="yes"/>
  </node>
  <node id="-580" lat="53.973427062912755" lon="-1.6841839446429319">
    <tag k="addr:postcode" v="HG3 1TF"/>
    <tag k="removemelater" v="yes"/>
  </node>
  <node id="-581" lat="53.979398068894895" lon="-1.6465531533589437">
    <tag k="addr:postcode" v="HG3 1TQ"/>
    <tag k="removemelater" v="yes"/>
  </node>
  <node id="-582" lat="53.978399633461905" lon="-1.5666347146107176">
    <tag k="addr:postcode" v="HG3 1UD"/>
    <tag k="removemelater" v="yes"/>
  </node>
  <node id="-583" lat="53.978399633461905" lon="-1.5666347146107176">
    <tag k="addr:postcode" v="HG3 1UF"/>
    <tag k="removemelater" v="yes"/>
  </node>
  <node id="-584" lat="53.978399633461905" lon="-1.5666347146107176">
    <tag k="addr:postcode" v="HG3 1UG"/>
    <tag k="removemelater" v="yes"/>
  </node>
  <node id="-585" lat="53.98428998393042" lon="-1.711520459289555">
    <tag k="addr:postcode" v="HG3 1US"/>
    <tag k="removemelater" v="yes"/>
  </node>
  <node id="-586" lat="54.002427074796216" lon="-1.5223863837160576">
    <tag k="addr:postcode" v="HG3 1UW"/>
    <tag k="removemelater" v="yes"/>
  </node>
  <node id="-587" lat="54.002427074796216" lon="-1.5223863837160576">
    <tag k="addr:postcode" v="HG3 1UX"/>
    <tag k="removemelater" v="yes"/>
  </node>
  <node id="-588" lat="54.002427074796216" lon="-1.5223863837160576">
    <tag k="addr:postcode" v="HG3 1WY"/>
    <tag k="removemelater" v="yes"/>
  </node>
  <node id="-589" lat="54.002427074796216" lon="-1.5223863837160576">
    <tag k="addr:postcode" v="HG3 1XE"/>
    <tag k="removemelater" v="yes"/>
  </node>
  <node id="-590" lat="54.002427074796216" lon="-1.5223863837160576">
    <tag k="addr:postcode" v="HG3 1XF"/>
    <tag k="removemelater" v="yes"/>
  </node>
  <node id="-591" lat="54.002427074796216" lon="-1.5223863837160576">
    <tag k="addr:postcode" v="HG3 1XT"/>
    <tag k="removemelater" v="yes"/>
  </node>
  <node id="-592" lat="54.01122627146924" lon="-1.5528350836519729">
    <tag k="addr:postcode" v="HG3 2AH"/>
    <tag k="removemelater" v="yes"/>
  </node>
  <node id="-593" lat="54.00680828149736" lon="-1.5788359499332838">
    <tag k="addr:postcode" v="HG3 2AP"/>
    <tag k="removemelater" v="yes"/>
  </node>
  <node id="-594" lat="54.01959318698995" lon="-1.5624370889548491">
    <tag k="addr:postcode" v="HG3 2DD"/>
    <tag k="removemelater" v="yes"/>
  </node>
  <node id="-595" lat="54.023535688763964" lon="-1.5640595022936392">
    <tag k="addr:postcode" v="HG3 2DH"/>
    <tag k="removemelater" v="yes"/>
  </node>
  <node id="-596" lat="54.01989029303697" lon="-1.604100830059543">
    <tag k="addr:postcode" v="HG3 2EB"/>
    <tag k="removemelater" v="yes"/>
  </node>
  <node id="-597" lat="54.02070126714924" lon="-1.6047341749512167">
    <tag k="addr:postcode" v="HG3 2ED"/>
    <tag k="removemelater" v="yes"/>
  </node>
  <node id="-598" lat="54.02036798081434" lon="-1.6045083913369953">
    <tag k="addr:postcode" v="HG3 2EF"/>
    <tag k="removemelater" v="yes"/>
  </node>
  <node id="-599" lat="54.02253554977819" lon="-1.6049762757742712">
    <tag k="addr:postcode" v="HG3 2EL"/>
    <tag k="removemelater" v="yes"/>
  </node>
  <node id="-600" lat="53.99550126997145" lon="-1.5787059426935082">
    <tag k="addr:postcode" v="HG3 2GA"/>
    <tag k="removemelater" v="yes"/>
  </node>
  <node id="-601" lat="53.99518996590593" lon="-1.579639550142124">
    <tag k="addr:postcode" v="HG3 2GB"/>
    <tag k="removemelater" v="yes"/>
  </node>
  <node id="-602" lat="53.995004395445974" lon="-1.577978788399766">
    <tag k="addr:postcode" v="HG3 2GD"/>
    <tag k="removemelater" v="yes"/>
  </node>
  <node id="-603" lat="54.002427074796216" lon="-1.5223863837160576">
    <tag k="addr:postcode" v="HG3 2GQ"/>
    <tag k="removemelater" v="yes"/>
  </node>
  <node id="-604" lat="54.002427074796216" lon="-1.5223863837160576">
    <tag k="addr:postcode" v="HG3 2GU"/>
    <tag k="removemelater" v="yes"/>
  </node>
  <node id="-605" lat="54.01906377269954" lon="-1.6014835622061545">
    <tag k="addr:postcode" v="HG3 2HG"/>
    <tag k="removemelater" v="yes"/>
  </node>
  <node id="-606" lat="54.018079599049" lon="-1.6028360105529265">
    <tag k="addr:postcode" v="HG3 2HH"/>
    <tag k="removemelater" v="yes"/>
  </node>
  <node id="-607" lat="54.012354166593745" lon="-1.6712696511262295">
    <tag k="addr:postcode" v="HG3 2LN"/>
    <tag k="removemelater" v="yes"/>
  </node>
  <node id="-608" lat="54.03146171810951" lon="-1.6338375867012829">
    <tag k="addr:postcode" v="HG3 2NJ"/>
    <tag k="removemelater" v="yes"/>
  </node>
  <node id="-609" lat="54.03141200535863" lon="-1.6967523419319976">
    <tag k="addr:postcode" v="HG3 2QF"/>
    <tag k="removemelater" v="yes"/>
  </node>
  <node id="-610" lat="54.01299175660338" lon="-1.7208748960687674">
    <tag k="addr:postcode" v="HG3 2RA"/>
    <tag k="removemelater" v="yes"/>
  </node>
  <node id="-611" lat="54.015226175069095" lon="-1.6935736174482254">
    <tag k="addr:postcode" v="HG3 2RG"/>
    <tag k="removemelater" v="yes"/>
  </node>
  <node id="-612" lat="54.015226175069095" lon="-1.6935736174482254">
    <tag k="addr:postcode" v="HG3 2RQ"/>
    <tag k="removemelater" v="yes"/>
  </node>
  <node id="-613" lat="53.99522461172054" lon="-1.5976536547389844">
    <tag k="addr:postcode" v="HG3 2RU"/>
    <tag k="removemelater" v="yes"/>
  </node>
  <node id="-614" lat="53.99522461172054" lon="-1.5976536547389844">
    <tag k="addr:postcode" v="HG3 2SE"/>
    <tag k="removemelater" v="yes"/>
  </node>
  <node id="-615" lat="54.015226175069095" lon="-1.6935736174482254">
    <tag k="addr:postcode" v="HG3 2SW"/>
    <tag k="removemelater" v="yes"/>
  </node>
  <node id="-616" lat="54.002427074796216" lon="-1.5223863837160576">
    <tag k="addr:postcode" v="HG3 2ZH"/>
    <tag k="removemelater" v="yes"/>
  </node>
  <node id="-617" lat="54.037206280114184" lon="-1.559213738677827">
    <tag k="addr:postcode" v="HG3 3AU"/>
    <tag k="removemelater" v="yes"/>
  </node>
  <node id="-618" lat="54.06920586458335" lon="-1.5024740333794566">
    <tag k="addr:postcode" v="HG3 3DG"/>
    <tag k="removemelater" v="yes"/>
  </node>
  <node id="-619" lat="54.04525244854018" lon="-1.572277744670434">
    <tag k="addr:postcode" v="HG3 3EA"/>
    <tag k="removemelater" v="yes"/>
  </node>
  <node id="-620" lat="54.05169305887852" lon="-1.6398459080011163">
    <tag k="addr:postcode" v="HG3 3ER"/>
    <tag k="removemelater" v="yes"/>
  </node>
  <node id="-621" lat="54.04385205021937" lon="-1.6446172227480893">
    <tag k="addr:postcode" v="HG3 3ES"/>
    <tag k="removemelater" v="yes"/>
  </node>
  <node id="-622" lat="54.04690647295323" lon="-1.6661100547007883">
    <tag k="addr:postcode" v="HG3 3EY"/>
    <tag k="removemelater" v="yes"/>
  </node>
  <node id="-623" lat="54.05853538971955" lon="-1.6722650476216565">
    <tag k="addr:postcode" v="HG3 3HA"/>
    <tag k="removemelater" v="yes"/>
  </node>
  <node id="-624" lat="54.065069908906544" lon="-1.6659186514178754">
    <tag k="addr:postcode" v="HG3 3HB"/>
    <tag k="removemelater" v="yes"/>
  </node>
  <node id="-625" lat="54.074595993702054" lon="-1.6656435585202134">
    <tag k="addr:postcode" v="HG3 3HD"/>
    <tag k="removemelater" v="yes"/>
  </node>
  <node id="-626" lat="54.07104069997746" lon="-1.593819368833896">
    <tag k="addr:postcode" v="HG3 3JN"/>
    <tag k="removemelater" v="yes"/>
  </node>
  <node id="-627" lat="54.06830042957026" lon="-1.6160178398491154">
    <tag k="addr:postcode" v="HG3 3JX"/>
    <tag k="removemelater" v="yes"/>
  </node>
  <node id="-628" lat="54.07398219601175" lon="-1.6279774104475224">
    <tag k="addr:postcode" v="HG3 3LE"/>
    <tag k="removemelater" v="yes"/>
  </node>
  <node id="-629" lat="54.08922320386652" lon="-1.6421660273404644">
    <tag k="addr:postcode" v="HG3 3LG"/>
    <tag k="removemelater" v="yes"/>
  </node>
  <node id="-630" lat="54.084094287443975" lon="-1.6431731435825978">
    <tag k="addr:postcode" v="HG3 3LQ"/>
    <tag k="removemelater" v="yes"/>
  </node>
  <node id="-631" lat="54.07887346271016" lon="-1.5354336208597243">
    <tag k="addr:postcode" v="HG3 3NH"/>
    <tag k="removemelater" v="yes"/>
  </node>
  <node id="-632" lat="54.07673603274203" lon="-1.5358548437953918">
    <tag k="addr:postcode" v="HG3 3NQ"/>
    <tag k="removemelater" v="yes"/>
  </node>
  <node id="-633" lat="54.079902388291046" lon="-1.534229936579483">
    <tag k="addr:postcode" v="HG3 3PR"/>
    <tag k="removemelater" v="yes"/>
  </node>
  <node id="-634" lat="54.09140529498031" lon="-1.5315938050768552">
    <tag k="addr:postcode" v="HG3 3QE"/>
    <tag k="removemelater" v="yes"/>
  </node>
  <node id="-635" lat="54.0686577712049" lon="-1.502511143138117">
    <tag k="addr:postcode" v="HG3 3RP"/>
    <tag k="removemelater" v="yes"/>
  </node>
  <node id="-636" lat="54.06894611958671" lon="-1.502691065611997">
    <tag k="addr:postcode" v="HG3 3RW"/>
    <tag k="removemelater" v="yes"/>
  </node>
  <node id="-637" lat="54.068677076976066" lon="-1.5006619689652945">
    <tag k="addr:postcode" v="HG3 3SJ"/>
    <tag k="removemelater" v="yes"/>
  </node>
  <node id="-638" lat="54.068643345573214" lon="-1.501197191418831">
    <tag k="addr:postcode" v="HG3 3SL"/>
    <tag k="removemelater" v="yes"/>
  </node>
  <node id="-639" lat="54.06884214030098" lon="-1.5014545800354833">
    <tag k="addr:postcode" v="HG3 3SN"/>
    <tag k="removemelater" v="yes"/>
  </node>
  <node id="-640" lat="54.06897111762762" lon="-1.500047217533656">
    <tag k="addr:postcode" v="HG3 3SR"/>
    <tag k="removemelater" v="yes"/>
  </node>
  <node id="-641" lat="54.03863781744111" lon="-1.696653990760576">
    <tag k="addr:postcode" v="HG3 4AD"/>
    <tag k="removemelater" v="yes"/>
  </node>
  <node id="-642" lat="54.038168410295526" lon="-1.763933533670004">
    <tag k="addr:postcode" v="HG3 4AN"/>
    <tag k="removemelater" v="yes"/>
  </node>
  <node id="-643" lat="54.04366222439776" lon="-1.7605885844778195">
    <tag k="addr:postcode" v="HG3 4AP"/>
    <tag k="removemelater" v="yes"/>
  </node>
  <node id="-644" lat="54.04494460919099" lon="-1.7730429113645167">
    <tag k="addr:postcode" v="HG3 4AS"/>
    <tag k="removemelater" v="yes"/>
  </node>
  <node id="-645" lat="54.06177626315822" lon="-1.7019855930038725">
    <tag k="addr:postcode" v="HG3 4AT"/>
    <tag k="removemelater" v="yes"/>
  </node>
  <node id="-646" lat="54.037111844370195" lon="-1.7802771344818087">
    <tag k="addr:postcode" v="HG3 4AU"/>
    <tag k="removemelater" v="yes"/>
  </node>
  <node id="-647" lat="54.046245260013514" lon="-1.7915151339387865">
    <tag k="addr:postcode" v="HG3 4AX"/>
    <tag k="removemelater" v="yes"/>
  </node>
  <node id="-648" lat="54.02208199003965" lon="-1.8048843722632733">
    <tag k="addr:postcode" v="HG3 4AZ"/>
    <tag k="removemelater" v="yes"/>
  </node>
  <node id="-649" lat="54.020529307429975" lon="-1.790147837629296">
    <tag k="addr:postcode" v="HG3 4BA"/>
    <tag k="removemelater" v="yes"/>
  </node>
  <node id="-650" lat="54.05463238044534" lon="-1.7024949354328587">
    <tag k="addr:postcode" v="HG3 4BE"/>
    <tag k="removemelater" v="yes"/>
  </node>
  <node id="-651" lat="54.06152215286913" lon="-1.700994354554187">
    <tag k="addr:postcode" v="HG3 4BG"/>
    <tag k="removemelater" v="yes"/>
  </node>
  <node id="-652" lat="54.06122378212877" lon="-1.7002784449856132">
    <tag k="addr:postcode" v="HG3 4BJ"/>
    <tag k="removemelater" v="yes"/>
  </node>
  <node id="-653" lat="54.06105340205371" lon="-1.6968422076810181">
    <tag k="addr:postcode" v="HG3 4BL"/>
    <tag k="removemelater" v="yes"/>
  </node>
  <node id="-654" lat="54.06074512451162" lon="-1.6993499605950573">
    <tag k="addr:postcode" v="HG3 4BN"/>
    <tag k="removemelater" v="yes"/>
  </node>
  <node id="-655" lat="54.06109890821588" lon="-1.7006612839499657">
    <tag k="addr:postcode" v="HG3 4BP"/>
    <tag k="removemelater" v="yes"/>
  </node>
  <node id="-656" lat="54.06138851656811" lon="-1.7014689233173252">
    <tag k="addr:postcode" v="HG3 4BQ"/>
    <tag k="removemelater" v="yes"/>
  </node>
  <node id="-657" lat="54.06169401362757" lon="-1.7014361788073746">
    <tag k="addr:postcode" v="HG3 4BS"/>
    <tag k="removemelater" v="yes"/>
  </node>
  <node id="-658" lat="54.06374771886698" lon="-1.703270172519425">
    <tag k="addr:postcode" v="HG3 4BT"/>
    <tag k="removemelater" v="yes"/>
  </node>
  <node id="-659" lat="54.067974479134804" lon="-1.7080074723005656">
    <tag k="addr:postcode" v="HG3 4BU"/>
    <tag k="removemelater" v="yes"/>
  </node>
  <node id="-660" lat="54.061876145265" lon="-1.7023973822616696">
    <tag k="addr:postcode" v="HG3 4BW"/>
    <tag k="removemelater" v="yes"/>
  </node>
  <node id="-661" lat="54.06770415182083" lon="-1.707719046150336">
    <tag k="addr:postcode" v="HG3 4BX"/>
    <tag k="removemelater" v="yes"/>
  </node>
  <node id="-662" lat="54.0682267198275" lon="-1.708250188114667">
    <tag k="addr:postcode" v="HG3 4BY"/>
    <tag k="removemelater" v="yes"/>
  </node>
  <node id="-663" lat="54.068442936310596" lon="-1.7084625983116244">
    <tag k="addr:postcode" v="HG3 4BZ"/>
    <tag k="removemelater" v="yes"/>
  </node>
  <node id="-664" lat="54.06891109617301" lon="-1.7087954926785949">
    <tag k="addr:postcode" v="HG3 4DA"/>
    <tag k="removemelater" v="yes"/>
  </node>
  <node id="-665" lat="54.06907353478369" lon="-1.70906940706429">
    <tag k="addr:postcode" v="HG3 4DB"/>
    <tag k="removemelater" v="yes"/>
  </node>
  <node id="-666" lat="54.0692612733004" lon="-1.708655519095154">
    <tag k="addr:postcode" v="HG3 4DE"/>
    <tag k="removemelater" v="yes"/>
  </node>
  <node id="-667" lat="54.07463730818196" lon="-1.7019088522998551">
    <tag k="addr:postcode" v="HG3 4DL"/>
    <tag k="removemelater" v="yes"/>
  </node>
  <node id="-668" lat="54.06798145436517" lon="-1.6998783817367282">
    <tag k="addr:postcode" v="HG3 4DN"/>
    <tag k="removemelater" v="yes"/>
  </node>
  <node id="-669" lat="54.070973968731494" lon="-1.7107523521833328">
    <tag k="addr:postcode" v="HG3 4DQ"/>
    <tag k="removemelater" v="yes"/>
  </node>
  <node id="-670" lat="54.06044582885603" lon="-1.6876954699682685">
    <tag k="addr:postcode" v="HG3 4DR"/>
    <tag k="removemelater" v="yes"/>
  </node>
  <node id="-671" lat="54.062709404329084" lon="-1.7013525116305246">
    <tag k="addr:postcode" v="HG3 4DS"/>
    <tag k="removemelater" v="yes"/>
  </node>
  <node id="-672" lat="54.061458861311856" lon="-1.7008420311363472">
    <tag k="addr:postcode" v="HG3 4DU"/>
    <tag k="removemelater" v="yes"/>
  </node>
  <node id="-673" lat="54.079134377688234" lon="-1.6889920340346514">
    <tag k="addr:postcode" v="HG3 4DW"/>
    <tag k="removemelater" v="yes"/>
  </node>
  <node id="-674" lat="54.05365036676873" lon="-1.7015396267182596">
    <tag k="addr:postcode" v="HG3 4DX"/>
    <tag k="removemelater" v="yes"/>
  </node>
  <node id="-675" lat="54.055028005859604" lon="-1.698948218261802">
    <tag k="addr:postcode" v="HG3 4EB"/>
    <tag k="removemelater" v="yes"/>
  </node>
  <node id="-676" lat="54.05462798871122" lon="-1.7007230373232514">
    <tag k="addr:postcode" v="HG3 4ED"/>
    <tag k="removemelater" v="yes"/>
  </node>
  <node id="-677" lat="54.054711907307606" lon="-1.7019444575050942">
    <tag k="addr:postcode" v="HG3 4EE"/>
    <tag k="removemelater" v="yes"/>
  </node>
  <node id="-678" lat="54.054345762888516" lon="-1.7028941352707772">
    <tag k="addr:postcode" v="HG3 4EF"/>
    <tag k="removemelater" v="yes"/>
  </node>
  <node id="-679" lat="54.05446761832233" lon="-1.7012893711399424">
    <tag k="addr:postcode" v="HG3 4EG"/>
    <tag k="removemelater" v="yes"/>
  </node>
  <node id="-680" lat="54.0538374730396" lon="-1.7008814633910716">
    <tag k="addr:postcode" v="HG3 4EH"/>
    <tag k="removemelater" v="yes"/>
  </node>
  <node id="-681" lat="54.05344384477654" lon="-1.701617479703605">
    <tag k="addr:postcode" v="HG3 4EJ"/>
    <tag k="removemelater" v="yes"/>
  </node>
  <node id="-682" lat="54.05323770111038" lon="-1.7018480766438997">
    <tag k="addr:postcode" v="HG3 4EL"/>
    <tag k="removemelater" v="yes"/>
  </node>
  <node id="-683" lat="54.0528303093985" lon="-1.700659572477815">
    <tag k="addr:postcode" v="HG3 4EN"/>
    <tag k="removemelater" v="yes"/>
  </node>
  <node id="-684" lat="54.053783054820215" lon="-1.700683279663402">
    <tag k="addr:postcode" v="HG3 4EQ"/>
    <tag k="removemelater" v="yes"/>
  </node>
  <node id="-685" lat="54.051716537026174" lon="-1.7045777626977594">
    <tag k="addr:postcode" v="HG3 4ER"/>
    <tag k="removemelater" v="yes"/>
  </node>
  <node id="-686" lat="54.05529517446587" lon="-1.7202861553305466">
    <tag k="addr:postcode" v="HG3 4EU"/>
    <tag k="removemelater" v="yes"/>
  </node>
  <node id="-687" lat="54.047904002298765" lon="-1.7429700011487201">
    <tag k="addr:postcode" v="HG3 4EY"/>
    <tag k="removemelater" v="yes"/>
  </node>
  <node id="-688" lat="54.05408301286759" lon="-1.702040605294949">
    <tag k="addr:postcode" v="HG3 4HA"/>
    <tag k="removemelater" v="yes"/>
  </node>
  <node id="-689" lat="54.06021609548497" lon="-1.7383719945601779">
    <tag k="addr:postcode" v="HG3 4HG"/>
    <tag k="removemelater" v="yes"/>
  </node>
  <node id="-690" lat="54.05717235386414" lon="-1.7084039630634582">
    <tag k="addr:postcode" v="HG3 4HH"/>
    <tag k="removemelater" v="yes"/>
  </node>
  <node id="-691" lat="54.057178777696116" lon="-1.692913861271722">
    <tag k="addr:postcode" v="HG3 4HP"/>
    <tag k="removemelater" v="yes"/>
  </node>
  <node id="-692" lat="54.063636626589485" lon="-1.716853600010102">
    <tag k="addr:postcode" v="HG3 4HQ"/>
    <tag k="removemelater" v="yes"/>
  </node>
  <node id="-693" lat="54.0568569814583" lon="-1.6936036559764296">
    <tag k="addr:postcode" v="HG3 4HR"/>
    <tag k="removemelater" v="yes"/>
  </node>
  <node id="-694" lat="54.0576304062116" lon="-1.6937965619708735">
    <tag k="addr:postcode" v="HG3 4HS"/>
    <tag k="removemelater" v="yes"/>
  </node>
  <node id="-695" lat="54.058685660433916" lon="-1.6917264469464517">
    <tag k="addr:postcode" v="HG3 4HX"/>
    <tag k="removemelater" v="yes"/>
  </node>
  <node id="-696" lat="54.0579839754289" lon="-1.6914719375760743">
    <tag k="addr:postcode" v="HG3 4HY"/>
    <tag k="removemelater" v="yes"/>
  </node>
  <node id="-697" lat="54.056415079377665" lon="-1.6930111443647204">
    <tag k="addr:postcode" v="HG3 4HZ"/>
    <tag k="removemelater" v="yes"/>
  </node>
  <node id="-698" lat="54.056366902460674" lon="-1.691743599898972">
    <tag k="addr:postcode" v="HG3 4JA"/>
    <tag k="removemelater" v="yes"/>
  </node>
  <node id="-699" lat="54.056424516507896" lon="-1.6896809248267846">
    <tag k="addr:postcode" v="HG3 4JB"/>
    <tag k="removemelater" v="yes"/>
  </node>
  <node id="-700" lat="54.057068430732066" lon="-1.691937000613063">
    <tag k="addr:postcode" v="HG3 4JD"/>
    <tag k="removemelater" v="yes"/>
  </node>
  <node id="-701" lat="54.05705681996649" lon="-1.690913584431351">
    <tag k="addr:postcode" v="HG3 4JE"/>
    <tag k="removemelater" v="yes"/>
  </node>
  <node id="-702" lat="54.05849510150932" lon="-1.6945387651553314">
    <tag k="addr:postcode" v="HG3 4JF"/>
    <tag k="removemelater" v="yes"/>
  </node>
  <node id="-703" lat="54.05995993692474" lon="-1.6944821952135742">
    <tag k="addr:postcode" v="HG3 4JG"/>
    <tag k="removemelater" v="yes"/>
  </node>
  <node id="-704" lat="54.059559677943355" lon="-1.6961350530756976">
    <tag k="addr:postcode" v="HG3 4JH"/>
    <tag k="removemelater" v="yes"/>
  </node>
  <node id="-705" lat="54.06044924108857" lon="-1.6960521789417007">
    <tag k="addr:postcode" v="HG3 4JJ"/>
    <tag k="removemelater" v="yes"/>
  </node>
  <node id="-706" lat="54.06006659014161" lon="-1.697567418077716">
    <tag k="addr:postcode" v="HG3 4JL"/>
    <tag k="removemelater" v="yes"/>
  </node>
  <node id="-707" lat="54.05916453919811" lon="-1.6962601498930927">
    <tag k="addr:postcode" v="HG3 4JN"/>
    <tag k="removemelater" v="yes"/>
  </node>
  <node id="-708" lat="54.056860627368756" lon="-1.695039580333285">
    <tag k="addr:postcode" v="HG3 4JP"/>
    <tag k="removemelater" v="yes"/>
  </node>
  <node id="-709" lat="54.05932538747866" lon="-1.6958923299122572">
    <tag k="addr:postcode" v="HG3 4JQ"/>
    <tag k="removemelater" v="yes"/>
  </node>
  <node id="-710" lat="54.035287134788" lon="-1.6799597169826839">
    <tag k="addr:postcode" v="HG3 4JS"/>
    <tag k="removemelater" v="yes"/>
  </node>
  <node id="-711" lat="54.05674928384019" lon="-1.6901520635770602">
    <tag k="addr:postcode" v="HG3 4JU"/>
    <tag k="removemelater" v="yes"/>
  </node>
  <node id="-712" lat="54.06031017134759" lon="-1.697932306305326">
    <tag k="addr:postcode" v="HG3 4JW"/>
    <tag k="removemelater" v="yes"/>
  </node>
  <node id="-713" lat="54.06152563523879" lon="-1.7023998857634306">
    <tag k="addr:postcode" v="HG3 4LA"/>
    <tag k="removemelater" v="yes"/>
  </node>
  <node id="-714" lat="54.05714317856182" lon="-1.6930516092279677">
    <tag k="addr:postcode" v="HG3 4WA"/>
    <tag k="removemelater" v="yes"/>
  </node>
  <node id="-715" lat="54.05714317856182" lon="-1.6930516092279677">
    <tag k="addr:postcode" v="HG3 4XN"/>
    <tag k="removemelater" v="yes"/>
  </node>
  <node id="-716" lat="54.05714317856182" lon="-1.6930516092279677">
    <tag k="addr:postcode" v="HG3 4XZ"/>
    <tag k="removemelater" v="yes"/>
  </node>
  <node id="-717" lat="54.11198472222608" lon="-1.799476443971682">
    <tag k="addr:postcode" v="HG3 5AD"/>
    <tag k="removemelater" v="yes"/>
  </node>
  <node id="-718" lat="54.086334478598594" lon="-1.7602057103317024">
    <tag k="addr:postcode" v="HG3 5AF"/>
    <tag k="removemelater" v="yes"/>
  </node>
  <node id="-719" lat="54.086494392663184" lon="-1.7592722864904529">
    <tag k="addr:postcode" v="HG3 5AL"/>
    <tag k="removemelater" v="yes"/>
  </node>
  <node id="-720" lat="54.08565828556072" lon="-1.7591395407255501">
    <tag k="addr:postcode" v="HG3 5AN"/>
    <tag k="removemelater" v="yes"/>
  </node>
  <node id="-721" lat="54.086735071247276" lon="-1.7628021967223018">
    <tag k="addr:postcode" v="HG3 5AQ"/>
    <tag k="removemelater" v="yes"/>
  </node>
  <node id="-722" lat="54.085877911031375" lon="-1.7611102553259959">
    <tag k="addr:postcode" v="HG3 5AR"/>
    <tag k="removemelater" v="yes"/>
  </node>
  <node id="-723" lat="54.086614547741256" lon="-1.7609378722472977">
    <tag k="addr:postcode" v="HG3 5AT"/>
    <tag k="removemelater" v="yes"/>
  </node>
  <node id="-724" lat="54.08728948485846" lon="-1.761377326506305">
    <tag k="addr:postcode" v="HG3 5AU"/>
    <tag k="removemelater" v="yes"/>
  </node>
  <node id="-725" lat="54.085974280498064" lon="-1.759856189664503">
    <tag k="addr:postcode" v="HG3 5AW"/>
    <tag k="removemelater" v="yes"/>
  </node>
  <node id="-726" lat="54.087085009244724" lon="-1.7625097473798748">
    <tag k="addr:postcode" v="HG3 5AX"/>
    <tag k="removemelater" v="yes"/>
  </node>
  <node id="-727" lat="54.087021131734126" lon="-1.7620209237183475">
    <tag k="addr:postcode" v="HG3 5AY"/>
    <tag k="removemelater" v="yes"/>
  </node>
  <node id="-728" lat="54.08645434870559" lon="-1.7617337117236862">
    <tag k="addr:postcode" v="HG3 5AZ"/>
    <tag k="removemelater" v="yes"/>
  </node>
  <node id="-729" lat="54.084736748071975" lon="-1.7612390924876218">
    <tag k="addr:postcode" v="HG3 5BD"/>
    <tag k="removemelater" v="yes"/>
  </node>
  <node id="-730" lat="54.08339107985441" lon="-1.8022891401972723">
    <tag k="addr:postcode" v="HG3 5BN"/>
    <tag k="removemelater" v="yes"/>
  </node>
  <node id="-731" lat="54.09147920951642" lon="-1.786121103309926">
    <tag k="addr:postcode" v="HG3 5BU"/>
    <tag k="removemelater" v="yes"/>
  </node>
  <node id="-732" lat="54.08597432634096" lon="-1.8102565486246518">
    <tag k="addr:postcode" v="HG3 5BW"/>
    <tag k="removemelater" v="yes"/>
  </node>
  <node id="-733" lat="54.08962591079826" lon="-1.780091833109793">
    <tag k="addr:postcode" v="HG3 5BY"/>
    <tag k="removemelater" v="yes"/>
  </node>
  <node id="-734" lat="54.08776754218726" lon="-1.762245968458858">
    <tag k="addr:postcode" v="HG3 5DA"/>
    <tag k="removemelater" v="yes"/>
  </node>
  <node id="-735" lat="54.076564427026824" lon="-1.726210790172397">
    <tag k="addr:postcode" v="HG3 5EA"/>
    <tag k="removemelater" v="yes"/>
  </node>
  <node id="-736" lat="54.07440687459509" lon="-1.718186375240578">
    <tag k="addr:postcode" v="HG3 5ED"/>
    <tag k="removemelater" v="yes"/>
  </node>
  <node id="-737" lat="54.07866196027283" lon="-1.7160483782830636">
    <tag k="addr:postcode" v="HG3 5EE"/>
    <tag k="removemelater" v="yes"/>
  </node>
  <node id="-738" lat="54.081860233788696" lon="-1.7193281806846556">
    <tag k="addr:postcode" v="HG3 5EQ"/>
    <tag k="removemelater" v="yes"/>
  </node>
  <node id="-739" lat="54.087255767172806" lon="-1.7245200360528825">
    <tag k="addr:postcode" v="HG3 5EW"/>
    <tag k="removemelater" v="yes"/>
  </node>
  <node id="-740" lat="54.08849241967043" lon="-1.6694914498809141">
    <tag k="addr:postcode" v="HG3 5EY"/>
    <tag k="removemelater" v="yes"/>
  </node>
  <node id="-741" lat="54.08403063213889" lon="-1.7632150385566139">
    <tag k="addr:postcode" v="HG3 5HG"/>
    <tag k="removemelater" v="yes"/>
  </node>
  <node id="-742" lat="54.08355381640511" lon="-1.76297317618945">
    <tag k="addr:postcode" v="HG3 5HN"/>
    <tag k="removemelater" v="yes"/>
  </node>
  <node id="-743" lat="54.08422958630074" lon="-1.7638406373026492">
    <tag k="addr:postcode" v="HG3 5HQ"/>
    <tag k="removemelater" v="yes"/>
  </node>
  <node id="-744" lat="54.081047579323425" lon="-1.7636294074982526">
    <tag k="addr:postcode" v="HG3 5HR"/>
    <tag k="removemelater" v="yes"/>
  </node>
  <node id="-745" lat="54.08062276338505" lon="-1.7624090366788754">
    <tag k="addr:postcode" v="HG3 5HS"/>
    <tag k="removemelater" v="yes"/>
  </node>
  <node id="-746" lat="54.080116896456225" lon="-1.7611127325507188">
    <tag k="addr:postcode" v="HG3 5HU"/>
    <tag k="removemelater" v="yes"/>
  </node>
  <node id="-747" lat="54.07831791821717" lon="-1.760374138364124">
    <tag k="addr:postcode" v="HG3 5HX"/>
    <tag k="removemelater" v="yes"/>
  </node>
  <node id="-748" lat="54.07913562443459" lon="-1.7602930125858507">
    <tag k="addr:postcode" v="HG3 5HY"/>
    <tag k="removemelater" v="yes"/>
  </node>
  <node id="-749" lat="54.07857706213736" lon="-1.759623730284404">
    <tag k="addr:postcode" v="HG3 5HZ"/>
    <tag k="removemelater" v="yes"/>
  </node>
  <node id="-750" lat="54.072296454461835" lon="-1.8290541958036117">
    <tag k="addr:postcode" v="HG3 5JH"/>
    <tag k="removemelater" v="yes"/>
  </node>
  <node id="-751" lat="54.063600230122624" lon="-1.8192963335757781">
    <tag k="addr:postcode" v="HG3 5JJ"/>
    <tag k="removemelater" v="yes"/>
  </node>
  <node id="-752" lat="54.08662177233084" lon="-1.7600511859828047">
    <tag k="addr:postcode" v="HG3 5JS"/>
    <tag k="removemelater" v="yes"/>
  </node>
  <node id="-753" lat="54.086425234691674" lon="-1.7606485079581726">
    <tag k="addr:postcode" v="HG3 5JT"/>
    <tag k="removemelater" v="yes"/>
  </node>
  <node id="-754" lat="54.08630440225309" lon="-1.758646623541266">
    <tag k="addr:postcode" v="HG3 5JU"/>
    <tag k="removemelater" v="yes"/>
  </node>
  <node id="-755" lat="54.08628969351663" lon="-1.7602824025368295">
    <tag k="addr:postcode" v="HG3 5JW"/>
    <tag k="removemelater" v="yes"/>
  </node>
  <node id="-756" lat="54.085692367202114" lon="-1.7582068586553925">
    <tag k="addr:postcode" v="HG3 5JX"/>
    <tag k="removemelater" v="yes"/>
  </node>
  <node id="-757" lat="54.087096917651415" lon="-1.7594522487532787">
    <tag k="addr:postcode" v="HG3 5JY"/>
    <tag k="removemelater" v="yes"/>
  </node>
  <node id="-758" lat="54.086725892220564" lon="-1.758185569784486">
    <tag k="addr:postcode" v="HG3 5LA"/>
    <tag k="removemelater" v="yes"/>
  </node>
  <node id="-759" lat="54.08686177669491" lon="-1.7587198279813507">
    <tag k="addr:postcode" v="HG3 5LB"/>
    <tag k="removemelater" v="yes"/>
  </node>
  <node id="-760" lat="54.0877173866895" lon="-1.759616825227136">
    <tag k="addr:postcode" v="HG3 5LE"/>
    <tag k="removemelater" v="yes"/>
  </node>
  <node id="-761" lat="54.08833522652931" lon="-1.7584666873496881">
    <tag k="addr:postcode" v="HG3 5LG"/>
    <tag k="removemelater" v="yes"/>
  </node>
  <node id="-762" lat="54.089217739458334" lon="-1.7593329797152624">
    <tag k="addr:postcode" v="HG3 5LN"/>
    <tag k="removemelater" v="yes"/>
  </node>
  <node id="-763" lat="54.08927309743881" lon="-1.7600511935420773">
    <tag k="addr:postcode" v="HG3 5LP"/>
    <tag k="removemelater" v="yes"/>
  </node>
  <node id="-764" lat="54.08808336365156" lon="-1.7583611358522984">
    <tag k="addr:postcode" v="HG3 5LQ"/>
    <tag k="removemelater" v="yes"/>
  </node>
  <node id="-765" lat="54.08791972485566" lon="-1.7619393503331477">
    <tag k="addr:postcode" v="HG3 5LR"/>
    <tag k="removemelater" v="yes"/>
  </node>
  <node id="-766" lat="54.0886540591822" lon="-1.7606051193814731">
    <tag k="addr:postcode" v="HG3 5LS"/>
    <tag k="removemelater" v="yes"/>
  </node>
  <node id="-767" lat="54.08826595593285" lon="-1.7597818214212098">
    <tag k="addr:postcode" v="HG3 5LT"/>
    <tag k="removemelater" v="yes"/>
  </node>
  <node id="-768" lat="54.086678987053446" lon="-1.7572074741291854">
    <tag k="addr:postcode" v="HG3 5LU"/>
    <tag k="removemelater" v="yes"/>
  </node>
  <node id="-769" lat="54.08684981002207" lon="-1.7572370521449039">
    <tag k="addr:postcode" v="HG3 5LX"/>
    <tag k="removemelater" v="yes"/>
  </node>
  <node id="-770" lat="54.08514502224344" lon="-1.7586533436992486">
    <tag k="addr:postcode" v="HG3 5NA"/>
    <tag k="removemelater" v="yes"/>
  </node>
  <node id="-771" lat="54.094653194111565" lon="-1.7495312862587764">
    <tag k="addr:postcode" v="HG3 5NE"/>
    <tag k="removemelater" v="yes"/>
  </node>
  <node id="-772" lat="54.08608745556815" lon="-1.736604333841867">
    <tag k="addr:postcode" v="HG3 5NG"/>
    <tag k="removemelater" v="yes"/>
  </node>
  <node id="-773" lat="54.08477226117295" lon="-1.7565307085056614">
    <tag k="addr:postcode" v="HG3 5NN"/>
    <tag k="removemelater" v="yes"/>
  </node>
  <node id="-774" lat="54.0822864298796" lon="-1.7410764276439845">
    <tag k="addr:postcode" v="HG3 5NQ"/>
    <tag k="removemelater" v="yes"/>
  </node>
  <node id="-775" lat="54.08639083406316" lon="-1.756933990282877">
    <tag k="addr:postcode" v="HG3 5NR"/>
    <tag k="removemelater" v="yes"/>
  </node>
  <node id="-776" lat="54.08639880251883" lon="-1.7564294761172534">
    <tag k="addr:postcode" v="HG3 5NS"/>
    <tag k="removemelater" v="yes"/>
  </node>
  <node id="-777" lat="54.084943300562614" lon="-1.7566672856900873">
    <tag k="addr:postcode" v="HG3 5NW"/>
    <tag k="removemelater" v="yes"/>
  </node>
  <node id="-778" lat="54.08431651450138" lon="-1.7533997158422197">
    <tag k="addr:postcode" v="HG3 5NX"/>
    <tag k="removemelater" v="yes"/>
  </node>
  <node id="-779" lat="54.105924177727566" lon="-1.7773139531844646">
    <tag k="addr:postcode" v="HG3 5PP"/>
    <tag k="removemelater" v="yes"/>
  </node>
  <node id="-780" lat="54.081167739201156" lon="-1.7518745791964516">
    <tag k="addr:postcode" v="HG3 5QE"/>
    <tag k="removemelater" v="yes"/>
  </node>
  <node id="-781" lat="54.077107650698956" lon="-1.7486433844964495">
    <tag k="addr:postcode" v="HG3 5QF"/>
    <tag k="removemelater" v="yes"/>
  </node>
  <node id="-782" lat="54.073988849259464" lon="-1.7401193747677208">
    <tag k="addr:postcode" v="HG3 5QG"/>
    <tag k="removemelater" v="yes"/>
  </node>
  <node id="-783" lat="54.07507741378715" lon="-1.736475289396112">
    <tag k="addr:postcode" v="HG3 5QJ"/>
    <tag k="removemelater" v="yes"/>
  </node>
  <node id="-784" lat="54.07681449270693" lon="-1.737610552120767">
    <tag k="addr:postcode" v="HG3 5QS"/>
    <tag k="removemelater" v="yes"/>
  </node>
  <node id="-785" lat="54.07700239592035" lon="-1.7372272819813157">
    <tag k="addr:postcode" v="HG3 5QT"/>
    <tag k="removemelater" v="yes"/>
  </node>
  <node id="-786" lat="54.08532855474991" lon="-1.7560688605983543">
    <tag k="addr:postcode" v="HG3 5RE"/>
    <tag k="removemelater" v="yes"/>
  </node>
  <node id="-787" lat="54.15074552300438" lon="-1.8334932467722291">
    <tag k="addr:postcode" v="HG3 5RG"/>
    <tag k="removemelater" v="yes"/>
  </node>
  <node id="-788" lat="54.14444060533104" lon="-1.823843690188938">
    <tag k="addr:postcode" v="HG3 5RH"/>
    <tag k="removemelater" v="yes"/>
  </node>
  <node id="-789" lat="54.190280796429086" lon="-1.8540696198307982">
    <tag k="addr:postcode" v="HG3 5SP"/>
    <tag k="removemelater" v="yes"/>
  </node>
  <node id="-790" lat="54.168375511428444" lon="-1.8590939969978586">
    <tag k="addr:postcode" v="HG3 5SU"/>
    <tag k="removemelater" v="yes"/>
  </node>
  <node id="-791" lat="54.16074458424839" lon="-1.8585685597285588">
    <tag k="addr:postcode" v="HG3 5SX"/>
    <tag k="removemelater" v="yes"/>
  </node>
  <node id="-792" lat="54.08627951818565" lon="-1.759686273834822">
    <tag k="addr:postcode" v="HG3 5WG"/>
    <tag k="removemelater" v="yes"/>
  </node>
  <node id="-793" lat="54.08627951818565" lon="-1.759686273834822">
    <tag k="addr:postcode" v="HG3 5WH"/>
    <tag k="removemelater" v="yes"/>
  </node>
  <node id="-794" lat="54.137459087186635" lon="-1.5228094697653263">
    <tag k="addr:postcode" v="HG4 1AA"/>
    <tag k="removemelater" v="yes"/>
  </node>
  <node id="-795" lat="54.12954703542553" lon="-1.5064497217589057">
    <tag k="addr:postcode" v="HG4 1AB"/>
    <tag k="removemelater" v="yes"/>
  </node>
  <node id="-796" lat="54.141971595764886" lon="-1.523002539886685">
    <tag k="addr:postcode" v="HG4 1AD"/>
    <tag k="removemelater" v="yes"/>
  </node>
  <node id="-797" lat="54.12925371819083" lon="-1.5072489519254684">
    <tag k="addr:postcode" v="HG4 1AJ"/>
    <tag k="removemelater" v="yes"/>
  </node>
  <node id="-798" lat="54.13731304851613" lon="-1.5222448342810724">
    <tag k="addr:postcode" v="HG4 1AL"/>
    <tag k="removemelater" v="yes"/>
  </node>
  <node id="-799" lat="54.13031070912266" lon="-1.5265337338690366">
    <tag k="addr:postcode" v="HG4 1AW"/>
    <tag k="removemelater" v="yes"/>
  </node>
  <node id="-800" lat="54.13641334328783" lon="-1.5242754994995156">
    <tag k="addr:postcode" v="HG4 1BN"/>
    <tag k="removemelater" v="yes"/>
  </node>
  <node id="-801" lat="54.13648021707077" lon="-1.5230043807629732">
    <tag k="addr:postcode" v="HG4 1BP"/>
    <tag k="removemelater" v="yes"/>
  </node>
  <node id="-802" lat="54.13584431090774" lon="-1.5235626710306096">
    <tag k="addr:postcode" v="HG4 1BZ"/>
    <tag k="removemelater" v="yes"/>
  </node>
  <node id="-803" lat="54.135862769364856" lon="-1.5236849011421656">
    <tag k="addr:postcode" v="HG4 1DB"/>
    <tag k="removemelater" v="yes"/>
  </node>
  <node id="-804" lat="54.13577344256595" lon="-1.5238236721931737">
    <tag k="addr:postcode" v="HG4 1DD"/>
    <tag k="removemelater" v="yes"/>
  </node>
  <node id="-805" lat="54.1399287624833" lon="-1.5246025950577367">
    <tag k="addr:postcode" v="HG4 1DF"/>
    <tag k="removemelater" v="yes"/>
  </node>
  <node id="-806" lat="54.13591802305099" lon="-1.524020983022199">
    <tag k="addr:postcode" v="HG4 1DG"/>
    <tag k="removemelater" v="yes"/>
  </node>
  <node id="-807" lat="54.13592737298889" lon="-1.524112707394027">
    <tag k="addr:postcode" v="HG4 1DH"/>
    <tag k="removemelater" v="yes"/>
  </node>
  <node id="-808" lat="54.13817464026715" lon="-1.5242094083035151">
    <tag k="addr:postcode" v="HG4 1DT"/>
    <tag k="removemelater" v="yes"/>
  </node>
  <node id="-809" lat="54.13709109971196" lon="-1.522936142835498">
    <tag k="addr:postcode" v="HG4 1EG"/>
    <tag k="removemelater" v="yes"/>
  </node>
  <node id="-810" lat="54.139183555244536" lon="-1.524794802268618">
    <tag k="addr:postcode" v="HG4 1EP"/>
    <tag k="removemelater" v="yes"/>
  </node>
  <node id="-811" lat="54.14114677905534" lon="-1.523517150223086">
    <tag k="addr:postcode" v="HG4 1ES"/>
    <tag k="removemelater" v="yes"/>
  </node>
  <node id="-812" lat="54.14183993778749" lon="-1.5238000385735784">
    <tag k="addr:postcode" v="HG4 1ET"/>
    <tag k="removemelater" v="yes"/>
  </node>
  <node id="-813" lat="54.13905737309848" lon="-1.5247044075452498">
    <tag k="addr:postcode" v="HG4 1EW"/>
    <tag k="removemelater" v="yes"/>
  </node>
  <node id="-814" lat="54.13952951959149" lon="-1.5236428503846013">
    <tag k="addr:postcode" v="HG4 1HJ"/>
    <tag k="removemelater" v="yes"/>
  </node>
  <node id="-815" lat="54.139045606047866" lon="-1.5240004477433398">
    <tag k="addr:postcode" v="HG4 1HL"/>
    <tag k="removemelater" v="yes"/>
  </node>
  <node id="-816" lat="54.14094572958455" lon="-1.5226775662163432">
    <tag k="addr:postcode" v="HG4 1HN"/>
    <tag k="removemelater" v="yes"/>
  </node>
  <node id="-817" lat="54.14066734009093" lon="-1.5159762985516878">
    <tag k="addr:postcode" v="HG4 1HU"/>
    <tag k="removemelater" v="yes"/>
  </node>
  <node id="-818" lat="54.137459087186635" lon="-1.5228094697653263">
    <tag k="addr:postcode" v="HG4 1JE"/>
    <tag k="removemelater" v="yes"/>
  </node>
  <node id="-819" lat="54.137629600166115" lon="-1.5227462872770443">
    <tag k="addr:postcode" v="HG4 1LA"/>
    <tag k="removemelater" v="yes"/>
  </node>
  <node id="-820" lat="54.138164882514715" lon="-1.5217452416027224">
    <tag k="addr:postcode" v="HG4 1LE"/>
    <tag k="removemelater" v="yes"/>
  </node>
  <node id="-821" lat="54.13776269212759" lon="-1.5200509142832923">
    <tag k="addr:postcode" v="HG4 1LQ"/>
    <tag k="removemelater" v="yes"/>
  </node>
  <node id="-822" lat="54.13386457144774" lon="-1.5139435449712288">
    <tag k="addr:postcode" v="HG4 1NP"/>
    <tag k="removemelater" v="yes"/>
  </node>
  <node id="-823" lat="54.133478310268565" lon="-1.513993977488169">
    <tag k="addr:postcode" v="HG4 1NX"/>
    <tag k="removemelater" v="yes"/>
  </node>
  <node id="-824" lat="54.136531289404545" lon="-1.5222844369282633">
    <tag k="addr:postcode" v="HG4 1NZ"/>
    <tag k="removemelater" v="yes"/>
  </node>
  <node id="-825" lat="54.130808266320564" lon="-1.5250742441349998">
    <tag k="addr:postcode" v="HG4 1PG"/>
    <tag k="removemelater" v="yes"/>
  </node>
  <node id="-826" lat="54.13196634040566" lon="-1.5247396258241883">
    <tag k="addr:postcode" v="HG4 1PX"/>
    <tag k="removemelater" v="yes"/>
  </node>
  <node id="-827" lat="54.1311396746196" lon="-1.5225147733352105">
    <tag k="addr:postcode" v="HG4 1PY"/>
    <tag k="removemelater" v="yes"/>
  </node>
  <node id="-828" lat="54.131209751049816" lon="-1.5220548625227284">
    <tag k="addr:postcode" v="HG4 1PZ"/>
    <tag k="removemelater" v="yes"/>
  </node>
  <node id="-829" lat="54.13101900374527" lon="-1.5238169528669525">
    <tag k="addr:postcode" v="HG4 1QA"/>
    <tag k="removemelater" v="yes"/>
  </node>
  <node id="-830" lat="54.13503977460349" lon="-1.5201282902886555">
    <tag k="addr:postcode" v="HG4 1QT"/>
    <tag k="removemelater" v="yes"/>
  </node>
  <node id="-831" lat="54.12864253059359" lon="-1.5183505669496304">
    <tag k="addr:postcode" v="HG4 1QY"/>
    <tag k="removemelater" v="yes"/>
  </node>
  <node id="-832" lat="54.12921868737318" lon="-1.5253831669100901">
    <tag k="addr:postcode" v="HG4 1RX"/>
    <tag k="removemelater" v="yes"/>
  </node>
  <node id="-833" lat="54.12859560658504" lon="-1.5269205391043514">
    <tag k="addr:postcode" v="HG4 1RY"/>
    <tag k="removemelater" v="yes"/>
  </node>
  <node id="-834" lat="54.12772265590513" lon="-1.5243444018330738">
    <tag k="addr:postcode" v="HG4 1SA"/>
    <tag k="removemelater" v="yes"/>
  </node>
  <node id="-835" lat="54.12794533950327" lon="-1.5238368764194914">
    <tag k="addr:postcode" v="HG4 1SB"/>
    <tag k="removemelater" v="yes"/>
  </node>
  <node id="-836" lat="54.137459087186635" lon="-1.5228094697653263">
    <tag k="addr:postcode" v="HG4 1SL"/>
    <tag k="removemelater" v="yes"/>
  </node>
  <node id="-837" lat="54.129191040906385" lon="-1.527495264585608">
    <tag k="addr:postcode" v="HG4 1ST"/>
    <tag k="removemelater" v="yes"/>
  </node>
  <node id="-838" lat="54.12754320818065" lon="-1.5267029887780825">
    <tag k="addr:postcode" v="HG4 1SX"/>
    <tag k="removemelater" v="yes"/>
  </node>
  <node id="-839" lat="54.12541470959107" lon="-1.524814560172811">
    <tag k="addr:postcode" v="HG4 1TE"/>
    <tag k="removemelater" v="yes"/>
  </node>
  <node id="-840" lat="54.12829957140448" lon="-1.527061631631057">
    <tag k="addr:postcode" v="HG4 1TG"/>
    <tag k="removemelater" v="yes"/>
  </node>
  <node id="-841" lat="54.12623416961373" lon="-1.5252183345483326">
    <tag k="addr:postcode" v="HG4 1TH"/>
    <tag k="removemelater" v="yes"/>
  </node>
  <node id="-842" lat="54.125625695079414" lon="-1.525898550733703">
    <tag k="addr:postcode" v="HG4 1TJ"/>
    <tag k="removemelater" v="yes"/>
  </node>
  <node id="-843" lat="54.12871163086025" lon="-1.5154116672705384">
    <tag k="addr:postcode" v="HG4 1TN"/>
    <tag k="removemelater" v="yes"/>
  </node>
  <node id="-844" lat="54.12924271572655" lon="-1.5133855042090407">
    <tag k="addr:postcode" v="HG4 1TT"/>
    <tag k="removemelater" v="yes"/>
  </node>
  <node id="-845" lat="54.130928450723694" lon="-1.5079942598324252">
    <tag k="addr:postcode" v="HG4 1UE"/>
    <tag k="removemelater" v="yes"/>
  </node>
  <node id="-846" lat="54.12443374102018" lon="-1.504414213414089">
    <tag k="addr:postcode" v="HG4 1UG"/>
    <tag k="removemelater" v="yes"/>
  </node>
  <node id="-847" lat="54.13136395381402" lon="-1.5089991385691648">
    <tag k="addr:postcode" v="HG4 1UH"/>
    <tag k="removemelater" v="yes"/>
  </node>
  <node id="-848" lat="54.137459087186635" lon="-1.5228094697653263">
    <tag k="addr:postcode" v="HG4 1UY"/>
    <tag k="removemelater" v="yes"/>
  </node>
  <node id="-849" lat="54.137459087186635" lon="-1.5228094697653263">
    <tag k="addr:postcode" v="HG4 1UZ"/>
    <tag k="removemelater" v="yes"/>
  </node>
  <node id="-850" lat="54.137459087186635" lon="-1.5228094697653263">
    <tag k="addr:postcode" v="HG4 1WE"/>
    <tag k="removemelater" v="yes"/>
  </node>
  <node id="-851" lat="54.137459087186635" lon="-1.5228094697653263">
    <tag k="addr:postcode" v="HG4 1XT"/>
    <tag k="removemelater" v="yes"/>
  </node>
  <node id="-852" lat="54.137459087186635" lon="-1.5228094697653263">
    <tag k="addr:postcode" v="HG4 1XY"/>
    <tag k="removemelater" v="yes"/>
  </node>
  <node id="-853" lat="54.138943316169" lon="-1.5254098054687513">
    <tag k="addr:postcode" v="HG4 2AB"/>
    <tag k="removemelater" v="yes"/>
  </node>
  <node id="-854" lat="54.13776195217712" lon="-1.526678389946017">
    <tag k="addr:postcode" v="HG4 2AH"/>
    <tag k="removemelater" v="yes"/>
  </node>
  <node id="-855" lat="54.13743087080391" lon="-1.5270495020572965">
    <tag k="addr:postcode" v="HG4 2AJ"/>
    <tag k="removemelater" v="yes"/>
  </node>
  <node id="-856" lat="54.13824713726184" lon="-1.5266422487101292">
    <tag k="addr:postcode" v="HG4 2AL"/>
    <tag k="removemelater" v="yes"/>
  </node>
  <node id="-857" lat="54.13688211450984" lon="-1.5269179999262008">
    <tag k="addr:postcode" v="HG4 2AN"/>
    <tag k="removemelater" v="yes"/>
  </node>
  <node id="-858" lat="54.13719954718835" lon="-1.5276490590180336">
    <tag k="addr:postcode" v="HG4 2AW"/>
    <tag k="removemelater" v="yes"/>
  </node>
  <node id="-859" lat="54.13645061164021" lon="-1.5268923035319224">
    <tag k="addr:postcode" v="HG4 2AX"/>
    <tag k="removemelater" v="yes"/>
  </node>
  <node id="-860" lat="54.13724902375595" lon="-1.5265158718380014">
    <tag k="addr:postcode" v="HG4 2AZ"/>
    <tag k="removemelater" v="yes"/>
  </node>
  <node id="-861" lat="54.13598328744219" lon="-1.5291934166466228">
    <tag k="addr:postcode" v="HG4 2BD"/>
    <tag k="removemelater" v="yes"/>
  </node>
  <node id="-862" lat="54.13992953492184" lon="-1.5270822758633384">
    <tag k="addr:postcode" v="HG4 2BP"/>
    <tag k="removemelater" v="yes"/>
  </node>
  <node id="-863" lat="54.13583677937994" lon="-1.5262105600970812">
    <tag k="addr:postcode" v="HG4 2BS"/>
    <tag k="removemelater" v="yes"/>
  </node>
  <node id="-864" lat="54.137038887531176" lon="-1.5256458445842676">
    <tag k="addr:postcode" v="HG4 2BT"/>
    <tag k="removemelater" v="yes"/>
  </node>
  <node id="-865" lat="54.1368294289222" lon="-1.5388263399075408">
    <tag k="addr:postcode" v="HG4 2DF"/>
    <tag k="removemelater" v="yes"/>
  </node>
  <node id="-866" lat="54.13957185738288" lon="-1.5391479409915867">
    <tag k="addr:postcode" v="HG4 2DG"/>
    <tag k="removemelater" v="yes"/>
  </node>
  <node id="-867" lat="54.13734681888245" lon="-1.5285351190445997">
    <tag k="addr:postcode" v="HG4 2ES"/>
    <tag k="removemelater" v="yes"/>
  </node>
  <node id="-868" lat="54.138342413478625" lon="-1.5280187154765286">
    <tag k="addr:postcode" v="HG4 2ET"/>
    <tag k="removemelater" v="yes"/>
  </node>
  <node id="-869" lat="54.140089319400836" lon="-1.5265753325469222">
    <tag k="addr:postcode" v="HG4 2HQ"/>
    <tag k="removemelater" v="yes"/>
  </node>
  <node id="-870" lat="54.13952687670979" lon="-1.5252500714604278">
    <tag k="addr:postcode" v="HG4 2HY"/>
    <tag k="removemelater" v="yes"/>
  </node>
  <node id="-871" lat="54.13983207724282" lon="-1.5251547426318164">
    <tag k="addr:postcode" v="HG4 2HZ"/>
    <tag k="removemelater" v="yes"/>
  </node>
  <node id="-872" lat="54.14005717780666" lon="-1.5252593164301853">
    <tag k="addr:postcode" v="HG4 2JA"/>
    <tag k="removemelater" v="yes"/>
  </node>
  <node id="-873" lat="54.14097814135208" lon="-1.5240548340159232">
    <tag k="addr:postcode" v="HG4 2JD"/>
    <tag k="removemelater" v="yes"/>
  </node>
  <node id="-874" lat="54.135436206510946" lon="-1.5271946533817087">
    <tag k="addr:postcode" v="HG4 2PR"/>
    <tag k="removemelater" v="yes"/>
  </node>
  <node id="-875" lat="54.143764371253255" lon="-1.540280141496042">
    <tag k="addr:postcode" v="HG4 2RA"/>
    <tag k="removemelater" v="yes"/>
  </node>
  <node id="-876" lat="54.14375545866547" lon="-1.5309728967876097">
    <tag k="addr:postcode" v="HG4 2RN"/>
    <tag k="removemelater" v="yes"/>
  </node>
  <node id="-877" lat="54.12091008499409" lon="-1.5266255319275082">
    <tag k="addr:postcode" v="HG4 2SD"/>
    <tag k="removemelater" v="yes"/>
  </node>
  <node id="-878" lat="54.142043726948785" lon="-1.5299207038714924">
    <tag k="addr:postcode" v="HG4 2TF"/>
    <tag k="removemelater" v="yes"/>
  </node>
  <node id="-879" lat="54.14201383656973" lon="-1.529170975082709">
    <tag k="addr:postcode" v="HG4 2TG"/>
    <tag k="removemelater" v="yes"/>
  </node>
  <node id="-880" lat="54.13785400263558" lon="-1.5654166936344862">
    <tag k="addr:postcode" v="HG4 3AJ"/>
    <tag k="removemelater" v="yes"/>
  </node>
  <node id="-881" lat="54.143896424343396" lon="-1.5866471095372368">
    <tag k="addr:postcode" v="HG4 3AL"/>
    <tag k="removemelater" v="yes"/>
  </node>
  <node id="-882" lat="54.12413629493424" lon="-1.5597152168926953">
    <tag k="addr:postcode" v="HG4 3AZ"/>
    <tag k="removemelater" v="yes"/>
  </node>
  <node id="-883" lat="54.1824833934347" lon="-1.6502948263435142">
    <tag k="addr:postcode" v="HG4 3BH"/>
    <tag k="removemelater" v="yes"/>
  </node>
  <node id="-884" lat="54.17773382745046" lon="-1.6249792494837592">
    <tag k="addr:postcode" v="HG4 3DS"/>
    <tag k="removemelater" v="yes"/>
  </node>
  <node id="-885" lat="54.119395663546676" lon="-1.5786445603911754">
    <tag k="addr:postcode" v="HG4 3DY"/>
    <tag k="removemelater" v="yes"/>
  </node>
  <node id="-886" lat="54.11118454960942" lon="-1.58483091761147">
    <tag k="addr:postcode" v="HG4 3DZ"/>
    <tag k="removemelater" v="yes"/>
  </node>
  <node id="-887" lat="54.107341668085866" lon="-1.5885553020412055">
    <tag k="addr:postcode" v="HG4 3EA"/>
    <tag k="removemelater" v="yes"/>
  </node>
  <node id="-888" lat="54.11880532585408" lon="-1.6316000079411928">
    <tag k="addr:postcode" v="HG4 3ET"/>
    <tag k="removemelater" v="yes"/>
  </node>
  <node id="-889" lat="54.15550962064964" lon="-1.5282829081446943">
    <tag k="addr:postcode" v="HG4 3HJ"/>
    <tag k="removemelater" v="yes"/>
  </node>
  <node id="-890" lat="54.19976408381113" lon="-1.5716503758608658">
    <tag k="addr:postcode" v="HG4 3HQ"/>
    <tag k="removemelater" v="yes"/>
  </node>
  <node id="-891" lat="54.18626427813903" lon="-1.5948521674113558">
    <tag k="addr:postcode" v="HG4 3JD"/>
    <tag k="removemelater" v="yes"/>
  </node>
  <node id="-892" lat="54.1656207666825" lon="-1.605897583234568">
    <tag k="addr:postcode" v="HG4 3JJ"/>
    <tag k="removemelater" v="yes"/>
  </node>
  <node id="-893" lat="54.099077620071554" lon="-1.5126986409142509">
    <tag k="addr:postcode" v="HG4 3LX"/>
    <tag k="removemelater" v="yes"/>
  </node>
  <node id="-894" lat="54.120795321361015" lon="-1.6904246130278424">
    <tag k="addr:postcode" v="HG4 3PS"/>
    <tag k="removemelater" v="yes"/>
  </node>
  <node id="-895" lat="54.172687054102546" lon="-1.7076541280730118">
    <tag k="addr:postcode" v="HG4 3QJ"/>
    <tag k="removemelater" v="yes"/>
  </node>
  <node id="-896" lat="54.170484135743195" lon="-1.6927959604073548">
    <tag k="addr:postcode" v="HG4 3QQ"/>
    <tag k="removemelater" v="yes"/>
  </node>
  <node id="-897" lat="54.16759630975237" lon="-1.645886498913157">
    <tag k="addr:postcode" v="HG4 3RJ"/>
    <tag k="removemelater" v="yes"/>
  </node>
  <node id="-898" lat="54.16613673609304" lon="-1.6416256981176407">
    <tag k="addr:postcode" v="HG4 3RT"/>
    <tag k="removemelater" v="yes"/>
  </node>
  <node id="-899" lat="54.164268241489154" lon="-1.6449653257847932">
    <tag k="addr:postcode" v="HG4 3RZ"/>
    <tag k="removemelater" v="yes"/>
  </node>
  <node id="-900" lat="54.265324707409114" lon="-1.6396918452029157">
    <tag k="addr:postcode" v="HG4 4AH"/>
    <tag k="removemelater" v="yes"/>
  </node>
  <node id="-901" lat="54.26500661410257" lon="-1.6415216187509074">
    <tag k="addr:postcode" v="HG4 4AJ"/>
    <tag k="removemelater" v="yes"/>
  </node>
  <node id="-902" lat="54.2638120329145" lon="-1.6387531702583722">
    <tag k="addr:postcode" v="HG4 4AL"/>
    <tag k="removemelater" v="yes"/>
  </node>
  <node id="-903" lat="54.26346937440639" lon="-1.6383723541317712">
    <tag k="addr:postcode" v="HG4 4AN"/>
    <tag k="removemelater" v="yes"/>
  </node>
  <node id="-904" lat="54.266416444028295" lon="-1.6411255585781244">
    <tag k="addr:postcode" v="HG4 4AP"/>
    <tag k="removemelater" v="yes"/>
  </node>
  <node id="-905" lat="54.267121663414855" lon="-1.6395226482592622">
    <tag k="addr:postcode" v="HG4 4AR"/>
    <tag k="removemelater" v="yes"/>
  </node>
  <node id="-906" lat="54.2695494557439" lon="-1.6399314096154605">
    <tag k="addr:postcode" v="HG4 4AS"/>
    <tag k="removemelater" v="yes"/>
  </node>
  <node id="-907" lat="54.268555031221965" lon="-1.656430556594921">
    <tag k="addr:postcode" v="HG4 4AT"/>
    <tag k="removemelater" v="yes"/>
  </node>
  <node id="-908" lat="54.2636459365799" lon="-1.637311490878136">
    <tag k="addr:postcode" v="HG4 4AW"/>
    <tag k="removemelater" v="yes"/>
  </node>
  <node id="-909" lat="54.27459952893127" lon="-1.713445069385484">
    <tag k="addr:postcode" v="HG4 4AZ"/>
    <tag k="removemelater" v="yes"/>
  </node>
  <node id="-910" lat="54.27932753482656" lon="-1.7253456472341804">
    <tag k="addr:postcode" v="HG4 4BA"/>
    <tag k="removemelater" v="yes"/>
  </node>
  <node id="-911" lat="54.27896749587487" lon="-1.7290800588905948">
    <tag k="addr:postcode" v="HG4 4BB"/>
    <tag k="removemelater" v="yes"/>
  </node>
  <node id="-912" lat="54.27993548068148" lon="-1.7279064713999817">
    <tag k="addr:postcode" v="HG4 4BD"/>
    <tag k="removemelater" v="yes"/>
  </node>
  <node id="-913" lat="54.2807286974583" lon="-1.728945645556341">
    <tag k="addr:postcode" v="HG4 4BE"/>
    <tag k="removemelater" v="yes"/>
  </node>
  <node id="-914" lat="54.28093936758354" lon="-1.726717232582049">
    <tag k="addr:postcode" v="HG4 4BG"/>
    <tag k="removemelater" v="yes"/>
  </node>
  <node id="-915" lat="54.22226014611043" lon="-1.656032525431249">
    <tag k="addr:postcode" v="HG4 4DY"/>
    <tag k="removemelater" v="yes"/>
  </node>
  <node id="-916" lat="54.22188268560725" lon="-1.6560356603114648">
    <tag k="addr:postcode" v="HG4 4DZ"/>
    <tag k="removemelater" v="yes"/>
  </node>
  <node id="-917" lat="54.221099927932066" lon="-1.6557354279368097">
    <tag k="addr:postcode" v="HG4 4EF"/>
    <tag k="removemelater" v="yes"/>
  </node>
  <node id="-918" lat="54.22195195503941" lon="-1.6551148667858802">
    <tag k="addr:postcode" v="HG4 4EG"/>
    <tag k="removemelater" v="yes"/>
  </node>
  <node id="-919" lat="54.224620711069306" lon="-1.6580988812772457">
    <tag k="addr:postcode" v="HG4 4EN"/>
    <tag k="removemelater" v="yes"/>
  </node>
  <node id="-920" lat="54.224442965874495" lon="-1.6588058917955577">
    <tag k="addr:postcode" v="HG4 4EP"/>
    <tag k="removemelater" v="yes"/>
  </node>
  <node id="-921" lat="54.22109391819724" lon="-1.6599530570421932">
    <tag k="addr:postcode" v="HG4 4HH"/>
    <tag k="removemelater" v="yes"/>
  </node>
  <node id="-922" lat="54.217182485583784" lon="-1.7512141542120845">
    <tag k="addr:postcode" v="HG4 4LP"/>
    <tag k="removemelater" v="yes"/>
  </node>
  <node id="-923" lat="54.20753185541401" lon="-1.7520846551498401">
    <tag k="addr:postcode" v="HG4 4LS"/>
    <tag k="removemelater" v="yes"/>
  </node>
  <node id="-924" lat="54.21786605237307" lon="-1.7558720157211503">
    <tag k="addr:postcode" v="HG4 4LW"/>
    <tag k="removemelater" v="yes"/>
  </node>
  <node id="-925" lat="54.26639353896248" lon="-1.741015280819786">
    <tag k="addr:postcode" v="HG4 4PH"/>
    <tag k="removemelater" v="yes"/>
  </node>
  <node id="-926" lat="54.2219111008717" lon="-1.6597162933486809">
    <tag k="addr:postcode" v="HG4 4YD"/>
    <tag k="removemelater" v="yes"/>
  </node>
  <node id="-927" lat="54.102714637228374" lon="-1.469468472335045">
    <tag k="addr:postcode" v="HG4 5AE"/>
    <tag k="removemelater" v="yes"/>
  </node>
  <node id="-928" lat="54.20680495126146" lon="-1.5908338275689757">
    <tag k="addr:postcode" v="HG4 5JP"/>
    <tag k="removemelater" v="yes"/>
  </node>
  <node id="-929" lat="54.20608322235209" lon="-1.590028404785666">
    <tag k="addr:postcode" v="HG4 5JW"/>
    <tag k="removemelater" v="yes"/>
  </node>
  <node id="-930" lat="54.20287666820705" lon="-1.5959314954169705">
    <tag k="addr:postcode" v="HG4 5LA"/>
    <tag k="removemelater" v="yes"/>
  </node>
  <node id="-931" lat="54.19151254944156" lon="-1.4862791117148662">
    <tag k="addr:postcode" v="HG4 5PG"/>
    <tag k="removemelater" v="yes"/>
  </node>
  <node id="-932" lat="54.137459087186635" lon="-1.5228094697653263">
    <tag k="addr:postcode" v="HG4 5WW"/>
    <tag k="removemelater" v="yes"/>
  </node>
  <node id="-933" lat="54.137459087186635" lon="-1.5228094697653263">
    <tag k="addr:postcode" v="HG4 9AD"/>
    <tag k="removemelater" v="yes"/>
  </node>
  <node id="-934" lat="54.137459087186635" lon="-1.5228094697653263">
    <tag k="addr:postcode" v="HG4 9AU"/>
    <tag k="removemelater" v="yes"/>
  </node>
  <node id="-935" lat="54.137459087186635" lon="-1.5228094697653263">
    <tag k="addr:postcode" v="HG4 9AW"/>
    <tag k="removemelater" v="yes"/>
  </node>
  <node id="-936" lat="54.137459087186635" lon="-1.5228094697653263">
    <tag k="addr:postcode" v="HG4 9AZ"/>
    <tag k="removemelater" v="yes"/>
  </node>
  <node id="-937" lat="54.137459087186635" lon="-1.5228094697653263">
    <tag k="addr:postcode" v="HG4 9BD"/>
    <tag k="removemelater" v="yes"/>
  </node>
  <node id="-938" lat="54.137459087186635" lon="-1.5228094697653263">
    <tag k="addr:postcode" v="HG4 9BJ"/>
    <tag k="removemelater" v="yes"/>
  </node>
  <node id="-939" lat="54.137459087186635" lon="-1.5228094697653263">
    <tag k="addr:postcode" v="HG4 9BR"/>
    <tag k="removemelater" v="yes"/>
  </node>
  <node id="-940" lat="54.00864262022888" lon="-1.4638598298524579">
    <tag k="addr:postcode" v="HG5 0BJ"/>
    <tag k="removemelater" v="yes"/>
  </node>
  <node id="-941" lat="54.00883645973305" lon="-1.462987598032515">
    <tag k="addr:postcode" v="HG5 0BP"/>
    <tag k="removemelater" v="yes"/>
  </node>
  <node id="-942" lat="54.00854532430325" lon="-1.4642120257045157">
    <tag k="addr:postcode" v="HG5 0BT"/>
    <tag k="removemelater" v="yes"/>
  </node>
  <node id="-943" lat="54.00903219826334" lon="-1.46455672452103">
    <tag k="addr:postcode" v="HG5 0BU"/>
    <tag k="removemelater" v="yes"/>
  </node>
  <node id="-944" lat="54.00929970899865" lon="-1.4640802695425836">
    <tag k="addr:postcode" v="HG5 0BX"/>
    <tag k="removemelater" v="yes"/>
  </node>
  <node id="-945" lat="54.009753226522506" lon="-1.4629910591674282">
    <tag k="addr:postcode" v="HG5 0BY"/>
    <tag k="removemelater" v="yes"/>
  </node>
  <node id="-946" lat="54.00745870223274" lon="-1.4544150047818971">
    <tag k="addr:postcode" v="HG5 0DX"/>
    <tag k="removemelater" v="yes"/>
  </node>
  <node id="-947" lat="54.00767030901731" lon="-1.4535120043875882">
    <tag k="addr:postcode" v="HG5 0DY"/>
    <tag k="removemelater" v="yes"/>
  </node>
  <node id="-948" lat="54.00912824989796" lon="-1.467973446754899">
    <tag k="addr:postcode" v="HG5 0EA"/>
    <tag k="removemelater" v="yes"/>
  </node>
  <node id="-949" lat="54.01062768029844" lon="-1.4696633679370483">
    <tag k="addr:postcode" v="HG5 0EX"/>
    <tag k="removemelater" v="yes"/>
  </node>
  <node id="-950" lat="54.01078480756805" lon="-1.4545546287616637">
    <tag k="addr:postcode" v="HG5 0FB"/>
    <tag k="removemelater" v="yes"/>
  </node>
  <node id="-951" lat="54.011118234341566" lon="-1.454748643279693">
    <tag k="addr:postcode" v="HG5 0FD"/>
    <tag k="removemelater" v="yes"/>
  </node>
  <node id="-952" lat="54.008822615920685" lon="-1.4679620846887096">
    <tag k="addr:postcode" v="HG5 0HB"/>
    <tag k="removemelater" v="yes"/>
  </node>
  <node id="-953" lat="54.00777741855929" lon="-1.451374447769619">
    <tag k="addr:postcode" v="HG5 0HH"/>
    <tag k="removemelater" v="yes"/>
  </node>
  <node id="-954" lat="54.00764726871108" lon="-1.4523984578863596">
    <tag k="addr:postcode" v="HG5 0HJ"/>
    <tag k="removemelater" v="yes"/>
  </node>
  <node id="-955" lat="54.00999877461286" lon="-1.4697171379024692">
    <tag k="addr:postcode" v="HG5 0HL"/>
    <tag k="removemelater" v="yes"/>
  </node>
  <node id="-956" lat="54.01052861871268" lon="-1.469618849235045">
    <tag k="addr:postcode" v="HG5 0HN"/>
    <tag k="removemelater" v="yes"/>
  </node>
  <node id="-957" lat="54.010284886204104" lon="-1.4693778007951395">
    <tag k="addr:postcode" v="HG5 0HP"/>
    <tag k="removemelater" v="yes"/>
  </node>
  <node id="-958" lat="54.01001190066202" lon="-1.4686183196918177">
    <tag k="addr:postcode" v="HG5 0HR"/>
    <tag k="removemelater" v="yes"/>
  </node>
  <node id="-959" lat="54.01068843717805" lon="-1.4691742983250884">
    <tag k="addr:postcode" v="HG5 0HS"/>
    <tag k="removemelater" v="yes"/>
  </node>
  <node id="-960" lat="54.01026142211796" lon="-1.4701715743496586">
    <tag k="addr:postcode" v="HG5 0HW"/>
    <tag k="removemelater" v="yes"/>
  </node>
  <node id="-961" lat="54.01017638090988" lon="-1.4671971280804295">
    <tag k="addr:postcode" v="HG5 0JB"/>
    <tag k="removemelater" v="yes"/>
  </node>
  <node id="-962" lat="54.01039998037815" lon="-1.4669501260240088">
    <tag k="addr:postcode" v="HG5 0JD"/>
    <tag k="removemelater" v="yes"/>
  </node>
  <node id="-963" lat="54.009684528240435" lon="-1.4637091130438444">
    <tag k="addr:postcode" v="HG5 0JG"/>
    <tag k="removemelater" v="yes"/>
  </node>
  <node id="-964" lat="54.010124201490775" lon="-1.4655650716334152">
    <tag k="addr:postcode" v="HG5 0JH"/>
    <tag k="removemelater" v="yes"/>
  </node>
  <node id="-965" lat="54.009556309575835" lon="-1.4651908726362317">
    <tag k="addr:postcode" v="HG5 0JL"/>
    <tag k="removemelater" v="yes"/>
  </node>
  <node id="-966" lat="54.010485413044165" lon="-1.4639277084403635">
    <tag k="addr:postcode" v="HG5 0JN"/>
    <tag k="removemelater" v="yes"/>
  </node>
  <node id="-967" lat="54.01252569916275" lon="-1.4679911674545405">
    <tag k="addr:postcode" v="HG5 0JR"/>
    <tag k="removemelater" v="yes"/>
  </node>
  <node id="-968" lat="54.01094097264725" lon="-1.467339959212916">
    <tag k="addr:postcode" v="HG5 0JS"/>
    <tag k="removemelater" v="yes"/>
  </node>
  <node id="-969" lat="54.0109826582919" lon="-1.4686364763748092">
    <tag k="addr:postcode" v="HG5 0JT"/>
    <tag k="removemelater" v="yes"/>
  </node>
  <node id="-970" lat="54.01145479931212" lon="-1.4676843702585285">
    <tag k="addr:postcode" v="HG5 0JU"/>
    <tag k="removemelater" v="yes"/>
  </node>
  <node id="-971" lat="54.009696235218485" lon="-1.4643193200204851">
    <tag k="addr:postcode" v="HG5 0JW"/>
    <tag k="removemelater" v="yes"/>
  </node>
  <node id="-972" lat="54.011502435157404" lon="-1.4682941463006358">
    <tag k="addr:postcode" v="HG5 0JX"/>
    <tag k="removemelater" v="yes"/>
  </node>
  <node id="-973" lat="54.01199896594775" lon="-1.4667618415469148">
    <tag k="addr:postcode" v="HG5 0JY"/>
    <tag k="removemelater" v="yes"/>
  </node>
  <node id="-974" lat="54.012746124451894" lon="-1.467026973846972">
    <tag k="addr:postcode" v="HG5 0JZ"/>
    <tag k="removemelater" v="yes"/>
  </node>
  <node id="-975" lat="54.013087617047816" lon="-1.4649930084267835">
    <tag k="addr:postcode" v="HG5 0LA"/>
    <tag k="removemelater" v="yes"/>
  </node>
  <node id="-976" lat="54.01268606227672" lon="-1.4636247546501435">
    <tag k="addr:postcode" v="HG5 0LB"/>
    <tag k="removemelater" v="yes"/>
  </node>
  <node id="-977" lat="54.013669818412176" lon="-1.464542991725599">
    <tag k="addr:postcode" v="HG5 0LD"/>
    <tag k="removemelater" v="yes"/>
  </node>
  <node id="-978" lat="54.01311969081578" lon="-1.4621084214847535">
    <tag k="addr:postcode" v="HG5 0LE"/>
    <tag k="removemelater" v="yes"/>
  </node>
  <node id="-979" lat="54.01326403241678" lon="-1.4622286426090805">
    <tag k="addr:postcode" v="HG5 0LF"/>
    <tag k="removemelater" v="yes"/>
  </node>
  <node id="-980" lat="54.01406457840736" lon="-1.4623709295671143">
    <tag k="addr:postcode" v="HG5 0LG"/>
    <tag k="removemelater" v="yes"/>
  </node>
  <node id="-981" lat="54.01434434187503" lon="-1.4626267553867107">
    <tag k="addr:postcode" v="HG5 0LH"/>
    <tag k="removemelater" v="yes"/>
  </node>
  <node id="-982" lat="54.01484694260384" lon="-1.464482102008654">
    <tag k="addr:postcode" v="HG5 0LJ"/>
    <tag k="removemelater" v="yes"/>
  </node>
  <node id="-983" lat="54.01502172261923" lon="-1.4633658140207195">
    <tag k="addr:postcode" v="HG5 0LL"/>
    <tag k="removemelater" v="yes"/>
  </node>
  <node id="-984" lat="54.01414414134528" lon="-1.4661087422928258">
    <tag k="addr:postcode" v="HG5 0LN"/>
    <tag k="removemelater" v="yes"/>
  </node>
  <node id="-985" lat="54.01397845443973" lon="-1.4632113670430338">
    <tag k="addr:postcode" v="HG5 0LQ"/>
    <tag k="removemelater" v="yes"/>
  </node>
  <node id="-986" lat="54.013567264161715" lon="-1.4657346152626145">
    <tag k="addr:postcode" v="HG5 0LW"/>
    <tag k="removemelater" v="yes"/>
  </node>
  <node id="-987" lat="54.01168555026765" lon="-1.4690547959269327">
    <tag k="addr:postcode" v="HG5 0NG"/>
    <tag k="removemelater" v="yes"/>
  </node>
  <node id="-988" lat="54.01686580676698" lon="-1.4637236322471834">
    <tag k="addr:postcode" v="HG5 0NN"/>
    <tag k="removemelater" v="yes"/>
  </node>
  <node id="-989" lat="54.01900054517161" lon="-1.4627499237919928">
    <tag k="addr:postcode" v="HG5 0NP"/>
    <tag k="removemelater" v="yes"/>
  </node>
  <node id="-990" lat="54.01840561534592" lon="-1.4623607705902555">
    <tag k="addr:postcode" v="HG5 0NT"/>
    <tag k="removemelater" v="yes"/>
  </node>
  <node id="-991" lat="54.01639765414791" lon="-1.4635465134819803">
    <tag k="addr:postcode" v="HG5 0NU"/>
    <tag k="removemelater" v="yes"/>
  </node>
  <node id="-992" lat="54.0182660450253" lon="-1.463308817901787">
    <tag k="addr:postcode" v="HG5 0NW"/>
    <tag k="removemelater" v="yes"/>
  </node>
  <node id="-993" lat="54.016137786802325" lon="-1.4597040087490125">
    <tag k="addr:postcode" v="HG5 0PB"/>
    <tag k="removemelater" v="yes"/>
  </node>
  <node id="-994" lat="54.015649376996414" lon="-1.4610227900120631">
    <tag k="addr:postcode" v="HG5 0PE"/>
    <tag k="removemelater" v="yes"/>
  </node>
  <node id="-995" lat="54.01517985199616" lon="-1.4605405054553058">
    <tag k="addr:postcode" v="HG5 0PF"/>
    <tag k="removemelater" v="yes"/>
  </node>
  <node id="-996" lat="54.015487492372316" lon="-1.4630088187185766">
    <tag k="addr:postcode" v="HG5 0PG"/>
    <tag k="removemelater" v="yes"/>
  </node>
  <node id="-997" lat="54.01603101447373" lon="-1.4639632818225086">
    <tag k="addr:postcode" v="HG5 0PH"/>
    <tag k="removemelater" v="yes"/>
  </node>
  <node id="-998" lat="54.01737474277114" lon="-1.462969264342938">
    <tag k="addr:postcode" v="HG5 0PJ"/>
    <tag k="removemelater" v="yes"/>
  </node>
  <node id="-999" lat="54.01718171478062" lon="-1.4620102635923453">
    <tag k="addr:postcode" v="HG5 0PL"/>
    <tag k="removemelater" v="yes"/>
  </node>
  <node id="-1000" lat="54.01635379741846" lon="-1.461776758153954">
    <tag k="addr:postcode" v="HG5 0PN"/>
    <tag k="removemelater" v="yes"/>
  </node>
  <node id="-1001" lat="54.01587148953574" lon="-1.462454473072691">
    <tag k="addr:postcode" v="HG5 0PQ"/>
    <tag k="removemelater" v="yes"/>
  </node>
  <node id="-1002" lat="54.01399003740283" lon="-1.4577784765981263">
    <tag k="addr:postcode" v="HG5 0PT"/>
    <tag k="removemelater" v="yes"/>
  </node>
  <node id="-1003" lat="54.01513739264713" lon="-1.4590912661131084">
    <tag k="addr:postcode" v="HG5 0PW"/>
    <tag k="removemelater" v="yes"/>
  </node>
  <node id="-1004" lat="54.04095679363154" lon="-1.4370264804562913">
    <tag k="addr:postcode" v="HG5 0PZ"/>
    <tag k="removemelater" v="yes"/>
  </node>
  <node id="-1005" lat="54.040921244641936" lon="-1.4351945135069557">
    <tag k="addr:postcode" v="HG5 0QA"/>
    <tag k="removemelater" v="yes"/>
  </node>
  <node id="-1006" lat="54.039676127384745" lon="-1.4380057836666504">
    <tag k="addr:postcode" v="HG5 0QB"/>
    <tag k="removemelater" v="yes"/>
  </node>
  <node id="-1007" lat="54.0415156149532" lon="-1.4354460594544523">
    <tag k="addr:postcode" v="HG5 0QD"/>
    <tag k="removemelater" v="yes"/>
  </node>
  <node id="-1008" lat="54.0122812881559" lon="-1.4675975269111592">
    <tag k="addr:postcode" v="HG5 0QE"/>
    <tag k="removemelater" v="yes"/>
  </node>
  <node id="-1009" lat="54.042750450536914" lon="-1.40812465068737">
    <tag k="addr:postcode" v="HG5 0QH"/>
    <tag k="removemelater" v="yes"/>
  </node>
  <node id="-1010" lat="54.044158517488604" lon="-1.4093416525952636">
    <tag k="addr:postcode" v="HG5 0QS"/>
    <tag k="removemelater" v="yes"/>
  </node>
  <node id="-1011" lat="54.0437597094749" lon="-1.4086600894328811">
    <tag k="addr:postcode" v="HG5 0QT"/>
    <tag k="removemelater" v="yes"/>
  </node>
  <node id="-1012" lat="54.04322363344224" lon="-1.4093090887990463">
    <tag k="addr:postcode" v="HG5 0RE"/>
    <tag k="removemelater" v="yes"/>
  </node>
  <node id="-1013" lat="54.043175827570906" lon="-1.4123945568627851">
    <tag k="addr:postcode" v="HG5 0RF"/>
    <tag k="removemelater" v="yes"/>
  </node>
  <node id="-1014" lat="54.04374047568916" lon="-1.4157615846860847">
    <tag k="addr:postcode" v="HG5 0RG"/>
    <tag k="removemelater" v="yes"/>
  </node>
  <node id="-1015" lat="54.034268548592905" lon="-1.4253299363456386">
    <tag k="addr:postcode" v="HG5 0RH"/>
    <tag k="removemelater" v="yes"/>
  </node>
  <node id="-1016" lat="54.011395917606194" lon="-1.4034270285986372">
    <tag k="addr:postcode" v="HG5 0RP"/>
    <tag k="removemelater" v="yes"/>
  </node>
  <node id="-1017" lat="54.02050700511045" lon="-1.3975120663724019">
    <tag k="addr:postcode" v="HG5 0RU"/>
    <tag k="removemelater" v="yes"/>
  </node>
  <node id="-1018" lat="54.01700542018009" lon="-1.3701526687767094">
    <tag k="addr:postcode" v="HG5 0SE"/>
    <tag k="removemelater" v="yes"/>
  </node>
  <node id="-1019" lat="54.00830001651601" lon="-1.4636200966331128">
    <tag k="addr:postcode" v="HG5 0SQ"/>
    <tag k="removemelater" v="yes"/>
  </node>
  <node id="-1020" lat="54.00535698303436" lon="-1.448812514651769">
    <tag k="addr:postcode" v="HG5 0TA"/>
    <tag k="removemelater" v="yes"/>
  </node>
  <node id="-1021" lat="54.01420326983814" lon="-1.4592254613952864">
    <tag k="addr:postcode" v="HG5 0TG"/>
    <tag k="removemelater" v="yes"/>
  </node>
  <node id="-1022" lat="54.01010951247487" lon="-1.4642834965136955">
    <tag k="addr:postcode" v="HG5 0TN"/>
    <tag k="removemelater" v="yes"/>
  </node>
  <node id="-1023" lat="54.042690761797836" lon="-1.4161428054571443">
    <tag k="addr:postcode" v="HG5 0TQ"/>
    <tag k="removemelater" v="yes"/>
  </node>
  <node id="-1024" lat="54.010835684854634" lon="-1.465891664916768">
    <tag k="addr:postcode" v="HG5 0UB"/>
    <tag k="removemelater" v="yes"/>
  </node>
  <node id="-1025" lat="54.01252569916275" lon="-1.4679911674545405">
    <tag k="addr:postcode" v="HG5 0UE"/>
    <tag k="removemelater" v="yes"/>
  </node>
  <node id="-1026" lat="54.01252569916275" lon="-1.4679911674545405">
    <tag k="addr:postcode" v="HG5 0WW"/>
    <tag k="removemelater" v="yes"/>
  </node>
  <node id="-1027" lat="54.00452862553074" lon="-1.3872153550695887">
    <tag k="addr:postcode" v="HG5 0XJ"/>
    <tag k="removemelater" v="yes"/>
  </node>
  <node id="-1028" lat="54.01252569916275" lon="-1.4679911674545405">
    <tag k="addr:postcode" v="HG5 5AX"/>
    <tag k="removemelater" v="yes"/>
  </node>
  <node id="-1029" lat="54.01252569916275" lon="-1.4679911674545405">
    <tag k="addr:postcode" v="HG5 5BE"/>
    <tag k="removemelater" v="yes"/>
  </node>
  <node id="-1030" lat="54.01252569916275" lon="-1.4679911674545405">
    <tag k="addr:postcode" v="HG5 5BS"/>
    <tag k="removemelater" v="yes"/>
  </node>
  <node id="-1031" lat="54.01252569916275" lon="-1.4679911674545405">
    <tag k="addr:postcode" v="HG5 5BT"/>
    <tag k="removemelater" v="yes"/>
  </node>
  <node id="-1032" lat="54.01252569916275" lon="-1.4679911674545405">
    <tag k="addr:postcode" v="HG5 5BU"/>
    <tag k="removemelater" v="yes"/>
  </node>
  <node id="-1033" lat="54.007876523745495" lon="-1.467424848744274">
    <tag k="addr:postcode" v="HG5 8AE"/>
    <tag k="removemelater" v="yes"/>
  </node>
  <node id="-1034" lat="53.99946435757458" lon="-1.4134219376575052">
    <tag k="addr:postcode" v="HG5 8AP"/>
    <tag k="removemelater" v="yes"/>
  </node>
  <node id="-1035" lat="54.00732769334491" lon="-1.467294530061655">
    <tag k="addr:postcode" v="HG5 8AR"/>
    <tag k="removemelater" v="yes"/>
  </node>
  <node id="-1036" lat="54.00730363552637" lon="-1.4679509336327001">
    <tag k="addr:postcode" v="HG5 8AS"/>
    <tag k="removemelater" v="yes"/>
  </node>
  <node id="-1037" lat="54.009303861955104" lon="-1.4690698406251455">
    <tag k="addr:postcode" v="HG5 8BF"/>
    <tag k="removemelater" v="yes"/>
  </node>
  <node id="-1038" lat="54.003564845332804" lon="-1.4499956912325203">
    <tag k="addr:postcode" v="HG5 8BS"/>
    <tag k="removemelater" v="yes"/>
  </node>
  <node id="-1039" lat="54.00888435543314" lon="-1.4697312992179663">
    <tag k="addr:postcode" v="HG5 8BY"/>
    <tag k="removemelater" v="yes"/>
  </node>
  <node id="-1040" lat="54.00486021161335" lon="-1.46216910197887">
    <tag k="addr:postcode" v="HG5 8EB"/>
    <tag k="removemelater" v="yes"/>
  </node>
  <node id="-1041" lat="54.00111321034495" lon="-1.462369939535132">
    <tag k="addr:postcode" v="HG5 8EJ"/>
    <tag k="removemelater" v="yes"/>
  </node>
  <node id="-1042" lat="53.99914613418034" lon="-1.4606409393393747">
    <tag k="addr:postcode" v="HG5 8EL"/>
    <tag k="removemelater" v="yes"/>
  </node>
  <node id="-1043" lat="54.00197316655781" lon="-1.447850295196494">
    <tag k="addr:postcode" v="HG5 8ET"/>
    <tag k="removemelater" v="yes"/>
  </node>
  <node id="-1044" lat="54.000445287751205" lon="-1.4617378087695223">
    <tag k="addr:postcode" v="HG5 8EW"/>
    <tag k="removemelater" v="yes"/>
  </node>
  <node id="-1045" lat="53.998826558191766" lon="-1.4675860752245702">
    <tag k="addr:postcode" v="HG5 8JL"/>
    <tag k="removemelater" v="yes"/>
  </node>
  <node id="-1046" lat="54.00400952804697" lon="-1.4489676212494242">
    <tag k="addr:postcode" v="HG5 8LF"/>
    <tag k="removemelater" v="yes"/>
  </node>
  <node id="-1047" lat="54.00133831090803" lon="-1.446607709891088">
    <tag k="addr:postcode" v="HG5 8LJ"/>
    <tag k="removemelater" v="yes"/>
  </node>
  <node id="-1048" lat="53.998144426180026" lon="-1.4498230316495861">
    <tag k="addr:postcode" v="HG5 8LR"/>
    <tag k="removemelater" v="yes"/>
  </node>
  <node id="-1049" lat="53.979078112503636" lon="-1.4691033510303224">
    <tag k="addr:postcode" v="HG5 8LX"/>
    <tag k="removemelater" v="yes"/>
  </node>
  <node id="-1050" lat="53.98056302482013" lon="-1.4756869852433798">
    <tag k="addr:postcode" v="HG5 8LY"/>
    <tag k="removemelater" v="yes"/>
  </node>
  <node id="-1051" lat="53.98091068884001" lon="-1.4568203361022924">
    <tag k="addr:postcode" v="HG5 8NA"/>
    <tag k="removemelater" v="yes"/>
  </node>
  <node id="-1052" lat="53.99944615561888" lon="-1.418929329741932">
    <tag k="addr:postcode" v="HG5 8NH"/>
    <tag k="removemelater" v="yes"/>
  </node>
  <node id="-1053" lat="54.000235402144625" lon="-1.4204438941441249">
    <tag k="addr:postcode" v="HG5 8NL"/>
    <tag k="removemelater" v="yes"/>
  </node>
  <node id="-1054" lat="54.00358026907388" lon="-1.4474781307492488">
    <tag k="addr:postcode" v="HG5 8NQ"/>
    <tag k="removemelater" v="yes"/>
  </node>
  <node id="-1055" lat="54.00012963323324" lon="-1.4153042680173948">
    <tag k="addr:postcode" v="HG5 8NR"/>
    <tag k="removemelater" v="yes"/>
  </node>
  <node id="-1056" lat="54.001938479814946" lon="-1.4194896228370615">
    <tag k="addr:postcode" v="HG5 8NS"/>
    <tag k="removemelater" v="yes"/>
  </node>
  <node id="-1057" lat="54.002886920885175" lon="-1.4186068121310702">
    <tag k="addr:postcode" v="HG5 8NU"/>
    <tag k="removemelater" v="yes"/>
  </node>
  <node id="-1058" lat="53.99992011523964" lon="-1.420295717671843">
    <tag k="addr:postcode" v="HG5 8NW"/>
    <tag k="removemelater" v="yes"/>
  </node>
  <node id="-1059" lat="54.00309323340601" lon="-1.4432127481521226">
    <tag k="addr:postcode" v="HG5 8PJ"/>
    <tag k="removemelater" v="yes"/>
  </node>
  <node id="-1060" lat="54.00052859567369" lon="-1.4197380649208207">
    <tag k="addr:postcode" v="HG5 8PS"/>
    <tag k="removemelater" v="yes"/>
  </node>
  <node id="-1061" lat="54.00398289900625" lon="-1.4412480013255635">
    <tag k="addr:postcode" v="HG5 8PW"/>
    <tag k="removemelater" v="yes"/>
  </node>
  <node id="-1062" lat="54.00262949526216" lon="-1.440121891493472">
    <tag k="addr:postcode" v="HG5 8PY"/>
    <tag k="removemelater" v="yes"/>
  </node>
  <node id="-1063" lat="54.000183913976116" lon="-1.443800751760629">
    <tag k="addr:postcode" v="HG5 8PZ"/>
    <tag k="removemelater" v="yes"/>
  </node>
  <node id="-1064" lat="54.001272567444474" lon="-1.4440455954505185">
    <tag k="addr:postcode" v="HG5 8QB"/>
    <tag k="removemelater" v="yes"/>
  </node>
  <node id="-1065" lat="54.01252569916275" lon="-1.4679911674545405">
    <tag k="addr:postcode" v="HG5 8XL"/>
    <tag k="removemelater" v="yes"/>
  </node>
  <node id="-1066" lat="54.01252569916275" lon="-1.4679911674545405">
    <tag k="addr:postcode" v="HG5 8YX"/>
    <tag k="removemelater" v="yes"/>
  </node>
  <node id="-1067" lat="54.00910273864122" lon="-1.470338872783531">
    <tag k="addr:postcode" v="HG5 9AA"/>
    <tag k="removemelater" v="yes"/>
  </node>
  <node id="-1068" lat="54.0093290246697" lon="-1.4727468903580216">
    <tag k="addr:postcode" v="HG5 9AE"/>
    <tag k="removemelater" v="yes"/>
  </node>
  <node id="-1069" lat="54.009616019685424" lon="-1.4705612414081282">
    <tag k="addr:postcode" v="HG5 9AF"/>
    <tag k="removemelater" v="yes"/>
  </node>
  <node id="-1070" lat="54.0094099843987" lon="-1.4707164436962008">
    <tag k="addr:postcode" v="HG5 9AG"/>
    <tag k="removemelater" v="yes"/>
  </node>
  <node id="-1071" lat="54.01127939267376" lon="-1.4727527653567487">
    <tag k="addr:postcode" v="HG5 9AL"/>
    <tag k="removemelater" v="yes"/>
  </node>
  <node id="-1072" lat="54.009917272735805" lon="-1.4736702574027076">
    <tag k="addr:postcode" v="HG5 9AU"/>
    <tag k="removemelater" v="yes"/>
  </node>
  <node id="-1073" lat="54.011430424911886" lon="-1.4785342307524603">
    <tag k="addr:postcode" v="HG5 9AY"/>
    <tag k="removemelater" v="yes"/>
  </node>
  <node id="-1074" lat="54.0092413582449" lon="-1.4732515371680055">
    <tag k="addr:postcode" v="HG5 9AZ"/>
    <tag k="removemelater" v="yes"/>
  </node>
  <node id="-1075" lat="54.018721487757034" lon="-1.466691175197703">
    <tag k="addr:postcode" v="HG5 9DW"/>
    <tag k="removemelater" v="yes"/>
  </node>
  <node id="-1076" lat="54.02084328623788" lon="-1.466847203597577">
    <tag k="addr:postcode" v="HG5 9EN"/>
    <tag k="removemelater" v="yes"/>
  </node>
  <node id="-1077" lat="54.020247150906776" lon="-1.4661832600919713">
    <tag k="addr:postcode" v="HG5 9EP"/>
    <tag k="removemelater" v="yes"/>
  </node>
  <node id="-1078" lat="54.02021702227976" lon="-1.4634516070555676">
    <tag k="addr:postcode" v="HG5 9EW"/>
    <tag k="removemelater" v="yes"/>
  </node>
  <node id="-1079" lat="54.04079502449153" lon="-1.438952728907002">
    <tag k="addr:postcode" v="HG5 9JG"/>
    <tag k="removemelater" v="yes"/>
  </node>
  <node id="-1080" lat="54.034047393277966" lon="-1.4630598842748956">
    <tag k="addr:postcode" v="HG5 9JR"/>
    <tag k="removemelater" v="yes"/>
  </node>
  <node id="-1081" lat="54.04765548418009" lon="-1.4357141538018043">
    <tag k="addr:postcode" v="HG5 9JT"/>
    <tag k="removemelater" v="yes"/>
  </node>
  <node id="-1082" lat="54.070403737539394" lon="-1.4415794946131595">
    <tag k="addr:postcode" v="HG5 9LN"/>
    <tag k="removemelater" v="yes"/>
  </node>
  <node id="-1083" lat="54.026997048322215" lon="-1.5195099619828256">
    <tag k="addr:postcode" v="HG5 9LW"/>
    <tag k="removemelater" v="yes"/>
  </node>
</osm>
