<?xml version="1.0" encoding="UTF-8"?><osm version="0.6" generator="import_postcodes.py" upload="false">
  <node id="-1" lat="52.06074501274375" lon="-2.71002685487196">
    <tag k="addr:postcode" v="HR1 1AA"/>
    <tag k="removemelater" v="yes"/>
  </node>
  <node id="-2" lat="52.06261877954173" lon="-2.709414762684129">
    <tag k="addr:postcode" v="HR1 1DZ"/>
    <tag k="removemelater" v="yes"/>
  </node>
  <node id="-3" lat="52.06107484958434" lon="-2.696948244279657">
    <tag k="addr:postcode" v="HR1 1EB"/>
    <tag k="removemelater" v="yes"/>
  </node>
  <node id="-4" lat="52.073684550742236" lon="-2.7067305033046547">
    <tag k="addr:postcode" v="HR1 1HU"/>
    <tag k="removemelater" v="yes"/>
  </node>
  <node id="-5" lat="52.07245294812045" lon="-2.705208286324814">
    <tag k="addr:postcode" v="HR1 1JS"/>
    <tag k="removemelater" v="yes"/>
  </node>
  <node id="-6" lat="52.07380265260131" lon="-2.709519130495796">
    <tag k="addr:postcode" v="HR1 1LN"/>
    <tag k="removemelater" v="yes"/>
  </node>
  <node id="-7" lat="52.073542559263494" lon="-2.704919064626836">
    <tag k="addr:postcode" v="HR1 1LQ"/>
    <tag k="removemelater" v="yes"/>
  </node>
  <node id="-8" lat="52.0608731866295" lon="-2.6976014812133147">
    <tag k="addr:postcode" v="HR1 1LT"/>
    <tag k="removemelater" v="yes"/>
  </node>
  <node id="-9" lat="52.07282613320427" lon="-2.7074464467745405">
    <tag k="addr:postcode" v="HR1 1LW"/>
    <tag k="removemelater" v="yes"/>
  </node>
  <node id="-10" lat="52.04566071386612" lon="-2.700645271637624">
    <tag k="addr:postcode" v="HR1 1RY"/>
    <tag k="removemelater" v="yes"/>
  </node>
  <node id="-11" lat="52.052237401990816" lon="-2.69382109226746">
    <tag k="addr:postcode" v="HR1 1WE"/>
    <tag k="removemelater" v="yes"/>
  </node>
  <node id="-12" lat="52.06074501274375" lon="-2.71002685487196">
    <tag k="addr:postcode" v="HR1 1WG"/>
    <tag k="removemelater" v="yes"/>
  </node>
  <node id="-13" lat="52.04981657048216" lon="-2.695737644346218">
    <tag k="addr:postcode" v="HR1 1XX"/>
    <tag k="removemelater" v="yes"/>
  </node>
  <node id="-14" lat="52.05671863615523" lon="-2.7157239952393097">
    <tag k="addr:postcode" v="HR1 2AA"/>
    <tag k="removemelater" v="yes"/>
  </node>
  <node id="-15" lat="52.056313647451375" lon="-2.715790444059178">
    <tag k="addr:postcode" v="HR1 2AB"/>
    <tag k="removemelater" v="yes"/>
  </node>
  <node id="-16" lat="52.0566900713807" lon="-2.7159860650549676">
    <tag k="addr:postcode" v="HR1 2AE"/>
    <tag k="removemelater" v="yes"/>
  </node>
  <node id="-17" lat="52.0557951964714" lon="-2.7108380055150545">
    <tag k="addr:postcode" v="HR1 2AF"/>
    <tag k="removemelater" v="yes"/>
  </node>
  <node id="-18" lat="52.05693471538512" lon="-2.7127083789328026">
    <tag k="addr:postcode" v="HR1 2AG"/>
    <tag k="removemelater" v="yes"/>
  </node>
  <node id="-19" lat="52.057606830485966" lon="-2.710093761245815">
    <tag k="addr:postcode" v="HR1 2AH"/>
    <tag k="removemelater" v="yes"/>
  </node>
  <node id="-20" lat="52.05686787579237" lon="-2.7148367045808683">
    <tag k="addr:postcode" v="HR1 2AJ"/>
    <tag k="removemelater" v="yes"/>
  </node>
  <node id="-21" lat="52.05844349772091" lon="-2.7144680594370487">
    <tag k="addr:postcode" v="HR1 2AN"/>
    <tag k="removemelater" v="yes"/>
  </node>
  <node id="-22" lat="52.0564881258872" lon="-2.716668318092851">
    <tag k="addr:postcode" v="HR1 2AQ"/>
    <tag k="removemelater" v="yes"/>
  </node>
  <node id="-23" lat="52.058138216011756" lon="-2.7129171479760528">
    <tag k="addr:postcode" v="HR1 2AR"/>
    <tag k="removemelater" v="yes"/>
  </node>
  <node id="-24" lat="52.058015445036226" lon="-2.712404709610217">
    <tag k="addr:postcode" v="HR1 2AZ"/>
    <tag k="removemelater" v="yes"/>
  </node>
  <node id="-25" lat="52.05810869402006" lon="-2.711851953534465">
    <tag k="addr:postcode" v="HR1 2BB"/>
    <tag k="removemelater" v="yes"/>
  </node>
  <node id="-26" lat="52.058500984243715" lon="-2.7109101412192373">
    <tag k="addr:postcode" v="HR1 2BD"/>
    <tag k="removemelater" v="yes"/>
  </node>
  <node id="-27" lat="52.05823649098438" lon="-2.7115331090015493">
    <tag k="addr:postcode" v="HR1 2BE"/>
    <tag k="removemelater" v="yes"/>
  </node>
  <node id="-28" lat="52.05916700534204" lon="-2.7093017159709265">
    <tag k="addr:postcode" v="HR1 2BG"/>
    <tag k="removemelater" v="yes"/>
  </node>
  <node id="-29" lat="52.058044582973395" lon="-2.7090651528621863">
    <tag k="addr:postcode" v="HR1 2BL"/>
    <tag k="removemelater" v="yes"/>
  </node>
  <node id="-30" lat="52.05738694501631" lon="-2.7122634426440646">
    <tag k="addr:postcode" v="HR1 2BS"/>
    <tag k="removemelater" v="yes"/>
  </node>
  <node id="-31" lat="52.05690703979489" lon="-2.7128246173215596">
    <tag k="addr:postcode" v="HR1 2BT"/>
    <tag k="removemelater" v="yes"/>
  </node>
  <node id="-32" lat="52.05661494848182" lon="-2.7135492054149535">
    <tag k="addr:postcode" v="HR1 2BY"/>
    <tag k="removemelater" v="yes"/>
  </node>
  <node id="-33" lat="52.057280968959205" lon="-2.714916225730126">
    <tag k="addr:postcode" v="HR1 2DA"/>
    <tag k="removemelater" v="yes"/>
  </node>
  <node id="-34" lat="52.057078800627906" lon="-2.7141545808231067">
    <tag k="addr:postcode" v="HR1 2DB"/>
    <tag k="removemelater" v="yes"/>
  </node>
  <node id="-35" lat="52.057398218622964" lon="-2.713372084534932">
    <tag k="addr:postcode" v="HR1 2DE"/>
    <tag k="removemelater" v="yes"/>
  </node>
  <node id="-36" lat="52.05928487366023" lon="-2.7121186133285136">
    <tag k="addr:postcode" v="HR1 2DF"/>
    <tag k="removemelater" v="yes"/>
  </node>
  <node id="-37" lat="52.05862605319714" lon="-2.712531110404586">
    <tag k="addr:postcode" v="HR1 2DG"/>
    <tag k="removemelater" v="yes"/>
  </node>
  <node id="-38" lat="52.056864633845805" lon="-2.7138886368754087">
    <tag k="addr:postcode" v="HR1 2DJ"/>
    <tag k="removemelater" v="yes"/>
  </node>
  <node id="-39" lat="52.05659520172118" lon="-2.713840586125191">
    <tag k="addr:postcode" v="HR1 2DL"/>
    <tag k="removemelater" v="yes"/>
  </node>
  <node id="-40" lat="52.057229772131485" lon="-2.7144632737669756">
    <tag k="addr:postcode" v="HR1 2DP"/>
    <tag k="removemelater" v="yes"/>
  </node>
  <node id="-41" lat="52.05907114296461" lon="-2.711779744989396">
    <tag k="addr:postcode" v="HR1 2DQ"/>
    <tag k="removemelater" v="yes"/>
  </node>
  <node id="-42" lat="52.05770331746236" lon="-2.714952140804078">
    <tag k="addr:postcode" v="HR1 2DR"/>
    <tag k="removemelater" v="yes"/>
  </node>
  <node id="-43" lat="52.05753742611398" lon="-2.7156204051310753">
    <tag k="addr:postcode" v="HR1 2DS"/>
    <tag k="removemelater" v="yes"/>
  </node>
  <node id="-44" lat="52.0576445458235" lon="-2.71426570179054">
    <tag k="addr:postcode" v="HR1 2DT"/>
    <tag k="removemelater" v="yes"/>
  </node>
  <node id="-45" lat="52.058430215304895" lon="-2.7122071151382743">
    <tag k="addr:postcode" v="HR1 2DU"/>
    <tag k="removemelater" v="yes"/>
  </node>
  <node id="-46" lat="52.057392386350955" lon="-2.7143346037154448">
    <tag k="addr:postcode" v="HR1 2DW"/>
    <tag k="removemelater" v="yes"/>
  </node>
  <node id="-47" lat="52.05853280565863" lon="-2.711596160441894">
    <tag k="addr:postcode" v="HR1 2DX"/>
    <tag k="removemelater" v="yes"/>
  </node>
  <node id="-48" lat="52.0589090527455" lon="-2.713308647812094">
    <tag k="addr:postcode" v="HR1 2DY"/>
    <tag k="removemelater" v="yes"/>
  </node>
  <node id="-49" lat="52.06057298610202" lon="-2.7117161097714373">
    <tag k="addr:postcode" v="HR1 2EB"/>
    <tag k="removemelater" v="yes"/>
  </node>
  <node id="-50" lat="52.05721603550417" lon="-2.7137629757449773">
    <tag k="addr:postcode" v="HR1 2EE"/>
    <tag k="removemelater" v="yes"/>
  </node>
  <node id="-51" lat="52.05895609910688" lon="-2.714447069710601">
    <tag k="addr:postcode" v="HR1 2EG"/>
    <tag k="removemelater" v="yes"/>
  </node>
  <node id="-52" lat="52.057328594759454" lon="-2.712991764789518">
    <tag k="addr:postcode" v="HR1 2EH"/>
    <tag k="removemelater" v="yes"/>
  </node>
  <node id="-53" lat="52.0582747203941" lon="-2.7096667960685767">
    <tag k="addr:postcode" v="HR1 2EP"/>
    <tag k="removemelater" v="yes"/>
  </node>
  <node id="-54" lat="52.057012815467054" lon="-2.7057088679368566">
    <tag k="addr:postcode" v="HR1 2ER"/>
    <tag k="removemelater" v="yes"/>
  </node>
  <node id="-55" lat="52.0575241332889" lon="-2.7088964736250434">
    <tag k="addr:postcode" v="HR1 2ES"/>
    <tag k="removemelater" v="yes"/>
  </node>
  <node id="-56" lat="52.057259387134074" lon="-2.7095631906501776">
    <tag k="addr:postcode" v="HR1 2ET"/>
    <tag k="removemelater" v="yes"/>
  </node>
  <node id="-57" lat="52.05719267908735" lon="-2.710189286780899">
    <tag k="addr:postcode" v="HR1 2EU"/>
    <tag k="removemelater" v="yes"/>
  </node>
  <node id="-58" lat="52.05789011027515" lon="-2.710827514263804">
    <tag k="addr:postcode" v="HR1 2EW"/>
    <tag k="removemelater" v="yes"/>
  </node>
  <node id="-59" lat="52.05684335598269" lon="-2.7084773177637484">
    <tag k="addr:postcode" v="HR1 2EX"/>
    <tag k="removemelater" v="yes"/>
  </node>
  <node id="-60" lat="52.05563036287587" lon="-2.7068538323088056">
    <tag k="addr:postcode" v="HR1 2EY"/>
    <tag k="removemelater" v="yes"/>
  </node>
  <node id="-61" lat="52.054636641024494" lon="-2.710630017291862">
    <tag k="addr:postcode" v="HR1 2GL"/>
    <tag k="removemelater" v="yes"/>
  </node>
  <node id="-62" lat="52.0553792647329" lon="-2.7097375735512346">
    <tag k="addr:postcode" v="HR1 2GY"/>
    <tag k="removemelater" v="yes"/>
  </node>
  <node id="-63" lat="52.05622366546331" lon="-2.7083654184830177">
    <tag k="addr:postcode" v="HR1 2HA"/>
    <tag k="removemelater" v="yes"/>
  </node>
  <node id="-64" lat="52.05559875309935" lon="-2.707626308708221">
    <tag k="addr:postcode" v="HR1 2HB"/>
    <tag k="removemelater" v="yes"/>
  </node>
  <node id="-65" lat="52.05669539333242" lon="-2.7091604618450935">
    <tag k="addr:postcode" v="HR1 2HD"/>
    <tag k="removemelater" v="yes"/>
  </node>
  <node id="-66" lat="52.0570799621288" lon="-2.710989669680954">
    <tag k="addr:postcode" v="HR1 2HE"/>
    <tag k="removemelater" v="yes"/>
  </node>
  <node id="-67" lat="52.05641769987702" lon="-2.7104832717750282">
    <tag k="addr:postcode" v="HR1 2HG"/>
    <tag k="removemelater" v="yes"/>
  </node>
  <node id="-68" lat="52.05621304208937" lon="-2.7101299923732225">
    <tag k="addr:postcode" v="HR1 2HH"/>
    <tag k="removemelater" v="yes"/>
  </node>
  <node id="-69" lat="52.05559300157255" lon="-2.710076404096025">
    <tag k="addr:postcode" v="HR1 2HJ"/>
    <tag k="removemelater" v="yes"/>
  </node>
  <node id="-70" lat="52.05549455195421" lon="-2.710001920583183">
    <tag k="addr:postcode" v="HR1 2HL"/>
    <tag k="removemelater" v="yes"/>
  </node>
  <node id="-71" lat="52.0555815497974" lon="-2.710484586773778">
    <tag k="addr:postcode" v="HR1 2HN"/>
    <tag k="removemelater" v="yes"/>
  </node>
  <node id="-72" lat="52.056189523185296" lon="-2.7125360846518296">
    <tag k="addr:postcode" v="HR1 2HP"/>
    <tag k="removemelater" v="yes"/>
  </node>
  <node id="-73" lat="52.05689673001248" lon="-2.71155556952589">
    <tag k="addr:postcode" v="HR1 2HT"/>
    <tag k="removemelater" v="yes"/>
  </node>
  <node id="-74" lat="52.055935513937875" lon="-2.7114236156555536">
    <tag k="addr:postcode" v="HR1 2HU"/>
    <tag k="removemelater" v="yes"/>
  </node>
  <node id="-75" lat="52.056225571032066" lon="-2.7125220737311886">
    <tag k="addr:postcode" v="HR1 2HX"/>
    <tag k="removemelater" v="yes"/>
  </node>
  <node id="-76" lat="52.0554179781037" lon="-2.7122612861990207">
    <tag k="addr:postcode" v="HR1 2JB"/>
    <tag k="removemelater" v="yes"/>
  </node>
  <node id="-77" lat="52.054416376956056" lon="-2.709882734142856">
    <tag k="addr:postcode" v="HR1 2JH"/>
    <tag k="removemelater" v="yes"/>
  </node>
  <node id="-78" lat="52.054260529565084" lon="-2.7088885505196822">
    <tag k="addr:postcode" v="HR1 2JJ"/>
    <tag k="removemelater" v="yes"/>
  </node>
  <node id="-79" lat="52.05407314497295" lon="-2.7086522404767104">
    <tag k="addr:postcode" v="HR1 2JN"/>
    <tag k="removemelater" v="yes"/>
  </node>
  <node id="-80" lat="52.053580277891626" lon="-2.7083819314064175">
    <tag k="addr:postcode" v="HR1 2JP"/>
    <tag k="removemelater" v="yes"/>
  </node>
  <node id="-81" lat="52.054763391016344" lon="-2.707496432087782">
    <tag k="addr:postcode" v="HR1 2JU"/>
    <tag k="removemelater" v="yes"/>
  </node>
  <node id="-82" lat="52.05369416450427" lon="-2.7088795832792996">
    <tag k="addr:postcode" v="HR1 2JW"/>
    <tag k="removemelater" v="yes"/>
  </node>
  <node id="-83" lat="52.05347441511096" lon="-2.708044830208073">
    <tag k="addr:postcode" v="HR1 2JZ"/>
    <tag k="removemelater" v="yes"/>
  </node>
  <node id="-84" lat="52.05642165329595" lon="-2.714289945082783">
    <tag k="addr:postcode" v="HR1 2LA"/>
    <tag k="removemelater" v="yes"/>
  </node>
  <node id="-85" lat="52.05588748760902" lon="-2.7163815967661455">
    <tag k="addr:postcode" v="HR1 2LB"/>
    <tag k="removemelater" v="yes"/>
  </node>
  <node id="-86" lat="52.05623964408189" lon="-2.714651657554297">
    <tag k="addr:postcode" v="HR1 2LD"/>
    <tag k="removemelater" v="yes"/>
  </node>
  <node id="-87" lat="52.05620527653294" lon="-2.7143885853158944">
    <tag k="addr:postcode" v="HR1 2LE"/>
    <tag k="removemelater" v="yes"/>
  </node>
  <node id="-88" lat="52.05595453175957" lon="-2.714224153964189">
    <tag k="addr:postcode" v="HR1 2LF"/>
    <tag k="removemelater" v="yes"/>
  </node>
  <node id="-89" lat="52.05578443073567" lon="-2.7141047642278107">
    <tag k="addr:postcode" v="HR1 2LH"/>
    <tag k="removemelater" v="yes"/>
  </node>
  <node id="-90" lat="52.05570299114467" lon="-2.7141909721146953">
    <tag k="addr:postcode" v="HR1 2LJ"/>
    <tag k="removemelater" v="yes"/>
  </node>
  <node id="-91" lat="52.055585326594304" lon="-2.714320355076976">
    <tag k="addr:postcode" v="HR1 2LL"/>
    <tag k="removemelater" v="yes"/>
  </node>
  <node id="-92" lat="52.054578123355085" lon="-2.7128750420313295">
    <tag k="addr:postcode" v="HR1 2LP"/>
    <tag k="removemelater" v="yes"/>
  </node>
  <node id="-93" lat="52.05553741337539" lon="-2.7162884885364686">
    <tag k="addr:postcode" v="HR1 2LR"/>
    <tag k="removemelater" v="yes"/>
  </node>
  <node id="-94" lat="52.056033365217125" lon="-2.716048485434309">
    <tag k="addr:postcode" v="HR1 2LT"/>
    <tag k="removemelater" v="yes"/>
  </node>
  <node id="-95" lat="52.05513848299781" lon="-2.7138756967070483">
    <tag k="addr:postcode" v="HR1 2LU"/>
    <tag k="removemelater" v="yes"/>
  </node>
  <node id="-96" lat="52.055828901365935" lon="-2.715666017596687">
    <tag k="addr:postcode" v="HR1 2LW"/>
    <tag k="removemelater" v="yes"/>
  </node>
  <node id="-97" lat="52.05846147752856" lon="-2.7144683463990225">
    <tag k="addr:postcode" v="HR1 2LX"/>
    <tag k="removemelater" v="yes"/>
  </node>
  <node id="-98" lat="52.05488704419062" lon="-2.712340344882692">
    <tag k="addr:postcode" v="HR1 2LY"/>
    <tag k="removemelater" v="yes"/>
  </node>
  <node id="-99" lat="52.054278719839616" lon="-2.713322379384189">
    <tag k="addr:postcode" v="HR1 2LZ"/>
    <tag k="removemelater" v="yes"/>
  </node>
  <node id="-100" lat="52.05494836917134" lon="-2.7140914288844127">
    <tag k="addr:postcode" v="HR1 2NA"/>
    <tag k="removemelater" v="yes"/>
  </node>
  <node id="-101" lat="52.05538418723547" lon="-2.714871352249045">
    <tag k="addr:postcode" v="HR1 2NB"/>
    <tag k="removemelater" v="yes"/>
  </node>
  <node id="-102" lat="52.055466865875566" lon="-2.7145809843075424">
    <tag k="addr:postcode" v="HR1 2ND"/>
    <tag k="removemelater" v="yes"/>
  </node>
  <node id="-103" lat="52.05045234844533" lon="-2.7097323930759365">
    <tag k="addr:postcode" v="HR1 2NF"/>
    <tag k="removemelater" v="yes"/>
  </node>
  <node id="-104" lat="52.053702366293805" lon="-2.7149611697923333">
    <tag k="addr:postcode" v="HR1 2NG"/>
    <tag k="removemelater" v="yes"/>
  </node>
  <node id="-105" lat="52.05323736821033" lon="-2.7145454015375274">
    <tag k="addr:postcode" v="HR1 2NH"/>
    <tag k="removemelater" v="yes"/>
  </node>
  <node id="-106" lat="52.0534629119675" lon="-2.7144177472276443">
    <tag k="addr:postcode" v="HR1 2NJ"/>
    <tag k="removemelater" v="yes"/>
  </node>
  <node id="-107" lat="52.05395746635158" lon="-2.712923495494448">
    <tag k="addr:postcode" v="HR1 2NL"/>
    <tag k="removemelater" v="yes"/>
  </node>
  <node id="-108" lat="52.053917770114595" lon="-2.7150229450969134">
    <tag k="addr:postcode" v="HR1 2NN"/>
    <tag k="removemelater" v="yes"/>
  </node>
  <node id="-109" lat="52.050725409996936" lon="-2.710670024038197">
    <tag k="addr:postcode" v="HR1 2NP"/>
    <tag k="removemelater" v="yes"/>
  </node>
  <node id="-110" lat="52.05057645003744" lon="-2.710026016271217">
    <tag k="addr:postcode" v="HR1 2NQ"/>
    <tag k="removemelater" v="yes"/>
  </node>
  <node id="-111" lat="52.054070637005914" lon="-2.712050260578127">
    <tag k="addr:postcode" v="HR1 2NR"/>
    <tag k="removemelater" v="yes"/>
  </node>
  <node id="-112" lat="52.05390185535965" lon="-2.7117121467769403">
    <tag k="addr:postcode" v="HR1 2NS"/>
    <tag k="removemelater" v="yes"/>
  </node>
  <node id="-113" lat="52.05386561869174" lon="-2.7102677665025725">
    <tag k="addr:postcode" v="HR1 2NT"/>
    <tag k="removemelater" v="yes"/>
  </node>
  <node id="-114" lat="52.05363744048907" lon="-2.710832915214908">
    <tag k="addr:postcode" v="HR1 2NU"/>
    <tag k="removemelater" v="yes"/>
  </node>
  <node id="-115" lat="52.05224716927672" lon="-2.710285843017704">
    <tag k="addr:postcode" v="HR1 2NX"/>
    <tag k="removemelater" v="yes"/>
  </node>
  <node id="-116" lat="52.05363267199048" lon="-2.710132816863431">
    <tag k="addr:postcode" v="HR1 2NY"/>
    <tag k="removemelater" v="yes"/>
  </node>
  <node id="-117" lat="52.05428321845411" lon="-2.711091096261048">
    <tag k="addr:postcode" v="HR1 2PA"/>
    <tag k="removemelater" v="yes"/>
  </node>
  <node id="-118" lat="52.05139084020164" lon="-2.7106514191250346">
    <tag k="addr:postcode" v="HR1 2PB"/>
    <tag k="removemelater" v="yes"/>
  </node>
  <node id="-119" lat="52.05587715760918" lon="-2.713639538043313">
    <tag k="addr:postcode" v="HR1 2PG"/>
    <tag k="removemelater" v="yes"/>
  </node>
  <node id="-120" lat="52.05572547740199" lon="-2.713447521877286">
    <tag k="addr:postcode" v="HR1 2PH"/>
    <tag k="removemelater" v="yes"/>
  </node>
  <node id="-121" lat="52.05550258386121" lon="-2.713137697157305">
    <tag k="addr:postcode" v="HR1 2PJ"/>
    <tag k="removemelater" v="yes"/>
  </node>
  <node id="-122" lat="52.05597445620288" lon="-2.7139036112756973">
    <tag k="addr:postcode" v="HR1 2PQ"/>
    <tag k="removemelater" v="yes"/>
  </node>
  <node id="-123" lat="52.05466679102307" lon="-2.7115930492376306">
    <tag k="addr:postcode" v="HR1 2PR"/>
    <tag k="removemelater" v="yes"/>
  </node>
  <node id="-124" lat="52.054186529353544" lon="-2.710724960963194">
    <tag k="addr:postcode" v="HR1 2PU"/>
    <tag k="removemelater" v="yes"/>
  </node>
  <node id="-125" lat="52.0534565639023" lon="-2.7095175063031633">
    <tag k="addr:postcode" v="HR1 2QA"/>
    <tag k="removemelater" v="yes"/>
  </node>
  <node id="-126" lat="52.05334991423816" lon="-2.7093116442798344">
    <tag k="addr:postcode" v="HR1 2QB"/>
    <tag k="removemelater" v="yes"/>
  </node>
  <node id="-127" lat="52.05286226289326" lon="-2.709668507777802">
    <tag k="addr:postcode" v="HR1 2QG"/>
    <tag k="removemelater" v="yes"/>
  </node>
  <node id="-128" lat="52.05259318009528" lon="-2.7095621586284815">
    <tag k="addr:postcode" v="HR1 2QQ"/>
    <tag k="removemelater" v="yes"/>
  </node>
  <node id="-129" lat="52.05329860792072" lon="-2.7088733206202353">
    <tag k="addr:postcode" v="HR1 2QY"/>
    <tag k="removemelater" v="yes"/>
  </node>
  <node id="-130" lat="52.05550258386121" lon="-2.713137697157305">
    <tag k="addr:postcode" v="HR1 2SP"/>
    <tag k="removemelater" v="yes"/>
  </node>
  <node id="-131" lat="52.05550258386121" lon="-2.713137697157305">
    <tag k="addr:postcode" v="HR1 2SR"/>
    <tag k="removemelater" v="yes"/>
  </node>
  <node id="-132" lat="52.05898178181384" lon="-2.7042084260961516">
    <tag k="addr:postcode" v="HR1 2UA"/>
    <tag k="removemelater" v="yes"/>
  </node>
  <node id="-133" lat="52.06074501274375" lon="-2.71002685487196">
    <tag k="addr:postcode" v="HR1 2XW"/>
    <tag k="removemelater" v="yes"/>
  </node>
  <node id="-134" lat="52.06074501274375" lon="-2.71002685487196">
    <tag k="addr:postcode" v="HR1 2ZB"/>
    <tag k="removemelater" v="yes"/>
  </node>
  <node id="-135" lat="52.16199132078116" lon="-2.7021643836167857">
    <tag k="addr:postcode" v="HR1 3LH"/>
    <tag k="removemelater" v="yes"/>
  </node>
  <node id="-136" lat="52.12899300176362" lon="-2.6377775669840346">
    <tag k="addr:postcode" v="HR1 3PG"/>
    <tag k="removemelater" v="yes"/>
  </node>
  <node id="-137" lat="52.10828951488387" lon="-2.680819547672512">
    <tag k="addr:postcode" v="HR1 3SZ"/>
    <tag k="removemelater" v="yes"/>
  </node>
  <node id="-138" lat="52.06359642892549" lon="-2.63079163021238">
    <tag k="addr:postcode" v="HR1 4BF"/>
    <tag k="removemelater" v="yes"/>
  </node>
  <node id="-139" lat="52.058589277093105" lon="-2.6390055558990655">
    <tag k="addr:postcode" v="HR1 4DE"/>
    <tag k="removemelater" v="yes"/>
  </node>
  <node id="-140" lat="52.06496806379703" lon="-2.6332033032732753">
    <tag k="addr:postcode" v="HR1 4DT"/>
    <tag k="removemelater" v="yes"/>
  </node>
  <node id="-141" lat="52.0622544895411" lon="-2.6312249006660817">
    <tag k="addr:postcode" v="HR1 4DX"/>
    <tag k="removemelater" v="yes"/>
  </node>
  <node id="-142" lat="52.062507070290664" lon="-2.563692431182931">
    <tag k="addr:postcode" v="HR1 4EX"/>
    <tag k="removemelater" v="yes"/>
  </node>
  <node id="-143" lat="52.06156100495061" lon="-2.6314485018210747">
    <tag k="addr:postcode" v="HR1 4HA"/>
    <tag k="removemelater" v="yes"/>
  </node>
  <node id="-144" lat="52.007115869192035" lon="-2.6156031032784943">
    <tag k="addr:postcode" v="HR1 4PE"/>
    <tag k="removemelater" v="yes"/>
  </node>
  <node id="-145" lat="52.01369585964194" lon="-2.600175601831499">
    <tag k="addr:postcode" v="HR1 4QH"/>
    <tag k="removemelater" v="yes"/>
  </node>
  <node id="-146" lat="52.018379971677334" lon="-2.567552756380845">
    <tag k="addr:postcode" v="HR1 4QP"/>
    <tag k="removemelater" v="yes"/>
  </node>
  <node id="-147" lat="51.97304475898745" lon="-2.5664263405632988">
    <tag k="addr:postcode" v="HR1 4SX"/>
    <tag k="removemelater" v="yes"/>
  </node>
  <node id="-148" lat="52.0531170429379" lon="-2.6940680612254515">
    <tag k="addr:postcode" v="HR1 9SA"/>
    <tag k="removemelater" v="yes"/>
  </node>
  <node id="-149" lat="52.0531170429379" lon="-2.6940680612254515">
    <tag k="addr:postcode" v="HR1 9SB"/>
    <tag k="removemelater" v="yes"/>
  </node>
  <node id="-150" lat="52.0531170429379" lon="-2.6940680612254515">
    <tag k="addr:postcode" v="HR1 9SD"/>
    <tag k="removemelater" v="yes"/>
  </node>
  <node id="-151" lat="52.0531170429379" lon="-2.6940680612254515">
    <tag k="addr:postcode" v="HR1 9SE"/>
    <tag k="removemelater" v="yes"/>
  </node>
  <node id="-152" lat="52.0531170429379" lon="-2.6940680612254515">
    <tag k="addr:postcode" v="HR1 9SF"/>
    <tag k="removemelater" v="yes"/>
  </node>
  <node id="-153" lat="52.0531170429379" lon="-2.6940680612254515">
    <tag k="addr:postcode" v="HR1 9SG"/>
    <tag k="removemelater" v="yes"/>
  </node>
  <node id="-154" lat="52.0531170429379" lon="-2.6940680612254515">
    <tag k="addr:postcode" v="HR1 9SH"/>
    <tag k="removemelater" v="yes"/>
  </node>
  <node id="-155" lat="52.0531170429379" lon="-2.6940680612254515">
    <tag k="addr:postcode" v="HR1 9SJ"/>
    <tag k="removemelater" v="yes"/>
  </node>
  <node id="-156" lat="52.0531170429379" lon="-2.6940680612254515">
    <tag k="addr:postcode" v="HR1 9SL"/>
    <tag k="removemelater" v="yes"/>
  </node>
  <node id="-157" lat="52.0531170429379" lon="-2.6940680612254515">
    <tag k="addr:postcode" v="HR1 9SQ"/>
    <tag k="removemelater" v="yes"/>
  </node>
  <node id="-158" lat="52.0531170429379" lon="-2.6940680612254515">
    <tag k="addr:postcode" v="HR1 9SR"/>
    <tag k="removemelater" v="yes"/>
  </node>
  <node id="-159" lat="52.0531170429379" lon="-2.6940680612254515">
    <tag k="addr:postcode" v="HR1 9SS"/>
    <tag k="removemelater" v="yes"/>
  </node>
  <node id="-160" lat="52.0531170429379" lon="-2.6940680612254515">
    <tag k="addr:postcode" v="HR1 9ST"/>
    <tag k="removemelater" v="yes"/>
  </node>
  <node id="-161" lat="52.0531170429379" lon="-2.6940680612254515">
    <tag k="addr:postcode" v="HR1 9SU"/>
    <tag k="removemelater" v="yes"/>
  </node>
  <node id="-162" lat="52.0531170429379" lon="-2.6940680612254515">
    <tag k="addr:postcode" v="HR1 9SW"/>
    <tag k="removemelater" v="yes"/>
  </node>
  <node id="-163" lat="52.0531170429379" lon="-2.6940680612254515">
    <tag k="addr:postcode" v="HR1 9SX"/>
    <tag k="removemelater" v="yes"/>
  </node>
  <node id="-164" lat="52.0531170429379" lon="-2.6940680612254515">
    <tag k="addr:postcode" v="HR1 9SY"/>
    <tag k="removemelater" v="yes"/>
  </node>
  <node id="-165" lat="52.0531170429379" lon="-2.6940680612254515">
    <tag k="addr:postcode" v="HR1 9SZ"/>
    <tag k="removemelater" v="yes"/>
  </node>
  <node id="-166" lat="52.0531170429379" lon="-2.6940680612254515">
    <tag k="addr:postcode" v="HR1 9TA"/>
    <tag k="removemelater" v="yes"/>
  </node>
  <node id="-167" lat="52.0531170429379" lon="-2.6940680612254515">
    <tag k="addr:postcode" v="HR1 9TB"/>
    <tag k="removemelater" v="yes"/>
  </node>
  <node id="-168" lat="52.0531170429379" lon="-2.6940680612254515">
    <tag k="addr:postcode" v="HR1 9TD"/>
    <tag k="removemelater" v="yes"/>
  </node>
  <node id="-169" lat="52.0531170429379" lon="-2.6940680612254515">
    <tag k="addr:postcode" v="HR1 9TE"/>
    <tag k="removemelater" v="yes"/>
  </node>
  <node id="-170" lat="52.0531170429379" lon="-2.6940680612254515">
    <tag k="addr:postcode" v="HR1 9TF"/>
    <tag k="removemelater" v="yes"/>
  </node>
  <node id="-171" lat="52.0531170429379" lon="-2.6940680612254515">
    <tag k="addr:postcode" v="HR1 9TG"/>
    <tag k="removemelater" v="yes"/>
  </node>
  <node id="-172" lat="52.0531170429379" lon="-2.6940680612254515">
    <tag k="addr:postcode" v="HR1 9TH"/>
    <tag k="removemelater" v="yes"/>
  </node>
  <node id="-173" lat="52.0531170429379" lon="-2.6940680612254515">
    <tag k="addr:postcode" v="HR1 9TJ"/>
    <tag k="removemelater" v="yes"/>
  </node>
  <node id="-174" lat="52.0531170429379" lon="-2.6940680612254515">
    <tag k="addr:postcode" v="HR1 9TL"/>
    <tag k="removemelater" v="yes"/>
  </node>
  <node id="-175" lat="52.0531170429379" lon="-2.6940680612254515">
    <tag k="addr:postcode" v="HR1 9TN"/>
    <tag k="removemelater" v="yes"/>
  </node>
  <node id="-176" lat="52.0531170429379" lon="-2.6940680612254515">
    <tag k="addr:postcode" v="HR1 9TP"/>
    <tag k="removemelater" v="yes"/>
  </node>
  <node id="-177" lat="52.0531170429379" lon="-2.6940680612254515">
    <tag k="addr:postcode" v="HR1 9TQ"/>
    <tag k="removemelater" v="yes"/>
  </node>
  <node id="-178" lat="52.0531170429379" lon="-2.6940680612254515">
    <tag k="addr:postcode" v="HR1 9TR"/>
    <tag k="removemelater" v="yes"/>
  </node>
  <node id="-179" lat="52.0531170429379" lon="-2.6940680612254515">
    <tag k="addr:postcode" v="HR1 9TS"/>
    <tag k="removemelater" v="yes"/>
  </node>
  <node id="-180" lat="52.0531170429379" lon="-2.6940680612254515">
    <tag k="addr:postcode" v="HR1 9TT"/>
    <tag k="removemelater" v="yes"/>
  </node>
  <node id="-181" lat="52.0531170429379" lon="-2.6940680612254515">
    <tag k="addr:postcode" v="HR1 9TU"/>
    <tag k="removemelater" v="yes"/>
  </node>
  <node id="-182" lat="52.0531170429379" lon="-2.6940680612254515">
    <tag k="addr:postcode" v="HR1 9TW"/>
    <tag k="removemelater" v="yes"/>
  </node>
  <node id="-183" lat="52.0531170429379" lon="-2.6940680612254515">
    <tag k="addr:postcode" v="HR1 9TX"/>
    <tag k="removemelater" v="yes"/>
  </node>
  <node id="-184" lat="52.0531170429379" lon="-2.6940680612254515">
    <tag k="addr:postcode" v="HR1 9TY"/>
    <tag k="removemelater" v="yes"/>
  </node>
  <node id="-185" lat="52.0531170429379" lon="-2.6940680612254515">
    <tag k="addr:postcode" v="HR1 9TZ"/>
    <tag k="removemelater" v="yes"/>
  </node>
  <node id="-186" lat="52.0531170429379" lon="-2.6940680612254515">
    <tag k="addr:postcode" v="HR1 9UA"/>
    <tag k="removemelater" v="yes"/>
  </node>
  <node id="-187" lat="52.0531170429379" lon="-2.6940680612254515">
    <tag k="addr:postcode" v="HR1 9UB"/>
    <tag k="removemelater" v="yes"/>
  </node>
  <node id="-188" lat="52.0555911586085" lon="-2.713357874727789">
    <tag k="addr:postcode" v="HR1 9UD"/>
    <tag k="removemelater" v="yes"/>
  </node>
  <node id="-189" lat="52.0555911586085" lon="-2.713357874727789">
    <tag k="addr:postcode" v="HR1 9UE"/>
    <tag k="removemelater" v="yes"/>
  </node>
  <node id="-190" lat="51.98333475228424" lon="-2.906380490685263">
    <tag k="addr:postcode" v="HR2 0AP"/>
    <tag k="removemelater" v="yes"/>
  </node>
  <node id="-191" lat="51.98581085168229" lon="-2.9175266878369377">
    <tag k="addr:postcode" v="HR2 0AR"/>
    <tag k="removemelater" v="yes"/>
  </node>
  <node id="-192" lat="51.98145158699252" lon="-2.9310953723766944">
    <tag k="addr:postcode" v="HR2 0AU"/>
    <tag k="removemelater" v="yes"/>
  </node>
  <node id="-193" lat="51.929478269669666" lon="-2.851017797324994">
    <tag k="addr:postcode" v="HR2 0BZ"/>
    <tag k="removemelater" v="yes"/>
  </node>
  <node id="-194" lat="51.928682750631225" lon="-2.8403569928981867">
    <tag k="addr:postcode" v="HR2 0DB"/>
    <tag k="removemelater" v="yes"/>
  </node>
  <node id="-195" lat="51.93718459658544" lon="-2.889783672062707">
    <tag k="addr:postcode" v="HR2 0DL"/>
    <tag k="removemelater" v="yes"/>
  </node>
  <node id="-196" lat="51.94211509146198" lon="-2.9300476795089057">
    <tag k="addr:postcode" v="HR2 0DR"/>
    <tag k="removemelater" v="yes"/>
  </node>
  <node id="-197" lat="51.90618028847124" lon="-2.9698174478021175">
    <tag k="addr:postcode" v="HR2 0DU"/>
    <tag k="removemelater" v="yes"/>
  </node>
  <node id="-198" lat="51.95135315046445" lon="-2.9157462665282585">
    <tag k="addr:postcode" v="HR2 0EE"/>
    <tag k="removemelater" v="yes"/>
  </node>
  <node id="-199" lat="51.94207975688546" lon="-2.893997569584429">
    <tag k="addr:postcode" v="HR2 0HG"/>
    <tag k="removemelater" v="yes"/>
  </node>
  <node id="-200" lat="51.96518702009763" lon="-2.8986784114054625">
    <tag k="addr:postcode" v="HR2 0JG"/>
    <tag k="removemelater" v="yes"/>
  </node>
  <node id="-201" lat="51.97324436996064" lon="-2.9331671044171355">
    <tag k="addr:postcode" v="HR2 0JJ"/>
    <tag k="removemelater" v="yes"/>
  </node>
  <node id="-202" lat="51.97446794204521" lon="-2.9170474065355942">
    <tag k="addr:postcode" v="HR2 0JQ"/>
    <tag k="removemelater" v="yes"/>
  </node>
  <node id="-203" lat="52.02325980669978" lon="-2.998042769164322">
    <tag k="addr:postcode" v="HR2 0JY"/>
    <tag k="removemelater" v="yes"/>
  </node>
  <node id="-204" lat="52.02562770436895" lon="-3.0155417301817367">
    <tag k="addr:postcode" v="HR2 0JZ"/>
    <tag k="removemelater" v="yes"/>
  </node>
  <node id="-205" lat="52.03729192348072" lon="-3.0078752553134716">
    <tag k="addr:postcode" v="HR2 0LB"/>
    <tag k="removemelater" v="yes"/>
  </node>
  <node id="-206" lat="52.032377529015506" lon="-3.0063944633030126">
    <tag k="addr:postcode" v="HR2 0LR"/>
    <tag k="removemelater" v="yes"/>
  </node>
  <node id="-207" lat="51.97200169894453" lon="-3.007573881983648">
    <tag k="addr:postcode" v="HR2 0ND"/>
    <tag k="removemelater" v="yes"/>
  </node>
  <node id="-208" lat="51.969509980274964" lon="-3.0139957367068164">
    <tag k="addr:postcode" v="HR2 0NE"/>
    <tag k="removemelater" v="yes"/>
  </node>
  <node id="-209" lat="51.96653064116879" lon="-3.025791453263645">
    <tag k="addr:postcode" v="HR2 0NG"/>
    <tag k="removemelater" v="yes"/>
  </node>
  <node id="-210" lat="51.97843093371618" lon="-3.03650260402815">
    <tag k="addr:postcode" v="HR2 0NH"/>
    <tag k="removemelater" v="yes"/>
  </node>
  <node id="-211" lat="51.987914039871214" lon="-3.041876805733383">
    <tag k="addr:postcode" v="HR2 0NL"/>
    <tag k="removemelater" v="yes"/>
  </node>
  <node id="-212" lat="51.9568456642247" lon="-3.0082817757391553">
    <tag k="addr:postcode" v="HR2 0NS"/>
    <tag k="removemelater" v="yes"/>
  </node>
  <node id="-213" lat="51.96602616776771" lon="-3.008211283792839">
    <tag k="addr:postcode" v="HR2 0NT"/>
    <tag k="removemelater" v="yes"/>
  </node>
  <node id="-214" lat="52.03647894169614" lon="-3.041387552728898">
    <tag k="addr:postcode" v="HR2 0PU"/>
    <tag k="removemelater" v="yes"/>
  </node>
  <node id="-215" lat="52.02911866130831" lon="-3.0631536208371037">
    <tag k="addr:postcode" v="HR2 0PX"/>
    <tag k="removemelater" v="yes"/>
  </node>
  <node id="-216" lat="52.044631026608904" lon="-2.963524212747802">
    <tag k="addr:postcode" v="HR2 0SH"/>
    <tag k="removemelater" v="yes"/>
  </node>
  <node id="-217" lat="52.046174898523915" lon="-2.969317161277926">
    <tag k="addr:postcode" v="HR2 0SL"/>
    <tag k="removemelater" v="yes"/>
  </node>
  <node id="-218" lat="52.04301015133208" lon="-2.9627311563543652">
    <tag k="addr:postcode" v="HR2 0SQ"/>
    <tag k="removemelater" v="yes"/>
  </node>
  <node id="-219" lat="52.05778909054634" lon="-2.982593368970233">
    <tag k="addr:postcode" v="HR2 0SW"/>
    <tag k="removemelater" v="yes"/>
  </node>
  <node id="-220" lat="52.02955542163187" lon="-2.9956904331182836">
    <tag k="addr:postcode" v="HR2 0SY"/>
    <tag k="removemelater" v="yes"/>
  </node>
  <node id="-221" lat="51.94398768249639" lon="-2.8830369475462154">
    <tag k="addr:postcode" v="HR2 0UA"/>
    <tag k="removemelater" v="yes"/>
  </node>
  <node id="-222" lat="52.06074501274375" lon="-2.71002685487196">
    <tag k="addr:postcode" v="HR2 0UW"/>
    <tag k="removemelater" v="yes"/>
  </node>
  <node id="-223" lat="52.06074501274375" lon="-2.71002685487196">
    <tag k="addr:postcode" v="HR2 0YG"/>
    <tag k="removemelater" v="yes"/>
  </node>
  <node id="-224" lat="52.04903160255012" lon="-2.7186634136393684">
    <tag k="addr:postcode" v="HR2 6AA"/>
    <tag k="removemelater" v="yes"/>
  </node>
  <node id="-225" lat="52.04413805423321" lon="-2.717607982670048">
    <tag k="addr:postcode" v="HR2 6AJ"/>
    <tag k="removemelater" v="yes"/>
  </node>
  <node id="-226" lat="52.037528551693775" lon="-2.678373265661324">
    <tag k="addr:postcode" v="HR2 6BQ"/>
    <tag k="removemelater" v="yes"/>
  </node>
  <node id="-227" lat="52.04118782071222" lon="-2.704409779227837">
    <tag k="addr:postcode" v="HR2 6EF"/>
    <tag k="removemelater" v="yes"/>
  </node>
  <node id="-228" lat="52.03652007564203" lon="-2.678634981080931">
    <tag k="addr:postcode" v="HR2 6EQ"/>
    <tag k="removemelater" v="yes"/>
  </node>
  <node id="-229" lat="52.03847159707223" lon="-2.6863038615149533">
    <tag k="addr:postcode" v="HR2 6FE"/>
    <tag k="removemelater" v="yes"/>
  </node>
  <node id="-230" lat="52.04104477086823" lon="-2.6844479264660883">
    <tag k="addr:postcode" v="HR2 6FG"/>
    <tag k="removemelater" v="yes"/>
  </node>
  <node id="-231" lat="52.04737470061684" lon="-2.719088859190971">
    <tag k="addr:postcode" v="HR2 6FH"/>
    <tag k="removemelater" v="yes"/>
  </node>
  <node id="-232" lat="52.04041916373868" lon="-2.6884331464089506">
    <tag k="addr:postcode" v="HR2 6JD"/>
    <tag k="removemelater" v="yes"/>
  </node>
  <node id="-233" lat="52.03819680184385" lon="-2.6963590005920772">
    <tag k="addr:postcode" v="HR2 6JF"/>
    <tag k="removemelater" v="yes"/>
  </node>
  <node id="-234" lat="52.03722411129203" lon="-2.685920289323958">
    <tag k="addr:postcode" v="HR2 6JG"/>
    <tag k="removemelater" v="yes"/>
  </node>
  <node id="-235" lat="52.03873581407767" lon="-2.677939600620241">
    <tag k="addr:postcode" v="HR2 6JH"/>
    <tag k="removemelater" v="yes"/>
  </node>
  <node id="-236" lat="52.037495459035696" lon="-2.688723522758729">
    <tag k="addr:postcode" v="HR2 6JJ"/>
    <tag k="removemelater" v="yes"/>
  </node>
  <node id="-237" lat="52.03605444008447" lon="-2.6798670628987176">
    <tag k="addr:postcode" v="HR2 6JL"/>
    <tag k="removemelater" v="yes"/>
  </node>
  <node id="-238" lat="52.035817589235464" lon="-2.6835079650341216">
    <tag k="addr:postcode" v="HR2 6JQ"/>
    <tag k="removemelater" v="yes"/>
  </node>
  <node id="-239" lat="52.03702178628314" lon="-2.6958888062361885">
    <tag k="addr:postcode" v="HR2 6JR"/>
    <tag k="removemelater" v="yes"/>
  </node>
  <node id="-240" lat="52.03675742693277" lon="-2.6795715870186023">
    <tag k="addr:postcode" v="HR2 6JS"/>
    <tag k="removemelater" v="yes"/>
  </node>
  <node id="-241" lat="52.04099739304002" lon="-2.6925535022121805">
    <tag k="addr:postcode" v="HR2 6JT"/>
    <tag k="removemelater" v="yes"/>
  </node>
  <node id="-242" lat="52.03710326025534" lon="-2.6896796683110518">
    <tag k="addr:postcode" v="HR2 6JU"/>
    <tag k="removemelater" v="yes"/>
  </node>
  <node id="-243" lat="52.036997792902426" lon="-2.6908005796016004">
    <tag k="addr:postcode" v="HR2 6JX"/>
    <tag k="removemelater" v="yes"/>
  </node>
  <node id="-244" lat="52.03710926451884" lon="-2.6932514719082747">
    <tag k="addr:postcode" v="HR2 6JZ"/>
    <tag k="removemelater" v="yes"/>
  </node>
  <node id="-245" lat="52.04018444167274" lon="-2.6839682397377578">
    <tag k="addr:postcode" v="HR2 6LB"/>
    <tag k="removemelater" v="yes"/>
  </node>
  <node id="-246" lat="52.04051422149612" lon="-2.6766835189711613">
    <tag k="addr:postcode" v="HR2 6LD"/>
    <tag k="removemelater" v="yes"/>
  </node>
  <node id="-247" lat="52.035571772261946" lon="-2.6886647945024733">
    <tag k="addr:postcode" v="HR2 6LR"/>
    <tag k="removemelater" v="yes"/>
  </node>
  <node id="-248" lat="52.03602353561471" lon="-2.692884797885947">
    <tag k="addr:postcode" v="HR2 6NP"/>
    <tag k="removemelater" v="yes"/>
  </node>
  <node id="-249" lat="52.03915487524618" lon="-2.6909213177891513">
    <tag k="addr:postcode" v="HR2 6NR"/>
    <tag k="removemelater" v="yes"/>
  </node>
  <node id="-250" lat="52.035406923840085" lon="-2.687641810615677">
    <tag k="addr:postcode" v="HR2 6NT"/>
    <tag k="removemelater" v="yes"/>
  </node>
  <node id="-251" lat="52.036290510063715" lon="-2.685672745114974">
    <tag k="addr:postcode" v="HR2 6NU"/>
    <tag k="removemelater" v="yes"/>
  </node>
  <node id="-252" lat="52.03480668560983" lon="-2.688813388687269">
    <tag k="addr:postcode" v="HR2 6NX"/>
    <tag k="removemelater" v="yes"/>
  </node>
  <node id="-253" lat="51.96045912801991" lon="-2.6625680091008443">
    <tag k="addr:postcode" v="HR2 6QH"/>
    <tag k="removemelater" v="yes"/>
  </node>
  <node id="-254" lat="52.032404123197466" lon="-2.695277743660034">
    <tag k="addr:postcode" v="HR2 6QZ"/>
    <tag k="removemelater" v="yes"/>
  </node>
  <node id="-255" lat="52.035244700821764" lon="-2.6846217156677663">
    <tag k="addr:postcode" v="HR2 6RQ"/>
    <tag k="removemelater" v="yes"/>
  </node>
  <node id="-256" lat="52.036120971566156" lon="-2.6808010698560247">
    <tag k="addr:postcode" v="HR2 6SQ"/>
    <tag k="removemelater" v="yes"/>
  </node>
  <node id="-257" lat="52.03693337927765" lon="-2.684895353394497">
    <tag k="addr:postcode" v="HR2 6SS"/>
    <tag k="removemelater" v="yes"/>
  </node>
  <node id="-258" lat="52.06074501274375" lon="-2.71002685487196">
    <tag k="addr:postcode" v="HR2 6YL"/>
    <tag k="removemelater" v="yes"/>
  </node>
  <node id="-259" lat="52.06074501274375" lon="-2.71002685487196">
    <tag k="addr:postcode" v="HR2 6YZ"/>
    <tag k="removemelater" v="yes"/>
  </node>
  <node id="-260" lat="52.043679478528055" lon="-2.7322249533688416">
    <tag k="addr:postcode" v="HR2 7BS"/>
    <tag k="removemelater" v="yes"/>
  </node>
  <node id="-261" lat="52.04183501654741" lon="-2.733886079550404">
    <tag k="addr:postcode" v="HR2 7DB"/>
    <tag k="removemelater" v="yes"/>
  </node>
  <node id="-262" lat="52.04345536556212" lon="-2.732119226015398">
    <tag k="addr:postcode" v="HR2 7FF"/>
    <tag k="removemelater" v="yes"/>
  </node>
  <node id="-263" lat="52.043760135527805" lon="-2.72936847297455">
    <tag k="addr:postcode" v="HR2 7FG"/>
    <tag k="removemelater" v="yes"/>
  </node>
  <node id="-264" lat="52.042296213006686" lon="-2.732012798847351">
    <tag k="addr:postcode" v="HR2 7FH"/>
    <tag k="removemelater" v="yes"/>
  </node>
  <node id="-265" lat="52.04250644067826" lon="-2.73290562674161">
    <tag k="addr:postcode" v="HR2 7FJ"/>
    <tag k="removemelater" v="yes"/>
  </node>
  <node id="-266" lat="52.042214731704036" lon="-2.7306555175159857">
    <tag k="addr:postcode" v="HR2 7FL"/>
    <tag k="removemelater" v="yes"/>
  </node>
  <node id="-267" lat="52.04282598248818" lon="-2.73212351887787">
    <tag k="addr:postcode" v="HR2 7HE"/>
    <tag k="removemelater" v="yes"/>
  </node>
  <node id="-268" lat="52.03905146247809" lon="-2.7304143945046975">
    <tag k="addr:postcode" v="HR2 7HR"/>
    <tag k="removemelater" v="yes"/>
  </node>
  <node id="-269" lat="52.03904241399329" lon="-2.7318721541902367">
    <tag k="addr:postcode" v="HR2 7HS"/>
    <tag k="removemelater" v="yes"/>
  </node>
  <node id="-270" lat="52.03935377326479" lon="-2.7309587531119597">
    <tag k="addr:postcode" v="HR2 7HU"/>
    <tag k="removemelater" v="yes"/>
  </node>
  <node id="-271" lat="52.04942284346019" lon="-2.722315303071924">
    <tag k="addr:postcode" v="HR2 7JE"/>
    <tag k="removemelater" v="yes"/>
  </node>
  <node id="-272" lat="52.046998565566845" lon="-2.723253172567962">
    <tag k="addr:postcode" v="HR2 7LW"/>
    <tag k="removemelater" v="yes"/>
  </node>
  <node id="-273" lat="52.04250714290899" lon="-2.72844409727544">
    <tag k="addr:postcode" v="HR2 7LZ"/>
    <tag k="removemelater" v="yes"/>
  </node>
  <node id="-274" lat="52.042468679890305" lon="-2.727393698466899">
    <tag k="addr:postcode" v="HR2 7NB"/>
    <tag k="removemelater" v="yes"/>
  </node>
  <node id="-275" lat="52.041805389664326" lon="-2.728520164717633">
    <tag k="addr:postcode" v="HR2 7ND"/>
    <tag k="removemelater" v="yes"/>
  </node>
  <node id="-276" lat="52.04038705821934" lon="-2.7281617688663475">
    <tag k="addr:postcode" v="HR2 7NE"/>
    <tag k="removemelater" v="yes"/>
  </node>
  <node id="-277" lat="52.03872995912337" lon="-2.7271580424444575">
    <tag k="addr:postcode" v="HR2 7NF"/>
    <tag k="removemelater" v="yes"/>
  </node>
  <node id="-278" lat="52.03735207256865" lon="-2.72752929741106">
    <tag k="addr:postcode" v="HR2 7NG"/>
    <tag k="removemelater" v="yes"/>
  </node>
  <node id="-279" lat="52.0400690760041" lon="-2.7286960379238736">
    <tag k="addr:postcode" v="HR2 7NJ"/>
    <tag k="removemelater" v="yes"/>
  </node>
  <node id="-280" lat="52.038550143222714" lon="-2.724239342120032">
    <tag k="addr:postcode" v="HR2 7NL"/>
    <tag k="removemelater" v="yes"/>
  </node>
  <node id="-281" lat="52.0379621331054" lon="-2.726285434997553">
    <tag k="addr:postcode" v="HR2 7NN"/>
    <tag k="removemelater" v="yes"/>
  </node>
  <node id="-282" lat="52.03810291013534" lon="-2.725325518989439">
    <tag k="addr:postcode" v="HR2 7NR"/>
    <tag k="removemelater" v="yes"/>
  </node>
  <node id="-283" lat="52.03815180758088" lon="-2.7246848444635825">
    <tag k="addr:postcode" v="HR2 7NS"/>
    <tag k="removemelater" v="yes"/>
  </node>
  <node id="-284" lat="52.043112682373355" lon="-2.729387090604618">
    <tag k="addr:postcode" v="HR2 7NU"/>
    <tag k="removemelater" v="yes"/>
  </node>
  <node id="-285" lat="52.04217336324938" lon="-2.7271702013880077">
    <tag k="addr:postcode" v="HR2 7PA"/>
    <tag k="removemelater" v="yes"/>
  </node>
  <node id="-286" lat="52.04233823849883" lon="-2.7310366159417305">
    <tag k="addr:postcode" v="HR2 7PB"/>
    <tag k="removemelater" v="yes"/>
  </node>
  <node id="-287" lat="52.03946193375549" lon="-2.7221692573205107">
    <tag k="addr:postcode" v="HR2 7PN"/>
    <tag k="removemelater" v="yes"/>
  </node>
  <node id="-288" lat="52.03711717119847" lon="-2.7262571582452217">
    <tag k="addr:postcode" v="HR2 7PY"/>
    <tag k="removemelater" v="yes"/>
  </node>
  <node id="-289" lat="52.03677150507347" lon="-2.725449746590782">
    <tag k="addr:postcode" v="HR2 7PZ"/>
    <tag k="removemelater" v="yes"/>
  </node>
  <node id="-290" lat="52.036097530694114" lon="-2.7253950989418483">
    <tag k="addr:postcode" v="HR2 7QA"/>
    <tag k="removemelater" v="yes"/>
  </node>
  <node id="-291" lat="52.0363281995582" lon="-2.7244366736050853">
    <tag k="addr:postcode" v="HR2 7QB"/>
    <tag k="removemelater" v="yes"/>
  </node>
  <node id="-292" lat="52.036105444949634" lon="-2.7270279757248397">
    <tag k="addr:postcode" v="HR2 7QD"/>
    <tag k="removemelater" v="yes"/>
  </node>
  <node id="-293" lat="52.035615824589705" lon="-2.729148411899559">
    <tag k="addr:postcode" v="HR2 7QE"/>
    <tag k="removemelater" v="yes"/>
  </node>
  <node id="-294" lat="52.0362891017473" lon="-2.727861911949908">
    <tag k="addr:postcode" v="HR2 7QF"/>
    <tag k="removemelater" v="yes"/>
  </node>
  <node id="-295" lat="52.03670866876203" lon="-2.7268919816944788">
    <tag k="addr:postcode" v="HR2 7QG"/>
    <tag k="removemelater" v="yes"/>
  </node>
  <node id="-296" lat="52.0401119776312" lon="-2.7217277751802866">
    <tag k="addr:postcode" v="HR2 7QP"/>
    <tag k="removemelater" v="yes"/>
  </node>
  <node id="-297" lat="52.05216506948906" lon="-2.7178970389191863">
    <tag k="addr:postcode" v="HR2 7RA"/>
    <tag k="removemelater" v="yes"/>
  </node>
  <node id="-298" lat="52.05220555873085" lon="-2.7171539374523768">
    <tag k="addr:postcode" v="HR2 7RB"/>
    <tag k="removemelater" v="yes"/>
  </node>
  <node id="-299" lat="52.051237064786505" lon="-2.718217570175891">
    <tag k="addr:postcode" v="HR2 7RD"/>
    <tag k="removemelater" v="yes"/>
  </node>
  <node id="-300" lat="52.05144080897697" lon="-2.718716663527362">
    <tag k="addr:postcode" v="HR2 7RE"/>
    <tag k="removemelater" v="yes"/>
  </node>
  <node id="-301" lat="52.0486713834299" lon="-2.7187597081088426">
    <tag k="addr:postcode" v="HR2 7RH"/>
    <tag k="removemelater" v="yes"/>
  </node>
  <node id="-302" lat="52.05075463127756" lon="-2.7177140144438616">
    <tag k="addr:postcode" v="HR2 7RQ"/>
    <tag k="removemelater" v="yes"/>
  </node>
  <node id="-303" lat="52.04735972255702" lon="-2.7215383561213016">
    <tag k="addr:postcode" v="HR2 7SF"/>
    <tag k="removemelater" v="yes"/>
  </node>
  <node id="-304" lat="52.04128758264806" lon="-2.7394757564298566">
    <tag k="addr:postcode" v="HR2 7XT"/>
    <tag k="removemelater" v="yes"/>
  </node>
  <node id="-305" lat="52.01514451304513" lon="-2.7333616936731775">
    <tag k="addr:postcode" v="HR2 8BT"/>
    <tag k="removemelater" v="yes"/>
  </node>
  <node id="-306" lat="51.97705761282196" lon="-2.754941815565561">
    <tag k="addr:postcode" v="HR2 8DJ"/>
    <tag k="removemelater" v="yes"/>
  </node>
  <node id="-307" lat="51.99030660076671" lon="-2.776237724974191">
    <tag k="addr:postcode" v="HR2 8DU"/>
    <tag k="removemelater" v="yes"/>
  </node>
  <node id="-308" lat="51.93203928202791" lon="-2.7661704182893607">
    <tag k="addr:postcode" v="HR2 8ES"/>
    <tag k="removemelater" v="yes"/>
  </node>
  <node id="-309" lat="51.97585910805391" lon="-2.7297062342453158">
    <tag k="addr:postcode" v="HR2 8PS"/>
    <tag k="removemelater" v="yes"/>
  </node>
  <node id="-310" lat="51.91199157295111" lon="-2.7433970739515963">
    <tag k="addr:postcode" v="HR2 8QB"/>
    <tag k="removemelater" v="yes"/>
  </node>
  <node id="-311" lat="52.06074501274375" lon="-2.71002685487196">
    <tag k="addr:postcode" v="HR2 8YT"/>
    <tag k="removemelater" v="yes"/>
  </node>
  <node id="-312" lat="52.00718327737437" lon="-2.792322322435974">
    <tag k="addr:postcode" v="HR2 9AL"/>
    <tag k="removemelater" v="yes"/>
  </node>
  <node id="-313" lat="51.99815323118923" lon="-2.7820395856315594">
    <tag k="addr:postcode" v="HR2 9AN"/>
    <tag k="removemelater" v="yes"/>
  </node>
  <node id="-314" lat="51.99673095700578" lon="-2.790375315643338">
    <tag k="addr:postcode" v="HR2 9AP"/>
    <tag k="removemelater" v="yes"/>
  </node>
  <node id="-315" lat="52.00472231210173" lon="-2.798601348494787">
    <tag k="addr:postcode" v="HR2 9AR"/>
    <tag k="removemelater" v="yes"/>
  </node>
  <node id="-316" lat="52.007954646032886" lon="-2.801893227660889">
    <tag k="addr:postcode" v="HR2 9AT"/>
    <tag k="removemelater" v="yes"/>
  </node>
  <node id="-317" lat="51.99865674632247" lon="-2.783388433769094">
    <tag k="addr:postcode" v="HR2 9AW"/>
    <tag k="removemelater" v="yes"/>
  </node>
  <node id="-318" lat="52.00908330827098" lon="-2.8181874272071528">
    <tag k="addr:postcode" v="HR2 9BD"/>
    <tag k="removemelater" v="yes"/>
  </node>
  <node id="-319" lat="52.0193971964367" lon="-2.8009903613932883">
    <tag k="addr:postcode" v="HR2 9BG"/>
    <tag k="removemelater" v="yes"/>
  </node>
  <node id="-320" lat="52.02423857314392" lon="-2.7937168484481245">
    <tag k="addr:postcode" v="HR2 9BH"/>
    <tag k="removemelater" v="yes"/>
  </node>
  <node id="-321" lat="52.01992117897469" lon="-2.7913087399857552">
    <tag k="addr:postcode" v="HR2 9BJ"/>
    <tag k="removemelater" v="yes"/>
  </node>
  <node id="-322" lat="52.01984152064123" lon="-2.792458591267401">
    <tag k="addr:postcode" v="HR2 9BL"/>
    <tag k="removemelater" v="yes"/>
  </node>
  <node id="-323" lat="52.01699891041696" lon="-2.7966779289928945">
    <tag k="addr:postcode" v="HR2 9BN"/>
    <tag k="removemelater" v="yes"/>
  </node>
  <node id="-324" lat="52.01461415393814" lon="-2.799651791030432">
    <tag k="addr:postcode" v="HR2 9BP"/>
    <tag k="removemelater" v="yes"/>
  </node>
  <node id="-325" lat="52.02422473075605" lon="-2.7997503664894747">
    <tag k="addr:postcode" v="HR2 9BQ"/>
    <tag k="removemelater" v="yes"/>
  </node>
  <node id="-326" lat="52.0090781052858" lon="-2.796653766915402">
    <tag k="addr:postcode" v="HR2 9BS"/>
    <tag k="removemelater" v="yes"/>
  </node>
  <node id="-327" lat="52.00584741147982" lon="-2.7970917057108737">
    <tag k="addr:postcode" v="HR2 9BT"/>
    <tag k="removemelater" v="yes"/>
  </node>
  <node id="-328" lat="52.015050554640155" lon="-2.794953035738022">
    <tag k="addr:postcode" v="HR2 9BW"/>
    <tag k="removemelater" v="yes"/>
  </node>
  <node id="-329" lat="51.96777176991127" lon="-2.8408989386623844">
    <tag k="addr:postcode" v="HR2 9DY"/>
    <tag k="removemelater" v="yes"/>
  </node>
  <node id="-330" lat="52.01859989862592" lon="-2.853072823166868">
    <tag k="addr:postcode" v="HR2 9HY"/>
    <tag k="removemelater" v="yes"/>
  </node>
  <node id="-331" lat="52.07688348842668" lon="-2.944388693441885">
    <tag k="addr:postcode" v="HR2 9JA"/>
    <tag k="removemelater" v="yes"/>
  </node>
  <node id="-332" lat="52.049668276660256" lon="-2.8829173333075975">
    <tag k="addr:postcode" v="HR2 9JR"/>
    <tag k="removemelater" v="yes"/>
  </node>
  <node id="-333" lat="52.06037941530396" lon="-2.8884962853186495">
    <tag k="addr:postcode" v="HR2 9JS"/>
    <tag k="removemelater" v="yes"/>
  </node>
  <node id="-334" lat="52.06971639579228" lon="-2.9044525913970647">
    <tag k="addr:postcode" v="HR2 9JX"/>
    <tag k="removemelater" v="yes"/>
  </node>
  <node id="-335" lat="52.06687028124908" lon="-2.9190417189388924">
    <tag k="addr:postcode" v="HR2 9JY"/>
    <tag k="removemelater" v="yes"/>
  </node>
  <node id="-336" lat="52.06545481919597" lon="-2.9321271269345286">
    <tag k="addr:postcode" v="HR2 9JZ"/>
    <tag k="removemelater" v="yes"/>
  </node>
  <node id="-337" lat="52.07374137235554" lon="-2.9347801444065045">
    <tag k="addr:postcode" v="HR2 9LA"/>
    <tag k="removemelater" v="yes"/>
  </node>
  <node id="-338" lat="52.07808320485177" lon="-2.947259456341047">
    <tag k="addr:postcode" v="HR2 9LE"/>
    <tag k="removemelater" v="yes"/>
  </node>
  <node id="-339" lat="52.08283866051275" lon="-2.965076728496198">
    <tag k="addr:postcode" v="HR2 9LF"/>
    <tag k="removemelater" v="yes"/>
  </node>
  <node id="-340" lat="52.078881656086594" lon="-2.9396154365603198">
    <tag k="addr:postcode" v="HR2 9LG"/>
    <tag k="removemelater" v="yes"/>
  </node>
  <node id="-341" lat="52.085129122447675" lon="-2.93637540586173">
    <tag k="addr:postcode" v="HR2 9LH"/>
    <tag k="removemelater" v="yes"/>
  </node>
  <node id="-342" lat="52.075444256430075" lon="-2.9444750425043305">
    <tag k="addr:postcode" v="HR2 9LN"/>
    <tag k="removemelater" v="yes"/>
  </node>
  <node id="-343" lat="52.07949556810414" lon="-2.938169087757408">
    <tag k="addr:postcode" v="HR2 9LQ"/>
    <tag k="removemelater" v="yes"/>
  </node>
  <node id="-344" lat="52.04088672533331" lon="-2.8668376821880264">
    <tag k="addr:postcode" v="HR2 9NU"/>
    <tag k="removemelater" v="yes"/>
  </node>
  <node id="-345" lat="52.04511553240551" lon="-2.8491305118217904">
    <tag k="addr:postcode" v="HR2 9PH"/>
    <tag k="removemelater" v="yes"/>
  </node>
  <node id="-346" lat="52.044379486584525" lon="-2.8588857700190773">
    <tag k="addr:postcode" v="HR2 9PN"/>
    <tag k="removemelater" v="yes"/>
  </node>
  <node id="-347" lat="52.04728815046825" lon="-2.902760117617745">
    <tag k="addr:postcode" v="HR2 9PS"/>
    <tag k="removemelater" v="yes"/>
  </node>
  <node id="-348" lat="52.05328198070321" lon="-2.905506053316362">
    <tag k="addr:postcode" v="HR2 9PT"/>
    <tag k="removemelater" v="yes"/>
  </node>
  <node id="-349" lat="52.05538811813555" lon="-2.9063799676387503">
    <tag k="addr:postcode" v="HR2 9PU"/>
    <tag k="removemelater" v="yes"/>
  </node>
  <node id="-350" lat="52.04426405712461" lon="-2.8733623778695816">
    <tag k="addr:postcode" v="HR2 9PW"/>
    <tag k="removemelater" v="yes"/>
  </node>
  <node id="-351" lat="52.057642396409555" lon="-2.9229069843249036">
    <tag k="addr:postcode" v="HR2 9PX"/>
    <tag k="removemelater" v="yes"/>
  </node>
  <node id="-352" lat="52.0619706098238" lon="-2.929312267241162">
    <tag k="addr:postcode" v="HR2 9PY"/>
    <tag k="removemelater" v="yes"/>
  </node>
  <node id="-353" lat="52.03409240359355" lon="-2.7950721710515327">
    <tag k="addr:postcode" v="HR2 9RL"/>
    <tag k="removemelater" v="yes"/>
  </node>
  <node id="-354" lat="52.03901663132863" lon="-2.754483875796375">
    <tag k="addr:postcode" v="HR2 9RP"/>
    <tag k="removemelater" v="yes"/>
  </node>
  <node id="-355" lat="52.0253727237946" lon="-2.7538315108834235">
    <tag k="addr:postcode" v="HR2 9RU"/>
    <tag k="removemelater" v="yes"/>
  </node>
  <node id="-356" lat="52.03892834064197" lon="-2.755634134085303">
    <tag k="addr:postcode" v="HR2 9RZ"/>
    <tag k="removemelater" v="yes"/>
  </node>
  <node id="-357" lat="52.03281842446992" lon="-2.7730527355355337">
    <tag k="addr:postcode" v="HR2 9SF"/>
    <tag k="removemelater" v="yes"/>
  </node>
  <node id="-358" lat="52.030077942033756" lon="-2.8010500714636066">
    <tag k="addr:postcode" v="HR2 9SY"/>
    <tag k="removemelater" v="yes"/>
  </node>
  <node id="-359" lat="52.022970739811576" lon="-2.823847817897146">
    <tag k="addr:postcode" v="HR2 9TR"/>
    <tag k="removemelater" v="yes"/>
  </node>
  <node id="-360" lat="52.06074501274375" lon="-2.71002685487196">
    <tag k="addr:postcode" v="HR2 9YN"/>
    <tag k="removemelater" v="yes"/>
  </node>
  <node id="-361" lat="52.07464033348398" lon="-3.1250941309855493">
    <tag k="addr:postcode" v="HR3 5AA"/>
    <tag k="removemelater" v="yes"/>
  </node>
  <node id="-362" lat="52.07469076457158" lon="-3.1235779270693182">
    <tag k="addr:postcode" v="HR3 5AB"/>
    <tag k="removemelater" v="yes"/>
  </node>
  <node id="-363" lat="52.07395595067154" lon="-3.1223776167482593">
    <tag k="addr:postcode" v="HR3 5AD"/>
    <tag k="removemelater" v="yes"/>
  </node>
  <node id="-364" lat="52.074392619385335" lon="-3.1256131772795626">
    <tag k="addr:postcode" v="HR3 5AE"/>
    <tag k="removemelater" v="yes"/>
  </node>
  <node id="-365" lat="52.07424315285704" lon="-3.125259234675375">
    <tag k="addr:postcode" v="HR3 5AF"/>
    <tag k="removemelater" v="yes"/>
  </node>
  <node id="-366" lat="52.07397905816629" lon="-3.1246689589941172">
    <tag k="addr:postcode" v="HR3 5AG"/>
    <tag k="removemelater" v="yes"/>
  </node>
  <node id="-367" lat="52.07355491154579" lon="-3.1248333861915243">
    <tag k="addr:postcode" v="HR3 5AH"/>
    <tag k="removemelater" v="yes"/>
  </node>
  <node id="-368" lat="52.0733151365076" lon="-3.124520955196536">
    <tag k="addr:postcode" v="HR3 5AJ"/>
    <tag k="removemelater" v="yes"/>
  </node>
  <node id="-369" lat="52.06074501274375" lon="-2.71002685487196">
    <tag k="addr:postcode" v="HR3 5AL"/>
    <tag k="removemelater" v="yes"/>
  </node>
  <node id="-370" lat="52.07419665609509" lon="-3.1235363371455946">
    <tag k="addr:postcode" v="HR3 5AN"/>
    <tag k="removemelater" v="yes"/>
  </node>
  <node id="-371" lat="52.073355401890375" lon="-3.1212390730650488">
    <tag k="addr:postcode" v="HR3 5AP"/>
    <tag k="removemelater" v="yes"/>
  </node>
  <node id="-372" lat="52.074021356706105" lon="-3.1249472485576546">
    <tag k="addr:postcode" v="HR3 5AQ"/>
    <tag k="removemelater" v="yes"/>
  </node>
  <node id="-373" lat="52.07468807647278" lon="-3.1219728413315857">
    <tag k="addr:postcode" v="HR3 5AR"/>
    <tag k="removemelater" v="yes"/>
  </node>
  <node id="-374" lat="52.07501093668774" lon="-3.123002320218772">
    <tag k="addr:postcode" v="HR3 5AS"/>
    <tag k="removemelater" v="yes"/>
  </node>
  <node id="-375" lat="52.07602217098859" lon="-3.1244430793920848">
    <tag k="addr:postcode" v="HR3 5AT"/>
    <tag k="removemelater" v="yes"/>
  </node>
  <node id="-376" lat="52.07610418416468" lon="-3.1243284083245033">
    <tag k="addr:postcode" v="HR3 5AU"/>
    <tag k="removemelater" v="yes"/>
  </node>
  <node id="-377" lat="52.07309746594203" lon="-3.1218891844687304">
    <tag k="addr:postcode" v="HR3 5AW"/>
    <tag k="removemelater" v="yes"/>
  </node>
  <node id="-378" lat="52.07617289302831" lon="-3.124665740922673">
    <tag k="addr:postcode" v="HR3 5AX"/>
    <tag k="removemelater" v="yes"/>
  </node>
  <node id="-379" lat="52.0757266527261" lon="-3.124318920874826">
    <tag k="addr:postcode" v="HR3 5AY"/>
    <tag k="removemelater" v="yes"/>
  </node>
  <node id="-380" lat="52.07551773852195" lon="-3.123598694909072">
    <tag k="addr:postcode" v="HR3 5AZ"/>
    <tag k="removemelater" v="yes"/>
  </node>
  <node id="-381" lat="52.07759012675106" lon="-3.124073911968598">
    <tag k="addr:postcode" v="HR3 5BA"/>
    <tag k="removemelater" v="yes"/>
  </node>
  <node id="-382" lat="52.077652406319345" lon="-3.1231999542603317">
    <tag k="addr:postcode" v="HR3 5BD"/>
    <tag k="removemelater" v="yes"/>
  </node>
  <node id="-383" lat="52.07808248018578" lon="-3.1233566739485337">
    <tag k="addr:postcode" v="HR3 5BE"/>
    <tag k="removemelater" v="yes"/>
  </node>
  <node id="-384" lat="52.07701408407777" lon="-3.1250808669616443">
    <tag k="addr:postcode" v="HR3 5BG"/>
    <tag k="removemelater" v="yes"/>
  </node>
  <node id="-385" lat="52.076335027962365" lon="-3.123692178592799">
    <tag k="addr:postcode" v="HR3 5BH"/>
    <tag k="removemelater" v="yes"/>
  </node>
  <node id="-386" lat="52.077249047418185" lon="-3.1249554486799997">
    <tag k="addr:postcode" v="HR3 5BJ"/>
    <tag k="removemelater" v="yes"/>
  </node>
  <node id="-387" lat="52.075067404539304" lon="-3.1246233607353613">
    <tag k="addr:postcode" v="HR3 5BL"/>
    <tag k="removemelater" v="yes"/>
  </node>
  <node id="-388" lat="52.07450884309381" lon="-3.1247406400469773">
    <tag k="addr:postcode" v="HR3 5BN"/>
    <tag k="removemelater" v="yes"/>
  </node>
  <node id="-389" lat="52.07524793401747" lon="-3.123606510442601">
    <tag k="addr:postcode" v="HR3 5BP"/>
    <tag k="removemelater" v="yes"/>
  </node>
  <node id="-390" lat="52.07536528936067" lon="-3.1244995267982802">
    <tag k="addr:postcode" v="HR3 5BQ"/>
    <tag k="removemelater" v="yes"/>
  </node>
  <node id="-391" lat="52.07438953508011" lon="-3.1278163380120314">
    <tag k="addr:postcode" v="HR3 5BS"/>
    <tag k="removemelater" v="yes"/>
  </node>
  <node id="-392" lat="52.07464981152938" lon="-3.12598442433302">
    <tag k="addr:postcode" v="HR3 5BU"/>
    <tag k="removemelater" v="yes"/>
  </node>
  <node id="-393" lat="52.07382565956188" lon="-3.1228412538040455">
    <tag k="addr:postcode" v="HR3 5BW"/>
    <tag k="removemelater" v="yes"/>
  </node>
  <node id="-394" lat="52.074689736390866" lon="-3.1265107079572623">
    <tag k="addr:postcode" v="HR3 5BX"/>
    <tag k="removemelater" v="yes"/>
  </node>
  <node id="-395" lat="52.07541476673972" lon="-3.1249676924020195">
    <tag k="addr:postcode" v="HR3 5BY"/>
    <tag k="removemelater" v="yes"/>
  </node>
  <node id="-396" lat="52.07833341689971" lon="-3.124384433712073">
    <tag k="addr:postcode" v="HR3 5BZ"/>
    <tag k="removemelater" v="yes"/>
  </node>
  <node id="-397" lat="52.07458527939226" lon="-3.127091719796695">
    <tag k="addr:postcode" v="HR3 5DA"/>
    <tag k="removemelater" v="yes"/>
  </node>
  <node id="-398" lat="52.07518983889703" lon="-3.1259250587698912">
    <tag k="addr:postcode" v="HR3 5DD"/>
    <tag k="removemelater" v="yes"/>
  </node>
  <node id="-399" lat="52.075904902957696" lon="-3.1263662067873135">
    <tag k="addr:postcode" v="HR3 5DE"/>
    <tag k="removemelater" v="yes"/>
  </node>
  <node id="-400" lat="52.07368611653708" lon="-3.127098251190303">
    <tag k="addr:postcode" v="HR3 5DF"/>
    <tag k="removemelater" v="yes"/>
  </node>
  <node id="-401" lat="52.073040454797265" lon="-3.126921491170061">
    <tag k="addr:postcode" v="HR3 5DG"/>
    <tag k="removemelater" v="yes"/>
  </node>
  <node id="-402" lat="52.07643197126137" lon="-3.1257812188440077">
    <tag k="addr:postcode" v="HR3 5DH"/>
    <tag k="removemelater" v="yes"/>
  </node>
  <node id="-403" lat="52.07537170630995" lon="-3.125710766030669">
    <tag k="addr:postcode" v="HR3 5DJ"/>
    <tag k="removemelater" v="yes"/>
  </node>
  <node id="-404" lat="52.07219206975392" lon="-3.1281986582938672">
    <tag k="addr:postcode" v="HR3 5DL"/>
    <tag k="removemelater" v="yes"/>
  </node>
  <node id="-405" lat="52.07175911474361" lon="-3.1292820016744796">
    <tag k="addr:postcode" v="HR3 5DN"/>
    <tag k="removemelater" v="yes"/>
  </node>
  <node id="-406" lat="52.07225811300747" lon="-3.128813115633906">
    <tag k="addr:postcode" v="HR3 5DP"/>
    <tag k="removemelater" v="yes"/>
  </node>
  <node id="-407" lat="52.07283381766872" lon="-3.1287838678852533">
    <tag k="addr:postcode" v="HR3 5DQ"/>
    <tag k="removemelater" v="yes"/>
  </node>
  <node id="-408" lat="52.07111956518421" lon="-3.1256475620781767">
    <tag k="addr:postcode" v="HR3 5DS"/>
    <tag k="removemelater" v="yes"/>
  </node>
  <node id="-409" lat="52.07159866678491" lon="-3.128198286892984">
    <tag k="addr:postcode" v="HR3 5DT"/>
    <tag k="removemelater" v="yes"/>
  </node>
  <node id="-410" lat="52.07066759759044" lon="-3.1277808887807863">
    <tag k="addr:postcode" v="HR3 5DU"/>
    <tag k="removemelater" v="yes"/>
  </node>
  <node id="-411" lat="52.07193311745518" lon="-3.1289508188108432">
    <tag k="addr:postcode" v="HR3 5DW"/>
    <tag k="removemelater" v="yes"/>
  </node>
  <node id="-412" lat="52.07109878272483" lon="-3.127820935778607">
    <tag k="addr:postcode" v="HR3 5DX"/>
    <tag k="removemelater" v="yes"/>
  </node>
  <node id="-413" lat="52.07065282693775" lon="-3.130260776867129">
    <tag k="addr:postcode" v="HR3 5DY"/>
    <tag k="removemelater" v="yes"/>
  </node>
  <node id="-414" lat="52.070682484255464" lon="-3.130918065981185">
    <tag k="addr:postcode" v="HR3 5DZ"/>
    <tag k="removemelater" v="yes"/>
  </node>
  <node id="-415" lat="52.07154188183354" lon="-3.1303707736636324">
    <tag k="addr:postcode" v="HR3 5EA"/>
    <tag k="removemelater" v="yes"/>
  </node>
  <node id="-416" lat="52.07139428176342" lon="-3.130760975375383">
    <tag k="addr:postcode" v="HR3 5EB"/>
    <tag k="removemelater" v="yes"/>
  </node>
  <node id="-417" lat="52.07182714534139" lon="-3.1306260124530736">
    <tag k="addr:postcode" v="HR3 5ED"/>
    <tag k="removemelater" v="yes"/>
  </node>
  <node id="-418" lat="52.07172350845179" lon="-3.1311194578448656">
    <tag k="addr:postcode" v="HR3 5EE"/>
    <tag k="removemelater" v="yes"/>
  </node>
  <node id="-419" lat="52.072085747473274" lon="-3.13178517538791">
    <tag k="addr:postcode" v="HR3 5EF"/>
    <tag k="removemelater" v="yes"/>
  </node>
  <node id="-420" lat="52.07127158229761" lon="-3.1332381700331857">
    <tag k="addr:postcode" v="HR3 5EG"/>
    <tag k="removemelater" v="yes"/>
  </node>
  <node id="-421" lat="52.07093211707152" lon="-3.1245631976372925">
    <tag k="addr:postcode" v="HR3 5EH"/>
    <tag k="removemelater" v="yes"/>
  </node>
  <node id="-422" lat="52.07053236351037" lon="-3.125939175198276">
    <tag k="addr:postcode" v="HR3 5EJ"/>
    <tag k="removemelater" v="yes"/>
  </node>
  <node id="-423" lat="52.0716460166392" lon="-3.1363699336705984">
    <tag k="addr:postcode" v="HR3 5EL"/>
    <tag k="removemelater" v="yes"/>
  </node>
  <node id="-424" lat="52.077710448566144" lon="-3.1208812740323295">
    <tag k="addr:postcode" v="HR3 5EN"/>
    <tag k="removemelater" v="yes"/>
  </node>
  <node id="-425" lat="52.07355505057547" lon="-3.126701000442376">
    <tag k="addr:postcode" v="HR3 5EQ"/>
    <tag k="removemelater" v="yes"/>
  </node>
  <node id="-426" lat="52.06933641583419" lon="-3.124070828565157">
    <tag k="addr:postcode" v="HR3 5FA"/>
    <tag k="removemelater" v="yes"/>
  </node>
  <node id="-427" lat="52.074277575787384" lon="-3.1254206007849583">
    <tag k="addr:postcode" v="HR3 5FD"/>
    <tag k="removemelater" v="yes"/>
  </node>
  <node id="-428" lat="52.073557484823596" lon="-3.1198434295503157">
    <tag k="addr:postcode" v="HR3 5FE"/>
    <tag k="removemelater" v="yes"/>
  </node>
  <node id="-429" lat="52.07982890058328" lon="-3.166624340932417">
    <tag k="addr:postcode" v="HR3 5JT"/>
    <tag k="removemelater" v="yes"/>
  </node>
  <node id="-430" lat="52.07973777158406" lon="-3.1363857713863537">
    <tag k="addr:postcode" v="HR3 5LA"/>
    <tag k="removemelater" v="yes"/>
  </node>
  <node id="-431" lat="52.070472243055185" lon="-3.137813687541292">
    <tag k="addr:postcode" v="HR3 5LF"/>
    <tag k="removemelater" v="yes"/>
  </node>
  <node id="-432" lat="52.05814543838874" lon="-3.223074993785289">
    <tag k="addr:postcode" v="HR3 5LU"/>
    <tag k="removemelater" v="yes"/>
  </node>
  <node id="-433" lat="52.06327898522747" lon="-3.2213772408499426">
    <tag k="addr:postcode" v="HR3 5LX"/>
    <tag k="removemelater" v="yes"/>
  </node>
  <node id="-434" lat="52.046218353154565" lon="-3.1946353424482705">
    <tag k="addr:postcode" v="HR3 5NR"/>
    <tag k="removemelater" v="yes"/>
  </node>
  <node id="-435" lat="52.0695601720097" lon="-3.137294456839173">
    <tag k="addr:postcode" v="HR3 5PG"/>
    <tag k="removemelater" v="yes"/>
  </node>
  <node id="-436" lat="52.070050645148044" lon="-3.133046765288173">
    <tag k="addr:postcode" v="HR3 5PH"/>
    <tag k="removemelater" v="yes"/>
  </node>
  <node id="-437" lat="52.06955865778804" lon="-3.1346537335963194">
    <tag k="addr:postcode" v="HR3 5PJ"/>
    <tag k="removemelater" v="yes"/>
  </node>
  <node id="-438" lat="52.06788311872749" lon="-3.1396444133370727">
    <tag k="addr:postcode" v="HR3 5PL"/>
    <tag k="removemelater" v="yes"/>
  </node>
  <node id="-439" lat="52.06182922917807" lon="-3.1464336447715713">
    <tag k="addr:postcode" v="HR3 5PN"/>
    <tag k="removemelater" v="yes"/>
  </node>
  <node id="-440" lat="52.070189808580984" lon="-3.140987045229411">
    <tag k="addr:postcode" v="HR3 5PW"/>
    <tag k="removemelater" v="yes"/>
  </node>
  <node id="-441" lat="52.07073422663263" lon="-3.13488779872681">
    <tag k="addr:postcode" v="HR3 5QR"/>
    <tag k="removemelater" v="yes"/>
  </node>
  <node id="-442" lat="52.07072241928587" lon="-3.136113042253304">
    <tag k="addr:postcode" v="HR3 5QS"/>
    <tag k="removemelater" v="yes"/>
  </node>
  <node id="-443" lat="52.07363011936319" lon="-3.116927102540563">
    <tag k="addr:postcode" v="HR3 5QX"/>
    <tag k="removemelater" v="yes"/>
  </node>
  <node id="-444" lat="52.07568675897757" lon="-3.1152712522697494">
    <tag k="addr:postcode" v="HR3 5QY"/>
    <tag k="removemelater" v="yes"/>
  </node>
  <node id="-445" lat="52.072563201351215" lon="-3.1185054114118005">
    <tag k="addr:postcode" v="HR3 5QZ"/>
    <tag k="removemelater" v="yes"/>
  </node>
  <node id="-446" lat="52.072675636099106" lon="-3.1180267383345477">
    <tag k="addr:postcode" v="HR3 5RA"/>
    <tag k="removemelater" v="yes"/>
  </node>
  <node id="-447" lat="52.072080432967034" lon="-3.1182161295838435">
    <tag k="addr:postcode" v="HR3 5RB"/>
    <tag k="removemelater" v="yes"/>
  </node>
  <node id="-448" lat="52.07120698989813" lon="-3.1183547918598613">
    <tag k="addr:postcode" v="HR3 5RD"/>
    <tag k="removemelater" v="yes"/>
  </node>
  <node id="-449" lat="52.069152819553736" lon="-3.1187994909794803">
    <tag k="addr:postcode" v="HR3 5RE"/>
    <tag k="removemelater" v="yes"/>
  </node>
  <node id="-450" lat="52.07402270760992" lon="-3.1191401214409016">
    <tag k="addr:postcode" v="HR3 5RW"/>
    <tag k="removemelater" v="yes"/>
  </node>
  <node id="-451" lat="52.06074501274375" lon="-2.71002685487196">
    <tag k="addr:postcode" v="HR3 5WU"/>
    <tag k="removemelater" v="yes"/>
  </node>
  <node id="-452" lat="52.06074501274375" lon="-2.71002685487196">
    <tag k="addr:postcode" v="HR3 5XA"/>
    <tag k="removemelater" v="yes"/>
  </node>
  <node id="-453" lat="52.074504247215785" lon="-3.125222028094918">
    <tag k="addr:postcode" v="HR3 5ZZ"/>
    <tag k="removemelater" v="yes"/>
  </node>
  <node id="-454" lat="52.07437645426733" lon="-2.9966146144555705">
    <tag k="addr:postcode" v="HR3 6AA"/>
    <tag k="removemelater" v="yes"/>
  </node>
  <node id="-455" lat="52.070388564730976" lon="-3.0660013120105316">
    <tag k="addr:postcode" v="HR3 6AG"/>
    <tag k="removemelater" v="yes"/>
  </node>
  <node id="-456" lat="52.06886793599711" lon="-2.985579342477579">
    <tag k="addr:postcode" v="HR3 6AT"/>
    <tag k="removemelater" v="yes"/>
  </node>
  <node id="-457" lat="52.07435923071626" lon="-2.9943964259248728">
    <tag k="addr:postcode" v="HR3 6AU"/>
    <tag k="removemelater" v="yes"/>
  </node>
  <node id="-458" lat="52.081173916906444" lon="-2.9891047083881013">
    <tag k="addr:postcode" v="HR3 6AX"/>
    <tag k="removemelater" v="yes"/>
  </node>
  <node id="-459" lat="52.08999311174866" lon="-3.0093545720317927">
    <tag k="addr:postcode" v="HR3 6AY"/>
    <tag k="removemelater" v="yes"/>
  </node>
  <node id="-460" lat="52.08538878786878" lon="-3.0073679752893447">
    <tag k="addr:postcode" v="HR3 6AZ"/>
    <tag k="removemelater" v="yes"/>
  </node>
  <node id="-461" lat="52.06781851700263" lon="-3.000217861195984">
    <tag k="addr:postcode" v="HR3 6BE"/>
    <tag k="removemelater" v="yes"/>
  </node>
  <node id="-462" lat="52.05726847592743" lon="-2.9942793084686126">
    <tag k="addr:postcode" v="HR3 6BG"/>
    <tag k="removemelater" v="yes"/>
  </node>
  <node id="-463" lat="52.05604210635633" lon="-2.996833592289528">
    <tag k="addr:postcode" v="HR3 6BQ"/>
    <tag k="removemelater" v="yes"/>
  </node>
  <node id="-464" lat="52.096245415898395" lon="-2.968198109267239">
    <tag k="addr:postcode" v="HR3 6BS"/>
    <tag k="removemelater" v="yes"/>
  </node>
  <node id="-465" lat="52.09727575452486" lon="-2.9719137862968004">
    <tag k="addr:postcode" v="HR3 6BT"/>
    <tag k="removemelater" v="yes"/>
  </node>
  <node id="-466" lat="52.08537268330009" lon="-2.970721056709775">
    <tag k="addr:postcode" v="HR3 6BX"/>
    <tag k="removemelater" v="yes"/>
  </node>
  <node id="-467" lat="52.08389714197708" lon="-2.977373042758451">
    <tag k="addr:postcode" v="HR3 6BY"/>
    <tag k="removemelater" v="yes"/>
  </node>
  <node id="-468" lat="52.06074501274375" lon="-2.71002685487196">
    <tag k="addr:postcode" v="HR3 6WY"/>
    <tag k="removemelater" v="yes"/>
  </node>
  <node id="-469" lat="52.06074501274375" lon="-2.71002685487196">
    <tag k="addr:postcode" v="HR3 6XZ"/>
    <tag k="removemelater" v="yes"/>
  </node>
  <node id="-470" lat="52.06074501274375" lon="-2.71002685487196">
    <tag k="addr:postcode" v="HR3 6YQ"/>
    <tag k="removemelater" v="yes"/>
  </node>
  <node id="-471" lat="52.05561754024335" lon="-2.7208401213112787">
    <tag k="addr:postcode" v="HR4 0AA"/>
    <tag k="removemelater" v="yes"/>
  </node>
  <node id="-472" lat="52.05653746066051" lon="-2.7189005756315416">
    <tag k="addr:postcode" v="HR4 0AB"/>
    <tag k="removemelater" v="yes"/>
  </node>
  <node id="-473" lat="52.054024203575544" lon="-2.719691504975527">
    <tag k="addr:postcode" v="HR4 0AF"/>
    <tag k="removemelater" v="yes"/>
  </node>
  <node id="-474" lat="52.05470302449394" lon="-2.7248214579056036">
    <tag k="addr:postcode" v="HR4 0AG"/>
    <tag k="removemelater" v="yes"/>
  </node>
  <node id="-475" lat="52.05661275969582" lon="-2.719820626088629">
    <tag k="addr:postcode" v="HR4 0AH"/>
    <tag k="removemelater" v="yes"/>
  </node>
  <node id="-476" lat="52.056684659906175" lon="-2.7212948476391787">
    <tag k="addr:postcode" v="HR4 0AJ"/>
    <tag k="removemelater" v="yes"/>
  </node>
  <node id="-477" lat="52.05704618605985" lon="-2.722452881608592">
    <tag k="addr:postcode" v="HR4 0AP"/>
    <tag k="removemelater" v="yes"/>
  </node>
  <node id="-478" lat="52.05526461373781" lon="-2.7212136319008713">
    <tag k="addr:postcode" v="HR4 0AS"/>
    <tag k="removemelater" v="yes"/>
  </node>
  <node id="-479" lat="52.05680528129173" lon="-2.7177380888118257">
    <tag k="addr:postcode" v="HR4 0BA"/>
    <tag k="removemelater" v="yes"/>
  </node>
  <node id="-480" lat="52.05685493719489" lon="-2.716965887344378">
    <tag k="addr:postcode" v="HR4 0BB"/>
    <tag k="removemelater" v="yes"/>
  </node>
  <node id="-481" lat="52.05281989723139" lon="-2.721086751421443">
    <tag k="addr:postcode" v="HR4 0BE"/>
    <tag k="removemelater" v="yes"/>
  </node>
  <node id="-482" lat="52.05433030559252" lon="-2.7196235052032685">
    <tag k="addr:postcode" v="HR4 0BG"/>
    <tag k="removemelater" v="yes"/>
  </node>
  <node id="-483" lat="52.05377070429274" lon="-2.7199791073236494">
    <tag k="addr:postcode" v="HR4 0BH"/>
    <tag k="removemelater" v="yes"/>
  </node>
  <node id="-484" lat="52.05541149803697" lon="-2.7192471051668954">
    <tag k="addr:postcode" v="HR4 0BJ"/>
    <tag k="removemelater" v="yes"/>
  </node>
  <node id="-485" lat="52.05603658392229" lon="-2.7214156676208408">
    <tag k="addr:postcode" v="HR4 0BL"/>
    <tag k="removemelater" v="yes"/>
  </node>
  <node id="-486" lat="52.05446835974827" lon="-2.719100697125872">
    <tag k="addr:postcode" v="HR4 0BQ"/>
    <tag k="removemelater" v="yes"/>
  </node>
  <node id="-487" lat="52.055355596687534" lon="-2.71809404167572">
    <tag k="addr:postcode" v="HR4 0BU"/>
    <tag k="removemelater" v="yes"/>
  </node>
  <node id="-488" lat="52.05592819383695" lon="-2.7185553472734987">
    <tag k="addr:postcode" v="HR4 0BX"/>
    <tag k="removemelater" v="yes"/>
  </node>
  <node id="-489" lat="52.05591439258947" lon="-2.7178696517196355">
    <tag k="addr:postcode" v="HR4 0BY"/>
    <tag k="removemelater" v="yes"/>
  </node>
  <node id="-490" lat="52.05649756827697" lon="-2.7210147231178623">
    <tag k="addr:postcode" v="HR4 0BZ"/>
    <tag k="removemelater" v="yes"/>
  </node>
  <node id="-491" lat="52.054573834524575" lon="-2.7194961623982836">
    <tag k="addr:postcode" v="HR4 0DD"/>
    <tag k="removemelater" v="yes"/>
  </node>
  <node id="-492" lat="52.06155959677748" lon="-2.7282873548553446">
    <tag k="addr:postcode" v="HR4 0EE"/>
    <tag k="removemelater" v="yes"/>
  </node>
  <node id="-493" lat="52.06018772359935" lon="-2.7291401916903024">
    <tag k="addr:postcode" v="HR4 0EH"/>
    <tag k="removemelater" v="yes"/>
  </node>
  <node id="-494" lat="52.06130510709679" lon="-2.7272767582610666">
    <tag k="addr:postcode" v="HR4 0EL"/>
    <tag k="removemelater" v="yes"/>
  </node>
  <node id="-495" lat="52.061539413340135" lon="-2.73009573942508">
    <tag k="addr:postcode" v="HR4 0EN"/>
    <tag k="removemelater" v="yes"/>
  </node>
  <node id="-496" lat="52.0595952298376" lon="-2.7275406928354604">
    <tag k="addr:postcode" v="HR4 0LE"/>
    <tag k="removemelater" v="yes"/>
  </node>
  <node id="-497" lat="52.05628174519983" lon="-2.726874287885303">
    <tag k="addr:postcode" v="HR4 0LW"/>
    <tag k="removemelater" v="yes"/>
  </node>
  <node id="-498" lat="52.06330552468172" lon="-2.7280094373814827">
    <tag k="addr:postcode" v="HR4 0NL"/>
    <tag k="removemelater" v="yes"/>
  </node>
  <node id="-499" lat="52.069410241572506" lon="-2.7718027355129142">
    <tag k="addr:postcode" v="HR4 0SE"/>
    <tag k="removemelater" v="yes"/>
  </node>
  <node id="-500" lat="52.06074501274375" lon="-2.71002685487196">
    <tag k="addr:postcode" v="HR4 0WZ"/>
    <tag k="removemelater" v="yes"/>
  </node>
  <node id="-501" lat="52.10346894009515" lon="-2.8143077062900694">
    <tag k="addr:postcode" v="HR4 7AU"/>
    <tag k="removemelater" v="yes"/>
  </node>
  <node id="-502" lat="52.10828812997063" lon="-2.8116796030674207">
    <tag k="addr:postcode" v="HR4 7AX"/>
    <tag k="removemelater" v="yes"/>
  </node>
  <node id="-503" lat="52.07323079704876" lon="-2.7718832281771775">
    <tag k="addr:postcode" v="HR4 7AY"/>
    <tag k="removemelater" v="yes"/>
  </node>
  <node id="-504" lat="52.07347830363868" lon="-2.772529472223554">
    <tag k="addr:postcode" v="HR4 7BS"/>
    <tag k="removemelater" v="yes"/>
  </node>
  <node id="-505" lat="52.0863239258798" lon="-2.7904836910458015">
    <tag k="addr:postcode" v="HR4 7DD"/>
    <tag k="removemelater" v="yes"/>
  </node>
  <node id="-506" lat="52.08848500942996" lon="-2.7953383188881276">
    <tag k="addr:postcode" v="HR4 7DF"/>
    <tag k="removemelater" v="yes"/>
  </node>
  <node id="-507" lat="52.08424352178369" lon="-2.806923381813391">
    <tag k="addr:postcode" v="HR4 7EF"/>
    <tag k="removemelater" v="yes"/>
  </node>
  <node id="-508" lat="52.11731394718614" lon="-2.858753840017981">
    <tag k="addr:postcode" v="HR4 7HL"/>
    <tag k="removemelater" v="yes"/>
  </node>
  <node id="-509" lat="52.06074501274375" lon="-2.71002685487196">
    <tag k="addr:postcode" v="HR4 7JP"/>
    <tag k="removemelater" v="yes"/>
  </node>
  <node id="-510" lat="52.098241567769236" lon="-2.9267960196213996">
    <tag k="addr:postcode" v="HR4 7NG"/>
    <tag k="removemelater" v="yes"/>
  </node>
  <node id="-511" lat="52.09330302128246" lon="-2.905148595112435">
    <tag k="addr:postcode" v="HR4 7NH"/>
    <tag k="removemelater" v="yes"/>
  </node>
  <node id="-512" lat="52.06074501274375" lon="-2.71002685487196">
    <tag k="addr:postcode" v="HR4 7YT"/>
    <tag k="removemelater" v="yes"/>
  </node>
  <node id="-513" lat="52.11618847703372" lon="-2.728096912115446">
    <tag k="addr:postcode" v="HR4 8DS"/>
    <tag k="removemelater" v="yes"/>
  </node>
  <node id="-514" lat="52.13197509750875" lon="-2.7253447963802193">
    <tag k="addr:postcode" v="HR4 8DZ"/>
    <tag k="removemelater" v="yes"/>
  </node>
  <node id="-515" lat="52.14545604902279" lon="-2.7391839616961615">
    <tag k="addr:postcode" v="HR4 8EB"/>
    <tag k="removemelater" v="yes"/>
  </node>
  <node id="-516" lat="52.1115517164875" lon="-2.8103808297343424">
    <tag k="addr:postcode" v="HR4 8LS"/>
    <tag k="removemelater" v="yes"/>
  </node>
  <node id="-517" lat="52.12545648530605" lon="-2.8366780048899143">
    <tag k="addr:postcode" v="HR4 8LY"/>
    <tag k="removemelater" v="yes"/>
  </node>
  <node id="-518" lat="52.131561066355914" lon="-2.784388756378108">
    <tag k="addr:postcode" v="HR4 8NT"/>
    <tag k="removemelater" v="yes"/>
  </node>
  <node id="-519" lat="52.13409521222369" lon="-2.7859235129341844">
    <tag k="addr:postcode" v="HR4 8NU"/>
    <tag k="removemelater" v="yes"/>
  </node>
  <node id="-520" lat="52.136251069642924" lon="-2.7862098514109963">
    <tag k="addr:postcode" v="HR4 8NY"/>
    <tag k="removemelater" v="yes"/>
  </node>
  <node id="-521" lat="52.133601366233954" lon="-2.7858271595486035">
    <tag k="addr:postcode" v="HR4 8NZ"/>
    <tag k="removemelater" v="yes"/>
  </node>
  <node id="-522" lat="52.136998589736855" lon="-2.799387604667599">
    <tag k="addr:postcode" v="HR4 8PD"/>
    <tag k="removemelater" v="yes"/>
  </node>
  <node id="-523" lat="52.138662854154916" lon="-2.7885609672054774">
    <tag k="addr:postcode" v="HR4 8PE"/>
    <tag k="removemelater" v="yes"/>
  </node>
  <node id="-524" lat="52.06074501274375" lon="-2.71002685487196">
    <tag k="addr:postcode" v="HR4 8UW"/>
    <tag k="removemelater" v="yes"/>
  </node>
  <node id="-525" lat="52.06074501274375" lon="-2.71002685487196">
    <tag k="addr:postcode" v="HR4 8ZS"/>
    <tag k="removemelater" v="yes"/>
  </node>
  <node id="-526" lat="52.05628759701577" lon="-2.7171172329119133">
    <tag k="addr:postcode" v="HR4 9AA"/>
    <tag k="removemelater" v="yes"/>
  </node>
  <node id="-527" lat="52.056175810566465" lon="-2.7177571664067988">
    <tag k="addr:postcode" v="HR4 9AB"/>
    <tag k="removemelater" v="yes"/>
  </node>
  <node id="-528" lat="52.0555135776269" lon="-2.717250679066211">
    <tag k="addr:postcode" v="HR4 9AH"/>
    <tag k="removemelater" v="yes"/>
  </node>
  <node id="-529" lat="52.05536101562397" lon="-2.7172044818112857">
    <tag k="addr:postcode" v="HR4 9AP"/>
    <tag k="removemelater" v="yes"/>
  </node>
  <node id="-530" lat="52.05526863005214" lon="-2.7176113634486208">
    <tag k="addr:postcode" v="HR4 9AR"/>
    <tag k="removemelater" v="yes"/>
  </node>
  <node id="-531" lat="52.05477480714712" lon="-2.7175013590013175">
    <tag k="addr:postcode" v="HR4 9AU"/>
    <tag k="removemelater" v="yes"/>
  </node>
  <node id="-532" lat="52.07241064072035" lon="-2.7211106379018695">
    <tag k="addr:postcode" v="HR4 9BD"/>
    <tag k="removemelater" v="yes"/>
  </node>
  <node id="-533" lat="52.056169840499635" lon="-2.7172611930426984">
    <tag k="addr:postcode" v="HR4 9BH"/>
    <tag k="removemelater" v="yes"/>
  </node>
  <node id="-534" lat="52.05399357353258" lon="-2.7173430000774914">
    <tag k="addr:postcode" v="HR4 9BJ"/>
    <tag k="removemelater" v="yes"/>
  </node>
  <node id="-535" lat="52.05363885828085" lon="-2.716535207273496">
    <tag k="addr:postcode" v="HR4 9BL"/>
    <tag k="removemelater" v="yes"/>
  </node>
  <node id="-536" lat="52.053638592187355" lon="-2.7165789544501933">
    <tag k="addr:postcode" v="HR4 9BN"/>
    <tag k="removemelater" v="yes"/>
  </node>
  <node id="-537" lat="52.07105387924773" lon="-2.7165514417157497">
    <tag k="addr:postcode" v="HR4 9BP"/>
    <tag k="removemelater" v="yes"/>
  </node>
  <node id="-538" lat="52.05361992320668" lon="-2.7181682905444666">
    <tag k="addr:postcode" v="HR4 9BQ"/>
    <tag k="removemelater" v="yes"/>
  </node>
  <node id="-539" lat="52.05419509923112" lon="-2.7182066845515322">
    <tag k="addr:postcode" v="HR4 9BW"/>
    <tag k="removemelater" v="yes"/>
  </node>
  <node id="-540" lat="52.05456306287262" lon="-2.7183146760141077">
    <tag k="addr:postcode" v="HR4 9BX"/>
    <tag k="removemelater" v="yes"/>
  </node>
  <node id="-541" lat="52.054796711408194" lon="-2.718333008860108">
    <tag k="addr:postcode" v="HR4 9DA"/>
    <tag k="removemelater" v="yes"/>
  </node>
  <node id="-542" lat="52.05453520391238" lon="-2.718460070099564">
    <tag k="addr:postcode" v="HR4 9DB"/>
    <tag k="removemelater" v="yes"/>
  </node>
  <node id="-543" lat="52.053752192975864" lon="-2.7185933438225702">
    <tag k="addr:postcode" v="HR4 9DF"/>
    <tag k="removemelater" v="yes"/>
  </node>
  <node id="-544" lat="52.05325552402028" lon="-2.7189499647989335">
    <tag k="addr:postcode" v="HR4 9DG"/>
    <tag k="removemelater" v="yes"/>
  </node>
  <node id="-545" lat="52.053704841159394" lon="-2.7189863473896736">
    <tag k="addr:postcode" v="HR4 9DJ"/>
    <tag k="removemelater" v="yes"/>
  </node>
  <node id="-546" lat="52.0541720490488" lon="-2.719037602058417">
    <tag k="addr:postcode" v="HR4 9DN"/>
    <tag k="removemelater" v="yes"/>
  </node>
  <node id="-547" lat="52.05372076745767" lon="-2.7178490636268373">
    <tag k="addr:postcode" v="HR4 9DP"/>
    <tag k="removemelater" v="yes"/>
  </node>
  <node id="-548" lat="52.05278475510759" lon="-2.7194819964421195">
    <tag k="addr:postcode" v="HR4 9DW"/>
    <tag k="removemelater" v="yes"/>
  </node>
  <node id="-549" lat="52.06635520347983" lon="-2.7320707366410737">
    <tag k="addr:postcode" v="HR4 9DX"/>
    <tag k="removemelater" v="yes"/>
  </node>
  <node id="-550" lat="52.06680248568724" lon="-2.7178254733963336">
    <tag k="addr:postcode" v="HR4 9DY"/>
    <tag k="removemelater" v="yes"/>
  </node>
  <node id="-551" lat="52.057775899217745" lon="-2.7163243048701724">
    <tag k="addr:postcode" v="HR4 9EA"/>
    <tag k="removemelater" v="yes"/>
  </node>
  <node id="-552" lat="52.05695604435948" lon="-2.7166028842834424">
    <tag k="addr:postcode" v="HR4 9ED"/>
    <tag k="removemelater" v="yes"/>
  </node>
  <node id="-553" lat="52.05719868299758" lon="-2.7166213532095385">
    <tag k="addr:postcode" v="HR4 9EE"/>
    <tag k="removemelater" v="yes"/>
  </node>
  <node id="-554" lat="52.05781496130997" lon="-2.7158144489144327">
    <tag k="addr:postcode" v="HR4 9EP"/>
    <tag k="removemelater" v="yes"/>
  </node>
  <node id="-555" lat="52.0569669853894" lon="-2.716282191714961">
    <tag k="addr:postcode" v="HR4 9EW"/>
    <tag k="removemelater" v="yes"/>
  </node>
  <node id="-556" lat="52.05774954334541" lon="-2.722114188716877">
    <tag k="addr:postcode" v="HR4 9HB"/>
    <tag k="removemelater" v="yes"/>
  </node>
  <node id="-557" lat="52.05910583082755" lon="-2.714959955127216">
    <tag k="addr:postcode" v="HR4 9HG"/>
    <tag k="removemelater" v="yes"/>
  </node>
  <node id="-558" lat="52.05535764068155" lon="-2.7177586338909676">
    <tag k="addr:postcode" v="HR4 9HH"/>
    <tag k="removemelater" v="yes"/>
  </node>
  <node id="-559" lat="52.06125866354052" lon="-2.7142941994419476">
    <tag k="addr:postcode" v="HR4 9HN"/>
    <tag k="removemelater" v="yes"/>
  </node>
  <node id="-560" lat="52.05793443524683" lon="-2.716866494462343">
    <tag k="addr:postcode" v="HR4 9HP"/>
    <tag k="removemelater" v="yes"/>
  </node>
  <node id="-561" lat="52.05847507144106" lon="-2.7166709566571092">
    <tag k="addr:postcode" v="HR4 9HR"/>
    <tag k="removemelater" v="yes"/>
  </node>
  <node id="-562" lat="52.05873313080579" lon="-2.7185857848695507">
    <tag k="addr:postcode" v="HR4 9HT"/>
    <tag k="removemelater" v="yes"/>
  </node>
  <node id="-563" lat="52.05885087246783" lon="-2.716968683276914">
    <tag k="addr:postcode" v="HR4 9HU"/>
    <tag k="removemelater" v="yes"/>
  </node>
  <node id="-564" lat="52.058342727143405" lon="-2.7206798078818264">
    <tag k="addr:postcode" v="HR4 9JB"/>
    <tag k="removemelater" v="yes"/>
  </node>
  <node id="-565" lat="52.05853401215742" lon="-2.7202744959222676">
    <tag k="addr:postcode" v="HR4 9JP"/>
    <tag k="removemelater" v="yes"/>
  </node>
  <node id="-566" lat="52.06639962906343" lon="-2.7175418402126277">
    <tag k="addr:postcode" v="HR4 9JQ"/>
    <tag k="removemelater" v="yes"/>
  </node>
  <node id="-567" lat="52.06435898588989" lon="-2.716021218564607">
    <tag k="addr:postcode" v="HR4 9LQ"/>
    <tag k="removemelater" v="yes"/>
  </node>
  <node id="-568" lat="52.06577181195117" lon="-2.727553571390602">
    <tag k="addr:postcode" v="HR4 9NS"/>
    <tag k="removemelater" v="yes"/>
  </node>
  <node id="-569" lat="52.066476964324586" lon="-2.7283819632751767">
    <tag k="addr:postcode" v="HR4 9NT"/>
    <tag k="removemelater" v="yes"/>
  </node>
  <node id="-570" lat="52.06637103658754" lon="-2.729518100814103">
    <tag k="addr:postcode" v="HR4 9NU"/>
    <tag k="removemelater" v="yes"/>
  </node>
  <node id="-571" lat="52.06544998665571" lon="-2.7169868711548926">
    <tag k="addr:postcode" v="HR4 9NY"/>
    <tag k="removemelater" v="yes"/>
  </node>
  <node id="-572" lat="52.06482023684764" lon="-2.7273192903521988">
    <tag k="addr:postcode" v="HR4 9NZ"/>
    <tag k="removemelater" v="yes"/>
  </node>
  <node id="-573" lat="52.0647957872573" lon="-2.7327162519328">
    <tag k="addr:postcode" v="HR4 9PB"/>
    <tag k="removemelater" v="yes"/>
  </node>
  <node id="-574" lat="52.06437781498398" lon="-2.723242239330391">
    <tag k="addr:postcode" v="HR4 9QG"/>
    <tag k="removemelater" v="yes"/>
  </node>
  <node id="-575" lat="52.07429910161346" lon="-2.722512586806281">
    <tag k="addr:postcode" v="HR4 9RS"/>
    <tag k="removemelater" v="yes"/>
  </node>
  <node id="-576" lat="52.068090543611966" lon="-2.7233168307278715">
    <tag k="addr:postcode" v="HR4 9RT"/>
    <tag k="removemelater" v="yes"/>
  </node>
  <node id="-577" lat="52.06769301870412" lon="-2.7236313501195326">
    <tag k="addr:postcode" v="HR4 9RU"/>
    <tag k="removemelater" v="yes"/>
  </node>
  <node id="-578" lat="52.06821219166626" lon="-2.721072158182782">
    <tag k="addr:postcode" v="HR4 9SB"/>
    <tag k="removemelater" v="yes"/>
  </node>
  <node id="-579" lat="52.06662749524035" lon="-2.71998169716816">
    <tag k="addr:postcode" v="HR4 9SG"/>
    <tag k="removemelater" v="yes"/>
  </node>
  <node id="-580" lat="52.07022300052065" lon="-2.720112494238534">
    <tag k="addr:postcode" v="HR4 9SH"/>
    <tag k="removemelater" v="yes"/>
  </node>
  <node id="-581" lat="52.07304856752702" lon="-2.716758468236703">
    <tag k="addr:postcode" v="HR4 9SL"/>
    <tag k="removemelater" v="yes"/>
  </node>
  <node id="-582" lat="52.06752888933484" lon="-2.7196023141261434">
    <tag k="addr:postcode" v="HR4 9SN"/>
    <tag k="removemelater" v="yes"/>
  </node>
  <node id="-583" lat="52.073158942173116" lon="-2.720772534113554">
    <tag k="addr:postcode" v="HR4 9SS"/>
    <tag k="removemelater" v="yes"/>
  </node>
  <node id="-584" lat="52.068903006447655" lon="-2.7183697754170715">
    <tag k="addr:postcode" v="HR4 9SW"/>
    <tag k="removemelater" v="yes"/>
  </node>
  <node id="-585" lat="52.07319365207037" lon="-2.720977355885238">
    <tag k="addr:postcode" v="HR4 9SX"/>
    <tag k="removemelater" v="yes"/>
  </node>
  <node id="-586" lat="52.07105387924773" lon="-2.7165514417157497">
    <tag k="addr:postcode" v="HR4 9SZ"/>
    <tag k="removemelater" v="yes"/>
  </node>
  <node id="-587" lat="52.06930424972564" lon="-2.7174425261808377">
    <tag k="addr:postcode" v="HR4 9TA"/>
    <tag k="removemelater" v="yes"/>
  </node>
  <node id="-588" lat="52.07315325305161" lon="-2.7202326060665127">
    <tag k="addr:postcode" v="HR4 9UA"/>
    <tag k="removemelater" v="yes"/>
  </node>
  <node id="-589" lat="52.07315325305161" lon="-2.7202326060665127">
    <tag k="addr:postcode" v="HR4 9UJ"/>
    <tag k="removemelater" v="yes"/>
  </node>
  <node id="-590" lat="52.07252075068974" lon="-2.7207476633406915">
    <tag k="addr:postcode" v="HR4 9UN"/>
    <tag k="removemelater" v="yes"/>
  </node>
  <node id="-591" lat="52.06564955643684" lon="-2.725509301443417">
    <tag k="addr:postcode" v="HR4 9UW"/>
    <tag k="removemelater" v="yes"/>
  </node>
  <node id="-592" lat="52.06074501274375" lon="-2.71002685487196">
    <tag k="addr:postcode" v="HR4 9WB"/>
    <tag k="removemelater" v="yes"/>
  </node>
  <node id="-593" lat="52.06074501274375" lon="-2.71002685487196">
    <tag k="addr:postcode" v="HR4 9XR"/>
    <tag k="removemelater" v="yes"/>
  </node>
  <node id="-594" lat="52.06039668078782" lon="-2.7214859351124794">
    <tag k="addr:postcode" v="HR4 9YA"/>
    <tag k="removemelater" v="yes"/>
  </node>
  <node id="-595" lat="52.060634537988626" lon="-2.7193456132358347">
    <tag k="addr:postcode" v="HR4 9YJ"/>
    <tag k="removemelater" v="yes"/>
  </node>
  <node id="-596" lat="52.20400164416656" lon="-3.030608647261482">
    <tag k="addr:postcode" v="HR5 3AY"/>
    <tag k="removemelater" v="yes"/>
  </node>
  <node id="-597" lat="52.204507394936215" lon="-3.032405633918411">
    <tag k="addr:postcode" v="HR5 3BA"/>
    <tag k="removemelater" v="yes"/>
  </node>
  <node id="-598" lat="52.20306913647133" lon="-3.031347982685784">
    <tag k="addr:postcode" v="HR5 3BQ"/>
    <tag k="removemelater" v="yes"/>
  </node>
  <node id="-599" lat="52.20469753827146" lon="-3.03122472669127">
    <tag k="addr:postcode" v="HR5 3DN"/>
    <tag k="removemelater" v="yes"/>
  </node>
  <node id="-600" lat="52.20214759092198" lon="-3.027741634555015">
    <tag k="addr:postcode" v="HR5 3DT"/>
    <tag k="removemelater" v="yes"/>
  </node>
  <node id="-601" lat="52.201883214933694" lon="-3.0281598789584363">
    <tag k="addr:postcode" v="HR5 3DU"/>
    <tag k="removemelater" v="yes"/>
  </node>
  <node id="-602" lat="52.20438718184954" lon="-3.031758976451586">
    <tag k="addr:postcode" v="HR5 3EE"/>
    <tag k="removemelater" v="yes"/>
  </node>
  <node id="-603" lat="52.20308928838606" lon="-3.0310996884678056">
    <tag k="addr:postcode" v="HR5 3TA"/>
    <tag k="removemelater" v="yes"/>
  </node>
  <node id="-604" lat="52.20221808640009" lon="-3.0299674325541126">
    <tag k="addr:postcode" v="HR5 3UD"/>
    <tag k="removemelater" v="yes"/>
  </node>
  <node id="-605" lat="52.21741861319134" lon="-2.7316838537276817">
    <tag k="addr:postcode" v="HR6 0DD"/>
    <tag k="removemelater" v="yes"/>
  </node>
  <node id="-606" lat="52.26915012474019" lon="-2.719962042358107">
    <tag k="addr:postcode" v="HR6 0DW"/>
    <tag k="removemelater" v="yes"/>
  </node>
  <node id="-607" lat="52.247029874155714" lon="-2.6686318013582304">
    <tag k="addr:postcode" v="HR6 0ER"/>
    <tag k="removemelater" v="yes"/>
  </node>
  <node id="-608" lat="52.23171000743559" lon="-2.7308060859517846">
    <tag k="addr:postcode" v="HR6 0EY"/>
    <tag k="removemelater" v="yes"/>
  </node>
  <node id="-609" lat="52.205851008662975" lon="-2.780282280975461">
    <tag k="addr:postcode" v="HR6 0JW"/>
    <tag k="removemelater" v="yes"/>
  </node>
  <node id="-610" lat="52.21480817093958" lon="-2.7321971333383583">
    <tag k="addr:postcode" v="HR6 0LA"/>
    <tag k="removemelater" v="yes"/>
  </node>
  <node id="-611" lat="52.21503906771165" lon="-2.7341036932783487">
    <tag k="addr:postcode" v="HR6 0LD"/>
    <tag k="removemelater" v="yes"/>
  </node>
  <node id="-612" lat="52.21607861417968" lon="-2.731749648359113">
    <tag k="addr:postcode" v="HR6 0LX"/>
    <tag k="removemelater" v="yes"/>
  </node>
  <node id="-613" lat="52.216276283653215" lon="-2.730318468521149">
    <tag k="addr:postcode" v="HR6 0LZ"/>
    <tag k="removemelater" v="yes"/>
  </node>
  <node id="-614" lat="52.200616688851774" lon="-2.7372312783030344">
    <tag k="addr:postcode" v="HR6 0NT"/>
    <tag k="removemelater" v="yes"/>
  </node>
  <node id="-615" lat="52.19968912705331" lon="-2.738913188931454">
    <tag k="addr:postcode" v="HR6 0NU"/>
    <tag k="removemelater" v="yes"/>
  </node>
  <node id="-616" lat="52.159124383658416" lon="-2.722818711049377">
    <tag k="addr:postcode" v="HR6 0PY"/>
    <tag k="removemelater" v="yes"/>
  </node>
  <node id="-617" lat="52.22325741444589" lon="-2.731047886852468">
    <tag k="addr:postcode" v="HR6 0QA"/>
    <tag k="removemelater" v="yes"/>
  </node>
  <node id="-618" lat="52.217473668318405" lon="-2.7358417892023796">
    <tag k="addr:postcode" v="HR6 0QB"/>
    <tag k="removemelater" v="yes"/>
  </node>
  <node id="-619" lat="52.220256694596785" lon="-2.73070582835227">
    <tag k="addr:postcode" v="HR6 0QD"/>
    <tag k="removemelater" v="yes"/>
  </node>
  <node id="-620" lat="52.21915624168791" lon="-2.7327370786299072">
    <tag k="addr:postcode" v="HR6 0QF"/>
    <tag k="removemelater" v="yes"/>
  </node>
  <node id="-621" lat="52.218518688850104" lon="-2.734058619908367">
    <tag k="addr:postcode" v="HR6 0QH"/>
    <tag k="removemelater" v="yes"/>
  </node>
  <node id="-622" lat="52.22156333166648" lon="-2.728765686777702">
    <tag k="addr:postcode" v="HR6 0QQ"/>
    <tag k="removemelater" v="yes"/>
  </node>
  <node id="-623" lat="52.232986597209965" lon="-2.6378032873927664">
    <tag k="addr:postcode" v="HR6 0QY"/>
    <tag k="removemelater" v="yes"/>
  </node>
  <node id="-624" lat="52.236350058018296" lon="-2.6359478547083204">
    <tag k="addr:postcode" v="HR6 0RA"/>
    <tag k="removemelater" v="yes"/>
  </node>
  <node id="-625" lat="52.22091938876591" lon="-2.7325758064746797">
    <tag k="addr:postcode" v="HR6 0RJ"/>
    <tag k="removemelater" v="yes"/>
  </node>
  <node id="-626" lat="52.21884246287647" lon="-2.7354838344667773">
    <tag k="addr:postcode" v="HR6 0RL"/>
    <tag k="removemelater" v="yes"/>
  </node>
  <node id="-627" lat="52.2176784045486" lon="-2.7318344994021437">
    <tag k="addr:postcode" v="HR6 0RW"/>
    <tag k="removemelater" v="yes"/>
  </node>
  <node id="-628" lat="52.230902439626796" lon="-2.599778034964625">
    <tag k="addr:postcode" v="HR6 0SF"/>
    <tag k="removemelater" v="yes"/>
  </node>
  <node id="-629" lat="52.23409295208678" lon="-2.592880370408272">
    <tag k="addr:postcode" v="HR6 0SG"/>
    <tag k="removemelater" v="yes"/>
  </node>
  <node id="-630" lat="52.228343266987835" lon="-2.595614797685696">
    <tag k="addr:postcode" v="HR6 0SH"/>
    <tag k="removemelater" v="yes"/>
  </node>
  <node id="-631" lat="52.222678444362074" lon="-2.7330732162826323">
    <tag k="addr:postcode" v="HR6 0SP"/>
    <tag k="removemelater" v="yes"/>
  </node>
  <node id="-632" lat="52.2219445672718" lon="-2.731084875765867">
    <tag k="addr:postcode" v="HR6 0SW"/>
    <tag k="removemelater" v="yes"/>
  </node>
  <node id="-633" lat="52.21741861319134" lon="-2.7316838537276817">
    <tag k="addr:postcode" v="HR6 0XB"/>
    <tag k="removemelater" v="yes"/>
  </node>
  <node id="-634" lat="52.21741861319134" lon="-2.7316838537276817">
    <tag k="addr:postcode" v="HR6 0YB"/>
    <tag k="removemelater" v="yes"/>
  </node>
  <node id="-635" lat="52.21741861319134" lon="-2.7316838537276817">
    <tag k="addr:postcode" v="HR6 0YH"/>
    <tag k="removemelater" v="yes"/>
  </node>
  <node id="-636" lat="52.21741861319134" lon="-2.7316838537276817">
    <tag k="addr:postcode" v="HR6 0YP"/>
    <tag k="removemelater" v="yes"/>
  </node>
  <node id="-637" lat="52.21741861319134" lon="-2.7316838537276817">
    <tag k="addr:postcode" v="HR6 6AR"/>
    <tag k="removemelater" v="yes"/>
  </node>
  <node id="-638" lat="52.21741861319134" lon="-2.7316838537276817">
    <tag k="addr:postcode" v="HR6 6BD"/>
    <tag k="removemelater" v="yes"/>
  </node>
  <node id="-639" lat="52.21741861319134" lon="-2.7316838537276817">
    <tag k="addr:postcode" v="HR6 6BP"/>
    <tag k="removemelater" v="yes"/>
  </node>
  <node id="-640" lat="52.21741861319134" lon="-2.7316838537276817">
    <tag k="addr:postcode" v="HR6 6BS"/>
    <tag k="removemelater" v="yes"/>
  </node>
  <node id="-641" lat="52.21741861319134" lon="-2.7316838537276817">
    <tag k="addr:postcode" v="HR6 6BT"/>
    <tag k="removemelater" v="yes"/>
  </node>
  <node id="-642" lat="52.21741861319134" lon="-2.7316838537276817">
    <tag k="addr:postcode" v="HR6 6BZ"/>
    <tag k="removemelater" v="yes"/>
  </node>
  <node id="-643" lat="52.21741861319134" lon="-2.7316838537276817">
    <tag k="addr:postcode" v="HR6 6DB"/>
    <tag k="removemelater" v="yes"/>
  </node>
  <node id="-644" lat="52.226885913434224" lon="-2.7374175693800264">
    <tag k="addr:postcode" v="HR6 6SA"/>
    <tag k="removemelater" v="yes"/>
  </node>
  <node id="-645" lat="52.22685912761334" lon="-2.7373878444092674">
    <tag k="addr:postcode" v="HR6 6SB"/>
    <tag k="removemelater" v="yes"/>
  </node>
  <node id="-646" lat="52.226479276690526" lon="-2.7377475592401965">
    <tag k="addr:postcode" v="HR6 8AA"/>
    <tag k="removemelater" v="yes"/>
  </node>
  <node id="-647" lat="52.22672979540217" lon="-2.7379420392130704">
    <tag k="addr:postcode" v="HR6 8AB"/>
    <tag k="removemelater" v="yes"/>
  </node>
  <node id="-648" lat="52.22621766289802" lon="-2.7378896246864">
    <tag k="addr:postcode" v="HR6 8AD"/>
    <tag k="removemelater" v="yes"/>
  </node>
  <node id="-649" lat="52.2227340526225" lon="-2.7356945422026664">
    <tag k="addr:postcode" v="HR6 8AG"/>
    <tag k="removemelater" v="yes"/>
  </node>
  <node id="-650" lat="52.22610100106886" lon="-2.734974276226913">
    <tag k="addr:postcode" v="HR6 8AJ"/>
    <tag k="removemelater" v="yes"/>
  </node>
  <node id="-651" lat="52.226302713135276" lon="-2.732898680593537">
    <tag k="addr:postcode" v="HR6 8AN"/>
    <tag k="removemelater" v="yes"/>
  </node>
  <node id="-652" lat="52.225890464796265" lon="-2.7312375480291">
    <tag k="addr:postcode" v="HR6 8AR"/>
    <tag k="removemelater" v="yes"/>
  </node>
  <node id="-653" lat="52.22592106740472" lon="-2.7321018231792538">
    <tag k="addr:postcode" v="HR6 8AS"/>
    <tag k="removemelater" v="yes"/>
  </node>
  <node id="-654" lat="52.225563026756205" lon="-2.7318470507620303">
    <tag k="addr:postcode" v="HR6 8AT"/>
    <tag k="removemelater" v="yes"/>
  </node>
  <node id="-655" lat="52.22467541507997" lon="-2.7314518175274194">
    <tag k="addr:postcode" v="HR6 8AU"/>
    <tag k="removemelater" v="yes"/>
  </node>
  <node id="-656" lat="52.22576269998669" lon="-2.7329922670343034">
    <tag k="addr:postcode" v="HR6 8AW"/>
    <tag k="removemelater" v="yes"/>
  </node>
  <node id="-657" lat="52.22400864057448" lon="-2.7316897301565244">
    <tag k="addr:postcode" v="HR6 8AX"/>
    <tag k="removemelater" v="yes"/>
  </node>
  <node id="-658" lat="52.223217191230496" lon="-2.731735273999011">
    <tag k="addr:postcode" v="HR6 8AY"/>
    <tag k="removemelater" v="yes"/>
  </node>
  <node id="-659" lat="52.224095982964194" lon="-2.7335503965109855">
    <tag k="addr:postcode" v="HR6 8AZ"/>
    <tag k="removemelater" v="yes"/>
  </node>
  <node id="-660" lat="52.22522202524261" lon="-2.734637678160177">
    <tag k="addr:postcode" v="HR6 8BB"/>
    <tag k="removemelater" v="yes"/>
  </node>
  <node id="-661" lat="52.22445312576816" lon="-2.7325022237473213">
    <tag k="addr:postcode" v="HR6 8BD"/>
    <tag k="removemelater" v="yes"/>
  </node>
  <node id="-662" lat="52.22530341131352" lon="-2.7331164612200225">
    <tag k="addr:postcode" v="HR6 8BE"/>
    <tag k="removemelater" v="yes"/>
  </node>
  <node id="-663" lat="52.2221712653598" lon="-2.735114318181928">
    <tag k="addr:postcode" v="HR6 8BG"/>
    <tag k="removemelater" v="yes"/>
  </node>
  <node id="-664" lat="52.22130865661241" lon="-2.733592283991212">
    <tag k="addr:postcode" v="HR6 8BH"/>
    <tag k="removemelater" v="yes"/>
  </node>
  <node id="-665" lat="52.22282189057883" lon="-2.73458341585361">
    <tag k="addr:postcode" v="HR6 8BJ"/>
    <tag k="removemelater" v="yes"/>
  </node>
  <node id="-666" lat="52.227763607247574" lon="-2.739393985788514">
    <tag k="addr:postcode" v="HR6 8BN"/>
    <tag k="removemelater" v="yes"/>
  </node>
  <node id="-667" lat="52.221022509676395" lon="-2.7347879322316215">
    <tag k="addr:postcode" v="HR6 8BQ"/>
    <tag k="removemelater" v="yes"/>
  </node>
  <node id="-668" lat="52.22866632643259" lon="-2.738808702032453">
    <tag k="addr:postcode" v="HR6 8BS"/>
    <tag k="removemelater" v="yes"/>
  </node>
  <node id="-669" lat="52.2284555307438" lon="-2.7394494077273013">
    <tag k="addr:postcode" v="HR6 8BT"/>
    <tag k="removemelater" v="yes"/>
  </node>
  <node id="-670" lat="52.22799972126963" lon="-2.7390172462918505">
    <tag k="addr:postcode" v="HR6 8BU"/>
    <tag k="removemelater" v="yes"/>
  </node>
  <node id="-671" lat="52.22840260226698" lon="-2.739287476732877">
    <tag k="addr:postcode" v="HR6 8BZ"/>
    <tag k="removemelater" v="yes"/>
  </node>
  <node id="-672" lat="52.229813433469566" lon="-2.7350795291627112">
    <tag k="addr:postcode" v="HR6 8DA"/>
    <tag k="removemelater" v="yes"/>
  </node>
  <node id="-673" lat="52.22997488143077" lon="-2.735140762880016">
    <tag k="addr:postcode" v="HR6 8DB"/>
    <tag k="removemelater" v="yes"/>
  </node>
  <node id="-674" lat="52.22785588297622" lon="-2.740449660489619">
    <tag k="addr:postcode" v="HR6 8DE"/>
    <tag k="removemelater" v="yes"/>
  </node>
  <node id="-675" lat="52.227456021160165" lon="-2.7411311198771746">
    <tag k="addr:postcode" v="HR6 8DQ"/>
    <tag k="removemelater" v="yes"/>
  </node>
  <node id="-676" lat="52.22855934931499" lon="-2.741530166886218">
    <tag k="addr:postcode" v="HR6 8DW"/>
    <tag k="removemelater" v="yes"/>
  </node>
  <node id="-677" lat="52.23078429364327" lon="-2.739414905154377">
    <tag k="addr:postcode" v="HR6 8DY"/>
    <tag k="removemelater" v="yes"/>
  </node>
  <node id="-678" lat="52.22745070254567" lon="-2.7376758221263553">
    <tag k="addr:postcode" v="HR6 8ED"/>
    <tag k="removemelater" v="yes"/>
  </node>
  <node id="-679" lat="52.22674053035565" lon="-2.7405335827474913">
    <tag k="addr:postcode" v="HR6 8EP"/>
    <tag k="removemelater" v="yes"/>
  </node>
  <node id="-680" lat="52.22718918303571" lon="-2.7406728155697495">
    <tag k="addr:postcode" v="HR6 8ET"/>
    <tag k="removemelater" v="yes"/>
  </node>
  <node id="-681" lat="52.22702249740391" lon="-2.7414459914215814">
    <tag k="addr:postcode" v="HR6 8EU"/>
    <tag k="removemelater" v="yes"/>
  </node>
  <node id="-682" lat="52.226892317571355" lon="-2.742131927270735">
    <tag k="addr:postcode" v="HR6 8EX"/>
    <tag k="removemelater" v="yes"/>
  </node>
  <node id="-683" lat="52.23137779001822" lon="-2.7393954855410527">
    <tag k="addr:postcode" v="HR6 8FB"/>
    <tag k="removemelater" v="yes"/>
  </node>
  <node id="-684" lat="52.226348294582706" lon="-2.740000001970447">
    <tag k="addr:postcode" v="HR6 8FE"/>
    <tag k="removemelater" v="yes"/>
  </node>
  <node id="-685" lat="52.22852203136389" lon="-2.7403143360707576">
    <tag k="addr:postcode" v="HR6 8FN"/>
    <tag k="removemelater" v="yes"/>
  </node>
  <node id="-686" lat="52.229028386852015" lon="-2.7398542420815946">
    <tag k="addr:postcode" v="HR6 8FP"/>
    <tag k="removemelater" v="yes"/>
  </node>
  <node id="-687" lat="52.22504395904151" lon="-2.741544782469291">
    <tag k="addr:postcode" v="HR6 8GE"/>
    <tag k="removemelater" v="yes"/>
  </node>
  <node id="-688" lat="52.225343252801466" lon="-2.7425599320031573">
    <tag k="addr:postcode" v="HR6 8GG"/>
    <tag k="removemelater" v="yes"/>
  </node>
  <node id="-689" lat="52.22408851274026" lon="-2.739069405705039">
    <tag k="addr:postcode" v="HR6 8GZ"/>
    <tag k="removemelater" v="yes"/>
  </node>
  <node id="-690" lat="52.22595126538799" lon="-2.744517228843229">
    <tag k="addr:postcode" v="HR6 8HD"/>
    <tag k="removemelater" v="yes"/>
  </node>
  <node id="-691" lat="52.22648854609171" lon="-2.740573310145146">
    <tag k="addr:postcode" v="HR6 8HU"/>
    <tag k="removemelater" v="yes"/>
  </node>
  <node id="-692" lat="52.227139270097744" lon="-2.74146257793513">
    <tag k="addr:postcode" v="HR6 8HZ"/>
    <tag k="removemelater" v="yes"/>
  </node>
  <node id="-693" lat="52.226164926709785" lon="-2.7391331750481096">
    <tag k="addr:postcode" v="HR6 8JB"/>
    <tag k="removemelater" v="yes"/>
  </node>
  <node id="-694" lat="52.22833361733525" lon="-2.7402526369608444">
    <tag k="addr:postcode" v="HR6 8JE"/>
    <tag k="removemelater" v="yes"/>
  </node>
  <node id="-695" lat="52.22398531146815" lon="-2.7383210732723073">
    <tag k="addr:postcode" v="HR6 8LL"/>
    <tag k="removemelater" v="yes"/>
  </node>
  <node id="-696" lat="52.22723046537411" lon="-2.738389562252391">
    <tag k="addr:postcode" v="HR6 8LP"/>
    <tag k="removemelater" v="yes"/>
  </node>
  <node id="-697" lat="52.2246985118798" lon="-2.737849793114014">
    <tag k="addr:postcode" v="HR6 8LQ"/>
    <tag k="removemelater" v="yes"/>
  </node>
  <node id="-698" lat="52.22833361733525" lon="-2.7402526369608444">
    <tag k="addr:postcode" v="HR6 8LS"/>
    <tag k="removemelater" v="yes"/>
  </node>
  <node id="-699" lat="52.21741861319134" lon="-2.7316838537276817">
    <tag k="addr:postcode" v="HR6 8LU"/>
    <tag k="removemelater" v="yes"/>
  </node>
  <node id="-700" lat="52.229113961045826" lon="-2.7376741168799765">
    <tag k="addr:postcode" v="HR6 8NF"/>
    <tag k="removemelater" v="yes"/>
  </node>
  <node id="-701" lat="52.22770333877531" lon="-2.7346493657045516">
    <tag k="addr:postcode" v="HR6 8NL"/>
    <tag k="removemelater" v="yes"/>
  </node>
  <node id="-702" lat="52.22799666354976" lon="-2.7366307296055523">
    <tag k="addr:postcode" v="HR6 8NP"/>
    <tag k="removemelater" v="yes"/>
  </node>
  <node id="-703" lat="52.22599806757921" lon="-2.7399356164388142">
    <tag k="addr:postcode" v="HR6 8NT"/>
    <tag k="removemelater" v="yes"/>
  </node>
  <node id="-704" lat="52.223579569033326" lon="-2.734186018990167">
    <tag k="addr:postcode" v="HR6 8NU"/>
    <tag k="removemelater" v="yes"/>
  </node>
  <node id="-705" lat="52.225817984027" lon="-2.7414112800339026">
    <tag k="addr:postcode" v="HR6 8NY"/>
    <tag k="removemelater" v="yes"/>
  </node>
  <node id="-706" lat="52.22223914865828" lon="-2.747207256913007">
    <tag k="addr:postcode" v="HR6 8PN"/>
    <tag k="removemelater" v="yes"/>
  </node>
  <node id="-707" lat="52.22240408516547" lon="-2.74955227657413">
    <tag k="addr:postcode" v="HR6 8PP"/>
    <tag k="removemelater" v="yes"/>
  </node>
  <node id="-708" lat="52.222795626431086" lon="-2.7501883568323335">
    <tag k="addr:postcode" v="HR6 8PR"/>
    <tag k="removemelater" v="yes"/>
  </node>
  <node id="-709" lat="52.22303801655607" lon="-2.747410981127757">
    <tag k="addr:postcode" v="HR6 8PS"/>
    <tag k="removemelater" v="yes"/>
  </node>
  <node id="-710" lat="52.22123376535818" lon="-2.749796061508992">
    <tag k="addr:postcode" v="HR6 8PW"/>
    <tag k="removemelater" v="yes"/>
  </node>
  <node id="-711" lat="52.22166084782039" lon="-2.7476659893464532">
    <tag k="addr:postcode" v="HR6 8QQ"/>
    <tag k="removemelater" v="yes"/>
  </node>
  <node id="-712" lat="52.22352685169524" lon="-2.756759152059885">
    <tag k="addr:postcode" v="HR6 8RH"/>
    <tag k="removemelater" v="yes"/>
  </node>
  <node id="-713" lat="52.22480388196715" lon="-2.7678339681026514">
    <tag k="addr:postcode" v="HR6 8RJ"/>
    <tag k="removemelater" v="yes"/>
  </node>
  <node id="-714" lat="52.223870164726165" lon="-2.759297633379108">
    <tag k="addr:postcode" v="HR6 8RP"/>
    <tag k="removemelater" v="yes"/>
  </node>
  <node id="-715" lat="52.223796269639465" lon="-2.759603802662602">
    <tag k="addr:postcode" v="HR6 8RR"/>
    <tag k="removemelater" v="yes"/>
  </node>
  <node id="-716" lat="52.223632975523756" lon="-2.761225997372092">
    <tag k="addr:postcode" v="HR6 8RX"/>
    <tag k="removemelater" v="yes"/>
  </node>
  <node id="-717" lat="52.22521839173436" lon="-2.7565536796125176">
    <tag k="addr:postcode" v="HR6 8RZ"/>
    <tag k="removemelater" v="yes"/>
  </node>
  <node id="-718" lat="52.22383793673558" lon="-2.7642891690264566">
    <tag k="addr:postcode" v="HR6 8SA"/>
    <tag k="removemelater" v="yes"/>
  </node>
  <node id="-719" lat="52.22497800756348" lon="-2.761776043946728">
    <tag k="addr:postcode" v="HR6 8SB"/>
    <tag k="removemelater" v="yes"/>
  </node>
  <node id="-720" lat="52.22464687431527" lon="-2.765708485357922">
    <tag k="addr:postcode" v="HR6 8SD"/>
    <tag k="removemelater" v="yes"/>
  </node>
  <node id="-721" lat="52.22473461822762" lon="-2.7576873618488715">
    <tag k="addr:postcode" v="HR6 8SE"/>
    <tag k="removemelater" v="yes"/>
  </node>
  <node id="-722" lat="52.22582229792434" lon="-2.7549096055750675">
    <tag k="addr:postcode" v="HR6 8SF"/>
    <tag k="removemelater" v="yes"/>
  </node>
  <node id="-723" lat="52.225928250804444" lon="-2.763593061003155">
    <tag k="addr:postcode" v="HR6 8SG"/>
    <tag k="removemelater" v="yes"/>
  </node>
  <node id="-724" lat="52.22554964761351" lon="-2.7637476051414636">
    <tag k="addr:postcode" v="HR6 8SH"/>
    <tag k="removemelater" v="yes"/>
  </node>
  <node id="-725" lat="52.22539086534509" lon="-2.761885592340155">
    <tag k="addr:postcode" v="HR6 8SJ"/>
    <tag k="removemelater" v="yes"/>
  </node>
  <node id="-726" lat="52.224529191429724" lon="-2.7616658821369358">
    <tag k="addr:postcode" v="HR6 8SL"/>
    <tag k="removemelater" v="yes"/>
  </node>
  <node id="-727" lat="52.22633015139255" lon="-2.7584319087960214">
    <tag k="addr:postcode" v="HR6 8SN"/>
    <tag k="removemelater" v="yes"/>
  </node>
  <node id="-728" lat="52.22726830632046" lon="-2.755139108542245">
    <tag k="addr:postcode" v="HR6 8SP"/>
    <tag k="removemelater" v="yes"/>
  </node>
  <node id="-729" lat="52.22632739207691" lon="-2.7560601231068627">
    <tag k="addr:postcode" v="HR6 8SQ"/>
    <tag k="removemelater" v="yes"/>
  </node>
  <node id="-730" lat="52.22006055571788" lon="-2.7333374984886416">
    <tag k="addr:postcode" v="HR6 8SR"/>
    <tag k="removemelater" v="yes"/>
  </node>
  <node id="-731" lat="52.22715377550299" lon="-2.7533656483610627">
    <tag k="addr:postcode" v="HR6 8SS"/>
    <tag k="removemelater" v="yes"/>
  </node>
  <node id="-732" lat="52.21980420426596" lon="-2.7340798225312115">
    <tag k="addr:postcode" v="HR6 8ST"/>
    <tag k="removemelater" v="yes"/>
  </node>
  <node id="-733" lat="52.2199236796384" lon="-2.7351064697883425">
    <tag k="addr:postcode" v="HR6 8SU"/>
    <tag k="removemelater" v="yes"/>
  </node>
  <node id="-734" lat="52.22704026802887" lon="-2.757053156384039">
    <tag k="addr:postcode" v="HR6 8SW"/>
    <tag k="removemelater" v="yes"/>
  </node>
  <node id="-735" lat="52.22018957373636" lon="-2.734276477143358">
    <tag k="addr:postcode" v="HR6 8SX"/>
    <tag k="removemelater" v="yes"/>
  </node>
  <node id="-736" lat="52.22001867993047" lon="-2.734288295891766">
    <tag k="addr:postcode" v="HR6 8SY"/>
    <tag k="removemelater" v="yes"/>
  </node>
  <node id="-737" lat="52.22017341600608" lon="-2.7339834441802737">
    <tag k="addr:postcode" v="HR6 8SZ"/>
    <tag k="removemelater" v="yes"/>
  </node>
  <node id="-738" lat="52.226590230462826" lon="-2.765493040030221">
    <tag k="addr:postcode" v="HR6 8TA"/>
    <tag k="removemelater" v="yes"/>
  </node>
  <node id="-739" lat="52.225974793140345" lon="-2.7647357993621613">
    <tag k="addr:postcode" v="HR6 8TB"/>
    <tag k="removemelater" v="yes"/>
  </node>
  <node id="-740" lat="52.2277195937461" lon="-2.7435366027203196">
    <tag k="addr:postcode" v="HR6 8TD"/>
    <tag k="removemelater" v="yes"/>
  </node>
  <node id="-741" lat="52.22311563048817" lon="-2.7350567219118793">
    <tag k="addr:postcode" v="HR6 8TH"/>
    <tag k="removemelater" v="yes"/>
  </node>
  <node id="-742" lat="52.2234157517032" lon="-2.7345053827038304">
    <tag k="addr:postcode" v="HR6 8TJ"/>
    <tag k="removemelater" v="yes"/>
  </node>
  <node id="-743" lat="52.224576514867316" lon="-2.7300008551499895">
    <tag k="addr:postcode" v="HR6 8TN"/>
    <tag k="removemelater" v="yes"/>
  </node>
  <node id="-744" lat="52.22606043840046" lon="-2.7612236043307896">
    <tag k="addr:postcode" v="HR6 8TQ"/>
    <tag k="removemelater" v="yes"/>
  </node>
  <node id="-745" lat="52.22297244168506" lon="-2.729154743874175">
    <tag k="addr:postcode" v="HR6 8TW"/>
    <tag k="removemelater" v="yes"/>
  </node>
  <node id="-746" lat="52.22832013634502" lon="-2.7395350035093573">
    <tag k="addr:postcode" v="HR6 8TZ"/>
    <tag k="removemelater" v="yes"/>
  </node>
  <node id="-747" lat="52.224262972703144" lon="-2.759728886838898">
    <tag k="addr:postcode" v="HR6 8UD"/>
    <tag k="removemelater" v="yes"/>
  </node>
  <node id="-748" lat="52.22602121197855" lon="-2.7589390521123507">
    <tag k="addr:postcode" v="HR6 8UE"/>
    <tag k="removemelater" v="yes"/>
  </node>
  <node id="-749" lat="52.22553948978521" lon="-2.7597506816613446">
    <tag k="addr:postcode" v="HR6 8UF"/>
    <tag k="removemelater" v="yes"/>
  </node>
  <node id="-750" lat="52.22524763923132" lon="-2.7589990581157506">
    <tag k="addr:postcode" v="HR6 8UG"/>
    <tag k="removemelater" v="yes"/>
  </node>
  <node id="-751" lat="52.226485213459036" lon="-2.7608795013406078">
    <tag k="addr:postcode" v="HR6 8UQ"/>
    <tag k="removemelater" v="yes"/>
  </node>
  <node id="-752" lat="52.226885913434224" lon="-2.7374175693800264">
    <tag k="addr:postcode" v="HR6 8YP"/>
    <tag k="removemelater" v="yes"/>
  </node>
  <node id="-753" lat="52.22240572176859" lon="-2.7660944563211065">
    <tag k="addr:postcode" v="HR6 9AA"/>
    <tag k="removemelater" v="yes"/>
  </node>
  <node id="-754" lat="52.22154950475352" lon="-2.7691831424936617">
    <tag k="addr:postcode" v="HR6 9AB"/>
    <tag k="removemelater" v="yes"/>
  </node>
  <node id="-755" lat="52.2221348451207" lon="-2.767656165314925">
    <tag k="addr:postcode" v="HR6 9AD"/>
    <tag k="removemelater" v="yes"/>
  </node>
  <node id="-756" lat="52.22170063888399" lon="-2.766682511421838">
    <tag k="addr:postcode" v="HR6 9AE"/>
    <tag k="removemelater" v="yes"/>
  </node>
  <node id="-757" lat="52.22070293547641" lon="-2.768026706266884">
    <tag k="addr:postcode" v="HR6 9AF"/>
    <tag k="removemelater" v="yes"/>
  </node>
  <node id="-758" lat="52.221363648521006" lon="-2.7673500878630537">
    <tag k="addr:postcode" v="HR6 9AG"/>
    <tag k="removemelater" v="yes"/>
  </node>
  <node id="-759" lat="52.22047573988129" lon="-2.769779399216375">
    <tag k="addr:postcode" v="HR6 9AY"/>
    <tag k="removemelater" v="yes"/>
  </node>
  <node id="-760" lat="52.22101280329353" lon="-2.7687639849563914">
    <tag k="addr:postcode" v="HR6 9AZ"/>
    <tag k="removemelater" v="yes"/>
  </node>
  <node id="-761" lat="52.22044255033624" lon="-2.7693543104799625">
    <tag k="addr:postcode" v="HR6 9BA"/>
    <tag k="removemelater" v="yes"/>
  </node>
  <node id="-762" lat="52.22260453603656" lon="-2.8996806257278878">
    <tag k="addr:postcode" v="HR6 9EZ"/>
    <tag k="removemelater" v="yes"/>
  </node>
  <node id="-763" lat="52.25972107087536" lon="-2.8789527323449864">
    <tag k="addr:postcode" v="HR6 9LZ"/>
    <tag k="removemelater" v="yes"/>
  </node>
  <node id="-764" lat="52.26140376037809" lon="-2.881169164293537">
    <tag k="addr:postcode" v="HR6 9NA"/>
    <tag k="removemelater" v="yes"/>
  </node>
  <node id="-765" lat="52.243373854241305" lon="-2.880474993438989">
    <tag k="addr:postcode" v="HR6 9NR"/>
    <tag k="removemelater" v="yes"/>
  </node>
  <node id="-766" lat="52.26873221476125" lon="-2.8415863663069905">
    <tag k="addr:postcode" v="HR6 9PE"/>
    <tag k="removemelater" v="yes"/>
  </node>
  <node id="-767" lat="52.21741861319134" lon="-2.7316838537276817">
    <tag k="addr:postcode" v="HR6 9QG"/>
    <tag k="removemelater" v="yes"/>
  </node>
  <node id="-768" lat="52.28241507345285" lon="-2.8429450784906725">
    <tag k="addr:postcode" v="HR6 9SU"/>
    <tag k="removemelater" v="yes"/>
  </node>
  <node id="-769" lat="52.31537827372874" lon="-2.8573610379034253">
    <tag k="addr:postcode" v="HR6 9UW"/>
    <tag k="removemelater" v="yes"/>
  </node>
  <node id="-770" lat="52.21741861319134" lon="-2.7316838537276817">
    <tag k="addr:postcode" v="HR6 9YP"/>
    <tag k="removemelater" v="yes"/>
  </node>
  <node id="-771" lat="52.18933121256096" lon="-2.507690460440591">
    <tag k="addr:postcode" v="HR7 4AF"/>
    <tag k="removemelater" v="yes"/>
  </node>
  <node id="-772" lat="52.18909903423478" lon="-2.5052303180916153">
    <tag k="addr:postcode" v="HR7 4BW"/>
    <tag k="removemelater" v="yes"/>
  </node>
  <node id="-773" lat="52.18778899127284" lon="-2.5046303605203737">
    <tag k="addr:postcode" v="HR7 4DJ"/>
    <tag k="removemelater" v="yes"/>
  </node>
  <node id="-774" lat="52.189969506039226" lon="-2.5076977347491614">
    <tag k="addr:postcode" v="HR7 4EB"/>
    <tag k="removemelater" v="yes"/>
  </node>
  <node id="-775" lat="52.189270283845254" lon="-2.5051298641696977">
    <tag k="addr:postcode" v="HR7 4FH"/>
    <tag k="removemelater" v="yes"/>
  </node>
  <node id="-776" lat="52.19066113314404" lon="-2.503653531820087">
    <tag k="addr:postcode" v="HR7 4HP"/>
    <tag k="removemelater" v="yes"/>
  </node>
  <node id="-777" lat="52.19288265433108" lon="-2.5055511875679457">
    <tag k="addr:postcode" v="HR7 4HS"/>
    <tag k="removemelater" v="yes"/>
  </node>
  <node id="-778" lat="52.193024110924" lon="-2.506108704294141">
    <tag k="addr:postcode" v="HR7 4HT"/>
    <tag k="removemelater" v="yes"/>
  </node>
  <node id="-779" lat="52.21198592164446" lon="-2.5284531157712102">
    <tag k="addr:postcode" v="HR7 4LT"/>
    <tag k="removemelater" v="yes"/>
  </node>
  <node id="-780" lat="52.21807547494359" lon="-2.517635136154467">
    <tag k="addr:postcode" v="HR7 4LU"/>
    <tag k="removemelater" v="yes"/>
  </node>
  <node id="-781" lat="52.22092219927123" lon="-2.526495216383377">
    <tag k="addr:postcode" v="HR7 4LX"/>
    <tag k="removemelater" v="yes"/>
  </node>
  <node id="-782" lat="52.223067815642665" lon="-2.5251738047543326">
    <tag k="addr:postcode" v="HR7 4LY"/>
    <tag k="removemelater" v="yes"/>
  </node>
  <node id="-783" lat="52.22881920032059" lon="-2.521683932658755">
    <tag k="addr:postcode" v="HR7 4LZ"/>
    <tag k="removemelater" v="yes"/>
  </node>
  <node id="-784" lat="52.21944026814798" lon="-2.5341625993301866">
    <tag k="addr:postcode" v="HR7 4NF"/>
    <tag k="removemelater" v="yes"/>
  </node>
  <node id="-785" lat="52.220816576873766" lon="-2.5477196346885442">
    <tag k="addr:postcode" v="HR7 4NG"/>
    <tag k="removemelater" v="yes"/>
  </node>
  <node id="-786" lat="52.22736912475787" lon="-2.546101997576688">
    <tag k="addr:postcode" v="HR7 4NQ"/>
    <tag k="removemelater" v="yes"/>
  </node>
  <node id="-787" lat="52.192401585251275" lon="-2.5087056000822474">
    <tag k="addr:postcode" v="HR7 4NS"/>
    <tag k="removemelater" v="yes"/>
  </node>
  <node id="-788" lat="52.20762522317648" lon="-2.4996454591926445">
    <tag k="addr:postcode" v="HR7 4PG"/>
    <tag k="removemelater" v="yes"/>
  </node>
  <node id="-789" lat="52.205517958163455" lon="-2.4788132059285286">
    <tag k="addr:postcode" v="HR7 4PJ"/>
    <tag k="removemelater" v="yes"/>
  </node>
  <node id="-790" lat="52.22230386451318" lon="-2.491744261127639">
    <tag k="addr:postcode" v="HR7 4PW"/>
    <tag k="removemelater" v="yes"/>
  </node>
  <node id="-791" lat="52.226844056863534" lon="-2.471927499432608">
    <tag k="addr:postcode" v="HR7 4QB"/>
    <tag k="removemelater" v="yes"/>
  </node>
  <node id="-792" lat="52.22527574464555" lon="-2.4729210108464352">
    <tag k="addr:postcode" v="HR7 4QD"/>
    <tag k="removemelater" v="yes"/>
  </node>
  <node id="-793" lat="52.22836910434151" lon="-2.4705088760585157">
    <tag k="addr:postcode" v="HR7 4QF"/>
    <tag k="removemelater" v="yes"/>
  </node>
  <node id="-794" lat="52.200784416071976" lon="-2.5707670760957084">
    <tag k="addr:postcode" v="HR7 4TB"/>
    <tag k="removemelater" v="yes"/>
  </node>
  <node id="-795" lat="52.06074501274375" lon="-2.71002685487196">
    <tag k="addr:postcode" v="HR7 4YU"/>
    <tag k="removemelater" v="yes"/>
  </node>
  <node id="-796" lat="52.03841690526701" lon="-2.422996226203262">
    <tag k="addr:postcode" v="HR8 1AA"/>
    <tag k="removemelater" v="yes"/>
  </node>
  <node id="-797" lat="52.03757870308959" lon="-2.423571446260566">
    <tag k="addr:postcode" v="HR8 1AB"/>
    <tag k="removemelater" v="yes"/>
  </node>
  <node id="-798" lat="52.03987596419509" lon="-2.4222810491534728">
    <tag k="addr:postcode" v="HR8 1AD"/>
    <tag k="removemelater" v="yes"/>
  </node>
  <node id="-799" lat="52.041096564234266" lon="-2.422875740492021">
    <tag k="addr:postcode" v="HR8 1AE"/>
    <tag k="removemelater" v="yes"/>
  </node>
  <node id="-800" lat="52.042408322455415" lon="-2.4231214070341434">
    <tag k="addr:postcode" v="HR8 1AF"/>
    <tag k="removemelater" v="yes"/>
  </node>
  <node id="-801" lat="52.03865666530649" lon="-2.4213219338013956">
    <tag k="addr:postcode" v="HR8 1AG"/>
    <tag k="removemelater" v="yes"/>
  </node>
  <node id="-802" lat="52.04085904033688" lon="-2.4239232196357223">
    <tag k="addr:postcode" v="HR8 1AH"/>
    <tag k="removemelater" v="yes"/>
  </node>
  <node id="-803" lat="52.040932274848295" lon="-2.4235594254718817">
    <tag k="addr:postcode" v="HR8 1AJ"/>
    <tag k="removemelater" v="yes"/>
  </node>
  <node id="-804" lat="52.04200039912973" lon="-2.4240506627665757">
    <tag k="addr:postcode" v="HR8 1AL"/>
    <tag k="removemelater" v="yes"/>
  </node>
  <node id="-805" lat="52.04385023699576" lon="-2.422172722268505">
    <tag k="addr:postcode" v="HR8 1AN"/>
    <tag k="removemelater" v="yes"/>
  </node>
  <node id="-806" lat="52.0426675214079" lon="-2.426039868292452">
    <tag k="addr:postcode" v="HR8 1AP"/>
    <tag k="removemelater" v="yes"/>
  </node>
  <node id="-807" lat="52.03978208214265" lon="-2.4233881771656502">
    <tag k="addr:postcode" v="HR8 1AQ"/>
    <tag k="removemelater" v="yes"/>
  </node>
  <node id="-808" lat="52.044116079534724" lon="-2.4257474589579">
    <tag k="addr:postcode" v="HR8 1AR"/>
    <tag k="removemelater" v="yes"/>
  </node>
  <node id="-809" lat="52.04280629580475" lon="-2.4274408788449997">
    <tag k="addr:postcode" v="HR8 1AS"/>
    <tag k="removemelater" v="yes"/>
  </node>
  <node id="-810" lat="52.042695286078" lon="-2.4283000434650033">
    <tag k="addr:postcode" v="HR8 1AT"/>
    <tag k="removemelater" v="yes"/>
  </node>
  <node id="-811" lat="52.0431035073281" lon="-2.4272979137432835">
    <tag k="addr:postcode" v="HR8 1AU"/>
    <tag k="removemelater" v="yes"/>
  </node>
  <node id="-812" lat="52.04354411749152" lon="-2.424794298451994">
    <tag k="addr:postcode" v="HR8 1AW"/>
    <tag k="removemelater" v="yes"/>
  </node>
  <node id="-813" lat="52.04294675147527" lon="-2.4283753493250515">
    <tag k="addr:postcode" v="HR8 1AX"/>
    <tag k="removemelater" v="yes"/>
  </node>
  <node id="-814" lat="52.04290930436541" lon="-2.4287832350659295">
    <tag k="addr:postcode" v="HR8 1AY"/>
    <tag k="removemelater" v="yes"/>
  </node>
  <node id="-815" lat="52.04253218624323" lon="-2.428648403994635">
    <tag k="addr:postcode" v="HR8 1AZ"/>
    <tag k="removemelater" v="yes"/>
  </node>
  <node id="-816" lat="52.0445173750955" lon="-2.426655275567204">
    <tag k="addr:postcode" v="HR8 1BA"/>
    <tag k="removemelater" v="yes"/>
  </node>
  <node id="-817" lat="52.043957857562035" lon="-2.4272331637579967">
    <tag k="addr:postcode" v="HR8 1BB"/>
    <tag k="removemelater" v="yes"/>
  </node>
  <node id="-818" lat="52.043630815309335" lon="-2.4281631875733516">
    <tag k="addr:postcode" v="HR8 1BD"/>
    <tag k="removemelater" v="yes"/>
  </node>
  <node id="-819" lat="52.04392553519048" lon="-2.428705483029135">
    <tag k="addr:postcode" v="HR8 1BE"/>
    <tag k="removemelater" v="yes"/>
  </node>
  <node id="-820" lat="52.04480141816309" lon="-2.427664054193939">
    <tag k="addr:postcode" v="HR8 1BG"/>
    <tag k="removemelater" v="yes"/>
  </node>
  <node id="-821" lat="52.039816894958875" lon="-2.421201636416212">
    <tag k="addr:postcode" v="HR8 1BH"/>
    <tag k="removemelater" v="yes"/>
  </node>
  <node id="-822" lat="52.04388054333126" lon="-2.4237476971210086">
    <tag k="addr:postcode" v="HR8 1BJ"/>
    <tag k="removemelater" v="yes"/>
  </node>
  <node id="-823" lat="52.039131993912164" lon="-2.424154713836285">
    <tag k="addr:postcode" v="HR8 1BP"/>
    <tag k="removemelater" v="yes"/>
  </node>
  <node id="-824" lat="52.04457777025783" lon="-2.4273557238370316">
    <tag k="addr:postcode" v="HR8 1BQ"/>
    <tag k="removemelater" v="yes"/>
  </node>
  <node id="-825" lat="52.04095504543303" lon="-2.424726001113627">
    <tag k="addr:postcode" v="HR8 1BS"/>
    <tag k="removemelater" v="yes"/>
  </node>
  <node id="-826" lat="52.03821539437474" lon="-2.424029404510308">
    <tag k="addr:postcode" v="HR8 1BT"/>
    <tag k="removemelater" v="yes"/>
  </node>
  <node id="-827" lat="52.044289792922754" lon="-2.4249471781876535">
    <tag k="addr:postcode" v="HR8 1BW"/>
    <tag k="removemelater" v="yes"/>
  </node>
  <node id="-828" lat="52.04038812538421" lon="-2.4248664177959105">
    <tag k="addr:postcode" v="HR8 1BZ"/>
    <tag k="removemelater" v="yes"/>
  </node>
  <node id="-829" lat="52.03965995682644" lon="-2.424844930858435">
    <tag k="addr:postcode" v="HR8 1DB"/>
    <tag k="removemelater" v="yes"/>
  </node>
  <node id="-830" lat="52.03972803579861" lon="-2.4259098513189414">
    <tag k="addr:postcode" v="HR8 1DD"/>
    <tag k="removemelater" v="yes"/>
  </node>
  <node id="-831" lat="52.03989758716509" lon="-2.426261363588057">
    <tag k="addr:postcode" v="HR8 1DE"/>
    <tag k="removemelater" v="yes"/>
  </node>
  <node id="-832" lat="52.03988822735863" lon="-2.4263633286054778">
    <tag k="addr:postcode" v="HR8 1DF"/>
    <tag k="removemelater" v="yes"/>
  </node>
  <node id="-833" lat="52.039842377905885" lon="-2.4266107375409365">
    <tag k="addr:postcode" v="HR8 1DG"/>
    <tag k="removemelater" v="yes"/>
  </node>
  <node id="-834" lat="52.04046229172762" lon="-2.4267332774261687">
    <tag k="addr:postcode" v="HR8 1DQ"/>
    <tag k="removemelater" v="yes"/>
  </node>
  <node id="-835" lat="52.03636939823977" lon="-2.422335457376799">
    <tag k="addr:postcode" v="HR8 1DS"/>
    <tag k="removemelater" v="yes"/>
  </node>
  <node id="-836" lat="52.044672955277335" lon="-2.4234052588115675">
    <tag k="addr:postcode" v="HR8 1DT"/>
    <tag k="removemelater" v="yes"/>
  </node>
  <node id="-837" lat="52.03680715405514" lon="-2.423112227150247">
    <tag k="addr:postcode" v="HR8 1DZ"/>
    <tag k="removemelater" v="yes"/>
  </node>
  <node id="-838" lat="52.03651799427876" lon="-2.4235176813116666">
    <tag k="addr:postcode" v="HR8 1EA"/>
    <tag k="removemelater" v="yes"/>
  </node>
  <node id="-839" lat="52.03765622634144" lon="-2.422012287417541">
    <tag k="addr:postcode" v="HR8 1EB"/>
    <tag k="removemelater" v="yes"/>
  </node>
  <node id="-840" lat="52.039695497564296" lon="-2.42496190075396">
    <tag k="addr:postcode" v="HR8 1ED"/>
    <tag k="removemelater" v="yes"/>
  </node>
  <node id="-841" lat="52.03938477229368" lon="-2.3981044583507085">
    <tag k="addr:postcode" v="HR8 1EJ"/>
    <tag k="removemelater" v="yes"/>
  </node>
  <node id="-842" lat="52.038906956155415" lon="-2.395825914240256">
    <tag k="addr:postcode" v="HR8 1EL"/>
    <tag k="removemelater" v="yes"/>
  </node>
  <node id="-843" lat="52.028255224385255" lon="-2.3759384664885475">
    <tag k="addr:postcode" v="HR8 1ER"/>
    <tag k="removemelater" v="yes"/>
  </node>
  <node id="-844" lat="52.03505616197687" lon="-2.3543624479640783">
    <tag k="addr:postcode" v="HR8 1ES"/>
    <tag k="removemelater" v="yes"/>
  </node>
  <node id="-845" lat="52.02928989188923" lon="-2.346387663961606">
    <tag k="addr:postcode" v="HR8 1ET"/>
    <tag k="removemelater" v="yes"/>
  </node>
  <node id="-846" lat="52.03869156727109" lon="-2.3442006777284714">
    <tag k="addr:postcode" v="HR8 1EU"/>
    <tag k="removemelater" v="yes"/>
  </node>
  <node id="-847" lat="52.02961036074369" lon="-2.376707779505456">
    <tag k="addr:postcode" v="HR8 1EW"/>
    <tag k="removemelater" v="yes"/>
  </node>
  <node id="-848" lat="52.03733413864382" lon="-2.4215719029383966">
    <tag k="addr:postcode" v="HR8 1EY"/>
    <tag k="removemelater" v="yes"/>
  </node>
  <node id="-849" lat="52.03911895511832" lon="-2.4252771661470347">
    <tag k="addr:postcode" v="HR8 1EZ"/>
    <tag k="removemelater" v="yes"/>
  </node>
  <node id="-850" lat="52.09391239005869" lon="-2.475850628371595">
    <tag k="addr:postcode" v="HR8 1HE"/>
    <tag k="removemelater" v="yes"/>
  </node>
  <node id="-851" lat="52.04601436627718" lon="-2.415325406292758">
    <tag k="addr:postcode" v="HR8 1JE"/>
    <tag k="removemelater" v="yes"/>
  </node>
  <node id="-852" lat="52.09358705876697" lon="-2.431940386900401">
    <tag k="addr:postcode" v="HR8 1JZ"/>
    <tag k="removemelater" v="yes"/>
  </node>
  <node id="-853" lat="52.042620682990545" lon="-2.424071116487989">
    <tag k="addr:postcode" v="HR8 1LA"/>
    <tag k="removemelater" v="yes"/>
  </node>
  <node id="-854" lat="52.0418456715946" lon="-2.4245740701941205">
    <tag k="addr:postcode" v="HR8 1LD"/>
    <tag k="removemelater" v="yes"/>
  </node>
  <node id="-855" lat="52.04236818202228" lon="-2.4217796712119264">
    <tag k="addr:postcode" v="HR8 1LE"/>
    <tag k="removemelater" v="yes"/>
  </node>
  <node id="-856" lat="52.03554572848151" lon="-2.421365560183255">
    <tag k="addr:postcode" v="HR8 1LF"/>
    <tag k="removemelater" v="yes"/>
  </node>
  <node id="-857" lat="52.04783539085463" lon="-2.429005390540302">
    <tag k="addr:postcode" v="HR8 1LG"/>
    <tag k="removemelater" v="yes"/>
  </node>
  <node id="-858" lat="52.04616940840252" lon="-2.429747650817551">
    <tag k="addr:postcode" v="HR8 1LH"/>
    <tag k="removemelater" v="yes"/>
  </node>
  <node id="-859" lat="52.049809921446716" lon="-2.429943001531118">
    <tag k="addr:postcode" v="HR8 1LQ"/>
    <tag k="removemelater" v="yes"/>
  </node>
  <node id="-860" lat="52.05033754374998" lon="-2.4356061022303974">
    <tag k="addr:postcode" v="HR8 1NS"/>
    <tag k="removemelater" v="yes"/>
  </node>
  <node id="-861" lat="52.03498291273079" lon="-2.417832496625995">
    <tag k="addr:postcode" v="HR8 1PJ"/>
    <tag k="removemelater" v="yes"/>
  </node>
  <node id="-862" lat="52.03598273436582" lon="-2.419838993312468">
    <tag k="addr:postcode" v="HR8 1PN"/>
    <tag k="removemelater" v="yes"/>
  </node>
  <node id="-863" lat="52.035502648085405" lon="-2.4183184097994346">
    <tag k="addr:postcode" v="HR8 1PP"/>
    <tag k="removemelater" v="yes"/>
  </node>
  <node id="-864" lat="52.08814680371462" lon="-2.446657849439759">
    <tag k="addr:postcode" v="HR8 1PU"/>
    <tag k="removemelater" v="yes"/>
  </node>
  <node id="-865" lat="52.08767269598735" lon="-2.4460255394240837">
    <tag k="addr:postcode" v="HR8 1PX"/>
    <tag k="removemelater" v="yes"/>
  </node>
  <node id="-866" lat="52.08921825129161" lon="-2.446245291956094">
    <tag k="addr:postcode" v="HR8 1QT"/>
    <tag k="removemelater" v="yes"/>
  </node>
  <node id="-867" lat="52.09299702253543" lon="-2.468703203295267">
    <tag k="addr:postcode" v="HR8 1QW"/>
    <tag k="removemelater" v="yes"/>
  </node>
  <node id="-868" lat="52.03396333627005" lon="-2.3927647437192374">
    <tag k="addr:postcode" v="HR8 1RB"/>
    <tag k="removemelater" v="yes"/>
  </node>
  <node id="-869" lat="52.03102419398096" lon="-2.392520330435145">
    <tag k="addr:postcode" v="HR8 1RD"/>
    <tag k="removemelater" v="yes"/>
  </node>
  <node id="-870" lat="52.025670114956625" lon="-2.385754572674088">
    <tag k="addr:postcode" v="HR8 1RE"/>
    <tag k="removemelater" v="yes"/>
  </node>
  <node id="-871" lat="52.023274205266716" lon="-2.378796848469527">
    <tag k="addr:postcode" v="HR8 1RF"/>
    <tag k="removemelater" v="yes"/>
  </node>
  <node id="-872" lat="52.02011447426615" lon="-2.3715857960286426">
    <tag k="addr:postcode" v="HR8 1RG"/>
    <tag k="removemelater" v="yes"/>
  </node>
  <node id="-873" lat="52.029800024919496" lon="-2.387524660359233">
    <tag k="addr:postcode" v="HR8 1RN"/>
    <tag k="removemelater" v="yes"/>
  </node>
  <node id="-874" lat="52.03516254105356" lon="-2.3751655162933436">
    <tag k="addr:postcode" v="HR8 1RQ"/>
    <tag k="removemelater" v="yes"/>
  </node>
  <node id="-875" lat="51.99732931791595" lon="-2.3608808439092384">
    <tag k="addr:postcode" v="HR8 1RY"/>
    <tag k="removemelater" v="yes"/>
  </node>
  <node id="-876" lat="52.0176561443249" lon="-2.3523742186818386">
    <tag k="addr:postcode" v="HR8 1SE"/>
    <tag k="removemelater" v="yes"/>
  </node>
  <node id="-877" lat="52.03897053445258" lon="-2.4240511327358094">
    <tag k="addr:postcode" v="HR8 1SP"/>
    <tag k="removemelater" v="yes"/>
  </node>
  <node id="-878" lat="52.04092502972271" lon="-2.428049841257775">
    <tag k="addr:postcode" v="HR8 1SU"/>
    <tag k="removemelater" v="yes"/>
  </node>
  <node id="-879" lat="52.04163442155836" lon="-2.4282898974186273">
    <tag k="addr:postcode" v="HR8 1SX"/>
    <tag k="removemelater" v="yes"/>
  </node>
  <node id="-880" lat="52.044672955277335" lon="-2.4234052588115675">
    <tag k="addr:postcode" v="HR8 1YA"/>
    <tag k="removemelater" v="yes"/>
  </node>
  <node id="-881" lat="52.044672955277335" lon="-2.4234052588115675">
    <tag k="addr:postcode" v="HR8 1YN"/>
    <tag k="removemelater" v="yes"/>
  </node>
  <node id="-882" lat="52.03765389055719" lon="-2.425161206140762">
    <tag k="addr:postcode" v="HR8 2AD"/>
    <tag k="removemelater" v="yes"/>
  </node>
  <node id="-883" lat="52.0384349485756" lon="-2.425474772838593">
    <tag k="addr:postcode" v="HR8 2AE"/>
    <tag k="removemelater" v="yes"/>
  </node>
  <node id="-884" lat="52.038927575210806" lon="-2.425989712284683">
    <tag k="addr:postcode" v="HR8 2AF"/>
    <tag k="removemelater" v="yes"/>
  </node>
  <node id="-885" lat="52.03693980311757" lon="-2.426218636289886">
    <tag k="addr:postcode" v="HR8 2AG"/>
    <tag k="removemelater" v="yes"/>
  </node>
  <node id="-886" lat="52.036831541925345" lon="-2.428797941059319">
    <tag k="addr:postcode" v="HR8 2AH"/>
    <tag k="removemelater" v="yes"/>
  </node>
  <node id="-887" lat="52.03656882116534" lon="-2.4268711196318975">
    <tag k="addr:postcode" v="HR8 2AJ"/>
    <tag k="removemelater" v="yes"/>
  </node>
  <node id="-888" lat="52.03583721426501" lon="-2.4277971291584595">
    <tag k="addr:postcode" v="HR8 2AL"/>
    <tag k="removemelater" v="yes"/>
  </node>
  <node id="-889" lat="52.03674371283152" lon="-2.4306922579346497">
    <tag k="addr:postcode" v="HR8 2AN"/>
    <tag k="removemelater" v="yes"/>
  </node>
  <node id="-890" lat="52.03627354497985" lon="-2.431416636256511">
    <tag k="addr:postcode" v="HR8 2AP"/>
    <tag k="removemelater" v="yes"/>
  </node>
  <node id="-891" lat="52.03630317294528" lon="-2.4257460826384376">
    <tag k="addr:postcode" v="HR8 2AQ"/>
    <tag k="removemelater" v="yes"/>
  </node>
  <node id="-892" lat="52.035710148829835" lon="-2.433043923678343">
    <tag k="addr:postcode" v="HR8 2AR"/>
    <tag k="removemelater" v="yes"/>
  </node>
  <node id="-893" lat="52.036187282170225" lon="-2.4328736010326533">
    <tag k="addr:postcode" v="HR8 2AS"/>
    <tag k="removemelater" v="yes"/>
  </node>
  <node id="-894" lat="52.03734569151171" lon="-2.428336356650433">
    <tag k="addr:postcode" v="HR8 2AT"/>
    <tag k="removemelater" v="yes"/>
  </node>
  <node id="-895" lat="52.03842496171367" lon="-2.4282300487956916">
    <tag k="addr:postcode" v="HR8 2AU"/>
    <tag k="removemelater" v="yes"/>
  </node>
  <node id="-896" lat="52.036127721696694" lon="-2.4319546154112577">
    <tag k="addr:postcode" v="HR8 2AW"/>
    <tag k="removemelater" v="yes"/>
  </node>
  <node id="-897" lat="52.03831979967112" lon="-2.429949323841319">
    <tag k="addr:postcode" v="HR8 2AX"/>
    <tag k="removemelater" v="yes"/>
  </node>
  <node id="-898" lat="52.03767366264087" lon="-2.4296223956977223">
    <tag k="addr:postcode" v="HR8 2AY"/>
    <tag k="removemelater" v="yes"/>
  </node>
  <node id="-899" lat="52.03732435118144" lon="-2.431718323986194">
    <tag k="addr:postcode" v="HR8 2AZ"/>
    <tag k="removemelater" v="yes"/>
  </node>
  <node id="-900" lat="52.03671996360095" lon="-2.432266467521035">
    <tag k="addr:postcode" v="HR8 2BA"/>
    <tag k="removemelater" v="yes"/>
  </node>
  <node id="-901" lat="52.035898296879004" lon="-2.43077159615621">
    <tag k="addr:postcode" v="HR8 2BD"/>
    <tag k="removemelater" v="yes"/>
  </node>
  <node id="-902" lat="52.035616724807944" lon="-2.42909244478673">
    <tag k="addr:postcode" v="HR8 2BG"/>
    <tag k="removemelater" v="yes"/>
  </node>
  <node id="-903" lat="52.03577573408257" lon="-2.429866592537286">
    <tag k="addr:postcode" v="HR8 2BH"/>
    <tag k="removemelater" v="yes"/>
  </node>
  <node id="-904" lat="52.03564130393476" lon="-2.4297486802226005">
    <tag k="addr:postcode" v="HR8 2BJ"/>
    <tag k="removemelater" v="yes"/>
  </node>
  <node id="-905" lat="52.03512182855922" lon="-2.42920432487539">
    <tag k="addr:postcode" v="HR8 2BL"/>
    <tag k="removemelater" v="yes"/>
  </node>
  <node id="-906" lat="52.034509419288604" lon="-2.4294900051809334">
    <tag k="addr:postcode" v="HR8 2BN"/>
    <tag k="removemelater" v="yes"/>
  </node>
  <node id="-907" lat="52.03378512964247" lon="-2.4308678923962477">
    <tag k="addr:postcode" v="HR8 2BP"/>
    <tag k="removemelater" v="yes"/>
  </node>
  <node id="-908" lat="52.03626030999344" lon="-2.430119068624483">
    <tag k="addr:postcode" v="HR8 2BQ"/>
    <tag k="removemelater" v="yes"/>
  </node>
  <node id="-909" lat="52.034132779643194" lon="-2.4292240028539718">
    <tag k="addr:postcode" v="HR8 2BS"/>
    <tag k="removemelater" v="yes"/>
  </node>
  <node id="-910" lat="52.034084849549394" lon="-2.4300398707817905">
    <tag k="addr:postcode" v="HR8 2BT"/>
    <tag k="removemelater" v="yes"/>
  </node>
  <node id="-911" lat="52.03423986713569" lon="-2.4294436887809323">
    <tag k="addr:postcode" v="HR8 2BU"/>
    <tag k="removemelater" v="yes"/>
  </node>
  <node id="-912" lat="52.03432679132454" lon="-2.4302608537114208">
    <tag k="addr:postcode" v="HR8 2BW"/>
    <tag k="removemelater" v="yes"/>
  </node>
  <node id="-913" lat="52.03535802042283" lon="-2.4309996433534344">
    <tag k="addr:postcode" v="HR8 2BX"/>
    <tag k="removemelater" v="yes"/>
  </node>
  <node id="-914" lat="52.03501334187784" lon="-2.4318272486305834">
    <tag k="addr:postcode" v="HR8 2BY"/>
    <tag k="removemelater" v="yes"/>
  </node>
  <node id="-915" lat="52.03832969517993" lon="-2.4247448404712033">
    <tag k="addr:postcode" v="HR8 2BZ"/>
    <tag k="removemelater" v="yes"/>
  </node>
  <node id="-916" lat="52.035042178136614" lon="-2.4337663452987863">
    <tag k="addr:postcode" v="HR8 2DA"/>
    <tag k="removemelater" v="yes"/>
  </node>
  <node id="-917" lat="52.03426467924474" lon="-2.432490588688686">
    <tag k="addr:postcode" v="HR8 2DB"/>
    <tag k="removemelater" v="yes"/>
  </node>
  <node id="-918" lat="52.034459252328084" lon="-2.433367110939093">
    <tag k="addr:postcode" v="HR8 2DD"/>
    <tag k="removemelater" v="yes"/>
  </node>
  <node id="-919" lat="52.03489720407287" lon="-2.434071069725765">
    <tag k="addr:postcode" v="HR8 2DE"/>
    <tag k="removemelater" v="yes"/>
  </node>
  <node id="-920" lat="52.032115869894284" lon="-2.432498996881662">
    <tag k="addr:postcode" v="HR8 2DF"/>
    <tag k="removemelater" v="yes"/>
  </node>
  <node id="-921" lat="52.03313541134203" lon="-2.4339665365064818">
    <tag k="addr:postcode" v="HR8 2DG"/>
    <tag k="removemelater" v="yes"/>
  </node>
  <node id="-922" lat="52.03432116345717" lon="-2.4366748335936443">
    <tag k="addr:postcode" v="HR8 2DH"/>
    <tag k="removemelater" v="yes"/>
  </node>
  <node id="-923" lat="52.03607133976771" lon="-2.435059168464351">
    <tag k="addr:postcode" v="HR8 2DJ"/>
    <tag k="removemelater" v="yes"/>
  </node>
  <node id="-924" lat="52.03497832873101" lon="-2.4241445364185252">
    <tag k="addr:postcode" v="HR8 2DL"/>
    <tag k="removemelater" v="yes"/>
  </node>
  <node id="-925" lat="52.03281256218401" lon="-2.4361790916984245">
    <tag k="addr:postcode" v="HR8 2DP"/>
    <tag k="removemelater" v="yes"/>
  </node>
  <node id="-926" lat="52.03292312986847" lon="-2.4330169818844514">
    <tag k="addr:postcode" v="HR8 2DQ"/>
    <tag k="removemelater" v="yes"/>
  </node>
  <node id="-927" lat="52.0320753513992" lon="-2.433737618349469">
    <tag k="addr:postcode" v="HR8 2DR"/>
    <tag k="removemelater" v="yes"/>
  </node>
  <node id="-928" lat="52.03330092066766" lon="-2.437831049947941">
    <tag k="addr:postcode" v="HR8 2DS"/>
    <tag k="removemelater" v="yes"/>
  </node>
  <node id="-929" lat="52.032117795969526" lon="-2.431974256698312">
    <tag k="addr:postcode" v="HR8 2DT"/>
    <tag k="removemelater" v="yes"/>
  </node>
  <node id="-930" lat="52.04406274343856" lon="-2.4329788883430212">
    <tag k="addr:postcode" v="HR8 2DU"/>
    <tag k="removemelater" v="yes"/>
  </node>
  <node id="-931" lat="52.033543264814945" lon="-2.43551565990706">
    <tag k="addr:postcode" v="HR8 2DW"/>
    <tag k="removemelater" v="yes"/>
  </node>
  <node id="-932" lat="52.03531364861408" lon="-2.4234042504686832">
    <tag k="addr:postcode" v="HR8 2DX"/>
    <tag k="removemelater" v="yes"/>
  </node>
  <node id="-933" lat="52.0325979717094" lon="-2.4309730884763074">
    <tag k="addr:postcode" v="HR8 2DY"/>
    <tag k="removemelater" v="yes"/>
  </node>
  <node id="-934" lat="52.044283477360715" lon="-2.434074566979558">
    <tag k="addr:postcode" v="HR8 2DZ"/>
    <tag k="removemelater" v="yes"/>
  </node>
  <node id="-935" lat="52.03528831251287" lon="-2.4254448834140336">
    <tag k="addr:postcode" v="HR8 2EA"/>
    <tag k="removemelater" v="yes"/>
  </node>
  <node id="-936" lat="52.03324140231776" lon="-2.4295798869113265">
    <tag k="addr:postcode" v="HR8 2EB"/>
    <tag k="removemelater" v="yes"/>
  </node>
  <node id="-937" lat="52.03295769394128" lon="-2.430947395369202">
    <tag k="addr:postcode" v="HR8 2ED"/>
    <tag k="removemelater" v="yes"/>
  </node>
  <node id="-938" lat="52.0340878963086" lon="-2.4267308593693504">
    <tag k="addr:postcode" v="HR8 2EE"/>
    <tag k="removemelater" v="yes"/>
  </node>
  <node id="-939" lat="52.03547405314816" lon="-2.4262921554200814">
    <tag k="addr:postcode" v="HR8 2EF"/>
    <tag k="removemelater" v="yes"/>
  </node>
  <node id="-940" lat="52.03213015240112" lon="-2.42859259633105">
    <tag k="addr:postcode" v="HR8 2EG"/>
    <tag k="removemelater" v="yes"/>
  </node>
  <node id="-941" lat="52.032325711267625" lon="-2.429206688625765">
    <tag k="addr:postcode" v="HR8 2EH"/>
    <tag k="removemelater" v="yes"/>
  </node>
  <node id="-942" lat="52.03246689888803" lon="-2.429936878584619">
    <tag k="addr:postcode" v="HR8 2EJ"/>
    <tag k="removemelater" v="yes"/>
  </node>
  <node id="-943" lat="52.0312769776219" lon="-2.4332488688941627">
    <tag k="addr:postcode" v="HR8 2EL"/>
    <tag k="removemelater" v="yes"/>
  </node>
  <node id="-944" lat="52.029235032675935" lon="-2.4335352126532923">
    <tag k="addr:postcode" v="HR8 2EN"/>
    <tag k="removemelater" v="yes"/>
  </node>
  <node id="-945" lat="52.031964447807916" lon="-2.4296551014669237">
    <tag k="addr:postcode" v="HR8 2EP"/>
    <tag k="removemelater" v="yes"/>
  </node>
  <node id="-946" lat="52.03291934268513" lon="-2.429139491778924">
    <tag k="addr:postcode" v="HR8 2EQ"/>
    <tag k="removemelater" v="yes"/>
  </node>
  <node id="-947" lat="52.03134203532323" lon="-2.4302176109607214">
    <tag k="addr:postcode" v="HR8 2ER"/>
    <tag k="removemelater" v="yes"/>
  </node>
  <node id="-948" lat="52.044672955277335" lon="-2.4234052588115675">
    <tag k="addr:postcode" v="HR8 2ES"/>
    <tag k="removemelater" v="yes"/>
  </node>
  <node id="-949" lat="52.031022688644505" lon="-2.4290338659638437">
    <tag k="addr:postcode" v="HR8 2ET"/>
    <tag k="removemelater" v="yes"/>
  </node>
  <node id="-950" lat="52.03342403281171" lon="-2.4263309548760157">
    <tag k="addr:postcode" v="HR8 2EU"/>
    <tag k="removemelater" v="yes"/>
  </node>
  <node id="-951" lat="52.031837496096934" lon="-2.427481979465521">
    <tag k="addr:postcode" v="HR8 2EW"/>
    <tag k="removemelater" v="yes"/>
  </node>
  <node id="-952" lat="52.031354394046254" lon="-2.4268214324590485">
    <tag k="addr:postcode" v="HR8 2EX"/>
    <tag k="removemelater" v="yes"/>
  </node>
  <node id="-953" lat="52.04040916021533" lon="-2.436325969854213">
    <tag k="addr:postcode" v="HR8 2FA"/>
    <tag k="removemelater" v="yes"/>
  </node>
  <node id="-954" lat="52.039569432826674" lon="-2.4372945858900623">
    <tag k="addr:postcode" v="HR8 2FB"/>
    <tag k="removemelater" v="yes"/>
  </node>
  <node id="-955" lat="52.0401408528354" lon="-2.4359442955268853">
    <tag k="addr:postcode" v="HR8 2FD"/>
    <tag k="removemelater" v="yes"/>
  </node>
  <node id="-956" lat="52.039865086181415" lon="-2.4375744765834604">
    <tag k="addr:postcode" v="HR8 2FE"/>
    <tag k="removemelater" v="yes"/>
  </node>
  <node id="-957" lat="52.041532794357444" lon="-2.4363806563720374">
    <tag k="addr:postcode" v="HR8 2FF"/>
    <tag k="removemelater" v="yes"/>
  </node>
  <node id="-958" lat="52.0405832148631" lon="-2.4354529023210056">
    <tag k="addr:postcode" v="HR8 2FG"/>
    <tag k="removemelater" v="yes"/>
  </node>
  <node id="-959" lat="52.042242888897285" lon="-2.4315470400068695">
    <tag k="addr:postcode" v="HR8 2FH"/>
    <tag k="removemelater" v="yes"/>
  </node>
  <node id="-960" lat="52.04255984754821" lon="-2.4309231531774245">
    <tag k="addr:postcode" v="HR8 2FJ"/>
    <tag k="removemelater" v="yes"/>
  </node>
  <node id="-961" lat="52.041796039118864" lon="-2.4308137449552327">
    <tag k="addr:postcode" v="HR8 2FL"/>
    <tag k="removemelater" v="yes"/>
  </node>
  <node id="-962" lat="52.04255293633919" lon="-2.4303544656425706">
    <tag k="addr:postcode" v="HR8 2FN"/>
    <tag k="removemelater" v="yes"/>
  </node>
  <node id="-963" lat="52.040705417574095" lon="-2.434010727226069">
    <tag k="addr:postcode" v="HR8 2FP"/>
    <tag k="removemelater" v="yes"/>
  </node>
  <node id="-964" lat="52.04094126128958" lon="-2.4334444121663754">
    <tag k="addr:postcode" v="HR8 2FQ"/>
    <tag k="removemelater" v="yes"/>
  </node>
  <node id="-965" lat="52.03996007597676" lon="-2.4337702373353283">
    <tag k="addr:postcode" v="HR8 2FR"/>
    <tag k="removemelater" v="yes"/>
  </node>
  <node id="-966" lat="52.04014742333317" lon="-2.4341656914956067">
    <tag k="addr:postcode" v="HR8 2FS"/>
    <tag k="removemelater" v="yes"/>
  </node>
  <node id="-967" lat="52.040392686951336" lon="-2.4310335144031416">
    <tag k="addr:postcode" v="HR8 2FT"/>
    <tag k="removemelater" v="yes"/>
  </node>
  <node id="-968" lat="52.03901753573441" lon="-2.4333674790482087">
    <tag k="addr:postcode" v="HR8 2FU"/>
    <tag k="removemelater" v="yes"/>
  </node>
  <node id="-969" lat="52.03460371239383" lon="-2.438062445099344">
    <tag k="addr:postcode" v="HR8 2FX"/>
    <tag k="removemelater" v="yes"/>
  </node>
  <node id="-970" lat="52.0337344429829" lon="-2.439715740927564">
    <tag k="addr:postcode" v="HR8 2FY"/>
    <tag k="removemelater" v="yes"/>
  </node>
  <node id="-971" lat="52.03894955233088" lon="-2.4347372336682134">
    <tag k="addr:postcode" v="HR8 2FZ"/>
    <tag k="removemelater" v="yes"/>
  </node>
  <node id="-972" lat="52.040508067077425" lon="-2.431442846994331">
    <tag k="addr:postcode" v="HR8 2GA"/>
    <tag k="removemelater" v="yes"/>
  </node>
  <node id="-973" lat="52.039653778720826" lon="-2.4290290686245264">
    <tag k="addr:postcode" v="HR8 2GB"/>
    <tag k="removemelater" v="yes"/>
  </node>
  <node id="-974" lat="52.02993209200804" lon="-2.4346788797806966">
    <tag k="addr:postcode" v="HR8 2GD"/>
    <tag k="removemelater" v="yes"/>
  </node>
  <node id="-975" lat="52.03735324960817" lon="-2.4287300439422377">
    <tag k="addr:postcode" v="HR8 2GF"/>
    <tag k="removemelater" v="yes"/>
  </node>
  <node id="-976" lat="52.03248939667571" lon="-2.428698070562658">
    <tag k="addr:postcode" v="HR8 2GG"/>
    <tag k="removemelater" v="yes"/>
  </node>
  <node id="-977" lat="52.04263520304073" lon="-2.43244020388621">
    <tag k="addr:postcode" v="HR8 2GH"/>
    <tag k="removemelater" v="yes"/>
  </node>
  <node id="-978" lat="52.03812524303578" lon="-2.431521943480096">
    <tag k="addr:postcode" v="HR8 2GJ"/>
    <tag k="removemelater" v="yes"/>
  </node>
  <node id="-979" lat="52.03332012169919" lon="-2.4350761797554767">
    <tag k="addr:postcode" v="HR8 2GL"/>
    <tag k="removemelater" v="yes"/>
  </node>
  <node id="-980" lat="52.03621035584177" lon="-2.4290252417472513">
    <tag k="addr:postcode" v="HR8 2GN"/>
    <tag k="removemelater" v="yes"/>
  </node>
  <node id="-981" lat="52.03438103603455" lon="-2.4277103354689564">
    <tag k="addr:postcode" v="HR8 2GP"/>
    <tag k="removemelater" v="yes"/>
  </node>
  <node id="-982" lat="52.038877477682085" lon="-2.4249249813295464">
    <tag k="addr:postcode" v="HR8 2GQ"/>
    <tag k="removemelater" v="yes"/>
  </node>
  <node id="-983" lat="52.03358901189069" lon="-2.4229652131342903">
    <tag k="addr:postcode" v="HR8 2HA"/>
    <tag k="removemelater" v="yes"/>
  </node>
  <node id="-984" lat="52.03320200591876" lon="-2.423078174885817">
    <tag k="addr:postcode" v="HR8 2HB"/>
    <tag k="removemelater" v="yes"/>
  </node>
  <node id="-985" lat="52.03314320472763" lon="-2.4219260395658773">
    <tag k="addr:postcode" v="HR8 2HD"/>
    <tag k="removemelater" v="yes"/>
  </node>
  <node id="-986" lat="52.03217691638166" lon="-2.4305608915753742">
    <tag k="addr:postcode" v="HR8 2HE"/>
    <tag k="removemelater" v="yes"/>
  </node>
  <node id="-987" lat="52.031963371946276" lon="-2.422497990530956">
    <tag k="addr:postcode" v="HR8 2HF"/>
    <tag k="removemelater" v="yes"/>
  </node>
  <node id="-988" lat="52.03047419249792" lon="-2.424087316905964">
    <tag k="addr:postcode" v="HR8 2HG"/>
    <tag k="removemelater" v="yes"/>
  </node>
  <node id="-989" lat="52.03205635835498" lon="-2.421638847620441">
    <tag k="addr:postcode" v="HR8 2HH"/>
    <tag k="removemelater" v="yes"/>
  </node>
  <node id="-990" lat="52.03144475011173" lon="-2.4217059733361244">
    <tag k="addr:postcode" v="HR8 2HJ"/>
    <tag k="removemelater" v="yes"/>
  </node>
  <node id="-991" lat="52.0315641288126" lon="-2.4210074275924325">
    <tag k="addr:postcode" v="HR8 2HL"/>
    <tag k="removemelater" v="yes"/>
  </node>
  <node id="-992" lat="52.028329156262195" lon="-2.423046735394637">
    <tag k="addr:postcode" v="HR8 2HN"/>
    <tag k="removemelater" v="yes"/>
  </node>
  <node id="-993" lat="52.02821447863104" lon="-2.4224334875147915">
    <tag k="addr:postcode" v="HR8 2HP"/>
    <tag k="removemelater" v="yes"/>
  </node>
  <node id="-994" lat="52.031470624739235" lon="-2.422012321668382">
    <tag k="addr:postcode" v="HR8 2HQ"/>
    <tag k="removemelater" v="yes"/>
  </node>
  <node id="-995" lat="52.030814033232915" lon="-2.419571910645846">
    <tag k="addr:postcode" v="HR8 2HR"/>
    <tag k="removemelater" v="yes"/>
  </node>
  <node id="-996" lat="52.028482593580655" lon="-2.435218684331932">
    <tag k="addr:postcode" v="HR8 2HS"/>
    <tag k="removemelater" v="yes"/>
  </node>
  <node id="-997" lat="52.02433778715815" lon="-2.4328028489822846">
    <tag k="addr:postcode" v="HR8 2HT"/>
    <tag k="removemelater" v="yes"/>
  </node>
  <node id="-998" lat="52.03092617496744" lon="-2.420899398720787">
    <tag k="addr:postcode" v="HR8 2HW"/>
    <tag k="removemelater" v="yes"/>
  </node>
  <node id="-999" lat="52.02990063939555" lon="-2.4160068356869173">
    <tag k="addr:postcode" v="HR8 2JE"/>
    <tag k="removemelater" v="yes"/>
  </node>
  <node id="-1000" lat="52.029606719987854" lon="-2.4202893945675643">
    <tag k="addr:postcode" v="HR8 2JF"/>
    <tag k="removemelater" v="yes"/>
  </node>
  <node id="-1001" lat="52.0332682626117" lon="-2.424653116970241">
    <tag k="addr:postcode" v="HR8 2JH"/>
    <tag k="removemelater" v="yes"/>
  </node>
  <node id="-1002" lat="52.03688316763588" lon="-2.4269615845373824">
    <tag k="addr:postcode" v="HR8 2JJ"/>
    <tag k="removemelater" v="yes"/>
  </node>
  <node id="-1003" lat="52.03407946118075" lon="-2.443611260057749">
    <tag k="addr:postcode" v="HR8 2JL"/>
    <tag k="removemelater" v="yes"/>
  </node>
  <node id="-1004" lat="52.033719255065705" lon="-2.4461441187727417">
    <tag k="addr:postcode" v="HR8 2JT"/>
    <tag k="removemelater" v="yes"/>
  </node>
  <node id="-1005" lat="52.04499554455282" lon="-2.431136143585591">
    <tag k="addr:postcode" v="HR8 2LQ"/>
    <tag k="removemelater" v="yes"/>
  </node>
  <node id="-1006" lat="52.04358775400847" lon="-2.4325660454733113">
    <tag k="addr:postcode" v="HR8 2LR"/>
    <tag k="removemelater" v="yes"/>
  </node>
  <node id="-1007" lat="52.041808195851175" lon="-2.432403058418286">
    <tag k="addr:postcode" v="HR8 2LS"/>
    <tag k="removemelater" v="yes"/>
  </node>
  <node id="-1008" lat="52.03713662165049" lon="-2.4314249492410025">
    <tag k="addr:postcode" v="HR8 2LT"/>
    <tag k="removemelater" v="yes"/>
  </node>
  <node id="-1009" lat="52.00462689192683" lon="-2.493068601384473">
    <tag k="addr:postcode" v="HR8 2ND"/>
    <tag k="removemelater" v="yes"/>
  </node>
  <node id="-1010" lat="52.045447143309254" lon="-2.4305718340211486">
    <tag k="addr:postcode" v="HR8 2NE"/>
    <tag k="removemelater" v="yes"/>
  </node>
  <node id="-1011" lat="51.995225863146594" lon="-2.5133266975848123">
    <tag k="addr:postcode" v="HR8 2NQ"/>
    <tag k="removemelater" v="yes"/>
  </node>
  <node id="-1012" lat="51.988347408907615" lon="-2.4988020538571347">
    <tag k="addr:postcode" v="HR8 2NW"/>
    <tag k="removemelater" v="yes"/>
  </node>
  <node id="-1013" lat="52.03218750480601" lon="-2.4301236937057134">
    <tag k="addr:postcode" v="HR8 2NZ"/>
    <tag k="removemelater" v="yes"/>
  </node>
  <node id="-1014" lat="52.044096240634445" lon="-2.4312003876597608">
    <tag k="addr:postcode" v="HR8 2PN"/>
    <tag k="removemelater" v="yes"/>
  </node>
  <node id="-1015" lat="52.04393366642859" lon="-2.43140294883049">
    <tag k="addr:postcode" v="HR8 2PP"/>
    <tag k="removemelater" v="yes"/>
  </node>
  <node id="-1016" lat="52.0448654849211" lon="-2.4347217632141747">
    <tag k="addr:postcode" v="HR8 2PR"/>
    <tag k="removemelater" v="yes"/>
  </node>
  <node id="-1017" lat="52.04880325005786" lon="-2.4467756185121305">
    <tag k="addr:postcode" v="HR8 2PS"/>
    <tag k="removemelater" v="yes"/>
  </node>
  <node id="-1018" lat="52.04463699688764" lon="-2.4308410773105695">
    <tag k="addr:postcode" v="HR8 2PW"/>
    <tag k="removemelater" v="yes"/>
  </node>
  <node id="-1019" lat="52.04527979501736" lon="-2.434521652697828">
    <tag k="addr:postcode" v="HR8 2QX"/>
    <tag k="removemelater" v="yes"/>
  </node>
  <node id="-1020" lat="52.04552463149377" lon="-2.4339553697969465">
    <tag k="addr:postcode" v="HR8 2QY"/>
    <tag k="removemelater" v="yes"/>
  </node>
  <node id="-1021" lat="52.045394443182815" lon="-2.4326855652365724">
    <tag k="addr:postcode" v="HR8 2QZ"/>
    <tag k="removemelater" v="yes"/>
  </node>
  <node id="-1022" lat="52.06784593038151" lon="-2.5149471667796006">
    <tag k="addr:postcode" v="HR8 2SE"/>
    <tag k="removemelater" v="yes"/>
  </node>
  <node id="-1023" lat="52.0385731247319" lon="-2.436847496308556">
    <tag k="addr:postcode" v="HR8 2SS"/>
    <tag k="removemelater" v="yes"/>
  </node>
  <node id="-1024" lat="52.03429479627779" lon="-2.424210950960775">
    <tag k="addr:postcode" v="HR8 2SU"/>
    <tag k="removemelater" v="yes"/>
  </node>
  <node id="-1025" lat="52.07973025880665" lon="-2.527443564102874">
    <tag k="addr:postcode" v="HR8 2TA"/>
    <tag k="removemelater" v="yes"/>
  </node>
  <node id="-1026" lat="52.0830046075334" lon="-2.5310575288391433">
    <tag k="addr:postcode" v="HR8 2TB"/>
    <tag k="removemelater" v="yes"/>
  </node>
  <node id="-1027" lat="52.09016384613164" lon="-2.518342230210221">
    <tag k="addr:postcode" v="HR8 2TD"/>
    <tag k="removemelater" v="yes"/>
  </node>
  <node id="-1028" lat="52.091954566990616" lon="-2.5055621547717664">
    <tag k="addr:postcode" v="HR8 2TE"/>
    <tag k="removemelater" v="yes"/>
  </node>
  <node id="-1029" lat="52.08543608392628" lon="-2.5014167178356246">
    <tag k="addr:postcode" v="HR8 2TF"/>
    <tag k="removemelater" v="yes"/>
  </node>
  <node id="-1030" lat="52.08672460789202" lon="-2.5153396850459586">
    <tag k="addr:postcode" v="HR8 2TG"/>
    <tag k="removemelater" v="yes"/>
  </node>
  <node id="-1031" lat="52.08693954266341" lon="-2.5155318911159186">
    <tag k="addr:postcode" v="HR8 2TH"/>
    <tag k="removemelater" v="yes"/>
  </node>
  <node id="-1032" lat="52.086799144931334" lon="-2.514742170188786">
    <tag k="addr:postcode" v="HR8 2TJ"/>
    <tag k="removemelater" v="yes"/>
  </node>
  <node id="-1033" lat="52.10277950054169" lon="-2.5300661130444677">
    <tag k="addr:postcode" v="HR8 2TR"/>
    <tag k="removemelater" v="yes"/>
  </node>
  <node id="-1034" lat="52.09404448760677" lon="-2.5351736109583736">
    <tag k="addr:postcode" v="HR8 2TW"/>
    <tag k="removemelater" v="yes"/>
  </node>
  <node id="-1035" lat="52.112694552402424" lon="-2.522371174963019">
    <tag k="addr:postcode" v="HR8 2UN"/>
    <tag k="removemelater" v="yes"/>
  </node>
  <node id="-1036" lat="52.04314175434983" lon="-2.4340489196449444">
    <tag k="addr:postcode" v="HR8 2UP"/>
    <tag k="removemelater" v="yes"/>
  </node>
  <node id="-1037" lat="52.04286310663757" lon="-2.434031638690354">
    <tag k="addr:postcode" v="HR8 2UR"/>
    <tag k="removemelater" v="yes"/>
  </node>
  <node id="-1038" lat="52.04293976950096" lon="-2.4351842139016195">
    <tag k="addr:postcode" v="HR8 2US"/>
    <tag k="removemelater" v="yes"/>
  </node>
  <node id="-1039" lat="52.04345270525753" lon="-2.435057975775472">
    <tag k="addr:postcode" v="HR8 2UT"/>
    <tag k="removemelater" v="yes"/>
  </node>
  <node id="-1040" lat="52.042062157545026" lon="-2.4342425739279276">
    <tag k="addr:postcode" v="HR8 2UW"/>
    <tag k="removemelater" v="yes"/>
  </node>
  <node id="-1041" lat="52.04250074921196" lon="-2.4347717072526076">
    <tag k="addr:postcode" v="HR8 2UX"/>
    <tag k="removemelater" v="yes"/>
  </node>
  <node id="-1042" lat="52.02910570025552" lon="-2.4195996391166665">
    <tag k="addr:postcode" v="HR8 2XA"/>
    <tag k="removemelater" v="yes"/>
  </node>
  <node id="-1043" lat="52.02778957486431" lon="-2.4230853663580163">
    <tag k="addr:postcode" v="HR8 2XB"/>
    <tag k="removemelater" v="yes"/>
  </node>
  <node id="-1044" lat="52.02894018953227" lon="-2.423139958505444">
    <tag k="addr:postcode" v="HR8 2XD"/>
    <tag k="removemelater" v="yes"/>
  </node>
  <node id="-1045" lat="52.029677873892844" lon="-2.423015743115028">
    <tag k="addr:postcode" v="HR8 2XE"/>
    <tag k="removemelater" v="yes"/>
  </node>
  <node id="-1046" lat="52.02737024500566" lon="-2.4246846661456622">
    <tag k="addr:postcode" v="HR8 2XF"/>
    <tag k="removemelater" v="yes"/>
  </node>
  <node id="-1047" lat="52.03030714968104" lon="-2.423036260801885">
    <tag k="addr:postcode" v="HR8 2XG"/>
    <tag k="removemelater" v="yes"/>
  </node>
  <node id="-1048" lat="52.02796511955641" lon="-2.426759994333204">
    <tag k="addr:postcode" v="HR8 2XJ"/>
    <tag k="removemelater" v="yes"/>
  </node>
  <node id="-1049" lat="52.02992143032766" lon="-2.427769791174121">
    <tag k="addr:postcode" v="HR8 2XL"/>
    <tag k="removemelater" v="yes"/>
  </node>
  <node id="-1050" lat="52.028966964999" lon="-2.4281687951675255">
    <tag k="addr:postcode" v="HR8 2XN"/>
    <tag k="removemelater" v="yes"/>
  </node>
  <node id="-1051" lat="52.02971395135027" lon="-2.425479401964462">
    <tag k="addr:postcode" v="HR8 2XP"/>
    <tag k="removemelater" v="yes"/>
  </node>
  <node id="-1052" lat="52.0301076843235" lon="-2.4235008085526726">
    <tag k="addr:postcode" v="HR8 2XQ"/>
    <tag k="removemelater" v="yes"/>
  </node>
  <node id="-1053" lat="52.03050178493483" lon="-2.4264051786365615">
    <tag k="addr:postcode" v="HR8 2XR"/>
    <tag k="removemelater" v="yes"/>
  </node>
  <node id="-1054" lat="52.03052382441534" lon="-2.425283027820737">
    <tag k="addr:postcode" v="HR8 2XS"/>
    <tag k="removemelater" v="yes"/>
  </node>
  <node id="-1055" lat="52.03045915881424" lon="-2.42824136041204">
    <tag k="addr:postcode" v="HR8 2XT"/>
    <tag k="removemelater" v="yes"/>
  </node>
  <node id="-1056" lat="52.030667262516666" lon="-2.427878945648108">
    <tag k="addr:postcode" v="HR8 2XU"/>
    <tag k="removemelater" v="yes"/>
  </node>
  <node id="-1057" lat="52.029027723399885" lon="-2.4287669764854285">
    <tag k="addr:postcode" v="HR8 2XW"/>
    <tag k="removemelater" v="yes"/>
  </node>
  <node id="-1058" lat="52.02784168062387" lon="-2.4285661483959533">
    <tag k="addr:postcode" v="HR8 2XX"/>
    <tag k="removemelater" v="yes"/>
  </node>
  <node id="-1059" lat="52.02995012111349" lon="-2.4297669670119078">
    <tag k="addr:postcode" v="HR8 2XY"/>
    <tag k="removemelater" v="yes"/>
  </node>
  <node id="-1060" lat="52.044672955277335" lon="-2.4234052588115675">
    <tag k="addr:postcode" v="HR8 2YD"/>
    <tag k="removemelater" v="yes"/>
  </node>
  <node id="-1061" lat="52.044672955277335" lon="-2.4234052588115675">
    <tag k="addr:postcode" v="HR8 2YN"/>
    <tag k="removemelater" v="yes"/>
  </node>
  <node id="-1062" lat="52.044672955277335" lon="-2.4234052588115675">
    <tag k="addr:postcode" v="HR8 2ZB"/>
    <tag k="removemelater" v="yes"/>
  </node>
  <node id="-1063" lat="52.044672955277335" lon="-2.4234052588115675">
    <tag k="addr:postcode" v="HR8 9JE"/>
    <tag k="removemelater" v="yes"/>
  </node>
  <node id="-1064" lat="52.044672955277335" lon="-2.4234052588115675">
    <tag k="addr:postcode" v="HR8 9JN"/>
    <tag k="removemelater" v="yes"/>
  </node>
  <node id="-1065" lat="52.044672955277335" lon="-2.4234052588115675">
    <tag k="addr:postcode" v="HR8 9JW"/>
    <tag k="removemelater" v="yes"/>
  </node>
  <node id="-1066" lat="52.044672955277335" lon="-2.4234052588115675">
    <tag k="addr:postcode" v="HR8 9JY"/>
    <tag k="removemelater" v="yes"/>
  </node>
  <node id="-1067" lat="52.044672955277335" lon="-2.4234052588115675">
    <tag k="addr:postcode" v="HR8 9RB"/>
    <tag k="removemelater" v="yes"/>
  </node>
  <node id="-1068" lat="52.044672955277335" lon="-2.4234052588115675">
    <tag k="addr:postcode" v="HR8 9RG"/>
    <tag k="removemelater" v="yes"/>
  </node>
  <node id="-1069" lat="51.912578509536466" lon="-2.5835029792716093">
    <tag k="addr:postcode" v="HR9 5AD"/>
    <tag k="removemelater" v="yes"/>
  </node>
  <node id="-1070" lat="51.910318564899136" lon="-2.5859595455879547">
    <tag k="addr:postcode" v="HR9 5AP"/>
    <tag k="removemelater" v="yes"/>
  </node>
  <node id="-1071" lat="51.91193769828807" lon="-2.585806175396818">
    <tag k="addr:postcode" v="HR9 5AR"/>
    <tag k="removemelater" v="yes"/>
  </node>
  <node id="-1072" lat="51.91378674857004" lon="-2.5828062672073444">
    <tag k="addr:postcode" v="HR9 5BS"/>
    <tag k="removemelater" v="yes"/>
  </node>
  <node id="-1073" lat="51.91398734364151" lon="-2.5822418665711435">
    <tag k="addr:postcode" v="HR9 5BU"/>
    <tag k="removemelater" v="yes"/>
  </node>
  <node id="-1074" lat="51.914115284207064" lon="-2.5836392154156367">
    <tag k="addr:postcode" v="HR9 5BX"/>
    <tag k="removemelater" v="yes"/>
  </node>
  <node id="-1075" lat="51.9140048207171" lon="-2.5823438617719936">
    <tag k="addr:postcode" v="HR9 5BY"/>
    <tag k="removemelater" v="yes"/>
  </node>
  <node id="-1076" lat="51.914043802721615" lon="-2.5817337514411722">
    <tag k="addr:postcode" v="HR9 5DE"/>
    <tag k="removemelater" v="yes"/>
  </node>
  <node id="-1077" lat="51.913695908652954" lon="-2.582994089013606">
    <tag k="addr:postcode" v="HR9 5DF"/>
    <tag k="removemelater" v="yes"/>
  </node>
  <node id="-1078" lat="51.91426097199516" lon="-2.585080418598423">
    <tag k="addr:postcode" v="HR9 5HG"/>
    <tag k="removemelater" v="yes"/>
  </node>
  <node id="-1079" lat="51.91439633334925" lon="-2.5849804087469375">
    <tag k="addr:postcode" v="HR9 5HL"/>
    <tag k="removemelater" v="yes"/>
  </node>
  <node id="-1080" lat="51.91397241294919" lon="-2.5852511276522656">
    <tag k="addr:postcode" v="HR9 5HP"/>
    <tag k="removemelater" v="yes"/>
  </node>
  <node id="-1081" lat="51.91391056497299" lon="-2.585032247113804">
    <tag k="addr:postcode" v="HR9 5HR"/>
    <tag k="removemelater" v="yes"/>
  </node>
  <node id="-1082" lat="51.914168826466444" lon="-2.5855299136590366">
    <tag k="addr:postcode" v="HR9 5HT"/>
    <tag k="removemelater" v="yes"/>
  </node>
  <node id="-1083" lat="51.91419848668852" lon="-2.58679514920852">
    <tag k="addr:postcode" v="HR9 5HZ"/>
    <tag k="removemelater" v="yes"/>
  </node>
  <node id="-1084" lat="51.91365052601743" lon="-2.581263440762867">
    <tag k="addr:postcode" v="HR9 5LE"/>
    <tag k="removemelater" v="yes"/>
  </node>
  <node id="-1085" lat="51.91374632999441" lon="-2.5818898274865125">
    <tag k="addr:postcode" v="HR9 5LF"/>
    <tag k="removemelater" v="yes"/>
  </node>
  <node id="-1086" lat="51.91241774499389" lon="-2.5796483450266754">
    <tag k="addr:postcode" v="HR9 5LH"/>
    <tag k="removemelater" v="yes"/>
  </node>
  <node id="-1087" lat="51.914223673276815" lon="-2.583538851762467">
    <tag k="addr:postcode" v="HR9 5NU"/>
    <tag k="removemelater" v="yes"/>
  </node>
  <node id="-1088" lat="51.91448107497394" lon="-2.5842109651161573">
    <tag k="addr:postcode" v="HR9 5NX"/>
    <tag k="removemelater" v="yes"/>
  </node>
  <node id="-1089" lat="51.91340706433023" lon="-2.5832229585896247">
    <tag k="addr:postcode" v="HR9 5PA"/>
    <tag k="removemelater" v="yes"/>
  </node>
  <node id="-1090" lat="51.91321114943827" lon="-2.582842426619416">
    <tag k="addr:postcode" v="HR9 5PB"/>
    <tag k="removemelater" v="yes"/>
  </node>
  <node id="-1091" lat="51.87261469674125" lon="-2.557334082174501">
    <tag k="addr:postcode" v="HR9 5SW"/>
    <tag k="removemelater" v="yes"/>
  </node>
  <node id="-1092" lat="51.915126794526216" lon="-2.6023637780577658">
    <tag k="addr:postcode" v="HR9 6AE"/>
    <tag k="removemelater" v="yes"/>
  </node>
  <node id="-1093" lat="51.870301520220316" lon="-2.693108307438628">
    <tag k="addr:postcode" v="HR9 6BS"/>
    <tag k="removemelater" v="yes"/>
  </node>
  <node id="-1094" lat="51.84091266329119" lon="-2.63860312397107">
    <tag k="addr:postcode" v="HR9 6BY"/>
    <tag k="removemelater" v="yes"/>
  </node>
  <node id="-1095" lat="51.85577774505933" lon="-2.6544368236434246">
    <tag k="addr:postcode" v="HR9 6DB"/>
    <tag k="removemelater" v="yes"/>
  </node>
  <node id="-1096" lat="51.856096320173506" lon="-2.66971629443176">
    <tag k="addr:postcode" v="HR9 6DH"/>
    <tag k="removemelater" v="yes"/>
  </node>
  <node id="-1097" lat="51.87041573926777" lon="-2.6935603219129405">
    <tag k="addr:postcode" v="HR9 6EB"/>
    <tag k="removemelater" v="yes"/>
  </node>
  <node id="-1098" lat="51.87284975659159" lon="-2.677024494788058">
    <tag k="addr:postcode" v="HR9 6EL"/>
    <tag k="removemelater" v="yes"/>
  </node>
  <node id="-1099" lat="51.87105936171485" lon="-2.6834465426733476">
    <tag k="addr:postcode" v="HR9 6EN"/>
    <tag k="removemelater" v="yes"/>
  </node>
  <node id="-1100" lat="51.86724052827934" lon="-2.6830400760592767">
    <tag k="addr:postcode" v="HR9 6EP"/>
    <tag k="removemelater" v="yes"/>
  </node>
  <node id="-1101" lat="51.868373190965976" lon="-2.6861653305680684">
    <tag k="addr:postcode" v="HR9 6ET"/>
    <tag k="removemelater" v="yes"/>
  </node>
  <node id="-1102" lat="51.86957652848774" lon="-2.686416036899704">
    <tag k="addr:postcode" v="HR9 6EU"/>
    <tag k="removemelater" v="yes"/>
  </node>
  <node id="-1103" lat="51.86850342853017" lon="-2.6838725483941523">
    <tag k="addr:postcode" v="HR9 6EW"/>
    <tag k="removemelater" v="yes"/>
  </node>
  <node id="-1104" lat="51.8693182976557" lon="-2.6905950429851493">
    <tag k="addr:postcode" v="HR9 6EX"/>
    <tag k="removemelater" v="yes"/>
  </node>
  <node id="-1105" lat="51.867571461238" lon="-2.691033032035321">
    <tag k="addr:postcode" v="HR9 6EY"/>
    <tag k="removemelater" v="yes"/>
  </node>
  <node id="-1106" lat="51.87054697467848" lon="-2.691122226837954">
    <tag k="addr:postcode" v="HR9 6EZ"/>
    <tag k="removemelater" v="yes"/>
  </node>
  <node id="-1107" lat="51.87019174449599" lon="-2.6919010959390195">
    <tag k="addr:postcode" v="HR9 6FA"/>
    <tag k="removemelater" v="yes"/>
  </node>
  <node id="-1108" lat="51.86931750580369" lon="-2.687661164005164">
    <tag k="addr:postcode" v="HR9 6FD"/>
    <tag k="removemelater" v="yes"/>
  </node>
  <node id="-1109" lat="51.8690708613777" lon="-2.688325505552424">
    <tag k="addr:postcode" v="HR9 6FX"/>
    <tag k="removemelater" v="yes"/>
  </node>
  <node id="-1110" lat="51.86893454368916" lon="-2.6962099406665874">
    <tag k="addr:postcode" v="HR9 6HA"/>
    <tag k="removemelater" v="yes"/>
  </node>
  <node id="-1111" lat="51.868934819496275" lon="-2.691591321359953">
    <tag k="addr:postcode" v="HR9 6HH"/>
    <tag k="removemelater" v="yes"/>
  </node>
  <node id="-1112" lat="51.863513721538276" lon="-2.6390539403960185">
    <tag k="addr:postcode" v="HR9 6JD"/>
    <tag k="removemelater" v="yes"/>
  </node>
  <node id="-1113" lat="51.947717128105985" lon="-2.620012373704138">
    <tag k="addr:postcode" v="HR9 6QR"/>
    <tag k="removemelater" v="yes"/>
  </node>
  <node id="-1114" lat="51.94219977208132" lon="-2.6125606522078297">
    <tag k="addr:postcode" v="HR9 6QU"/>
    <tag k="removemelater" v="yes"/>
  </node>
  <node id="-1115" lat="51.91644497983337" lon="-2.574291637227704">
    <tag k="addr:postcode" v="HR9 7BW"/>
    <tag k="removemelater" v="yes"/>
  </node>
  <node id="-1116" lat="51.91508318557553" lon="-2.5714537326143287">
    <tag k="addr:postcode" v="HR9 7DX"/>
    <tag k="removemelater" v="yes"/>
  </node>
  <node id="-1117" lat="51.9151092674449" lon="-2.582634393036604">
    <tag k="addr:postcode" v="HR9 7DY"/>
    <tag k="removemelater" v="yes"/>
  </node>
  <node id="-1118" lat="51.91474297895808" lon="-2.58578454264389">
    <tag k="addr:postcode" v="HR9 7FY"/>
    <tag k="removemelater" v="yes"/>
  </node>
  <node id="-1119" lat="51.89655343662976" lon="-2.510733097788975">
    <tag k="addr:postcode" v="HR9 7JX"/>
    <tag k="removemelater" v="yes"/>
  </node>
  <node id="-1120" lat="51.89369299246267" lon="-2.478992197752317">
    <tag k="addr:postcode" v="HR9 7LN"/>
    <tag k="removemelater" v="yes"/>
  </node>
  <node id="-1121" lat="51.90800865812029" lon="-2.5368106806736086">
    <tag k="addr:postcode" v="HR9 7NU"/>
    <tag k="removemelater" v="yes"/>
  </node>
  <node id="-1122" lat="51.90971083407527" lon="-2.5361768190262217">
    <tag k="addr:postcode" v="HR9 7NY"/>
    <tag k="removemelater" v="yes"/>
  </node>
  <node id="-1123" lat="51.9147882457523" lon="-2.530770786679969">
    <tag k="addr:postcode" v="HR9 7PG"/>
    <tag k="removemelater" v="yes"/>
  </node>
  <node id="-1124" lat="51.916722386287155" lon="-2.534501121855085">
    <tag k="addr:postcode" v="HR9 7PQ"/>
    <tag k="removemelater" v="yes"/>
  </node>
  <node id="-1125" lat="51.92849794846779" lon="-2.576917867675212">
    <tag k="addr:postcode" v="HR9 7QG"/>
    <tag k="removemelater" v="yes"/>
  </node>
  <node id="-1126" lat="51.92764664610666" lon="-2.578172174455746">
    <tag k="addr:postcode" v="HR9 7QQ"/>
    <tag k="removemelater" v="yes"/>
  </node>
  <node id="-1127" lat="51.92831464669233" lon="-2.570254797400244">
    <tag k="addr:postcode" v="HR9 7US"/>
    <tag k="removemelater" v="yes"/>
  </node>
  <node id="-1128" lat="51.915213213833695" lon="-2.5705975937026486">
    <tag k="addr:postcode" v="HR9 7XP"/>
    <tag k="removemelater" v="yes"/>
  </node>
</osm>
