<?xml version="1.0" encoding="UTF-8"?><osm version="0.6" generator="import_postcodes.py" upload="false">
  <node id="-1" lat="58.20691243588856" lon="-6.386562771156521">
    <tag k="addr:postcode" v="HS1 2AE"/>
    <tag k="removemelater" v="yes"/>
  </node>
  <node id="-2" lat="58.21328373323964" lon="-6.381999148873248">
    <tag k="addr:postcode" v="HS1 2AG"/>
    <tag k="removemelater" v="yes"/>
  </node>
  <node id="-3" lat="58.20800258936133" lon="-6.390684429267643">
    <tag k="addr:postcode" v="HS1 2BA"/>
    <tag k="removemelater" v="yes"/>
  </node>
  <node id="-4" lat="58.207730852055015" lon="-6.38577788469988">
    <tag k="addr:postcode" v="HS1 2BB"/>
    <tag k="removemelater" v="yes"/>
  </node>
  <node id="-5" lat="58.20809353110959" lon="-6.389349636288735">
    <tag k="addr:postcode" v="HS1 2BG"/>
    <tag k="removemelater" v="yes"/>
  </node>
  <node id="-6" lat="58.20813287070549" lon="-6.387684730028812">
    <tag k="addr:postcode" v="HS1 2BJ"/>
    <tag k="removemelater" v="yes"/>
  </node>
  <node id="-7" lat="58.20805518751258" lon="-6.386022405372255">
    <tag k="addr:postcode" v="HS1 2BN"/>
    <tag k="removemelater" v="yes"/>
  </node>
  <node id="-8" lat="58.2081011385372" lon="-6.38756153988309">
    <tag k="addr:postcode" v="HS1 2BQ"/>
    <tag k="removemelater" v="yes"/>
  </node>
  <node id="-9" lat="58.20752506970364" lon="-6.385224285897456">
    <tag k="addr:postcode" v="HS1 2BS"/>
    <tag k="removemelater" v="yes"/>
  </node>
  <node id="-10" lat="58.20949793659543" lon="-6.3890461548040065">
    <tag k="addr:postcode" v="HS1 2DF"/>
    <tag k="removemelater" v="yes"/>
  </node>
  <node id="-11" lat="58.20997821574725" lon="-6.3878957309760205">
    <tag k="addr:postcode" v="HS1 2DH"/>
    <tag k="removemelater" v="yes"/>
  </node>
  <node id="-12" lat="58.214094071671724" lon="-6.3853710988757895">
    <tag k="addr:postcode" v="HS1 2DJ"/>
    <tag k="removemelater" v="yes"/>
  </node>
  <node id="-13" lat="58.20826583384759" lon="-6.386695887920629">
    <tag k="addr:postcode" v="HS1 2DP"/>
    <tag k="removemelater" v="yes"/>
  </node>
  <node id="-14" lat="58.209520141155586" lon="-6.3876176129826625">
    <tag k="addr:postcode" v="HS1 2DR"/>
    <tag k="removemelater" v="yes"/>
  </node>
  <node id="-15" lat="58.210659391021565" lon="-6.387962875030581">
    <tag k="addr:postcode" v="HS1 2DS"/>
    <tag k="removemelater" v="yes"/>
  </node>
  <node id="-16" lat="58.21134075899502" lon="-6.388285646097244">
    <tag k="addr:postcode" v="HS1 2DT"/>
    <tag k="removemelater" v="yes"/>
  </node>
  <node id="-17" lat="58.21228105372335" lon="-6.387618010243652">
    <tag k="addr:postcode" v="HS1 2DU"/>
    <tag k="removemelater" v="yes"/>
  </node>
  <node id="-18" lat="58.21335099787386" lon="-6.386318805459898">
    <tag k="addr:postcode" v="HS1 2DX"/>
    <tag k="removemelater" v="yes"/>
  </node>
  <node id="-19" lat="58.21308468047004" lon="-6.387785493626431">
    <tag k="addr:postcode" v="HS1 2DY"/>
    <tag k="removemelater" v="yes"/>
  </node>
  <node id="-20" lat="58.21441432024222" lon="-6.385734447688354">
    <tag k="addr:postcode" v="HS1 2DZ"/>
    <tag k="removemelater" v="yes"/>
  </node>
  <node id="-21" lat="58.213087991265425" lon="-6.387428045324218">
    <tag k="addr:postcode" v="HS1 2EB"/>
    <tag k="removemelater" v="yes"/>
  </node>
  <node id="-22" lat="58.21082758739515" lon="-6.388563013891867">
    <tag k="addr:postcode" v="HS1 2ED"/>
    <tag k="removemelater" v="yes"/>
  </node>
  <node id="-23" lat="58.217310319975" lon="-6.384422066239357">
    <tag k="addr:postcode" v="HS1 2EG"/>
    <tag k="removemelater" v="yes"/>
  </node>
  <node id="-24" lat="58.217681594118616" lon="-6.386700562439468">
    <tag k="addr:postcode" v="HS1 2EH"/>
    <tag k="removemelater" v="yes"/>
  </node>
  <node id="-25" lat="58.21833415016523" lon="-6.387599292219412">
    <tag k="addr:postcode" v="HS1 2EJ"/>
    <tag k="removemelater" v="yes"/>
  </node>
  <node id="-26" lat="58.219759966742515" lon="-6.387196055869518">
    <tag k="addr:postcode" v="HS1 2EU"/>
    <tag k="removemelater" v="yes"/>
  </node>
  <node id="-27" lat="58.21883972682731" lon="-6.38754248502955">
    <tag k="addr:postcode" v="HS1 2EX"/>
    <tag k="removemelater" v="yes"/>
  </node>
  <node id="-28" lat="58.218662760870195" lon="-6.385628780555688">
    <tag k="addr:postcode" v="HS1 2EY"/>
    <tag k="removemelater" v="yes"/>
  </node>
  <node id="-29" lat="58.21875698940959" lon="-6.386288078147349">
    <tag k="addr:postcode" v="HS1 2EZ"/>
    <tag k="removemelater" v="yes"/>
  </node>
  <node id="-30" lat="58.209136542697664" lon="-6.378897416156949">
    <tag k="addr:postcode" v="HS1 2FA"/>
    <tag k="removemelater" v="yes"/>
  </node>
  <node id="-31" lat="58.209136542697664" lon="-6.378897416156949">
    <tag k="addr:postcode" v="HS1 2FB"/>
    <tag k="removemelater" v="yes"/>
  </node>
  <node id="-32" lat="58.209136542697664" lon="-6.378897416156949">
    <tag k="addr:postcode" v="HS1 2FD"/>
    <tag k="removemelater" v="yes"/>
  </node>
  <node id="-33" lat="58.209136542697664" lon="-6.378897416156949">
    <tag k="addr:postcode" v="HS1 2FE"/>
    <tag k="removemelater" v="yes"/>
  </node>
  <node id="-34" lat="58.209136542697664" lon="-6.378897416156949">
    <tag k="addr:postcode" v="HS1 2FF"/>
    <tag k="removemelater" v="yes"/>
  </node>
  <node id="-35" lat="58.209136542697664" lon="-6.378897416156949">
    <tag k="addr:postcode" v="HS1 2FG"/>
    <tag k="removemelater" v="yes"/>
  </node>
  <node id="-36" lat="58.209136542697664" lon="-6.378897416156949">
    <tag k="addr:postcode" v="HS1 2FH"/>
    <tag k="removemelater" v="yes"/>
  </node>
  <node id="-37" lat="58.209136542697664" lon="-6.378897416156949">
    <tag k="addr:postcode" v="HS1 2FJ"/>
    <tag k="removemelater" v="yes"/>
  </node>
  <node id="-38" lat="58.209136542697664" lon="-6.378897416156949">
    <tag k="addr:postcode" v="HS1 2FL"/>
    <tag k="removemelater" v="yes"/>
  </node>
  <node id="-39" lat="58.209136542697664" lon="-6.378897416156949">
    <tag k="addr:postcode" v="HS1 2FP"/>
    <tag k="removemelater" v="yes"/>
  </node>
  <node id="-40" lat="58.209136542697664" lon="-6.378897416156949">
    <tag k="addr:postcode" v="HS1 2FQ"/>
    <tag k="removemelater" v="yes"/>
  </node>
  <node id="-41" lat="58.209136542697664" lon="-6.378897416156949">
    <tag k="addr:postcode" v="HS1 2FR"/>
    <tag k="removemelater" v="yes"/>
  </node>
  <node id="-42" lat="58.209136542697664" lon="-6.378897416156949">
    <tag k="addr:postcode" v="HS1 2GA"/>
    <tag k="removemelater" v="yes"/>
  </node>
  <node id="-43" lat="58.209136542697664" lon="-6.378897416156949">
    <tag k="addr:postcode" v="HS1 2GB"/>
    <tag k="removemelater" v="yes"/>
  </node>
  <node id="-44" lat="58.209136542697664" lon="-6.378897416156949">
    <tag k="addr:postcode" v="HS1 2GD"/>
    <tag k="removemelater" v="yes"/>
  </node>
  <node id="-45" lat="58.209136542697664" lon="-6.378897416156949">
    <tag k="addr:postcode" v="HS1 2GE"/>
    <tag k="removemelater" v="yes"/>
  </node>
  <node id="-46" lat="58.209136542697664" lon="-6.378897416156949">
    <tag k="addr:postcode" v="HS1 2GF"/>
    <tag k="removemelater" v="yes"/>
  </node>
  <node id="-47" lat="58.209136542697664" lon="-6.378897416156949">
    <tag k="addr:postcode" v="HS1 2GG"/>
    <tag k="removemelater" v="yes"/>
  </node>
  <node id="-48" lat="58.209136542697664" lon="-6.378897416156949">
    <tag k="addr:postcode" v="HS1 2GH"/>
    <tag k="removemelater" v="yes"/>
  </node>
  <node id="-49" lat="58.209136542697664" lon="-6.378897416156949">
    <tag k="addr:postcode" v="HS1 2GJ"/>
    <tag k="removemelater" v="yes"/>
  </node>
  <node id="-50" lat="58.209136542697664" lon="-6.378897416156949">
    <tag k="addr:postcode" v="HS1 2GL"/>
    <tag k="removemelater" v="yes"/>
  </node>
  <node id="-51" lat="58.209136542697664" lon="-6.378897416156949">
    <tag k="addr:postcode" v="HS1 2GN"/>
    <tag k="removemelater" v="yes"/>
  </node>
  <node id="-52" lat="58.209136542697664" lon="-6.378897416156949">
    <tag k="addr:postcode" v="HS1 2GP"/>
    <tag k="removemelater" v="yes"/>
  </node>
  <node id="-53" lat="58.209136542697664" lon="-6.378897416156949">
    <tag k="addr:postcode" v="HS1 2GQ"/>
    <tag k="removemelater" v="yes"/>
  </node>
  <node id="-54" lat="58.209136542697664" lon="-6.378897416156949">
    <tag k="addr:postcode" v="HS1 2GR"/>
    <tag k="removemelater" v="yes"/>
  </node>
  <node id="-55" lat="58.209136542697664" lon="-6.378897416156949">
    <tag k="addr:postcode" v="HS1 2GS"/>
    <tag k="removemelater" v="yes"/>
  </node>
  <node id="-56" lat="58.209136542697664" lon="-6.378897416156949">
    <tag k="addr:postcode" v="HS1 2GT"/>
    <tag k="removemelater" v="yes"/>
  </node>
  <node id="-57" lat="58.209136542697664" lon="-6.378897416156949">
    <tag k="addr:postcode" v="HS1 2GU"/>
    <tag k="removemelater" v="yes"/>
  </node>
  <node id="-58" lat="58.209136542697664" lon="-6.378897416156949">
    <tag k="addr:postcode" v="HS1 2GW"/>
    <tag k="removemelater" v="yes"/>
  </node>
  <node id="-59" lat="58.209136542697664" lon="-6.378897416156949">
    <tag k="addr:postcode" v="HS1 2GY"/>
    <tag k="removemelater" v="yes"/>
  </node>
  <node id="-60" lat="58.209136542697664" lon="-6.378897416156949">
    <tag k="addr:postcode" v="HS1 2GZ"/>
    <tag k="removemelater" v="yes"/>
  </node>
  <node id="-61" lat="58.21834213367388" lon="-6.387106021768163">
    <tag k="addr:postcode" v="HS1 2HA"/>
    <tag k="removemelater" v="yes"/>
  </node>
  <node id="-62" lat="58.21795939661318" lon="-6.38620655735591">
    <tag k="addr:postcode" v="HS1 2HB"/>
    <tag k="removemelater" v="yes"/>
  </node>
  <node id="-63" lat="58.217594177104694" lon="-6.385581964919622">
    <tag k="addr:postcode" v="HS1 2HD"/>
    <tag k="removemelater" v="yes"/>
  </node>
  <node id="-64" lat="58.21792549258943" lon="-6.384054932904328">
    <tag k="addr:postcode" v="HS1 2HE"/>
    <tag k="removemelater" v="yes"/>
  </node>
  <node id="-65" lat="58.21748349065418" lon="-6.381477992081299">
    <tag k="addr:postcode" v="HS1 2HF"/>
    <tag k="removemelater" v="yes"/>
  </node>
  <node id="-66" lat="58.2181968825697" lon="-6.3845315780244905">
    <tag k="addr:postcode" v="HS1 2HG"/>
    <tag k="removemelater" v="yes"/>
  </node>
  <node id="-67" lat="58.21853769822948" lon="-6.382204644706872">
    <tag k="addr:postcode" v="HS1 2HH"/>
    <tag k="removemelater" v="yes"/>
  </node>
  <node id="-68" lat="58.217754611773984" lon="-6.380130975421549">
    <tag k="addr:postcode" v="HS1 2HJ"/>
    <tag k="removemelater" v="yes"/>
  </node>
  <node id="-69" lat="58.217306778297456" lon="-6.382955946144533">
    <tag k="addr:postcode" v="HS1 2HL"/>
    <tag k="removemelater" v="yes"/>
  </node>
  <node id="-70" lat="58.216746040573824" lon="-6.381216539768527">
    <tag k="addr:postcode" v="HS1 2HN"/>
    <tag k="removemelater" v="yes"/>
  </node>
  <node id="-71" lat="58.215474433656375" lon="-6.381843524121167">
    <tag k="addr:postcode" v="HS1 2HP"/>
    <tag k="removemelater" v="yes"/>
  </node>
  <node id="-72" lat="58.21816531000556" lon="-6.383096046183256">
    <tag k="addr:postcode" v="HS1 2HQ"/>
    <tag k="removemelater" v="yes"/>
  </node>
  <node id="-73" lat="58.21614987593764" lon="-6.379984086594846">
    <tag k="addr:postcode" v="HS1 2HR"/>
    <tag k="removemelater" v="yes"/>
  </node>
  <node id="-74" lat="58.21624245281388" lon="-6.382262133326466">
    <tag k="addr:postcode" v="HS1 2HY"/>
    <tag k="removemelater" v="yes"/>
  </node>
  <node id="-75" lat="58.20959001515151" lon="-6.385325963529741">
    <tag k="addr:postcode" v="HS1 2JA"/>
    <tag k="removemelater" v="yes"/>
  </node>
  <node id="-76" lat="58.209814684867254" lon="-6.386376066944592">
    <tag k="addr:postcode" v="HS1 2JB"/>
    <tag k="removemelater" v="yes"/>
  </node>
  <node id="-77" lat="58.21029592810478" lon="-6.38650367833131">
    <tag k="addr:postcode" v="HS1 2JD"/>
    <tag k="removemelater" v="yes"/>
  </node>
  <node id="-78" lat="58.21047774532187" lon="-6.385401530032113">
    <tag k="addr:postcode" v="HS1 2JE"/>
    <tag k="removemelater" v="yes"/>
  </node>
  <node id="-79" lat="58.20960750941446" lon="-6.384033150268472">
    <tag k="addr:postcode" v="HS1 2JF"/>
    <tag k="removemelater" v="yes"/>
  </node>
  <node id="-80" lat="58.210825838130326" lon="-6.386262432198589">
    <tag k="addr:postcode" v="HS1 2JG"/>
    <tag k="removemelater" v="yes"/>
  </node>
  <node id="-81" lat="58.21206418262078" lon="-6.38660286861919">
    <tag k="addr:postcode" v="HS1 2JH"/>
    <tag k="removemelater" v="yes"/>
  </node>
  <node id="-82" lat="58.21257092066534" lon="-6.385728249182613">
    <tag k="addr:postcode" v="HS1 2JJ"/>
    <tag k="removemelater" v="yes"/>
  </node>
  <node id="-83" lat="58.211913877749886" lon="-6.3852210774058396">
    <tag k="addr:postcode" v="HS1 2JL"/>
    <tag k="removemelater" v="yes"/>
  </node>
  <node id="-84" lat="58.211536602737375" lon="-6.385992401387613">
    <tag k="addr:postcode" v="HS1 2JN"/>
    <tag k="removemelater" v="yes"/>
  </node>
  <node id="-85" lat="58.21132577307281" lon="-6.387414754390926">
    <tag k="addr:postcode" v="HS1 2JQ"/>
    <tag k="removemelater" v="yes"/>
  </node>
  <node id="-86" lat="58.211592241897435" lon="-6.383852223902765">
    <tag k="addr:postcode" v="HS1 2JR"/>
    <tag k="removemelater" v="yes"/>
  </node>
  <node id="-87" lat="58.21278329949846" lon="-6.384783167666185">
    <tag k="addr:postcode" v="HS1 2JS"/>
    <tag k="removemelater" v="yes"/>
  </node>
  <node id="-88" lat="58.212801607721396" lon="-6.385296648978748">
    <tag k="addr:postcode" v="HS1 2JT"/>
    <tag k="removemelater" v="yes"/>
  </node>
  <node id="-89" lat="58.2127069719832" lon="-6.384126197092808">
    <tag k="addr:postcode" v="HS1 2JU"/>
    <tag k="removemelater" v="yes"/>
  </node>
  <node id="-90" lat="58.21092121923218" lon="-6.385319988397926">
    <tag k="addr:postcode" v="HS1 2JW"/>
    <tag k="removemelater" v="yes"/>
  </node>
  <node id="-91" lat="58.21381432397164" lon="-6.38566032356373">
    <tag k="addr:postcode" v="HS1 2JX"/>
    <tag k="removemelater" v="yes"/>
  </node>
  <node id="-92" lat="58.21361554748955" lon="-6.38490300147247">
    <tag k="addr:postcode" v="HS1 2JY"/>
    <tag k="removemelater" v="yes"/>
  </node>
  <node id="-93" lat="58.21056828266942" lon="-6.386690683287376">
    <tag k="addr:postcode" v="HS1 2JZ"/>
    <tag k="removemelater" v="yes"/>
  </node>
  <node id="-94" lat="58.21410106283439" lon="-6.3843835675458">
    <tag k="addr:postcode" v="HS1 2LA"/>
    <tag k="removemelater" v="yes"/>
  </node>
  <node id="-95" lat="58.21699994595604" lon="-6.378538099833545">
    <tag k="addr:postcode" v="HS1 2LD"/>
    <tag k="removemelater" v="yes"/>
  </node>
  <node id="-96" lat="58.2162399657978" lon="-6.379194216213163">
    <tag k="addr:postcode" v="HS1 2LE"/>
    <tag k="removemelater" v="yes"/>
  </node>
  <node id="-97" lat="58.21540670582317" lon="-6.378580166286769">
    <tag k="addr:postcode" v="HS1 2LF"/>
    <tag k="removemelater" v="yes"/>
  </node>
  <node id="-98" lat="58.21469679543566" lon="-6.379872966990317">
    <tag k="addr:postcode" v="HS1 2LG"/>
    <tag k="removemelater" v="yes"/>
  </node>
  <node id="-99" lat="58.21424873592373" lon="-6.381658149343839">
    <tag k="addr:postcode" v="HS1 2LH"/>
    <tag k="removemelater" v="yes"/>
  </node>
  <node id="-100" lat="58.213705794968256" lon="-6.382017163554994">
    <tag k="addr:postcode" v="HS1 2LL"/>
    <tag k="removemelater" v="yes"/>
  </node>
  <node id="-101" lat="58.212755580492306" lon="-6.3821895681328344">
    <tag k="addr:postcode" v="HS1 2LP"/>
    <tag k="removemelater" v="yes"/>
  </node>
  <node id="-102" lat="58.21521740683471" lon="-6.380687039102455">
    <tag k="addr:postcode" v="HS1 2LQ"/>
    <tag k="removemelater" v="yes"/>
  </node>
  <node id="-103" lat="58.21206235381005" lon="-6.382734492177848">
    <tag k="addr:postcode" v="HS1 2LR"/>
    <tag k="removemelater" v="yes"/>
  </node>
  <node id="-104" lat="58.2127304934706" lon="-6.382919217743985">
    <tag k="addr:postcode" v="HS1 2LW"/>
    <tag k="removemelater" v="yes"/>
  </node>
  <node id="-105" lat="58.20852941611268" lon="-6.385569824716875">
    <tag k="addr:postcode" v="HS1 2NA"/>
    <tag k="removemelater" v="yes"/>
  </node>
  <node id="-106" lat="58.20884070986895" lon="-6.385932009837528">
    <tag k="addr:postcode" v="HS1 2NB"/>
    <tag k="removemelater" v="yes"/>
  </node>
  <node id="-107" lat="58.208805062454516" lon="-6.384615622735748">
    <tag k="addr:postcode" v="HS1 2ND"/>
    <tag k="removemelater" v="yes"/>
  </node>
  <node id="-108" lat="58.212937782574365" lon="-6.3758388464527735">
    <tag k="addr:postcode" v="HS1 2NE"/>
    <tag k="removemelater" v="yes"/>
  </node>
  <node id="-109" lat="58.209138461610166" lon="-6.381981686907185">
    <tag k="addr:postcode" v="HS1 2NG"/>
    <tag k="removemelater" v="yes"/>
  </node>
  <node id="-110" lat="58.21384008393823" lon="-6.375489955378817">
    <tag k="addr:postcode" v="HS1 2NH"/>
    <tag k="removemelater" v="yes"/>
  </node>
  <node id="-111" lat="58.21164935090965" lon="-6.380621658962325">
    <tag k="addr:postcode" v="HS1 2NJ"/>
    <tag k="removemelater" v="yes"/>
  </node>
  <node id="-112" lat="58.213518992767" lon="-6.37698406419734">
    <tag k="addr:postcode" v="HS1 2NL"/>
    <tag k="removemelater" v="yes"/>
  </node>
  <node id="-113" lat="58.21220912620543" lon="-6.376106883132389">
    <tag k="addr:postcode" v="HS1 2NP"/>
    <tag k="removemelater" v="yes"/>
  </node>
  <node id="-114" lat="58.21047745580492" lon="-6.382010625997669">
    <tag k="addr:postcode" v="HS1 2NQ"/>
    <tag k="removemelater" v="yes"/>
  </node>
  <node id="-115" lat="58.21448035117715" lon="-6.375176918974263">
    <tag k="addr:postcode" v="HS1 2NS"/>
    <tag k="removemelater" v="yes"/>
  </node>
  <node id="-116" lat="58.21322303894111" lon="-6.374340337115515">
    <tag k="addr:postcode" v="HS1 2NW"/>
    <tag k="removemelater" v="yes"/>
  </node>
  <node id="-117" lat="58.21532665242549" lon="-6.373577047042116">
    <tag k="addr:postcode" v="HS1 2NX"/>
    <tag k="removemelater" v="yes"/>
  </node>
  <node id="-118" lat="58.214338705358514" lon="-6.372228359525014">
    <tag k="addr:postcode" v="HS1 2NY"/>
    <tag k="removemelater" v="yes"/>
  </node>
  <node id="-119" lat="58.214138130038336" lon="-6.37020983957843">
    <tag k="addr:postcode" v="HS1 2NZ"/>
    <tag k="removemelater" v="yes"/>
  </node>
  <node id="-120" lat="58.2118871399805" lon="-6.372386529425937">
    <tag k="addr:postcode" v="HS1 2PA"/>
    <tag k="removemelater" v="yes"/>
  </node>
  <node id="-121" lat="58.2124578893618" lon="-6.370429017212405">
    <tag k="addr:postcode" v="HS1 2PB"/>
    <tag k="removemelater" v="yes"/>
  </node>
  <node id="-122" lat="58.2150691327956" lon="-6.370597118314531">
    <tag k="addr:postcode" v="HS1 2PG"/>
    <tag k="removemelater" v="yes"/>
  </node>
  <node id="-123" lat="58.21357348422263" lon="-6.369629104636424">
    <tag k="addr:postcode" v="HS1 2PH"/>
    <tag k="removemelater" v="yes"/>
  </node>
  <node id="-124" lat="58.21255905286547" lon="-6.371412773943174">
    <tag k="addr:postcode" v="HS1 2PJ"/>
    <tag k="removemelater" v="yes"/>
  </node>
  <node id="-125" lat="58.213063589959525" lon="-6.3708614348745884">
    <tag k="addr:postcode" v="HS1 2PL"/>
    <tag k="removemelater" v="yes"/>
  </node>
  <node id="-126" lat="58.20917987170106" lon="-6.3807770360858465">
    <tag k="addr:postcode" v="HS1 2PN"/>
    <tag k="removemelater" v="yes"/>
  </node>
  <node id="-127" lat="58.21363033131485" lon="-6.37111866153787">
    <tag k="addr:postcode" v="HS1 2PP"/>
    <tag k="removemelater" v="yes"/>
  </node>
  <node id="-128" lat="58.21426363760968" lon="-6.368384839112887">
    <tag k="addr:postcode" v="HS1 2PQ"/>
    <tag k="removemelater" v="yes"/>
  </node>
  <node id="-129" lat="58.21360844250547" lon="-6.37201913521992">
    <tag k="addr:postcode" v="HS1 2PR"/>
    <tag k="removemelater" v="yes"/>
  </node>
  <node id="-130" lat="58.212332083792425" lon="-6.37331038311891">
    <tag k="addr:postcode" v="HS1 2PS"/>
    <tag k="removemelater" v="yes"/>
  </node>
  <node id="-131" lat="58.21145003941818" lon="-6.375689561428026">
    <tag k="addr:postcode" v="HS1 2PT"/>
    <tag k="removemelater" v="yes"/>
  </node>
  <node id="-132" lat="58.208197293769885" lon="-6.380059467226233">
    <tag k="addr:postcode" v="HS1 2PU"/>
    <tag k="removemelater" v="yes"/>
  </node>
  <node id="-133" lat="58.21145927918649" lon="-6.376730136193568">
    <tag k="addr:postcode" v="HS1 2PY"/>
    <tag k="removemelater" v="yes"/>
  </node>
  <node id="-134" lat="58.21006322573122" lon="-6.379148016967474">
    <tag k="addr:postcode" v="HS1 2PZ"/>
    <tag k="removemelater" v="yes"/>
  </node>
  <node id="-135" lat="58.20831564554052" lon="-6.384725573301056">
    <tag k="addr:postcode" v="HS1 2QG"/>
    <tag k="removemelater" v="yes"/>
  </node>
  <node id="-136" lat="58.20848344125798" lon="-6.384030673063997">
    <tag k="addr:postcode" v="HS1 2QH"/>
    <tag k="removemelater" v="yes"/>
  </node>
  <node id="-137" lat="58.2087031872208" lon="-6.382609516531813">
    <tag k="addr:postcode" v="HS1 2QJ"/>
    <tag k="removemelater" v="yes"/>
  </node>
  <node id="-138" lat="58.20817056960926" lon="-6.383191238064271">
    <tag k="addr:postcode" v="HS1 2QN"/>
    <tag k="removemelater" v="yes"/>
  </node>
  <node id="-139" lat="58.220108223916185" lon="-6.401096100317901">
    <tag k="addr:postcode" v="HS1 2QP"/>
    <tag k="removemelater" v="yes"/>
  </node>
  <node id="-140" lat="58.20798391970241" lon="-6.384957224063432">
    <tag k="addr:postcode" v="HS1 2QQ"/>
    <tag k="removemelater" v="yes"/>
  </node>
  <node id="-141" lat="58.2078933840079" lon="-6.3844519328829685">
    <tag k="addr:postcode" v="HS1 2QS"/>
    <tag k="removemelater" v="yes"/>
  </node>
  <node id="-142" lat="58.20746949606532" lon="-6.382133527869836">
    <tag k="addr:postcode" v="HS1 2QT"/>
    <tag k="removemelater" v="yes"/>
  </node>
  <node id="-143" lat="58.20668464981322" lon="-6.38011141503943">
    <tag k="addr:postcode" v="HS1 2RA"/>
    <tag k="removemelater" v="yes"/>
  </node>
  <node id="-144" lat="58.20634730926635" lon="-6.38076834387505">
    <tag k="addr:postcode" v="HS1 2RB"/>
    <tag k="removemelater" v="yes"/>
  </node>
  <node id="-145" lat="58.20560635688485" lon="-6.380608790532467">
    <tag k="addr:postcode" v="HS1 2RE"/>
    <tag k="removemelater" v="yes"/>
  </node>
  <node id="-146" lat="58.20664093930598" lon="-6.378504484283371">
    <tag k="addr:postcode" v="HS1 2RF"/>
    <tag k="removemelater" v="yes"/>
  </node>
  <node id="-147" lat="58.2055238164621" lon="-6.375419329933028">
    <tag k="addr:postcode" v="HS1 2RL"/>
    <tag k="removemelater" v="yes"/>
  </node>
  <node id="-148" lat="58.20511143335249" lon="-6.374857415132431">
    <tag k="addr:postcode" v="HS1 2RP"/>
    <tag k="removemelater" v="yes"/>
  </node>
  <node id="-149" lat="58.20461988906573" lon="-6.373195419389783">
    <tag k="addr:postcode" v="HS1 2RR"/>
    <tag k="removemelater" v="yes"/>
  </node>
  <node id="-150" lat="58.202795863528344" lon="-6.382050893374214">
    <tag k="addr:postcode" v="HS1 2RS"/>
    <tag k="removemelater" v="yes"/>
  </node>
  <node id="-151" lat="58.203339960783154" lon="-6.3758998643123865">
    <tag k="addr:postcode" v="HS1 2RT"/>
    <tag k="removemelater" v="yes"/>
  </node>
  <node id="-152" lat="58.205021443984286" lon="-6.376430755006544">
    <tag k="addr:postcode" v="HS1 2RW"/>
    <tag k="removemelater" v="yes"/>
  </node>
  <node id="-153" lat="58.2045141298204" lon="-6.369723976485524">
    <tag k="addr:postcode" v="HS1 2RX"/>
    <tag k="removemelater" v="yes"/>
  </node>
  <node id="-154" lat="58.203627884781376" lon="-6.3706541361336955">
    <tag k="addr:postcode" v="HS1 2RY"/>
    <tag k="removemelater" v="yes"/>
  </node>
  <node id="-155" lat="58.203664069970195" lon="-6.369074229628125">
    <tag k="addr:postcode" v="HS1 2RZ"/>
    <tag k="removemelater" v="yes"/>
  </node>
  <node id="-156" lat="58.209136542697664" lon="-6.378897416156949">
    <tag k="addr:postcode" v="HS1 2SA"/>
    <tag k="removemelater" v="yes"/>
  </node>
  <node id="-157" lat="58.20534847766331" lon="-6.370831819526813">
    <tag k="addr:postcode" v="HS1 2SD"/>
    <tag k="removemelater" v="yes"/>
  </node>
  <node id="-158" lat="58.20597621884036" lon="-6.373243186944486">
    <tag k="addr:postcode" v="HS1 2SE"/>
    <tag k="removemelater" v="yes"/>
  </node>
  <node id="-159" lat="58.207556638703096" lon="-6.368854601268794">
    <tag k="addr:postcode" v="HS1 2SH"/>
    <tag k="removemelater" v="yes"/>
  </node>
  <node id="-160" lat="58.20776224869358" lon="-6.370464440830791">
    <tag k="addr:postcode" v="HS1 2SL"/>
    <tag k="removemelater" v="yes"/>
  </node>
  <node id="-161" lat="58.207211211227694" lon="-6.369749182996938">
    <tag k="addr:postcode" v="HS1 2SQ"/>
    <tag k="removemelater" v="yes"/>
  </node>
  <node id="-162" lat="58.208053922142646" lon="-6.365627410590405">
    <tag k="addr:postcode" v="HS1 2SS"/>
    <tag k="removemelater" v="yes"/>
  </node>
  <node id="-163" lat="58.210265877246776" lon="-6.364587355955558">
    <tag k="addr:postcode" v="HS1 2ST"/>
    <tag k="removemelater" v="yes"/>
  </node>
  <node id="-164" lat="58.20847434565889" lon="-6.362015849421776">
    <tag k="addr:postcode" v="HS1 2SU"/>
    <tag k="removemelater" v="yes"/>
  </node>
  <node id="-165" lat="58.20774895335878" lon="-6.361926741325272">
    <tag k="addr:postcode" v="HS1 2SX"/>
    <tag k="removemelater" v="yes"/>
  </node>
  <node id="-166" lat="58.212526755718656" lon="-6.380474313859524">
    <tag k="addr:postcode" v="HS1 2TA"/>
    <tag k="removemelater" v="yes"/>
  </node>
  <node id="-167" lat="58.213192477913005" lon="-6.379159110271615">
    <tag k="addr:postcode" v="HS1 2TB"/>
    <tag k="removemelater" v="yes"/>
  </node>
  <node id="-168" lat="58.214154347963984" lon="-6.3786472358299235">
    <tag k="addr:postcode" v="HS1 2TD"/>
    <tag k="removemelater" v="yes"/>
  </node>
  <node id="-169" lat="58.21497615647616" lon="-6.376976271259241">
    <tag k="addr:postcode" v="HS1 2TE"/>
    <tag k="removemelater" v="yes"/>
  </node>
  <node id="-170" lat="58.214071947822745" lon="-6.377904300397358">
    <tag k="addr:postcode" v="HS1 2TF"/>
    <tag k="removemelater" v="yes"/>
  </node>
  <node id="-171" lat="58.21436581730378" lon="-6.376679481506539">
    <tag k="addr:postcode" v="HS1 2TG"/>
    <tag k="removemelater" v="yes"/>
  </node>
  <node id="-172" lat="58.22175754575324" lon="-6.385857810286625">
    <tag k="addr:postcode" v="HS1 2TJ"/>
    <tag k="removemelater" v="yes"/>
  </node>
  <node id="-173" lat="58.21626951028016" lon="-6.373880679106728">
    <tag k="addr:postcode" v="HS1 2TL"/>
    <tag k="removemelater" v="yes"/>
  </node>
  <node id="-174" lat="58.216185859333834" lon="-6.374483890579356">
    <tag k="addr:postcode" v="HS1 2TN"/>
    <tag k="removemelater" v="yes"/>
  </node>
  <node id="-175" lat="58.21855128858587" lon="-6.381285979035807">
    <tag k="addr:postcode" v="HS1 2TP"/>
    <tag k="removemelater" v="yes"/>
  </node>
  <node id="-176" lat="58.21547074617743" lon="-6.375929533209456">
    <tag k="addr:postcode" v="HS1 2TQ"/>
    <tag k="removemelater" v="yes"/>
  </node>
  <node id="-177" lat="58.21901802466672" lon="-6.384189879707283">
    <tag k="addr:postcode" v="HS1 2TR"/>
    <tag k="removemelater" v="yes"/>
  </node>
  <node id="-178" lat="58.21733249533591" lon="-6.376448774733717">
    <tag k="addr:postcode" v="HS1 2TW"/>
    <tag k="removemelater" v="yes"/>
  </node>
  <node id="-179" lat="58.221617477612064" lon="-6.391755096656385">
    <tag k="addr:postcode" v="HS1 2UB"/>
    <tag k="removemelater" v="yes"/>
  </node>
  <node id="-180" lat="58.21906159747807" lon="-6.374020221845433">
    <tag k="addr:postcode" v="HS1 2UE"/>
    <tag k="removemelater" v="yes"/>
  </node>
  <node id="-181" lat="58.22010450119302" lon="-6.37900631493942">
    <tag k="addr:postcode" v="HS1 2UF"/>
    <tag k="removemelater" v="yes"/>
  </node>
  <node id="-182" lat="58.21879774564262" lon="-6.381180053259872">
    <tag k="addr:postcode" v="HS1 2UG"/>
    <tag k="removemelater" v="yes"/>
  </node>
  <node id="-183" lat="58.21985337378985" lon="-6.383696524918212">
    <tag k="addr:postcode" v="HS1 2UY"/>
    <tag k="removemelater" v="yes"/>
  </node>
  <node id="-184" lat="58.208120947164176" lon="-6.390903526309064">
    <tag k="addr:postcode" v="HS1 2XA"/>
    <tag k="removemelater" v="yes"/>
  </node>
  <node id="-185" lat="58.208787759988304" lon="-6.3861640118804495">
    <tag k="addr:postcode" v="HS1 2XB"/>
    <tag k="removemelater" v="yes"/>
  </node>
  <node id="-186" lat="58.208653632747534" lon="-6.387186803692909">
    <tag k="addr:postcode" v="HS1 2XE"/>
    <tag k="removemelater" v="yes"/>
  </node>
  <node id="-187" lat="58.20841395861799" lon="-6.389968559102507">
    <tag k="addr:postcode" v="HS1 2XJ"/>
    <tag k="removemelater" v="yes"/>
  </node>
  <node id="-188" lat="58.20837868119282" lon="-6.391514710423992">
    <tag k="addr:postcode" v="HS1 2XN"/>
    <tag k="removemelater" v="yes"/>
  </node>
  <node id="-189" lat="58.20832359480855" lon="-6.3912863959029815">
    <tag k="addr:postcode" v="HS1 2XP"/>
    <tag k="removemelater" v="yes"/>
  </node>
  <node id="-190" lat="58.208621501764014" lon="-6.388903741540551">
    <tag k="addr:postcode" v="HS1 2XQ"/>
    <tag k="removemelater" v="yes"/>
  </node>
  <node id="-191" lat="58.20787251854928" lon="-6.391588417370942">
    <tag k="addr:postcode" v="HS1 2XS"/>
    <tag k="removemelater" v="yes"/>
  </node>
  <node id="-192" lat="58.20801013983909" lon="-6.392031398998474">
    <tag k="addr:postcode" v="HS1 2XT"/>
    <tag k="removemelater" v="yes"/>
  </node>
  <node id="-193" lat="58.207787854435296" lon="-6.390913451742237">
    <tag k="addr:postcode" v="HS1 2XY"/>
    <tag k="removemelater" v="yes"/>
  </node>
  <node id="-194" lat="58.208197293769885" lon="-6.380059467226233">
    <tag k="addr:postcode" v="HS1 9AA"/>
    <tag k="removemelater" v="yes"/>
  </node>
  <node id="-195" lat="58.208197293769885" lon="-6.380059467226233">
    <tag k="addr:postcode" v="HS1 9AH"/>
    <tag k="removemelater" v="yes"/>
  </node>
  <node id="-196" lat="58.208197293769885" lon="-6.380059467226233">
    <tag k="addr:postcode" v="HS1 9AL"/>
    <tag k="removemelater" v="yes"/>
  </node>
  <node id="-197" lat="58.208197293769885" lon="-6.380059467226233">
    <tag k="addr:postcode" v="HS1 9AP"/>
    <tag k="removemelater" v="yes"/>
  </node>
  <node id="-198" lat="58.21873871253744" lon="-6.350341387380766">
    <tag k="addr:postcode" v="HS2 0AA"/>
    <tag k="removemelater" v="yes"/>
  </node>
  <node id="-199" lat="58.21366578469994" lon="-6.335320386115778">
    <tag k="addr:postcode" v="HS2 0AB"/>
    <tag k="removemelater" v="yes"/>
  </node>
  <node id="-200" lat="58.20812054378558" lon="-6.352635487474581">
    <tag k="addr:postcode" v="HS2 0AD"/>
    <tag k="removemelater" v="yes"/>
  </node>
  <node id="-201" lat="58.202024885073634" lon="-6.357850766112773">
    <tag k="addr:postcode" v="HS2 0AE"/>
    <tag k="removemelater" v="yes"/>
  </node>
  <node id="-202" lat="58.204470457583945" lon="-6.35181332517684">
    <tag k="addr:postcode" v="HS2 0AG"/>
    <tag k="removemelater" v="yes"/>
  </node>
  <node id="-203" lat="58.19505520757859" lon="-6.354168531523142">
    <tag k="addr:postcode" v="HS2 0AH"/>
    <tag k="removemelater" v="yes"/>
  </node>
  <node id="-204" lat="58.20285051038894" lon="-6.343676285604546">
    <tag k="addr:postcode" v="HS2 0AN"/>
    <tag k="removemelater" v="yes"/>
  </node>
  <node id="-205" lat="58.201758557907745" lon="-6.352486115120265">
    <tag k="addr:postcode" v="HS2 0AP"/>
    <tag k="removemelater" v="yes"/>
  </node>
  <node id="-206" lat="58.19505520757859" lon="-6.354168531523142">
    <tag k="addr:postcode" v="HS2 0AQ"/>
    <tag k="removemelater" v="yes"/>
  </node>
  <node id="-207" lat="58.20264687590615" lon="-6.340942759593335">
    <tag k="addr:postcode" v="HS2 0AR"/>
    <tag k="removemelater" v="yes"/>
  </node>
  <node id="-208" lat="58.202599196901346" lon="-6.3389097302246125">
    <tag k="addr:postcode" v="HS2 0AS"/>
    <tag k="removemelater" v="yes"/>
  </node>
  <node id="-209" lat="58.201949196555915" lon="-6.3405678956240115">
    <tag k="addr:postcode" v="HS2 0AT"/>
    <tag k="removemelater" v="yes"/>
  </node>
  <node id="-210" lat="58.20166896617839" lon="-6.339818185487733">
    <tag k="addr:postcode" v="HS2 0AU"/>
    <tag k="removemelater" v="yes"/>
  </node>
  <node id="-211" lat="58.205196077927624" lon="-6.340027718867256">
    <tag k="addr:postcode" v="HS2 0AW"/>
    <tag k="removemelater" v="yes"/>
  </node>
  <node id="-212" lat="58.20169496872935" lon="-6.341167118318447">
    <tag k="addr:postcode" v="HS2 0AX"/>
    <tag k="removemelater" v="yes"/>
  </node>
  <node id="-213" lat="58.20165997850572" lon="-6.337704766141418">
    <tag k="addr:postcode" v="HS2 0AY"/>
    <tag k="removemelater" v="yes"/>
  </node>
  <node id="-214" lat="58.19836431933932" lon="-6.328836825413429">
    <tag k="addr:postcode" v="HS2 0AZ"/>
    <tag k="removemelater" v="yes"/>
  </node>
  <node id="-215" lat="58.20982220065802" lon="-6.316347130916374">
    <tag k="addr:postcode" v="HS2 0BB"/>
    <tag k="removemelater" v="yes"/>
  </node>
  <node id="-216" lat="58.209546440506394" lon="-6.320505064100682">
    <tag k="addr:postcode" v="HS2 0BD"/>
    <tag k="removemelater" v="yes"/>
  </node>
  <node id="-217" lat="58.204204590036724" lon="-6.3395658345402115">
    <tag k="addr:postcode" v="HS2 0BF"/>
    <tag k="removemelater" v="yes"/>
  </node>
  <node id="-218" lat="58.21063557000823" lon="-6.317025330440832">
    <tag k="addr:postcode" v="HS2 0BG"/>
    <tag k="removemelater" v="yes"/>
  </node>
  <node id="-219" lat="58.35251547879938" lon="-6.521149716274486">
    <tag k="addr:postcode" v="HS2 0BH"/>
    <tag k="removemelater" v="yes"/>
  </node>
  <node id="-220" lat="58.21415214310733" lon="-6.323383086960732">
    <tag k="addr:postcode" v="HS2 0BN"/>
    <tag k="removemelater" v="yes"/>
  </node>
  <node id="-221" lat="58.19448514091427" lon="-6.264923767676546">
    <tag k="addr:postcode" v="HS2 0BP"/>
    <tag k="removemelater" v="yes"/>
  </node>
  <node id="-222" lat="58.204997238912" lon="-6.311706089877328">
    <tag k="addr:postcode" v="HS2 0BQ"/>
    <tag k="removemelater" v="yes"/>
  </node>
  <node id="-223" lat="58.205801515024376" lon="-6.264544954325248">
    <tag k="addr:postcode" v="HS2 0BS"/>
    <tag k="removemelater" v="yes"/>
  </node>
  <node id="-224" lat="58.2024355891627" lon="-6.268654973287826">
    <tag k="addr:postcode" v="HS2 0BW"/>
    <tag k="removemelater" v="yes"/>
  </node>
  <node id="-225" lat="58.2485311252138" lon="-6.400717781977637">
    <tag k="addr:postcode" v="HS2 0EE"/>
    <tag k="removemelater" v="yes"/>
  </node>
  <node id="-226" lat="58.247205632508866" lon="-6.398472253126379">
    <tag k="addr:postcode" v="HS2 0EF"/>
    <tag k="removemelater" v="yes"/>
  </node>
  <node id="-227" lat="58.24996158558816" lon="-6.399138310868125">
    <tag k="addr:postcode" v="HS2 0EJ"/>
    <tag k="removemelater" v="yes"/>
  </node>
  <node id="-228" lat="58.241953279461846" lon="-6.165447654324614">
    <tag k="addr:postcode" v="HS2 0EP"/>
    <tag k="removemelater" v="yes"/>
  </node>
  <node id="-229" lat="58.24144490917693" lon="-6.1653197421144865">
    <tag k="addr:postcode" v="HS2 0ER"/>
    <tag k="removemelater" v="yes"/>
  </node>
  <node id="-230" lat="58.24116888440051" lon="-6.165236170686282">
    <tag k="addr:postcode" v="HS2 0ES"/>
    <tag k="removemelater" v="yes"/>
  </node>
  <node id="-231" lat="58.245835510866925" lon="-6.328644173529865">
    <tag k="addr:postcode" v="HS2 0HF"/>
    <tag k="removemelater" v="yes"/>
  </node>
  <node id="-232" lat="58.24471623517468" lon="-6.35281172934436">
    <tag k="addr:postcode" v="HS2 0HP"/>
    <tag k="removemelater" v="yes"/>
  </node>
  <node id="-233" lat="58.246049702067516" lon="-6.355636221305193">
    <tag k="addr:postcode" v="HS2 0HR"/>
    <tag k="removemelater" v="yes"/>
  </node>
  <node id="-234" lat="58.244299148054026" lon="-6.344471579594568">
    <tag k="addr:postcode" v="HS2 0HS"/>
    <tag k="removemelater" v="yes"/>
  </node>
  <node id="-235" lat="58.2463287698663" lon="-6.330273564849512">
    <tag k="addr:postcode" v="HS2 0HT"/>
    <tag k="removemelater" v="yes"/>
  </node>
  <node id="-236" lat="58.24777596382594" lon="-6.344573523503557">
    <tag k="addr:postcode" v="HS2 0HX"/>
    <tag k="removemelater" v="yes"/>
  </node>
  <node id="-237" lat="58.23919615389523" lon="-6.352236540225413">
    <tag k="addr:postcode" v="HS2 0HZ"/>
    <tag k="removemelater" v="yes"/>
  </node>
  <node id="-238" lat="58.24019221830734" lon="-6.352563418622222">
    <tag k="addr:postcode" v="HS2 0JA"/>
    <tag k="removemelater" v="yes"/>
  </node>
  <node id="-239" lat="58.24031348003993" lon="-6.35322633693461">
    <tag k="addr:postcode" v="HS2 0JB"/>
    <tag k="removemelater" v="yes"/>
  </node>
  <node id="-240" lat="58.24588574029992" lon="-6.354643871566627">
    <tag k="addr:postcode" v="HS2 0JD"/>
    <tag k="removemelater" v="yes"/>
  </node>
  <node id="-241" lat="58.246469197382076" lon="-6.353095158121552">
    <tag k="addr:postcode" v="HS2 0JG"/>
    <tag k="removemelater" v="yes"/>
  </node>
  <node id="-242" lat="58.25365353224105" lon="-6.142753412108138">
    <tag k="addr:postcode" v="HS2 0JH"/>
    <tag k="removemelater" v="yes"/>
  </node>
  <node id="-243" lat="58.2056444417683" lon="-6.281034076683539">
    <tag k="addr:postcode" v="HS2 0PA"/>
    <tag k="removemelater" v="yes"/>
  </node>
  <node id="-244" lat="58.208115830602345" lon="-6.2765274744025685">
    <tag k="addr:postcode" v="HS2 0PB"/>
    <tag k="removemelater" v="yes"/>
  </node>
  <node id="-245" lat="58.20833413164959" lon="-6.259533453971328">
    <tag k="addr:postcode" v="HS2 0PD"/>
    <tag k="removemelater" v="yes"/>
  </node>
  <node id="-246" lat="58.21451605091386" lon="-6.232141902888399">
    <tag k="addr:postcode" v="HS2 0PX"/>
    <tag k="removemelater" v="yes"/>
  </node>
  <node id="-247" lat="58.20183120235724" lon="-6.227973216171311">
    <tag k="addr:postcode" v="HS2 0QF"/>
    <tag k="removemelater" v="yes"/>
  </node>
  <node id="-248" lat="58.35236837035148" lon="-6.532662713294072">
    <tag k="addr:postcode" v="HS2 0QN"/>
    <tag k="removemelater" v="yes"/>
  </node>
  <node id="-249" lat="58.35753437805427" lon="-6.529013845364955">
    <tag k="addr:postcode" v="HS2 0QR"/>
    <tag k="removemelater" v="yes"/>
  </node>
  <node id="-250" lat="58.35346107042147" lon="-6.522639618261606">
    <tag k="addr:postcode" v="HS2 0QS"/>
    <tag k="removemelater" v="yes"/>
  </node>
  <node id="-251" lat="58.36651832110681" lon="-6.507419343014001">
    <tag k="addr:postcode" v="HS2 0QX"/>
    <tag k="removemelater" v="yes"/>
  </node>
  <node id="-252" lat="58.357381600387924" lon="-6.513251275039548">
    <tag k="addr:postcode" v="HS2 0QY"/>
    <tag k="removemelater" v="yes"/>
  </node>
  <node id="-253" lat="58.350197132376096" lon="-6.513205392942033">
    <tag k="addr:postcode" v="HS2 0QZ"/>
    <tag k="removemelater" v="yes"/>
  </node>
  <node id="-254" lat="58.34778092081737" lon="-6.516933861350492">
    <tag k="addr:postcode" v="HS2 0RA"/>
    <tag k="removemelater" v="yes"/>
  </node>
  <node id="-255" lat="58.346196753386316" lon="-6.512642789830416">
    <tag k="addr:postcode" v="HS2 0RB"/>
    <tag k="removemelater" v="yes"/>
  </node>
  <node id="-256" lat="58.39223288233036" lon="-6.4848771216526675">
    <tag k="addr:postcode" v="HS2 0RG"/>
    <tag k="removemelater" v="yes"/>
  </node>
  <node id="-257" lat="58.48207753516815" lon="-6.228766714804569">
    <tag k="addr:postcode" v="HS2 0TR"/>
    <tag k="removemelater" v="yes"/>
  </node>
  <node id="-258" lat="58.48260106574388" lon="-6.230340681543757">
    <tag k="addr:postcode" v="HS2 0TW"/>
    <tag k="removemelater" v="yes"/>
  </node>
  <node id="-259" lat="58.492318668401914" lon="-6.230703939934025">
    <tag k="addr:postcode" v="HS2 0XA"/>
    <tag k="removemelater" v="yes"/>
  </node>
  <node id="-260" lat="58.4933825942968" lon="-6.2507211180041935">
    <tag k="addr:postcode" v="HS2 0XD"/>
    <tag k="removemelater" v="yes"/>
  </node>
  <node id="-261" lat="58.498268051286466" lon="-6.239786291748052">
    <tag k="addr:postcode" v="HS2 0XF"/>
    <tag k="removemelater" v="yes"/>
  </node>
  <node id="-262" lat="58.50074276142914" lon="-6.252213496104476">
    <tag k="addr:postcode" v="HS2 0XG"/>
    <tag k="removemelater" v="yes"/>
  </node>
  <node id="-263" lat="58.502366284979495" lon="-6.263972210607868">
    <tag k="addr:postcode" v="HS2 0XH"/>
    <tag k="removemelater" v="yes"/>
  </node>
  <node id="-264" lat="58.21160996961567" lon="-6.394828263497668">
    <tag k="addr:postcode" v="HS2 0XS"/>
    <tag k="removemelater" v="yes"/>
  </node>
  <node id="-265" lat="58.30031087326206" lon="-6.746940644793615">
    <tag k="addr:postcode" v="HS2 9AD"/>
    <tag k="removemelater" v="yes"/>
  </node>
  <node id="-266" lat="58.286733157263185" lon="-6.7665890599638265">
    <tag k="addr:postcode" v="HS2 9AG"/>
    <tag k="removemelater" v="yes"/>
  </node>
  <node id="-267" lat="58.28361696993175" lon="-6.7609090728630905">
    <tag k="addr:postcode" v="HS2 9AH"/>
    <tag k="removemelater" v="yes"/>
  </node>
  <node id="-268" lat="58.292550847516246" lon="-6.780356141594581">
    <tag k="addr:postcode" v="HS2 9AJ"/>
    <tag k="removemelater" v="yes"/>
  </node>
  <node id="-269" lat="58.29491987366042" lon="-6.784110260047446">
    <tag k="addr:postcode" v="HS2 9AL"/>
    <tag k="removemelater" v="yes"/>
  </node>
  <node id="-270" lat="58.29285500824007" lon="-6.779440565196997">
    <tag k="addr:postcode" v="HS2 9AN"/>
    <tag k="removemelater" v="yes"/>
  </node>
  <node id="-271" lat="58.281537953769025" lon="-6.793128822203083">
    <tag k="addr:postcode" v="HS2 9AP"/>
    <tag k="removemelater" v="yes"/>
  </node>
  <node id="-272" lat="58.280031914080595" lon="-6.765618301601633">
    <tag k="addr:postcode" v="HS2 9AU"/>
    <tag k="removemelater" v="yes"/>
  </node>
  <node id="-273" lat="58.28303322841828" lon="-6.780368507846233">
    <tag k="addr:postcode" v="HS2 9AW"/>
    <tag k="removemelater" v="yes"/>
  </node>
  <node id="-274" lat="58.27552353591172" lon="-6.756747150035559">
    <tag k="addr:postcode" v="HS2 9AX"/>
    <tag k="removemelater" v="yes"/>
  </node>
  <node id="-275" lat="58.2752581528296" lon="-6.7840483712307">
    <tag k="addr:postcode" v="HS2 9AY"/>
    <tag k="removemelater" v="yes"/>
  </node>
  <node id="-276" lat="58.26886682793138" lon="-6.793513424191659">
    <tag k="addr:postcode" v="HS2 9AZ"/>
    <tag k="removemelater" v="yes"/>
  </node>
  <node id="-277" lat="58.2029453009739" lon="-6.7363353871369895">
    <tag k="addr:postcode" v="HS2 9DX"/>
    <tag k="removemelater" v="yes"/>
  </node>
  <node id="-278" lat="58.20084740633686" lon="-6.736873397044581">
    <tag k="addr:postcode" v="HS2 9DY"/>
    <tag k="removemelater" v="yes"/>
  </node>
  <node id="-279" lat="58.21046434007634" lon="-6.73805452041487">
    <tag k="addr:postcode" v="HS2 9DZ"/>
    <tag k="removemelater" v="yes"/>
  </node>
  <node id="-280" lat="58.219472593168945" lon="-6.739155117612316">
    <tag k="addr:postcode" v="HS2 9ED"/>
    <tag k="removemelater" v="yes"/>
  </node>
  <node id="-281" lat="58.220860678722325" lon="-6.747779465982697">
    <tag k="addr:postcode" v="HS2 9EF"/>
    <tag k="removemelater" v="yes"/>
  </node>
  <node id="-282" lat="58.19102385063448" lon="-7.010072707536448">
    <tag k="addr:postcode" v="HS2 9ET"/>
    <tag k="removemelater" v="yes"/>
  </node>
  <node id="-283" lat="58.17845716708198" lon="-7.031241385580531">
    <tag k="addr:postcode" v="HS2 9EU"/>
    <tag k="removemelater" v="yes"/>
  </node>
  <node id="-284" lat="58.176461926327995" lon="-7.04868747715563">
    <tag k="addr:postcode" v="HS2 9EX"/>
    <tag k="removemelater" v="yes"/>
  </node>
  <node id="-285" lat="58.17016320462865" lon="-7.087347946974169">
    <tag k="addr:postcode" v="HS2 9EY"/>
    <tag k="removemelater" v="yes"/>
  </node>
  <node id="-286" lat="58.13427846104606" lon="-7.110999350363771">
    <tag k="addr:postcode" v="HS2 9HA"/>
    <tag k="removemelater" v="yes"/>
  </node>
  <node id="-287" lat="58.118914985321" lon="-7.110222238325837">
    <tag k="addr:postcode" v="HS2 9HB"/>
    <tag k="removemelater" v="yes"/>
  </node>
  <node id="-288" lat="58.201409494414" lon="-6.954329469822568">
    <tag k="addr:postcode" v="HS2 9HE"/>
    <tag k="removemelater" v="yes"/>
  </node>
  <node id="-289" lat="58.21554569177984" lon="-6.970197664561342">
    <tag k="addr:postcode" v="HS2 9HP"/>
    <tag k="removemelater" v="yes"/>
  </node>
  <node id="-290" lat="58.22422468934167" lon="-6.954327309800603">
    <tag k="addr:postcode" v="HS2 9HR"/>
    <tag k="removemelater" v="yes"/>
  </node>
  <node id="-291" lat="58.22168492847603" lon="-6.947220333395378">
    <tag k="addr:postcode" v="HS2 9HS"/>
    <tag k="removemelater" v="yes"/>
  </node>
  <node id="-292" lat="58.206017844457236" lon="-6.9616708801518525">
    <tag k="addr:postcode" v="HS2 9HW"/>
    <tag k="removemelater" v="yes"/>
  </node>
  <node id="-293" lat="58.19354808097181" lon="-6.43076182186719">
    <tag k="addr:postcode" v="HS2 9JB"/>
    <tag k="removemelater" v="yes"/>
  </node>
  <node id="-294" lat="58.196586891665405" lon="-7.015253969559833">
    <tag k="addr:postcode" v="HS2 9JD"/>
    <tag k="removemelater" v="yes"/>
  </node>
  <node id="-295" lat="58.192606289093085" lon="-7.03837453062244">
    <tag k="addr:postcode" v="HS2 9JF"/>
    <tag k="removemelater" v="yes"/>
  </node>
  <node id="-296" lat="58.200531569912364" lon="-7.010579496261574">
    <tag k="addr:postcode" v="HS2 9JG"/>
    <tag k="removemelater" v="yes"/>
  </node>
  <node id="-297" lat="58.098027233692356" lon="-6.861655510057223">
    <tag k="addr:postcode" v="HS2 9JH"/>
    <tag k="removemelater" v="yes"/>
  </node>
  <node id="-298" lat="58.151824143871416" lon="-6.502630932243944">
    <tag k="addr:postcode" v="HS2 9JP"/>
    <tag k="removemelater" v="yes"/>
  </node>
  <node id="-299" lat="58.103983007959606" lon="-6.491506935163407">
    <tag k="addr:postcode" v="HS2 9JT"/>
    <tag k="removemelater" v="yes"/>
  </node>
  <node id="-300" lat="58.10681090051193" lon="-6.479154035550016">
    <tag k="addr:postcode" v="HS2 9JX"/>
    <tag k="removemelater" v="yes"/>
  </node>
  <node id="-301" lat="58.18934332000776" lon="-6.37547034904711">
    <tag k="addr:postcode" v="HS2 9JY"/>
    <tag k="removemelater" v="yes"/>
  </node>
  <node id="-302" lat="58.105569552625866" lon="-6.550120902857595">
    <tag k="addr:postcode" v="HS2 9LA"/>
    <tag k="removemelater" v="yes"/>
  </node>
  <node id="-303" lat="58.208245016186055" lon="-6.82428407317953">
    <tag k="addr:postcode" v="HS2 9LS"/>
    <tag k="removemelater" v="yes"/>
  </node>
  <node id="-304" lat="58.227536834411744" lon="-6.839100499748924">
    <tag k="addr:postcode" v="HS2 9LT"/>
    <tag k="removemelater" v="yes"/>
  </node>
  <node id="-305" lat="58.22378477645998" lon="-6.837463272756401">
    <tag k="addr:postcode" v="HS2 9LU"/>
    <tag k="removemelater" v="yes"/>
  </node>
  <node id="-306" lat="58.211405332962" lon="-6.789636063549399">
    <tag k="addr:postcode" v="HS2 9LX"/>
    <tag k="removemelater" v="yes"/>
  </node>
  <node id="-307" lat="58.20709652849084" lon="-6.797524665799939">
    <tag k="addr:postcode" v="HS2 9LY"/>
    <tag k="removemelater" v="yes"/>
  </node>
  <node id="-308" lat="58.225406269709964" lon="-6.859629974955622">
    <tag k="addr:postcode" v="HS2 9NB"/>
    <tag k="removemelater" v="yes"/>
  </node>
  <node id="-309" lat="58.209119381558395" lon="-6.851008221122681">
    <tag k="addr:postcode" v="HS2 9ND"/>
    <tag k="removemelater" v="yes"/>
  </node>
  <node id="-310" lat="58.15058811630625" lon="-6.500705280970978">
    <tag k="addr:postcode" v="HS2 9PA"/>
    <tag k="removemelater" v="yes"/>
  </node>
  <node id="-311" lat="58.15545381271736" lon="-6.499687414684547">
    <tag k="addr:postcode" v="HS2 9PB"/>
    <tag k="removemelater" v="yes"/>
  </node>
  <node id="-312" lat="58.15657208089202" lon="-6.497310652924042">
    <tag k="addr:postcode" v="HS2 9PE"/>
    <tag k="removemelater" v="yes"/>
  </node>
  <node id="-313" lat="58.10249627019178" lon="-6.5316518648993585">
    <tag k="addr:postcode" v="HS2 9PJ"/>
    <tag k="removemelater" v="yes"/>
  </node>
  <node id="-314" lat="58.09321800659697" lon="-6.5929785388003035">
    <tag k="addr:postcode" v="HS2 9PN"/>
    <tag k="removemelater" v="yes"/>
  </node>
  <node id="-315" lat="58.097700065036086" lon="-6.580679252464285">
    <tag k="addr:postcode" v="HS2 9PW"/>
    <tag k="removemelater" v="yes"/>
  </node>
  <node id="-316" lat="58.05475453762101" lon="-6.447141497968807">
    <tag k="addr:postcode" v="HS2 9QZ"/>
    <tag k="removemelater" v="yes"/>
  </node>
  <node id="-317" lat="57.99244313211866" lon="-6.7540179006550405">
    <tag k="addr:postcode" v="HS3 3AA"/>
    <tag k="removemelater" v="yes"/>
  </node>
  <node id="-318" lat="58.00219516979499" lon="-6.756872324338524">
    <tag k="addr:postcode" v="HS3 3AB"/>
    <tag k="removemelater" v="yes"/>
  </node>
  <node id="-319" lat="58.006611232464444" lon="-6.753527977836741">
    <tag k="addr:postcode" v="HS3 3AD"/>
    <tag k="removemelater" v="yes"/>
  </node>
  <node id="-320" lat="57.955019873053196" lon="-6.733875396455784">
    <tag k="addr:postcode" v="HS3 3AG"/>
    <tag k="removemelater" v="yes"/>
  </node>
  <node id="-321" lat="57.908381200901985" lon="-6.834162194698766">
    <tag k="addr:postcode" v="HS3 3AH"/>
    <tag k="removemelater" v="yes"/>
  </node>
  <node id="-322" lat="57.921035859380105" lon="-6.8488337872314204">
    <tag k="addr:postcode" v="HS3 3AJ"/>
    <tag k="removemelater" v="yes"/>
  </node>
  <node id="-323" lat="57.933233902610205" lon="-6.846964554570784">
    <tag k="addr:postcode" v="HS3 3AL"/>
    <tag k="removemelater" v="yes"/>
  </node>
  <node id="-324" lat="57.92862979265103" lon="-6.836551632762849">
    <tag k="addr:postcode" v="HS3 3AP"/>
    <tag k="removemelater" v="yes"/>
  </node>
  <node id="-325" lat="57.950431027433005" lon="-6.730291740959078">
    <tag k="addr:postcode" v="HS3 3AQ"/>
    <tag k="removemelater" v="yes"/>
  </node>
  <node id="-326" lat="57.952232688470616" lon="-6.949017123422883">
    <tag k="addr:postcode" v="HS3 3AR"/>
    <tag k="removemelater" v="yes"/>
  </node>
  <node id="-327" lat="57.962971381035196" lon="-6.995003608808052">
    <tag k="addr:postcode" v="HS3 3AS"/>
    <tag k="removemelater" v="yes"/>
  </node>
  <node id="-328" lat="57.971692535941585" lon="-7.057820578543904">
    <tag k="addr:postcode" v="HS3 3AT"/>
    <tag k="removemelater" v="yes"/>
  </node>
  <node id="-329" lat="57.953068490600934" lon="-6.949961744360638">
    <tag k="addr:postcode" v="HS3 3AU"/>
    <tag k="removemelater" v="yes"/>
  </node>
  <node id="-330" lat="57.94603053274106" lon="-6.909297275314838">
    <tag k="addr:postcode" v="HS3 3AW"/>
    <tag k="removemelater" v="yes"/>
  </node>
  <node id="-331" lat="57.98864181574538" lon="-7.08105315926398">
    <tag k="addr:postcode" v="HS3 3AX"/>
    <tag k="removemelater" v="yes"/>
  </node>
  <node id="-332" lat="57.995038970838046" lon="-7.096533715610572">
    <tag k="addr:postcode" v="HS3 3AY"/>
    <tag k="removemelater" v="yes"/>
  </node>
  <node id="-333" lat="57.9198752082762" lon="-6.682279123527612">
    <tag k="addr:postcode" v="HS3 3BD"/>
    <tag k="removemelater" v="yes"/>
  </node>
  <node id="-334" lat="57.90171476625204" lon="-6.813850025780954">
    <tag k="addr:postcode" v="HS3 3BG"/>
    <tag k="removemelater" v="yes"/>
  </node>
  <node id="-335" lat="57.90080173015677" lon="-6.811598684204731">
    <tag k="addr:postcode" v="HS3 3BH"/>
    <tag k="removemelater" v="yes"/>
  </node>
  <node id="-336" lat="57.90274026742271" lon="-6.815744817360866">
    <tag k="addr:postcode" v="HS3 3BJ"/>
    <tag k="removemelater" v="yes"/>
  </node>
  <node id="-337" lat="57.89907263149389" lon="-6.788135420425129">
    <tag k="addr:postcode" v="HS3 3BL"/>
    <tag k="removemelater" v="yes"/>
  </node>
  <node id="-338" lat="57.8877667116872" lon="-6.733746504089076">
    <tag k="addr:postcode" v="HS3 3BP"/>
    <tag k="removemelater" v="yes"/>
  </node>
  <node id="-339" lat="57.89991450420894" lon="-6.813879121943802">
    <tag k="addr:postcode" v="HS3 3BQ"/>
    <tag k="removemelater" v="yes"/>
  </node>
  <node id="-340" lat="57.88453712001828" lon="-6.702348542776339">
    <tag k="addr:postcode" v="HS3 3BS"/>
    <tag k="removemelater" v="yes"/>
  </node>
  <node id="-341" lat="57.89930831391821" lon="-6.771152907868068">
    <tag k="addr:postcode" v="HS3 3BW"/>
    <tag k="removemelater" v="yes"/>
  </node>
  <node id="-342" lat="57.89892951073544" lon="-6.791208237295687">
    <tag k="addr:postcode" v="HS3 3DA"/>
    <tag k="removemelater" v="yes"/>
  </node>
  <node id="-343" lat="57.89827145552945" lon="-6.796476293465772">
    <tag k="addr:postcode" v="HS3 3DB"/>
    <tag k="removemelater" v="yes"/>
  </node>
  <node id="-344" lat="57.89920870828044" lon="-6.796669012835415">
    <tag k="addr:postcode" v="HS3 3DD"/>
    <tag k="removemelater" v="yes"/>
  </node>
  <node id="-345" lat="57.899473051729736" lon="-6.794913342096656">
    <tag k="addr:postcode" v="HS3 3DE"/>
    <tag k="removemelater" v="yes"/>
  </node>
  <node id="-346" lat="57.89745912488452" lon="-6.797736335167631">
    <tag k="addr:postcode" v="HS3 3DF"/>
    <tag k="removemelater" v="yes"/>
  </node>
  <node id="-347" lat="57.89777445894826" lon="-6.798673887595347">
    <tag k="addr:postcode" v="HS3 3DG"/>
    <tag k="removemelater" v="yes"/>
  </node>
  <node id="-348" lat="57.89925887897719" lon="-6.79843287745362">
    <tag k="addr:postcode" v="HS3 3DH"/>
    <tag k="removemelater" v="yes"/>
  </node>
  <node id="-349" lat="57.89826605404906" lon="-6.802794444466034">
    <tag k="addr:postcode" v="HS3 3DJ"/>
    <tag k="removemelater" v="yes"/>
  </node>
  <node id="-350" lat="57.89971279789824" lon="-6.802835798779192">
    <tag k="addr:postcode" v="HS3 3DL"/>
    <tag k="removemelater" v="yes"/>
  </node>
  <node id="-351" lat="57.89442704217769" lon="-6.802737414292193">
    <tag k="addr:postcode" v="HS3 3DN"/>
    <tag k="removemelater" v="yes"/>
  </node>
  <node id="-352" lat="57.89062497732367" lon="-6.794340821463042">
    <tag k="addr:postcode" v="HS3 3DP"/>
    <tag k="removemelater" v="yes"/>
  </node>
  <node id="-353" lat="57.87982198993418" lon="-6.814008536084886">
    <tag k="addr:postcode" v="HS3 3DR"/>
    <tag k="removemelater" v="yes"/>
  </node>
  <node id="-354" lat="57.85230921983943" lon="-6.767738753935183">
    <tag k="addr:postcode" v="HS3 3DW"/>
    <tag k="removemelater" v="yes"/>
  </node>
  <node id="-355" lat="57.852207823904905" lon="-6.766847906834745">
    <tag k="addr:postcode" v="HS3 3DX"/>
    <tag k="removemelater" v="yes"/>
  </node>
  <node id="-356" lat="57.86623144800682" lon="-6.79640640145112">
    <tag k="addr:postcode" v="HS3 3DY"/>
    <tag k="removemelater" v="yes"/>
  </node>
  <node id="-357" lat="57.86754601635041" lon="-6.805393546218159">
    <tag k="addr:postcode" v="HS3 3DZ"/>
    <tag k="removemelater" v="yes"/>
  </node>
  <node id="-358" lat="57.841972558863155" lon="-6.756518730029256">
    <tag k="addr:postcode" v="HS3 3EB"/>
    <tag k="removemelater" v="yes"/>
  </node>
  <node id="-359" lat="57.83171172940009" lon="-6.763376313930064">
    <tag k="addr:postcode" v="HS3 3ED"/>
    <tag k="removemelater" v="yes"/>
  </node>
  <node id="-360" lat="57.834618841207686" lon="-6.79858756672299">
    <tag k="addr:postcode" v="HS3 3EF"/>
    <tag k="removemelater" v="yes"/>
  </node>
  <node id="-361" lat="57.828593650343116" lon="-6.8377667196596885">
    <tag k="addr:postcode" v="HS3 3EH"/>
    <tag k="removemelater" v="yes"/>
  </node>
  <node id="-362" lat="57.83081646321809" lon="-6.852551592395968">
    <tag k="addr:postcode" v="HS3 3EJ"/>
    <tag k="removemelater" v="yes"/>
  </node>
  <node id="-363" lat="57.828432962691025" lon="-6.853478374771941">
    <tag k="addr:postcode" v="HS3 3EL"/>
    <tag k="removemelater" v="yes"/>
  </node>
  <node id="-364" lat="57.80675625026015" lon="-6.863688324749573">
    <tag k="addr:postcode" v="HS3 3EX"/>
    <tag k="removemelater" v="yes"/>
  </node>
  <node id="-365" lat="57.80170604556546" lon="-6.867051302006797">
    <tag k="addr:postcode" v="HS3 3EY"/>
    <tag k="removemelater" v="yes"/>
  </node>
  <node id="-366" lat="57.799788175038145" lon="-6.874105313415813">
    <tag k="addr:postcode" v="HS3 3EZ"/>
    <tag k="removemelater" v="yes"/>
  </node>
  <node id="-367" lat="57.79648159679919" lon="-6.887524731509395">
    <tag k="addr:postcode" v="HS3 3HA"/>
    <tag k="removemelater" v="yes"/>
  </node>
  <node id="-368" lat="57.81443980109053" lon="-6.859685021660844">
    <tag k="addr:postcode" v="HS3 3HB"/>
    <tag k="removemelater" v="yes"/>
  </node>
  <node id="-369" lat="57.88997032608514" lon="-6.8068714245297794">
    <tag k="addr:postcode" v="HS3 3HG"/>
    <tag k="removemelater" v="yes"/>
  </node>
  <node id="-370" lat="57.864699549023385" lon="-6.823007101745586">
    <tag k="addr:postcode" v="HS3 3HJ"/>
    <tag k="removemelater" v="yes"/>
  </node>
  <node id="-371" lat="57.884362603571184" lon="-6.9441775690028305">
    <tag k="addr:postcode" v="HS3 3HL"/>
    <tag k="removemelater" v="yes"/>
  </node>
  <node id="-372" lat="57.8612912439901" lon="-6.878873868303075">
    <tag k="addr:postcode" v="HS3 3HN"/>
    <tag k="removemelater" v="yes"/>
  </node>
  <node id="-373" lat="57.86752431867301" lon="-6.940866422181829">
    <tag k="addr:postcode" v="HS3 3HP"/>
    <tag k="removemelater" v="yes"/>
  </node>
  <node id="-374" lat="57.88427465926371" lon="-6.813067960286604">
    <tag k="addr:postcode" v="HS3 3HQ"/>
    <tag k="removemelater" v="yes"/>
  </node>
  <node id="-375" lat="57.85790330160072" lon="-6.977942840935954">
    <tag k="addr:postcode" v="HS3 3HR"/>
    <tag k="removemelater" v="yes"/>
  </node>
  <node id="-376" lat="57.84271935901025" lon="-7.001386140017744">
    <tag k="addr:postcode" v="HS3 3HT"/>
    <tag k="removemelater" v="yes"/>
  </node>
  <node id="-377" lat="57.829044400740464" lon="-7.035409968659628">
    <tag k="addr:postcode" v="HS3 3HX"/>
    <tag k="removemelater" v="yes"/>
  </node>
  <node id="-378" lat="57.79656187311167" lon="-7.065450240322843">
    <tag k="addr:postcode" v="HS3 3JA"/>
    <tag k="removemelater" v="yes"/>
  </node>
  <node id="-379" lat="57.7770606609515" lon="-6.9215712609707705">
    <tag k="addr:postcode" v="HS3 3JD"/>
    <tag k="removemelater" v="yes"/>
  </node>
  <node id="-380" lat="57.76020547292277" lon="-6.935079368486406">
    <tag k="addr:postcode" v="HS3 3JE"/>
    <tag k="removemelater" v="yes"/>
  </node>
  <node id="-381" lat="57.768759761249285" lon="-6.912476237965272">
    <tag k="addr:postcode" v="HS3 3JF"/>
    <tag k="removemelater" v="yes"/>
  </node>
  <node id="-382" lat="57.77719776196359" lon="-6.91503924769117">
    <tag k="addr:postcode" v="HS3 3JG"/>
    <tag k="removemelater" v="yes"/>
  </node>
  <node id="-383" lat="57.777583856546904" lon="-6.915984349244028">
    <tag k="addr:postcode" v="HS3 3JH"/>
    <tag k="removemelater" v="yes"/>
  </node>
  <node id="-384" lat="57.77987235666259" lon="-6.898276226262983">
    <tag k="addr:postcode" v="HS3 3JQ"/>
    <tag k="removemelater" v="yes"/>
  </node>
  <node id="-385" lat="57.872109081152445" lon="-6.698866510788367">
    <tag k="addr:postcode" v="HS4 3XU"/>
    <tag k="removemelater" v="yes"/>
  </node>
  <node id="-386" lat="57.87329461985223" lon="-6.698430515419041">
    <tag k="addr:postcode" v="HS4 3XX"/>
    <tag k="removemelater" v="yes"/>
  </node>
  <node id="-387" lat="57.873805012127555" lon="-6.692183045200279">
    <tag k="addr:postcode" v="HS4 3XY"/>
    <tag k="removemelater" v="yes"/>
  </node>
  <node id="-388" lat="57.87687746094691" lon="-6.697142679217812">
    <tag k="addr:postcode" v="HS4 3XZ"/>
    <tag k="removemelater" v="yes"/>
  </node>
  <node id="-389" lat="57.871280294563434" lon="-6.7013242404920605">
    <tag k="addr:postcode" v="HS4 3YA"/>
    <tag k="removemelater" v="yes"/>
  </node>
  <node id="-390" lat="57.86789369068258" lon="-6.70192818328059">
    <tag k="addr:postcode" v="HS4 3YB"/>
    <tag k="removemelater" v="yes"/>
  </node>
  <node id="-391" lat="57.87384686729545" lon="-6.704394773405972">
    <tag k="addr:postcode" v="HS4 3YD"/>
    <tag k="removemelater" v="yes"/>
  </node>
  <node id="-392" lat="57.86817909010561" lon="-6.693019018985683">
    <tag k="addr:postcode" v="HS4 3YF"/>
    <tag k="removemelater" v="yes"/>
  </node>
  <node id="-393" lat="57.85965421182037" lon="-6.679823924566338">
    <tag k="addr:postcode" v="HS4 3YG"/>
    <tag k="removemelater" v="yes"/>
  </node>
  <node id="-394" lat="57.76991738037139" lon="-7.009311457400057">
    <tag k="addr:postcode" v="HS5 3TL"/>
    <tag k="removemelater" v="yes"/>
  </node>
  <node id="-395" lat="57.76656999036394" lon="-7.00364470658622">
    <tag k="addr:postcode" v="HS5 3TN"/>
    <tag k="removemelater" v="yes"/>
  </node>
  <node id="-396" lat="57.77138614474752" lon="-7.014701450765898">
    <tag k="addr:postcode" v="HS5 3TS"/>
    <tag k="removemelater" v="yes"/>
  </node>
  <node id="-397" lat="57.77201021169599" lon="-7.020513258411259">
    <tag k="addr:postcode" v="HS5 3TT"/>
    <tag k="removemelater" v="yes"/>
  </node>
  <node id="-398" lat="57.77381677829268" lon="-7.022145387847267">
    <tag k="addr:postcode" v="HS5 3TU"/>
    <tag k="removemelater" v="yes"/>
  </node>
  <node id="-399" lat="57.747273201757594" lon="-6.96802547035697">
    <tag k="addr:postcode" v="HS5 3TW"/>
    <tag k="removemelater" v="yes"/>
  </node>
  <node id="-400" lat="57.77507210876646" lon="-7.026328004458733">
    <tag k="addr:postcode" v="HS5 3TX"/>
    <tag k="removemelater" v="yes"/>
  </node>
  <node id="-401" lat="57.77885923936936" lon="-7.037196442206634">
    <tag k="addr:postcode" v="HS5 3TY"/>
    <tag k="removemelater" v="yes"/>
  </node>
  <node id="-402" lat="57.76766342822244" lon="-7.015783792030176">
    <tag k="addr:postcode" v="HS5 3UA"/>
    <tag k="removemelater" v="yes"/>
  </node>
  <node id="-403" lat="57.76583863981039" lon="-7.019823369109537">
    <tag k="addr:postcode" v="HS5 3UB"/>
    <tag k="removemelater" v="yes"/>
  </node>
  <node id="-404" lat="57.60124082914415" lon="-7.163856870039434">
    <tag k="addr:postcode" v="HS6 5AA"/>
    <tag k="removemelater" v="yes"/>
  </node>
  <node id="-405" lat="57.60064313958609" lon="-7.162632198281356">
    <tag k="addr:postcode" v="HS6 5AB"/>
    <tag k="removemelater" v="yes"/>
  </node>
  <node id="-406" lat="57.599831036225076" lon="-7.162248635114784">
    <tag k="addr:postcode" v="HS6 5AD"/>
    <tag k="removemelater" v="yes"/>
  </node>
  <node id="-407" lat="57.605004491908986" lon="-7.162916806113524">
    <tag k="addr:postcode" v="HS6 5AE"/>
    <tag k="removemelater" v="yes"/>
  </node>
  <node id="-408" lat="57.612265823306736" lon="-7.158081095426885">
    <tag k="addr:postcode" v="HS6 5AF"/>
    <tag k="removemelater" v="yes"/>
  </node>
  <node id="-409" lat="57.60738400952223" lon="-7.178174778804825">
    <tag k="addr:postcode" v="HS6 5AG"/>
    <tag k="removemelater" v="yes"/>
  </node>
  <node id="-410" lat="57.59793122091786" lon="-7.183983795454754">
    <tag k="addr:postcode" v="HS6 5AH"/>
    <tag k="removemelater" v="yes"/>
  </node>
  <node id="-411" lat="57.7124499091013" lon="-7.281694875613126">
    <tag k="addr:postcode" v="HS6 5AJ"/>
    <tag k="removemelater" v="yes"/>
  </node>
  <node id="-412" lat="57.569990172685614" lon="-7.396382649650115">
    <tag k="addr:postcode" v="HS6 5AL"/>
    <tag k="removemelater" v="yes"/>
  </node>
  <node id="-413" lat="57.62479908651367" lon="-7.199292831585351">
    <tag k="addr:postcode" v="HS6 5AR"/>
    <tag k="removemelater" v="yes"/>
  </node>
  <node id="-414" lat="57.611183764845684" lon="-7.181834989229381">
    <tag k="addr:postcode" v="HS6 5AW"/>
    <tag k="removemelater" v="yes"/>
  </node>
  <node id="-415" lat="57.65615003384856" lon="-7.105841462474013">
    <tag k="addr:postcode" v="HS6 5AX"/>
    <tag k="removemelater" v="yes"/>
  </node>
  <node id="-416" lat="57.65903717268619" lon="-7.238014658056663">
    <tag k="addr:postcode" v="HS6 5AY"/>
    <tag k="removemelater" v="yes"/>
  </node>
  <node id="-417" lat="57.679287439060786" lon="-7.214453131967013">
    <tag k="addr:postcode" v="HS6 5AZ"/>
    <tag k="removemelater" v="yes"/>
  </node>
  <node id="-418" lat="57.71682329749043" lon="-7.173438422804134">
    <tag k="addr:postcode" v="HS6 5BB"/>
    <tag k="removemelater" v="yes"/>
  </node>
  <node id="-419" lat="57.71738956416359" lon="-7.173233574429765">
    <tag k="addr:postcode" v="HS6 5BD"/>
    <tag k="removemelater" v="yes"/>
  </node>
  <node id="-420" lat="57.72752459281256" lon="-7.173153233033707">
    <tag k="addr:postcode" v="HS6 5BE"/>
    <tag k="removemelater" v="yes"/>
  </node>
  <node id="-421" lat="57.71921938366721" lon="-7.174033435888666">
    <tag k="addr:postcode" v="HS6 5BF"/>
    <tag k="removemelater" v="yes"/>
  </node>
  <node id="-422" lat="57.72162717136983" lon="-7.162908938043367">
    <tag k="addr:postcode" v="HS6 5BG"/>
    <tag k="removemelater" v="yes"/>
  </node>
  <node id="-423" lat="57.71165802000539" lon="-7.174986131897931">
    <tag k="addr:postcode" v="HS6 5BH"/>
    <tag k="removemelater" v="yes"/>
  </node>
  <node id="-424" lat="57.71204103364344" lon="-7.181883571327869">
    <tag k="addr:postcode" v="HS6 5BJ"/>
    <tag k="removemelater" v="yes"/>
  </node>
  <node id="-425" lat="57.712089584103055" lon="-7.175653118233623">
    <tag k="addr:postcode" v="HS6 5BL"/>
    <tag k="removemelater" v="yes"/>
  </node>
  <node id="-426" lat="57.72278075114554" lon="-7.157137185370126">
    <tag k="addr:postcode" v="HS6 5BQ"/>
    <tag k="removemelater" v="yes"/>
  </node>
  <node id="-427" lat="57.71802398974243" lon="-7.157501382119981">
    <tag k="addr:postcode" v="HS6 5BR"/>
    <tag k="removemelater" v="yes"/>
  </node>
  <node id="-428" lat="57.65127849516275" lon="-7.346167053263818">
    <tag k="addr:postcode" v="HS6 5BT"/>
    <tag k="removemelater" v="yes"/>
  </node>
  <node id="-429" lat="57.64741386607756" lon="-7.358772933573206">
    <tag k="addr:postcode" v="HS6 5BU"/>
    <tag k="removemelater" v="yes"/>
  </node>
  <node id="-430" lat="57.64596742016425" lon="-7.273098672734207">
    <tag k="addr:postcode" v="HS6 5BW"/>
    <tag k="removemelater" v="yes"/>
  </node>
  <node id="-431" lat="57.64241853605693" lon="-7.374229589545691">
    <tag k="addr:postcode" v="HS6 5BX"/>
    <tag k="removemelater" v="yes"/>
  </node>
  <node id="-432" lat="57.65371274772556" lon="-7.447857473877197">
    <tag k="addr:postcode" v="HS6 5BZ"/>
    <tag k="removemelater" v="yes"/>
  </node>
  <node id="-433" lat="57.637342760315036" lon="-7.375289713672574">
    <tag k="addr:postcode" v="HS6 5DA"/>
    <tag k="removemelater" v="yes"/>
  </node>
  <node id="-434" lat="57.616380572213316" lon="-7.501758050929562">
    <tag k="addr:postcode" v="HS6 5DE"/>
    <tag k="removemelater" v="yes"/>
  </node>
  <node id="-435" lat="57.62719821391447" lon="-7.491654733045281">
    <tag k="addr:postcode" v="HS6 5DG"/>
    <tag k="removemelater" v="yes"/>
  </node>
  <node id="-436" lat="57.6423048827858" lon="-7.48741373794261">
    <tag k="addr:postcode" v="HS6 5DH"/>
    <tag k="removemelater" v="yes"/>
  </node>
  <node id="-437" lat="57.60882329977745" lon="-7.516928379966095">
    <tag k="addr:postcode" v="HS6 5DL"/>
    <tag k="removemelater" v="yes"/>
  </node>
  <node id="-438" lat="57.632428459942645" lon="-7.488939745955516">
    <tag k="addr:postcode" v="HS6 5DQ"/>
    <tag k="removemelater" v="yes"/>
  </node>
  <node id="-439" lat="57.58504254728581" lon="-7.428309582960281">
    <tag k="addr:postcode" v="HS6 5DT"/>
    <tag k="removemelater" v="yes"/>
  </node>
  <node id="-440" lat="57.57971418535767" lon="-7.4155683179174146">
    <tag k="addr:postcode" v="HS6 5DU"/>
    <tag k="removemelater" v="yes"/>
  </node>
  <node id="-441" lat="57.60048724318102" lon="-7.487497714316277">
    <tag k="addr:postcode" v="HS6 5DW"/>
    <tag k="removemelater" v="yes"/>
  </node>
  <node id="-442" lat="57.52102008709679" lon="-7.315700137493921">
    <tag k="addr:postcode" v="HS6 5EH"/>
    <tag k="removemelater" v="yes"/>
  </node>
  <node id="-443" lat="57.5243528548102" lon="-7.314346434659664">
    <tag k="addr:postcode" v="HS6 5EL"/>
    <tag k="removemelater" v="yes"/>
  </node>
  <node id="-444" lat="57.53719519195879" lon="-7.320504248521087">
    <tag k="addr:postcode" v="HS6 5EN"/>
    <tag k="removemelater" v="yes"/>
  </node>
  <node id="-445" lat="57.5653232170737" lon="-7.384520030532106">
    <tag k="addr:postcode" v="HS6 5EP"/>
    <tag k="removemelater" v="yes"/>
  </node>
  <node id="-446" lat="57.55682862517307" lon="-7.3585505654850625">
    <tag k="addr:postcode" v="HS6 5ES"/>
    <tag k="removemelater" v="yes"/>
  </node>
  <node id="-447" lat="57.55049820379874" lon="-7.266925954571402">
    <tag k="addr:postcode" v="HS6 5EU"/>
    <tag k="removemelater" v="yes"/>
  </node>
  <node id="-448" lat="57.57483121670909" lon="-7.402696128937354">
    <tag k="addr:postcode" v="HS6 5EW"/>
    <tag k="removemelater" v="yes"/>
  </node>
  <node id="-449" lat="57.565816835494196" lon="-7.291332030246658">
    <tag k="addr:postcode" v="HS6 5HA"/>
    <tag k="removemelater" v="yes"/>
  </node>
  <node id="-450" lat="57.552443081893976" lon="-7.33466909184748">
    <tag k="addr:postcode" v="HS6 5HD"/>
    <tag k="removemelater" v="yes"/>
  </node>
  <node id="-451" lat="57.51287979882589" lon="-7.314546297535115">
    <tag k="addr:postcode" v="HS6 5HL"/>
    <tag k="removemelater" v="yes"/>
  </node>
  <node id="-452" lat="57.51724544075683" lon="-7.28245479849978">
    <tag k="addr:postcode" v="HS6 5HN"/>
    <tag k="removemelater" v="yes"/>
  </node>
  <node id="-453" lat="57.52303058753658" lon="-7.313267056255258">
    <tag k="addr:postcode" v="HS6 5HR"/>
    <tag k="removemelater" v="yes"/>
  </node>
  <node id="-454" lat="57.495416105032895" lon="-7.267392967373726">
    <tag k="addr:postcode" v="HS6 5HT"/>
    <tag k="removemelater" v="yes"/>
  </node>
  <node id="-455" lat="57.5004830311715" lon="-7.249503792682954">
    <tag k="addr:postcode" v="HS6 5HU"/>
    <tag k="removemelater" v="yes"/>
  </node>
  <node id="-456" lat="57.489243503092275" lon="-7.221835495201685">
    <tag k="addr:postcode" v="HS6 5HX"/>
    <tag k="removemelater" v="yes"/>
  </node>
  <node id="-457" lat="57.48005288011956" lon="-7.20997924253664">
    <tag k="addr:postcode" v="HS6 5HY"/>
    <tag k="removemelater" v="yes"/>
  </node>
  <node id="-458" lat="57.485772831194176" lon="-7.239517550530069">
    <tag k="addr:postcode" v="HS6 5JA"/>
    <tag k="removemelater" v="yes"/>
  </node>
  <node id="-459" lat="57.48801748929068" lon="-7.256031525750212">
    <tag k="addr:postcode" v="HS6 5JB"/>
    <tag k="removemelater" v="yes"/>
  </node>
  <node id="-460" lat="57.47121027621948" lon="-7.370997891719681">
    <tag k="addr:postcode" v="HS7 5LA"/>
    <tag k="removemelater" v="yes"/>
  </node>
  <node id="-461" lat="57.47208492587776" lon="-7.3814829437814735">
    <tag k="addr:postcode" v="HS7 5LB"/>
    <tag k="removemelater" v="yes"/>
  </node>
  <node id="-462" lat="57.47153038744529" lon="-7.391907796856519">
    <tag k="addr:postcode" v="HS7 5LE"/>
    <tag k="removemelater" v="yes"/>
  </node>
  <node id="-463" lat="57.47231056567057" lon="-7.390502971344364">
    <tag k="addr:postcode" v="HS7 5LF"/>
    <tag k="removemelater" v="yes"/>
  </node>
  <node id="-464" lat="57.47306410142474" lon="-7.388459387390647">
    <tag k="addr:postcode" v="HS7 5LH"/>
    <tag k="removemelater" v="yes"/>
  </node>
  <node id="-465" lat="57.47215617942818" lon="-7.386755184940551">
    <tag k="addr:postcode" v="HS7 5LQ"/>
    <tag k="removemelater" v="yes"/>
  </node>
  <node id="-466" lat="57.473126915362094" lon="-7.3941314702511916">
    <tag k="addr:postcode" v="HS7 5LS"/>
    <tag k="removemelater" v="yes"/>
  </node>
  <node id="-467" lat="57.465266689474674" lon="-7.384770055853884">
    <tag k="addr:postcode" v="HS7 5LT"/>
    <tag k="removemelater" v="yes"/>
  </node>
  <node id="-468" lat="57.45742731091571" lon="-7.3948681318803855">
    <tag k="addr:postcode" v="HS7 5LU"/>
    <tag k="removemelater" v="yes"/>
  </node>
  <node id="-469" lat="57.474639987941465" lon="-7.339696771274974">
    <tag k="addr:postcode" v="HS7 5LY"/>
    <tag k="removemelater" v="yes"/>
  </node>
  <node id="-470" lat="57.479808526438276" lon="-7.324765298478286">
    <tag k="addr:postcode" v="HS7 5LZ"/>
    <tag k="removemelater" v="yes"/>
  </node>
  <node id="-471" lat="57.47232673994484" lon="-7.394113445231427">
    <tag k="addr:postcode" v="HS7 5ND"/>
    <tag k="removemelater" v="yes"/>
  </node>
  <node id="-472" lat="57.47146957389639" lon="-7.393535777507173">
    <tag k="addr:postcode" v="HS7 5NE"/>
    <tag k="removemelater" v="yes"/>
  </node>
  <node id="-473" lat="57.4726371554831" lon="-7.392121399905636">
    <tag k="addr:postcode" v="HS7 5NF"/>
    <tag k="removemelater" v="yes"/>
  </node>
  <node id="-474" lat="57.47187860038907" lon="-7.377259886405212">
    <tag k="addr:postcode" v="HS7 5NG"/>
    <tag k="removemelater" v="yes"/>
  </node>
  <node id="-475" lat="57.41144622200018" lon="-7.334239977053186">
    <tag k="addr:postcode" v="HS7 5PH"/>
    <tag k="removemelater" v="yes"/>
  </node>
  <node id="-476" lat="57.42557447585885" lon="-7.358571337493521">
    <tag k="addr:postcode" v="HS7 5PJ"/>
    <tag k="removemelater" v="yes"/>
  </node>
  <node id="-477" lat="57.436875124733646" lon="-7.388096264928261">
    <tag k="addr:postcode" v="HS7 5PN"/>
    <tag k="removemelater" v="yes"/>
  </node>
  <node id="-478" lat="57.43405430838601" lon="-7.360832132604137">
    <tag k="addr:postcode" v="HS7 5PP"/>
    <tag k="removemelater" v="yes"/>
  </node>
  <node id="-479" lat="57.41188214833116" lon="-7.3345703421307356">
    <tag k="addr:postcode" v="HS7 5PQ"/>
    <tag k="removemelater" v="yes"/>
  </node>
  <node id="-480" lat="57.409450442628575" lon="-7.310187859186449">
    <tag k="addr:postcode" v="HS7 5PR"/>
    <tag k="removemelater" v="yes"/>
  </node>
  <node id="-481" lat="57.409535431697485" lon="-7.3290090544563125">
    <tag k="addr:postcode" v="HS7 5PW"/>
    <tag k="removemelater" v="yes"/>
  </node>
  <node id="-482" lat="57.422768714326864" lon="-7.336108104363113">
    <tag k="addr:postcode" v="HS7 5PY"/>
    <tag k="removemelater" v="yes"/>
  </node>
  <node id="-483" lat="57.42962039064728" lon="-7.338359290131421">
    <tag k="addr:postcode" v="HS7 5PZ"/>
    <tag k="removemelater" v="yes"/>
  </node>
  <node id="-484" lat="57.44282157232626" lon="-7.3584630227077925">
    <tag k="addr:postcode" v="HS7 5QA"/>
    <tag k="removemelater" v="yes"/>
  </node>
  <node id="-485" lat="57.441759408106" lon="-7.352766314356166">
    <tag k="addr:postcode" v="HS7 5QB"/>
    <tag k="removemelater" v="yes"/>
  </node>
  <node id="-486" lat="57.412468359618465" lon="-7.309258432102141">
    <tag k="addr:postcode" v="HS7 5QD"/>
    <tag k="removemelater" v="yes"/>
  </node>
  <node id="-487" lat="57.47935207335216" lon="-7.305753611506892">
    <tag k="addr:postcode" v="HS7 5QP"/>
    <tag k="removemelater" v="yes"/>
  </node>
  <node id="-488" lat="57.476807006668686" lon="-7.285838743762746">
    <tag k="addr:postcode" v="HS7 5QR"/>
    <tag k="removemelater" v="yes"/>
  </node>
  <node id="-489" lat="57.474098802693476" lon="-7.269745206323672">
    <tag k="addr:postcode" v="HS7 5QS"/>
    <tag k="removemelater" v="yes"/>
  </node>
  <node id="-490" lat="57.08715446579171" lon="-7.300406073377695">
    <tag k="addr:postcode" v="HS8 5JH"/>
    <tag k="removemelater" v="yes"/>
  </node>
  <node id="-491" lat="57.08596048506176" lon="-7.306912640989464">
    <tag k="addr:postcode" v="HS8 5JJ"/>
    <tag k="removemelater" v="yes"/>
  </node>
  <node id="-492" lat="57.0823113825506" lon="-7.308290596093245">
    <tag k="addr:postcode" v="HS8 5JL"/>
    <tag k="removemelater" v="yes"/>
  </node>
  <node id="-493" lat="57.0733142435131" lon="-7.303796789410123">
    <tag k="addr:postcode" v="HS8 5JN"/>
    <tag k="removemelater" v="yes"/>
  </node>
  <node id="-494" lat="57.065564269608515" lon="-7.296840510004095">
    <tag k="addr:postcode" v="HS8 5JP"/>
    <tag k="removemelater" v="yes"/>
  </node>
  <node id="-495" lat="57.08829412156609" lon="-7.2900731398487055">
    <tag k="addr:postcode" v="HS8 5JR"/>
    <tag k="removemelater" v="yes"/>
  </node>
  <node id="-496" lat="57.08473971581904" lon="-7.307051822121076">
    <tag k="addr:postcode" v="HS8 5JT"/>
    <tag k="removemelater" v="yes"/>
  </node>
  <node id="-497" lat="57.084782296094325" lon="-7.308380134190979">
    <tag k="addr:postcode" v="HS8 5JU"/>
    <tag k="removemelater" v="yes"/>
  </node>
  <node id="-498" lat="57.072075335424536" lon="-7.297787303303471">
    <tag k="addr:postcode" v="HS8 5JW"/>
    <tag k="removemelater" v="yes"/>
  </node>
  <node id="-499" lat="57.36905181140624" lon="-7.2825142275289245">
    <tag k="addr:postcode" v="HS8 5NX"/>
    <tag k="removemelater" v="yes"/>
  </node>
  <node id="-500" lat="57.3700035431568" lon="-7.288764195785078">
    <tag k="addr:postcode" v="HS8 5PD"/>
    <tag k="removemelater" v="yes"/>
  </node>
  <node id="-501" lat="57.38482216001256" lon="-7.304184053556908">
    <tag k="addr:postcode" v="HS8 5PE"/>
    <tag k="removemelater" v="yes"/>
  </node>
  <node id="-502" lat="57.389559058192376" lon="-7.327701672348176">
    <tag k="addr:postcode" v="HS8 5QY"/>
    <tag k="removemelater" v="yes"/>
  </node>
  <node id="-503" lat="57.39729083602174" lon="-7.386952912402359">
    <tag k="addr:postcode" v="HS8 5RB"/>
    <tag k="removemelater" v="yes"/>
  </node>
  <node id="-504" lat="57.3925802750189" lon="-7.393543578098876">
    <tag k="addr:postcode" v="HS8 5RD"/>
    <tag k="removemelater" v="yes"/>
  </node>
  <node id="-505" lat="57.393009185882896" lon="-7.334403832457229">
    <tag k="addr:postcode" v="HS8 5RJ"/>
    <tag k="removemelater" v="yes"/>
  </node>
  <node id="-506" lat="57.39206605395723" lon="-7.341349807568186">
    <tag k="addr:postcode" v="HS8 5RL"/>
    <tag k="removemelater" v="yes"/>
  </node>
  <node id="-507" lat="57.39115141302033" lon="-7.340849730473794">
    <tag k="addr:postcode" v="HS8 5RU"/>
    <tag k="removemelater" v="yes"/>
  </node>
  <node id="-508" lat="57.28903891205584" lon="-7.398836059587547">
    <tag k="addr:postcode" v="HS8 5SF"/>
    <tag k="removemelater" v="yes"/>
  </node>
  <node id="-509" lat="57.2884909012069" lon="-7.380390180773101">
    <tag k="addr:postcode" v="HS8 5SG"/>
    <tag k="removemelater" v="yes"/>
  </node>
  <node id="-510" lat="57.301102092740614" lon="-7.373391764644226">
    <tag k="addr:postcode" v="HS8 5SH"/>
    <tag k="removemelater" v="yes"/>
  </node>
  <node id="-511" lat="57.29219209981048" lon="-7.37865476163953">
    <tag k="addr:postcode" v="HS8 5SQ"/>
    <tag k="removemelater" v="yes"/>
  </node>
  <node id="-512" lat="57.16511052707759" lon="-7.372194890201439">
    <tag k="addr:postcode" v="HS8 5SS"/>
    <tag k="removemelater" v="yes"/>
  </node>
  <node id="-513" lat="57.16722315440576" lon="-7.364484574342492">
    <tag k="addr:postcode" v="HS8 5ST"/>
    <tag k="removemelater" v="yes"/>
  </node>
  <node id="-514" lat="57.166597999929195" lon="-7.362902928511159">
    <tag k="addr:postcode" v="HS8 5SU"/>
    <tag k="removemelater" v="yes"/>
  </node>
  <node id="-515" lat="57.158943783153155" lon="-7.369310765906359">
    <tag k="addr:postcode" v="HS8 5SZ"/>
    <tag k="removemelater" v="yes"/>
  </node>
  <node id="-516" lat="57.16527941781485" lon="-7.360491857317784">
    <tag k="addr:postcode" v="HS8 5TG"/>
    <tag k="removemelater" v="yes"/>
  </node>
  <node id="-517" lat="57.15460378834096" lon="-7.316468524069054">
    <tag k="addr:postcode" v="HS8 5TH"/>
    <tag k="removemelater" v="yes"/>
  </node>
  <node id="-518" lat="57.15415502514708" lon="-7.308174239060164">
    <tag k="addr:postcode" v="HS8 5TJ"/>
    <tag k="removemelater" v="yes"/>
  </node>
  <node id="-519" lat="57.15382255155617" lon="-7.308374862154245">
    <tag k="addr:postcode" v="HS8 5TL"/>
    <tag k="removemelater" v="yes"/>
  </node>
  <node id="-520" lat="57.16057346426671" lon="-7.338162351916048">
    <tag k="addr:postcode" v="HS8 5TN"/>
    <tag k="removemelater" v="yes"/>
  </node>
  <node id="-521" lat="57.1529533252554" lon="-7.30637892983637">
    <tag k="addr:postcode" v="HS8 5TP"/>
    <tag k="removemelater" v="yes"/>
  </node>
  <node id="-522" lat="57.10893307995483" lon="-7.374789731517941">
    <tag k="addr:postcode" v="HS8 5TR"/>
    <tag k="removemelater" v="yes"/>
  </node>
  <node id="-523" lat="57.158208158011576" lon="-7.31317818990303">
    <tag k="addr:postcode" v="HS8 5TW"/>
    <tag k="removemelater" v="yes"/>
  </node>
  <node id="-524" lat="57.12561170869087" lon="-7.361096388781127">
    <tag k="addr:postcode" v="HS8 5TY"/>
    <tag k="removemelater" v="yes"/>
  </node>
  <node id="-525" lat="57.13633946226694" lon="-7.305997373862445">
    <tag k="addr:postcode" v="HS8 5UD"/>
    <tag k="removemelater" v="yes"/>
  </node>
  <node id="-526" lat="56.963055326923204" lon="-7.4413696010253405">
    <tag k="addr:postcode" v="HS9 5UA"/>
    <tag k="removemelater" v="yes"/>
  </node>
  <node id="-527" lat="56.96665380017478" lon="-7.433970525834524">
    <tag k="addr:postcode" v="HS9 5UB"/>
    <tag k="removemelater" v="yes"/>
  </node>
  <node id="-528" lat="56.957774680721236" lon="-7.469095621609077">
    <tag k="addr:postcode" v="HS9 5UH"/>
    <tag k="removemelater" v="yes"/>
  </node>
  <node id="-529" lat="56.953918020249084" lon="-7.481706129303077">
    <tag k="addr:postcode" v="HS9 5UJ"/>
    <tag k="removemelater" v="yes"/>
  </node>
  <node id="-530" lat="56.952561686483776" lon="-7.4814405635275545">
    <tag k="addr:postcode" v="HS9 5UL"/>
    <tag k="removemelater" v="yes"/>
  </node>
  <node id="-531" lat="56.96214881974427" lon="-7.446261826568636">
    <tag k="addr:postcode" v="HS9 5UN"/>
    <tag k="removemelater" v="yes"/>
  </node>
  <node id="-532" lat="56.96786481102418" lon="-7.435300743404276">
    <tag k="addr:postcode" v="HS9 5UP"/>
    <tag k="removemelater" v="yes"/>
  </node>
  <node id="-533" lat="56.95575155934081" lon="-7.480328880212607">
    <tag k="addr:postcode" v="HS9 5UQ"/>
    <tag k="removemelater" v="yes"/>
  </node>
  <node id="-534" lat="56.9717149388034" lon="-7.4250036958306405">
    <tag k="addr:postcode" v="HS9 5UR"/>
    <tag k="removemelater" v="yes"/>
  </node>
  <node id="-535" lat="56.9881239175884" lon="-7.414999986725052">
    <tag k="addr:postcode" v="HS9 5UT"/>
    <tag k="removemelater" v="yes"/>
  </node>
  <node id="-536" lat="56.981939591370306" lon="-7.41296229548851">
    <tag k="addr:postcode" v="HS9 5UU"/>
    <tag k="removemelater" v="yes"/>
  </node>
  <node id="-537" lat="56.964880856806" lon="-7.43293731637531">
    <tag k="addr:postcode" v="HS9 5UW"/>
    <tag k="removemelater" v="yes"/>
  </node>
  <node id="-538" lat="56.99602180079476" lon="-7.416331734546248">
    <tag k="addr:postcode" v="HS9 5UX"/>
    <tag k="removemelater" v="yes"/>
  </node>
  <node id="-539" lat="56.99485957490796" lon="-7.40265815188433">
    <tag k="addr:postcode" v="HS9 5UY"/>
    <tag k="removemelater" v="yes"/>
  </node>
  <node id="-540" lat="56.952236697015785" lon="-7.487602149520726">
    <tag k="addr:postcode" v="HS9 5UZ"/>
    <tag k="removemelater" v="yes"/>
  </node>
  <node id="-541" lat="56.95600193115642" lon="-7.494070716895962">
    <tag k="addr:postcode" v="HS9 5XB"/>
    <tag k="removemelater" v="yes"/>
  </node>
  <node id="-542" lat="56.95349974950506" lon="-7.497341648998534">
    <tag k="addr:postcode" v="HS9 5XE"/>
    <tag k="removemelater" v="yes"/>
  </node>
  <node id="-543" lat="56.95544024983869" lon="-7.499258929220347">
    <tag k="addr:postcode" v="HS9 5XF"/>
    <tag k="removemelater" v="yes"/>
  </node>
  <node id="-544" lat="56.955224126263644" lon="-7.494565401846048">
    <tag k="addr:postcode" v="HS9 5XG"/>
    <tag k="removemelater" v="yes"/>
  </node>
  <node id="-545" lat="56.95334956760258" lon="-7.499114844515549">
    <tag k="addr:postcode" v="HS9 5XH"/>
    <tag k="removemelater" v="yes"/>
  </node>
  <node id="-546" lat="56.95475012089796" lon="-7.499601732958183">
    <tag k="addr:postcode" v="HS9 5XJ"/>
    <tag k="removemelater" v="yes"/>
  </node>
  <node id="-547" lat="56.9582146972757" lon="-7.502469275394299">
    <tag k="addr:postcode" v="HS9 5XL"/>
    <tag k="removemelater" v="yes"/>
  </node>
  <node id="-548" lat="56.95618016021039" lon="-7.5073739064537754">
    <tag k="addr:postcode" v="HS9 5XN"/>
    <tag k="removemelater" v="yes"/>
  </node>
  <node id="-549" lat="56.95349928914521" lon="-7.4985769318676425">
    <tag k="addr:postcode" v="HS9 5XP"/>
    <tag k="removemelater" v="yes"/>
  </node>
  <node id="-550" lat="56.95375907989396" lon="-7.496358709490404">
    <tag k="addr:postcode" v="HS9 5XQ"/>
    <tag k="removemelater" v="yes"/>
  </node>
  <node id="-551" lat="56.98109218923057" lon="-7.502490759305095">
    <tag k="addr:postcode" v="HS9 5XR"/>
    <tag k="removemelater" v="yes"/>
  </node>
  <node id="-552" lat="56.984554874215476" lon="-7.500299534496869">
    <tag k="addr:postcode" v="HS9 5XS"/>
    <tag k="removemelater" v="yes"/>
  </node>
  <node id="-553" lat="56.99584074010589" lon="-7.5039811898076945">
    <tag k="addr:postcode" v="HS9 5XT"/>
    <tag k="removemelater" v="yes"/>
  </node>
  <node id="-554" lat="57.0038397107712" lon="-7.483790106298337">
    <tag k="addr:postcode" v="HS9 5XU"/>
    <tag k="removemelater" v="yes"/>
  </node>
  <node id="-555" lat="56.96960450678908" lon="-7.516018091298561">
    <tag k="addr:postcode" v="HS9 5XW"/>
    <tag k="removemelater" v="yes"/>
  </node>
  <node id="-556" lat="57.00957737308454" lon="-7.494122247689038">
    <tag k="addr:postcode" v="HS9 5XX"/>
    <tag k="removemelater" v="yes"/>
  </node>
  <node id="-557" lat="57.00234957962593" lon="-7.4355602453259655">
    <tag k="addr:postcode" v="HS9 5XY"/>
    <tag k="removemelater" v="yes"/>
  </node>
  <node id="-558" lat="57.00069888134267" lon="-7.483376146845515">
    <tag k="addr:postcode" v="HS9 5XZ"/>
    <tag k="removemelater" v="yes"/>
  </node>
  <node id="-559" lat="57.00419960660063" lon="-7.42012942778748">
    <tag k="addr:postcode" v="HS9 5YA"/>
    <tag k="removemelater" v="yes"/>
  </node>
  <node id="-560" lat="57.01167225249105" lon="-7.426069475600877">
    <tag k="addr:postcode" v="HS9 5YB"/>
    <tag k="removemelater" v="yes"/>
  </node>
  <node id="-561" lat="57.04019954295637" lon="-7.432319885222496">
    <tag k="addr:postcode" v="HS9 5YD"/>
    <tag k="removemelater" v="yes"/>
  </node>
  <node id="-562" lat="57.000250898614134" lon="-7.421944828643178">
    <tag k="addr:postcode" v="HS9 5YH"/>
    <tag k="removemelater" v="yes"/>
  </node>
  <node id="-563" lat="56.94470537703341" lon="-7.539666401891726">
    <tag k="addr:postcode" v="HS9 5YL"/>
    <tag k="removemelater" v="yes"/>
  </node>
  <node id="-564" lat="56.934397424075414" lon="-7.504367777463226">
    <tag k="addr:postcode" v="HS9 5YN"/>
    <tag k="removemelater" v="yes"/>
  </node>
  <node id="-565" lat="56.943197637585584" lon="-7.530648663613251">
    <tag k="addr:postcode" v="HS9 5YP"/>
    <tag k="removemelater" v="yes"/>
  </node>
  <node id="-566" lat="56.99993800207872" lon="-7.424174960952768">
    <tag k="addr:postcode" v="HS9 5YQ"/>
    <tag k="removemelater" v="yes"/>
  </node>
  <node id="-567" lat="57.033172665648124" lon="-7.434757809852694">
    <tag k="addr:postcode" v="HS9 5YR"/>
    <tag k="removemelater" v="yes"/>
  </node>
  <node id="-568" lat="56.91938602392056" lon="-7.536857926716965">
    <tag k="addr:postcode" v="HS9 5YU"/>
    <tag k="removemelater" v="yes"/>
  </node>
  <node id="-569" lat="56.91944993039169" lon="-7.535419229227223">
    <tag k="addr:postcode" v="HS9 5YW"/>
    <tag k="removemelater" v="yes"/>
  </node>
  <node id="-570" lat="56.95422636202826" lon="-7.496987728815542">
    <tag k="addr:postcode" v="HS9 5ZE"/>
    <tag k="removemelater" v="yes"/>
  </node>
</osm>
