<?xml version="1.0" encoding="UTF-8"?><osm version="0.6" generator="import_postcodes.py" upload="false">
  <node id="-1" lat="51.55876371891103" lon="0.07383281810537863">
    <tag k="addr:postcode" v="IG1 1DA"/>
    <tag k="removemelater" v="yes"/>
  </node>
  <node id="-2" lat="51.55882829109915" lon="0.07119563911749262">
    <tag k="addr:postcode" v="IG1 1DE"/>
    <tag k="removemelater" v="yes"/>
  </node>
  <node id="-3" lat="51.560375084190525" lon="0.07729656072248954">
    <tag k="addr:postcode" v="IG1 1NL"/>
    <tag k="removemelater" v="yes"/>
  </node>
  <node id="-4" lat="51.559593859845364" lon="0.07723210413946735">
    <tag k="addr:postcode" v="IG1 1QE"/>
    <tag k="removemelater" v="yes"/>
  </node>
  <node id="-5" lat="51.561528667951784" lon="0.08172073967519242">
    <tag k="addr:postcode" v="IG1 1TY"/>
    <tag k="removemelater" v="yes"/>
  </node>
  <node id="-6" lat="51.56221719445371" lon="0.0895288617230087">
    <tag k="addr:postcode" v="IG1 1UF"/>
    <tag k="removemelater" v="yes"/>
  </node>
  <node id="-7" lat="51.557959671055826" lon="0.06894890479329467">
    <tag k="addr:postcode" v="IG1 2AT"/>
    <tag k="removemelater" v="yes"/>
  </node>
  <node id="-8" lat="51.55684017405814" lon="0.0666476051205173">
    <tag k="addr:postcode" v="IG1 2DA"/>
    <tag k="removemelater" v="yes"/>
  </node>
  <node id="-9" lat="51.55796244502983" lon="0.06726112038091712">
    <tag k="addr:postcode" v="IG1 2FB"/>
    <tag k="removemelater" v="yes"/>
  </node>
  <node id="-10" lat="51.54894118712281" lon="0.06939069640350919">
    <tag k="addr:postcode" v="IG1 2HZ"/>
    <tag k="removemelater" v="yes"/>
  </node>
  <node id="-11" lat="51.55684017405814" lon="0.0666476051205173">
    <tag k="addr:postcode" v="IG1 2QX"/>
    <tag k="removemelater" v="yes"/>
  </node>
  <node id="-12" lat="51.55715640012471" lon="0.0706436080203182">
    <tag k="addr:postcode" v="IG1 2WS"/>
    <tag k="removemelater" v="yes"/>
  </node>
  <node id="-13" lat="51.55699211689341" lon="0.0707804087749992">
    <tag k="addr:postcode" v="IG1 2ZE"/>
    <tag k="removemelater" v="yes"/>
  </node>
  <node id="-14" lat="51.55829534954779" lon="0.06827165899707714">
    <tag k="addr:postcode" v="IG1 2ZN"/>
    <tag k="removemelater" v="yes"/>
  </node>
  <node id="-15" lat="51.559357672832995" lon="0.06820444394019505">
    <tag k="addr:postcode" v="IG1 3AD"/>
    <tag k="removemelater" v="yes"/>
  </node>
  <node id="-16" lat="51.55904734299624" lon="0.06999372990715157">
    <tag k="addr:postcode" v="IG1 4DU"/>
    <tag k="removemelater" v="yes"/>
  </node>
  <node id="-17" lat="51.55875658344484" lon="0.07423644521155105">
    <tag k="addr:postcode" v="IG1 8SA"/>
    <tag k="removemelater" v="yes"/>
  </node>
  <node id="-18" lat="51.64915822542046" lon="0.05899041892275547">
    <tag k="addr:postcode" v="IG10 1DP"/>
    <tag k="removemelater" v="yes"/>
  </node>
  <node id="-19" lat="51.65407549547089" lon="0.06369498075241949">
    <tag k="addr:postcode" v="IG10 1ER"/>
    <tag k="removemelater" v="yes"/>
  </node>
  <node id="-20" lat="51.64865529416922" lon="0.055874181532444986">
    <tag k="addr:postcode" v="IG10 1HA"/>
    <tag k="removemelater" v="yes"/>
  </node>
  <node id="-21" lat="51.64915822542046" lon="0.05899041892275547">
    <tag k="addr:postcode" v="IG10 1HD"/>
    <tag k="removemelater" v="yes"/>
  </node>
  <node id="-22" lat="51.650221010187614" lon="0.05118905340435752">
    <tag k="addr:postcode" v="IG10 1HN"/>
    <tag k="removemelater" v="yes"/>
  </node>
  <node id="-23" lat="51.650835707526284" lon="0.05152038180117467">
    <tag k="addr:postcode" v="IG10 1HP"/>
    <tag k="removemelater" v="yes"/>
  </node>
  <node id="-24" lat="51.65231009696755" lon="0.0571960879317286">
    <tag k="addr:postcode" v="IG10 1HU"/>
    <tag k="removemelater" v="yes"/>
  </node>
  <node id="-25" lat="51.65369777583813" lon="0.057548066093890377">
    <tag k="addr:postcode" v="IG10 1HY"/>
    <tag k="removemelater" v="yes"/>
  </node>
  <node id="-26" lat="51.65355375589367" lon="0.057556000142509924">
    <tag k="addr:postcode" v="IG10 1JA"/>
    <tag k="removemelater" v="yes"/>
  </node>
  <node id="-27" lat="51.654746155847015" lon="0.05827504346655917">
    <tag k="addr:postcode" v="IG10 1JB"/>
    <tag k="removemelater" v="yes"/>
  </node>
  <node id="-28" lat="51.6548880278761" lon="0.056850194547222586">
    <tag k="addr:postcode" v="IG10 1JD"/>
    <tag k="removemelater" v="yes"/>
  </node>
  <node id="-29" lat="51.6541303419274" lon="0.05749537244838797">
    <tag k="addr:postcode" v="IG10 1JE"/>
    <tag k="removemelater" v="yes"/>
  </node>
  <node id="-30" lat="51.65366587979771" lon="0.05628886650463501">
    <tag k="addr:postcode" v="IG10 1JF"/>
    <tag k="removemelater" v="yes"/>
  </node>
  <node id="-31" lat="51.65239792177634" lon="0.05628930217149806">
    <tag k="addr:postcode" v="IG10 1JG"/>
    <tag k="removemelater" v="yes"/>
  </node>
  <node id="-32" lat="51.65142697705907" lon="0.05935344887300761">
    <tag k="addr:postcode" v="IG10 1LA"/>
    <tag k="removemelater" v="yes"/>
  </node>
  <node id="-33" lat="51.64648082704792" lon="0.08686785196170588">
    <tag k="addr:postcode" v="IG10 1NB"/>
    <tag k="removemelater" v="yes"/>
  </node>
  <node id="-34" lat="51.64648082704792" lon="0.08686785196170588">
    <tag k="addr:postcode" v="IG10 1PL"/>
    <tag k="removemelater" v="yes"/>
  </node>
  <node id="-35" lat="51.649624588799334" lon="0.056496266603319044">
    <tag k="addr:postcode" v="IG10 1RB"/>
    <tag k="removemelater" v="yes"/>
  </node>
  <node id="-36" lat="51.65993732107779" lon="0.0627467622108158">
    <tag k="addr:postcode" v="IG10 1SF"/>
    <tag k="removemelater" v="yes"/>
  </node>
  <node id="-37" lat="51.655187947977595" lon="0.059234794784656625">
    <tag k="addr:postcode" v="IG10 1SP"/>
    <tag k="removemelater" v="yes"/>
  </node>
  <node id="-38" lat="51.653749631126594" lon="0.08873419446941731">
    <tag k="addr:postcode" v="IG10 2BQ"/>
    <tag k="removemelater" v="yes"/>
  </node>
  <node id="-39" lat="51.64648082704792" lon="0.08686785196170588">
    <tag k="addr:postcode" v="IG10 2DR"/>
    <tag k="removemelater" v="yes"/>
  </node>
  <node id="-40" lat="51.658757507924264" lon="0.06591744694438363">
    <tag k="addr:postcode" v="IG10 2FB"/>
    <tag k="removemelater" v="yes"/>
  </node>
  <node id="-41" lat="51.66254414661443" lon="0.08469948741326963">
    <tag k="addr:postcode" v="IG10 2LD"/>
    <tag k="removemelater" v="yes"/>
  </node>
  <node id="-42" lat="51.660957596075235" lon="0.07832239406291681">
    <tag k="addr:postcode" v="IG10 2NX"/>
    <tag k="removemelater" v="yes"/>
  </node>
  <node id="-43" lat="51.664416928851445" lon="0.06574109223428827">
    <tag k="addr:postcode" v="IG10 2SD"/>
    <tag k="removemelater" v="yes"/>
  </node>
  <node id="-44" lat="51.65844369234283" lon="0.06535375062982834">
    <tag k="addr:postcode" v="IG10 2SW"/>
    <tag k="removemelater" v="yes"/>
  </node>
  <node id="-45" lat="51.64494306213132" lon="0.08686950329744479">
    <tag k="addr:postcode" v="IG10 3FA"/>
    <tag k="removemelater" v="yes"/>
  </node>
  <node id="-46" lat="51.64330337816224" lon="0.08703992046312845">
    <tag k="addr:postcode" v="IG10 3FT"/>
    <tag k="removemelater" v="yes"/>
  </node>
  <node id="-47" lat="51.64648082704792" lon="0.08686785196170588">
    <tag k="addr:postcode" v="IG10 3HY"/>
    <tag k="removemelater" v="yes"/>
  </node>
  <node id="-48" lat="51.64337400861142" lon="0.056025507484359895">
    <tag k="addr:postcode" v="IG10 3JA"/>
    <tag k="removemelater" v="yes"/>
  </node>
  <node id="-49" lat="51.6482306107518" lon="0.08960798930352386">
    <tag k="addr:postcode" v="IG10 3PB"/>
    <tag k="removemelater" v="yes"/>
  </node>
  <node id="-50" lat="51.64648082704792" lon="0.08686785196170588">
    <tag k="addr:postcode" v="IG10 3QJ"/>
    <tag k="removemelater" v="yes"/>
  </node>
  <node id="-51" lat="51.64904180102606" lon="0.07784957745154276">
    <tag k="addr:postcode" v="IG10 3RU"/>
    <tag k="removemelater" v="yes"/>
  </node>
  <node id="-52" lat="51.64839182861409" lon="0.07544918217604897">
    <tag k="addr:postcode" v="IG10 3SA"/>
    <tag k="removemelater" v="yes"/>
  </node>
  <node id="-53" lat="51.646939549857855" lon="0.08989553405221597">
    <tag k="addr:postcode" v="IG10 3SL"/>
    <tag k="removemelater" v="yes"/>
  </node>
  <node id="-54" lat="51.64724737377295" lon="0.08927367293398963">
    <tag k="addr:postcode" v="IG10 3SQ"/>
    <tag k="removemelater" v="yes"/>
  </node>
  <node id="-55" lat="51.64638932838416" lon="0.0818912349678588">
    <tag k="addr:postcode" v="IG10 3SZ"/>
    <tag k="removemelater" v="yes"/>
  </node>
  <node id="-56" lat="51.6482306107518" lon="0.08960798930352386">
    <tag k="addr:postcode" v="IG10 3TN"/>
    <tag k="removemelater" v="yes"/>
  </node>
  <node id="-57" lat="51.644906590457914" lon="0.08892032903247216">
    <tag k="addr:postcode" v="IG10 3TQ"/>
    <tag k="removemelater" v="yes"/>
  </node>
  <node id="-58" lat="51.64519948267644" lon="0.09014795634863523">
    <tag k="addr:postcode" v="IG10 3TR"/>
    <tag k="removemelater" v="yes"/>
  </node>
  <node id="-59" lat="51.64494306213132" lon="0.08686950329744479">
    <tag k="addr:postcode" v="IG10 3TS"/>
    <tag k="removemelater" v="yes"/>
  </node>
  <node id="-60" lat="51.64251803151502" lon="0.08417097571497385">
    <tag k="addr:postcode" v="IG10 3UE"/>
    <tag k="removemelater" v="yes"/>
  </node>
  <node id="-61" lat="51.64648082704792" lon="0.08686785196170588">
    <tag k="addr:postcode" v="IG10 3UF"/>
    <tag k="removemelater" v="yes"/>
  </node>
  <node id="-62" lat="51.66346729415224" lon="0.03307599902299741">
    <tag k="addr:postcode" v="IG10 4AD"/>
    <tag k="removemelater" v="yes"/>
  </node>
  <node id="-63" lat="51.66373001895969" lon="0.038669365552354715">
    <tag k="addr:postcode" v="IG10 4AE"/>
    <tag k="removemelater" v="yes"/>
  </node>
  <node id="-64" lat="51.66395509732915" lon="0.04175949167683295">
    <tag k="addr:postcode" v="IG10 4AF"/>
    <tag k="removemelater" v="yes"/>
  </node>
  <node id="-65" lat="51.65443383138965" lon="0.020339757106249513">
    <tag k="addr:postcode" v="IG10 4AL"/>
    <tag k="removemelater" v="yes"/>
  </node>
  <node id="-66" lat="51.64648082704792" lon="0.08686785196170588">
    <tag k="addr:postcode" v="IG10 4DH"/>
    <tag k="removemelater" v="yes"/>
  </node>
  <node id="-67" lat="51.64661197960063" lon="0.04569235704045073">
    <tag k="addr:postcode" v="IG10 4DZ"/>
    <tag k="removemelater" v="yes"/>
  </node>
  <node id="-68" lat="51.643722059838574" lon="0.04226680937962452">
    <tag k="addr:postcode" v="IG10 4EF"/>
    <tag k="removemelater" v="yes"/>
  </node>
  <node id="-69" lat="51.645010247469145" lon="0.05193672925563928">
    <tag k="addr:postcode" v="IG10 4HH"/>
    <tag k="removemelater" v="yes"/>
  </node>
  <node id="-70" lat="51.64450241350762" lon="0.052694316366975205">
    <tag k="addr:postcode" v="IG10 4LG"/>
    <tag k="removemelater" v="yes"/>
  </node>
  <node id="-71" lat="51.645595755266314" lon="0.05342305957421784">
    <tag k="addr:postcode" v="IG10 4LN"/>
    <tag k="removemelater" v="yes"/>
  </node>
  <node id="-72" lat="51.64409993825951" lon="0.052054619234777146">
    <tag k="addr:postcode" v="IG10 4LY"/>
    <tag k="removemelater" v="yes"/>
  </node>
  <node id="-73" lat="51.6429228095374" lon="0.05457419544631947">
    <tag k="addr:postcode" v="IG10 4NP"/>
    <tag k="removemelater" v="yes"/>
  </node>
  <node id="-74" lat="51.64161626480809" lon="0.055237786341272764">
    <tag k="addr:postcode" v="IG10 4PD"/>
    <tag k="removemelater" v="yes"/>
  </node>
  <node id="-75" lat="51.64648082704792" lon="0.08686785196170588">
    <tag k="addr:postcode" v="IG10 4QJ"/>
    <tag k="removemelater" v="yes"/>
  </node>
  <node id="-76" lat="51.64648082704792" lon="0.08686785196170588">
    <tag k="addr:postcode" v="IG10 9BF"/>
    <tag k="removemelater" v="yes"/>
  </node>
  <node id="-77" lat="51.64648082704792" lon="0.08686785196170588">
    <tag k="addr:postcode" v="IG10 9BS"/>
    <tag k="removemelater" v="yes"/>
  </node>
  <node id="-78" lat="51.64648082704792" lon="0.08686785196170588">
    <tag k="addr:postcode" v="IG10 9EF"/>
    <tag k="removemelater" v="yes"/>
  </node>
  <node id="-79" lat="51.64648082704792" lon="0.08686785196170588">
    <tag k="addr:postcode" v="IG10 9EJ"/>
    <tag k="removemelater" v="yes"/>
  </node>
  <node id="-80" lat="51.64648082704792" lon="0.08686785196170588">
    <tag k="addr:postcode" v="IG10 9EU"/>
    <tag k="removemelater" v="yes"/>
  </node>
  <node id="-81" lat="51.64648082704792" lon="0.08686785196170588">
    <tag k="addr:postcode" v="IG10 9EW"/>
    <tag k="removemelater" v="yes"/>
  </node>
  <node id="-82" lat="51.64648082704792" lon="0.08686785196170588">
    <tag k="addr:postcode" v="IG10 9FN"/>
    <tag k="removemelater" v="yes"/>
  </node>
  <node id="-83" lat="51.64648082704792" lon="0.08686785196170588">
    <tag k="addr:postcode" v="IG10 9FR"/>
    <tag k="removemelater" v="yes"/>
  </node>
  <node id="-84" lat="51.64648082704792" lon="0.08686785196170588">
    <tag k="addr:postcode" v="IG10 9GH"/>
    <tag k="removemelater" v="yes"/>
  </node>
  <node id="-85" lat="51.64648082704792" lon="0.08686785196170588">
    <tag k="addr:postcode" v="IG10 9GL"/>
    <tag k="removemelater" v="yes"/>
  </node>
  <node id="-86" lat="51.64648082704792" lon="0.08686785196170588">
    <tag k="addr:postcode" v="IG10 9GN"/>
    <tag k="removemelater" v="yes"/>
  </node>
  <node id="-87" lat="51.64648082704792" lon="0.08686785196170588">
    <tag k="addr:postcode" v="IG10 9GQ"/>
    <tag k="removemelater" v="yes"/>
  </node>
  <node id="-88" lat="51.64648082704792" lon="0.08686785196170588">
    <tag k="addr:postcode" v="IG10 9GR"/>
    <tag k="removemelater" v="yes"/>
  </node>
  <node id="-89" lat="51.64648082704792" lon="0.08686785196170588">
    <tag k="addr:postcode" v="IG10 9GS"/>
    <tag k="removemelater" v="yes"/>
  </node>
  <node id="-90" lat="51.64648082704792" lon="0.08686785196170588">
    <tag k="addr:postcode" v="IG10 9GT"/>
    <tag k="removemelater" v="yes"/>
  </node>
  <node id="-91" lat="51.5342709679665" lon="0.08125542425756722">
    <tag k="addr:postcode" v="IG11 7AE"/>
    <tag k="removemelater" v="yes"/>
  </node>
  <node id="-92" lat="51.53336297765732" lon="0.07260597127328067">
    <tag k="addr:postcode" v="IG11 7BP"/>
    <tag k="removemelater" v="yes"/>
  </node>
  <node id="-93" lat="51.53272413347033" lon="0.07364392835590841">
    <tag k="addr:postcode" v="IG11 7BW"/>
    <tag k="removemelater" v="yes"/>
  </node>
  <node id="-94" lat="51.533743201746105" lon="0.07449770460274673">
    <tag k="addr:postcode" v="IG11 7BZ"/>
    <tag k="removemelater" v="yes"/>
  </node>
  <node id="-95" lat="51.53070460970579" lon="0.07291775956563089">
    <tag k="addr:postcode" v="IG11 7FW"/>
    <tag k="removemelater" v="yes"/>
  </node>
  <node id="-96" lat="51.53661120013571" lon="0.08012208005547172">
    <tag k="addr:postcode" v="IG11 7GS"/>
    <tag k="removemelater" v="yes"/>
  </node>
  <node id="-97" lat="51.536297730421786" lon="0.08005010802443979">
    <tag k="addr:postcode" v="IG11 7GU"/>
    <tag k="removemelater" v="yes"/>
  </node>
  <node id="-98" lat="51.531789292601154" lon="0.08275707715416142">
    <tag k="addr:postcode" v="IG11 7HS"/>
    <tag k="removemelater" v="yes"/>
  </node>
  <node id="-99" lat="51.535123601871675" lon="0.08185667630947689">
    <tag k="addr:postcode" v="IG11 7JH"/>
    <tag k="removemelater" v="yes"/>
  </node>
  <node id="-100" lat="51.532376088322245" lon="0.07857365710711449">
    <tag k="addr:postcode" v="IG11 7LB"/>
    <tag k="removemelater" v="yes"/>
  </node>
  <node id="-101" lat="51.53632030006607" lon="0.07979158142466568">
    <tag k="addr:postcode" v="IG11 7NB"/>
    <tag k="removemelater" v="yes"/>
  </node>
  <node id="-102" lat="51.53719755568873" lon="0.08001903600414453">
    <tag k="addr:postcode" v="IG11 7PE"/>
    <tag k="removemelater" v="yes"/>
  </node>
  <node id="-103" lat="51.53700375039089" lon="0.08029859894491037">
    <tag k="addr:postcode" v="IG11 7PY"/>
    <tag k="removemelater" v="yes"/>
  </node>
  <node id="-104" lat="51.533533325880285" lon="0.08430741642343598">
    <tag k="addr:postcode" v="IG11 7TB"/>
    <tag k="removemelater" v="yes"/>
  </node>
  <node id="-105" lat="51.538215278703674" lon="0.07790238736791347">
    <tag k="addr:postcode" v="IG11 8AJ"/>
    <tag k="removemelater" v="yes"/>
  </node>
  <node id="-106" lat="51.537936746642764" lon="0.0809323768893143">
    <tag k="addr:postcode" v="IG11 8DG"/>
    <tag k="removemelater" v="yes"/>
  </node>
  <node id="-107" lat="51.53847463421917" lon="0.081533731557101">
    <tag k="addr:postcode" v="IG11 8DH"/>
    <tag k="removemelater" v="yes"/>
  </node>
  <node id="-108" lat="51.53771219142703" lon="0.0788888855021184">
    <tag k="addr:postcode" v="IG11 8EJ"/>
    <tag k="removemelater" v="yes"/>
  </node>
  <node id="-109" lat="51.542077796603515" lon="0.0740835713247038">
    <tag k="addr:postcode" v="IG11 8FQ"/>
    <tag k="removemelater" v="yes"/>
  </node>
  <node id="-110" lat="51.54056689378653" lon="0.08069183668593571">
    <tag k="addr:postcode" v="IG11 8FU"/>
    <tag k="removemelater" v="yes"/>
  </node>
  <node id="-111" lat="51.53781470592448" lon="0.07716312996785284">
    <tag k="addr:postcode" v="IG11 8FY"/>
    <tag k="removemelater" v="yes"/>
  </node>
  <node id="-112" lat="51.540587164981844" lon="0.08056297138158472">
    <tag k="addr:postcode" v="IG11 8PD"/>
    <tag k="removemelater" v="yes"/>
  </node>
  <node id="-113" lat="51.540587164981844" lon="0.08056297138158472">
    <tag k="addr:postcode" v="IG11 8PJ"/>
    <tag k="removemelater" v="yes"/>
  </node>
  <node id="-114" lat="51.542096845691134" lon="0.07656494869213504">
    <tag k="addr:postcode" v="IG11 8QT"/>
    <tag k="removemelater" v="yes"/>
  </node>
  <node id="-115" lat="51.539832018675014" lon="0.08257629172523814">
    <tag k="addr:postcode" v="IG11 8RR"/>
    <tag k="removemelater" v="yes"/>
  </node>
  <node id="-116" lat="51.53839709770932" lon="0.10151692257549717">
    <tag k="addr:postcode" v="IG11 9LS"/>
    <tag k="removemelater" v="yes"/>
  </node>
  <node id="-117" lat="51.54038380047816" lon="0.08391379975841717">
    <tag k="addr:postcode" v="IG11 9TA"/>
    <tag k="removemelater" v="yes"/>
  </node>
  <node id="-118" lat="51.540067286204845" lon="0.08451944058390923">
    <tag k="addr:postcode" v="IG11 9TB"/>
    <tag k="removemelater" v="yes"/>
  </node>
  <node id="-119" lat="51.57561802783982" lon="0.06862505158067507">
    <tag k="addr:postcode" v="IG2 6FE"/>
    <tag k="removemelater" v="yes"/>
  </node>
  <node id="-120" lat="51.57566473483837" lon="0.06852614709606378">
    <tag k="addr:postcode" v="IG2 6FF"/>
    <tag k="removemelater" v="yes"/>
  </node>
  <node id="-121" lat="51.57498445261379" lon="0.06732626875844444">
    <tag k="addr:postcode" v="IG2 6JS"/>
    <tag k="removemelater" v="yes"/>
  </node>
  <node id="-122" lat="51.57654335400624" lon="0.06765679688039361">
    <tag k="addr:postcode" v="IG2 6LH"/>
    <tag k="removemelater" v="yes"/>
  </node>
  <node id="-123" lat="51.57676697468295" lon="0.0677246768555447">
    <tag k="addr:postcode" v="IG2 6LJ"/>
    <tag k="removemelater" v="yes"/>
  </node>
  <node id="-124" lat="51.57673433621745" lon="0.06753557249016098">
    <tag k="addr:postcode" v="IG2 6LL"/>
    <tag k="removemelater" v="yes"/>
  </node>
  <node id="-125" lat="51.576368144658055" lon="0.06841376252168692">
    <tag k="addr:postcode" v="IG2 6LQ"/>
    <tag k="removemelater" v="yes"/>
  </node>
  <node id="-126" lat="51.57653004828473" lon="0.06790154489093457">
    <tag k="addr:postcode" v="IG2 6LR"/>
    <tag k="removemelater" v="yes"/>
  </node>
  <node id="-127" lat="51.56855509478543" lon="0.08357129686530497">
    <tag k="addr:postcode" v="IG2 7FA"/>
    <tag k="removemelater" v="yes"/>
  </node>
  <node id="-128" lat="51.56359835805549" lon="0.09729696110256315">
    <tag k="addr:postcode" v="IG3 8BS"/>
    <tag k="removemelater" v="yes"/>
  </node>
  <node id="-129" lat="51.588493921608695" lon="0.06360866987276993">
    <tag k="addr:postcode" v="IG5 0DB"/>
    <tag k="removemelater" v="yes"/>
  </node>
  <node id="-130" lat="51.59636558615611" lon="0.07210894545538943">
    <tag k="addr:postcode" v="IG5 0SB"/>
    <tag k="removemelater" v="yes"/>
  </node>
  <node id="-131" lat="51.596963024426366" lon="0.07239604165070997">
    <tag k="addr:postcode" v="IG5 0XB"/>
    <tag k="removemelater" v="yes"/>
  </node>
  <node id="-132" lat="51.59640223726528" lon="0.07359780820759879">
    <tag k="addr:postcode" v="IG5 0XN"/>
    <tag k="removemelater" v="yes"/>
  </node>
  <node id="-133" lat="51.59632359757512" lon="0.07295892077077455">
    <tag k="addr:postcode" v="IG5 0XW"/>
    <tag k="removemelater" v="yes"/>
  </node>
  <node id="-134" lat="51.58613040461691" lon="0.08184911321963474">
    <tag k="addr:postcode" v="IG6 1HZ"/>
    <tag k="removemelater" v="yes"/>
  </node>
  <node id="-135" lat="51.58681012250986" lon="0.08610986552018422">
    <tag k="addr:postcode" v="IG6 1LU"/>
    <tag k="removemelater" v="yes"/>
  </node>
  <node id="-136" lat="51.58891194451379" lon="0.08067700591988482">
    <tag k="addr:postcode" v="IG6 2AA"/>
    <tag k="removemelater" v="yes"/>
  </node>
  <node id="-137" lat="51.58967343287436" lon="0.08134701578100247">
    <tag k="addr:postcode" v="IG6 2AD"/>
    <tag k="removemelater" v="yes"/>
  </node>
  <node id="-138" lat="51.58891194451379" lon="0.08067700591988482">
    <tag k="addr:postcode" v="IG6 2AW"/>
    <tag k="removemelater" v="yes"/>
  </node>
  <node id="-139" lat="51.589415159101144" lon="0.0812052807841356">
    <tag k="addr:postcode" v="IG6 2BE"/>
    <tag k="removemelater" v="yes"/>
  </node>
  <node id="-140" lat="51.58858492152506" lon="0.08136944241343619">
    <tag k="addr:postcode" v="IG6 2DD"/>
    <tag k="removemelater" v="yes"/>
  </node>
  <node id="-141" lat="51.588810835481894" lon="0.0813075869063706">
    <tag k="addr:postcode" v="IG6 2DE"/>
    <tag k="removemelater" v="yes"/>
  </node>
  <node id="-142" lat="51.58903291175919" lon="0.08146210231053268">
    <tag k="addr:postcode" v="IG6 2DG"/>
    <tag k="removemelater" v="yes"/>
  </node>
  <node id="-143" lat="51.589689642001645" lon="0.08195409681460665">
    <tag k="addr:postcode" v="IG6 2DH"/>
    <tag k="removemelater" v="yes"/>
  </node>
  <node id="-144" lat="51.59036434071608" lon="0.08244692763646318">
    <tag k="addr:postcode" v="IG6 2DN"/>
    <tag k="removemelater" v="yes"/>
  </node>
  <node id="-145" lat="51.59030169902651" lon="0.08242962580040653">
    <tag k="addr:postcode" v="IG6 2DP"/>
    <tag k="removemelater" v="yes"/>
  </node>
  <node id="-146" lat="51.60305821012329" lon="0.08873187114059995">
    <tag k="addr:postcode" v="IG6 2FA"/>
    <tag k="removemelater" v="yes"/>
  </node>
  <node id="-147" lat="51.60376907955283" lon="0.08820129226265656">
    <tag k="addr:postcode" v="IG6 2FJ"/>
    <tag k="removemelater" v="yes"/>
  </node>
  <node id="-148" lat="51.60432950605556" lon="0.08753382380679463">
    <tag k="addr:postcode" v="IG6 2FL"/>
    <tag k="removemelater" v="yes"/>
  </node>
  <node id="-149" lat="51.60457596178951" lon="0.08783395715090354">
    <tag k="addr:postcode" v="IG6 2FN"/>
    <tag k="removemelater" v="yes"/>
  </node>
  <node id="-150" lat="51.604032990702365" lon="0.08853110899532259">
    <tag k="addr:postcode" v="IG6 2FP"/>
    <tag k="removemelater" v="yes"/>
  </node>
  <node id="-151" lat="51.59888846021717" lon="0.08503170071691325">
    <tag k="addr:postcode" v="IG6 2JZ"/>
    <tag k="removemelater" v="yes"/>
  </node>
  <node id="-152" lat="51.599918443206" lon="0.08526660135150649">
    <tag k="addr:postcode" v="IG6 2LA"/>
    <tag k="removemelater" v="yes"/>
  </node>
  <node id="-153" lat="51.60064778081972" lon="0.08470796937035209">
    <tag k="addr:postcode" v="IG6 2LB"/>
    <tag k="removemelater" v="yes"/>
  </node>
  <node id="-154" lat="51.60058466212435" lon="0.086235732689653">
    <tag k="addr:postcode" v="IG6 2NH"/>
    <tag k="removemelater" v="yes"/>
  </node>
  <node id="-155" lat="51.60096462961939" lon="0.08813038280640674">
    <tag k="addr:postcode" v="IG6 2NJ"/>
    <tag k="removemelater" v="yes"/>
  </node>
  <node id="-156" lat="51.60145624747163" lon="0.0867810982423516">
    <tag k="addr:postcode" v="IG6 2NL"/>
    <tag k="removemelater" v="yes"/>
  </node>
  <node id="-157" lat="51.60189987330342" lon="0.0886353893098306">
    <tag k="addr:postcode" v="IG6 2NN"/>
    <tag k="removemelater" v="yes"/>
  </node>
  <node id="-158" lat="51.60218380450117" lon="0.08935601116846204">
    <tag k="addr:postcode" v="IG6 2NP"/>
    <tag k="removemelater" v="yes"/>
  </node>
  <node id="-159" lat="51.60132555362337" lon="0.08553323405084017">
    <tag k="addr:postcode" v="IG6 2NR"/>
    <tag k="removemelater" v="yes"/>
  </node>
  <node id="-160" lat="51.601314791183846" lon="0.08967712746185338">
    <tag k="addr:postcode" v="IG6 2NW"/>
    <tag k="removemelater" v="yes"/>
  </node>
  <node id="-161" lat="51.60400215419097" lon="0.09076808431852927">
    <tag k="addr:postcode" v="IG6 2UF"/>
    <tag k="removemelater" v="yes"/>
  </node>
  <node id="-162" lat="51.603788279597566" lon="0.09166805202834417">
    <tag k="addr:postcode" v="IG6 2UP"/>
    <tag k="removemelater" v="yes"/>
  </node>
  <node id="-163" lat="51.60482956137935" lon="0.09126822530584122">
    <tag k="addr:postcode" v="IG6 2UT"/>
    <tag k="removemelater" v="yes"/>
  </node>
  <node id="-164" lat="51.60392510045873" lon="0.09206425310145482">
    <tag k="addr:postcode" v="IG6 2UX"/>
    <tag k="removemelater" v="yes"/>
  </node>
  <node id="-165" lat="51.60395126635156" lon="0.09261422224150663">
    <tag k="addr:postcode" v="IG6 2UY"/>
    <tag k="removemelater" v="yes"/>
  </node>
  <node id="-166" lat="51.60217865855589" lon="0.08610662961377544">
    <tag k="addr:postcode" v="IG6 2XG"/>
    <tag k="removemelater" v="yes"/>
  </node>
  <node id="-167" lat="51.60268724575257" lon="0.08835382566599184">
    <tag k="addr:postcode" v="IG6 2XH"/>
    <tag k="removemelater" v="yes"/>
  </node>
  <node id="-168" lat="51.60301224619388" lon="0.08979838924385741">
    <tag k="addr:postcode" v="IG6 2XJ"/>
    <tag k="removemelater" v="yes"/>
  </node>
  <node id="-169" lat="51.602007659479185" lon="0.09116744006370166">
    <tag k="addr:postcode" v="IG6 2XL"/>
    <tag k="removemelater" v="yes"/>
  </node>
  <node id="-170" lat="51.60216219573773" lon="0.09157887870820457">
    <tag k="addr:postcode" v="IG6 2XN"/>
    <tag k="removemelater" v="yes"/>
  </node>
  <node id="-171" lat="51.603611111211144" lon="0.09252637585183353">
    <tag k="addr:postcode" v="IG6 2XP"/>
    <tag k="removemelater" v="yes"/>
  </node>
  <node id="-172" lat="51.602462609953" lon="0.08733266652817369">
    <tag k="addr:postcode" v="IG6 2XQ"/>
    <tag k="removemelater" v="yes"/>
  </node>
  <node id="-173" lat="51.6033374857105" lon="0.09122854380355605">
    <tag k="addr:postcode" v="IG6 2XW"/>
    <tag k="removemelater" v="yes"/>
  </node>
  <node id="-174" lat="51.60441354114512" lon="0.09442620840589477">
    <tag k="addr:postcode" v="IG6 3AA"/>
    <tag k="removemelater" v="yes"/>
  </node>
  <node id="-175" lat="51.60490824714775" lon="0.09442009331123583">
    <tag k="addr:postcode" v="IG6 3AB"/>
    <tag k="removemelater" v="yes"/>
  </node>
  <node id="-176" lat="51.6045883243887" lon="0.09521408941624299">
    <tag k="addr:postcode" v="IG6 3AD"/>
    <tag k="removemelater" v="yes"/>
  </node>
  <node id="-177" lat="51.60394221285383" lon="0.09413013380030118">
    <tag k="addr:postcode" v="IG6 3BD"/>
    <tag k="removemelater" v="yes"/>
  </node>
  <node id="-178" lat="51.602688594626464" lon="0.09483781388924024">
    <tag k="addr:postcode" v="IG6 3BG"/>
    <tag k="removemelater" v="yes"/>
  </node>
  <node id="-179" lat="51.60209507799928" lon="0.0943339546203691">
    <tag k="addr:postcode" v="IG6 3BH"/>
    <tag k="removemelater" v="yes"/>
  </node>
  <node id="-180" lat="51.60284549199958" lon="0.09410855125288342">
    <tag k="addr:postcode" v="IG6 3BQ"/>
    <tag k="removemelater" v="yes"/>
  </node>
  <node id="-181" lat="51.60439676721403" lon="0.09586957300252043">
    <tag k="addr:postcode" v="IG6 3BS"/>
    <tag k="removemelater" v="yes"/>
  </node>
  <node id="-182" lat="51.59830971492487" lon="0.09782740033052047">
    <tag k="addr:postcode" v="IG6 3HH"/>
    <tag k="removemelater" v="yes"/>
  </node>
  <node id="-183" lat="51.59887191882008" lon="0.0980699054433962">
    <tag k="addr:postcode" v="IG6 3HL"/>
    <tag k="removemelater" v="yes"/>
  </node>
  <node id="-184" lat="51.59684863876405" lon="0.09504553948305278">
    <tag k="addr:postcode" v="IG6 3HQ"/>
    <tag k="removemelater" v="yes"/>
  </node>
  <node id="-185" lat="51.60561567076429" lon="0.12013013404591405">
    <tag k="addr:postcode" v="IG6 3HR"/>
    <tag k="removemelater" v="yes"/>
  </node>
  <node id="-186" lat="51.60190250735674" lon="0.11110505841745788">
    <tag k="addr:postcode" v="IG6 3HW"/>
    <tag k="removemelater" v="yes"/>
  </node>
  <node id="-187" lat="51.59864322751025" lon="0.10029749418197485">
    <tag k="addr:postcode" v="IG6 3HX"/>
    <tag k="removemelater" v="yes"/>
  </node>
  <node id="-188" lat="51.5982220031925" lon="0.09971492103401533">
    <tag k="addr:postcode" v="IG6 3HY"/>
    <tag k="removemelater" v="yes"/>
  </node>
  <node id="-189" lat="51.599973356143785" lon="0.09983903252260243">
    <tag k="addr:postcode" v="IG6 3HZ"/>
    <tag k="removemelater" v="yes"/>
  </node>
  <node id="-190" lat="51.60544689961199" lon="0.12051219835970456">
    <tag k="addr:postcode" v="IG6 3JH"/>
    <tag k="removemelater" v="yes"/>
  </node>
  <node id="-191" lat="51.61079420335422" lon="0.12467558771547331">
    <tag k="addr:postcode" v="IG6 3SZ"/>
    <tag k="removemelater" v="yes"/>
  </node>
  <node id="-192" lat="51.60670106097362" lon="0.11928529065511713">
    <tag k="addr:postcode" v="IG6 3TU"/>
    <tag k="removemelater" v="yes"/>
  </node>
  <node id="-193" lat="51.60676864691141" lon="0.11902847929788624">
    <tag k="addr:postcode" v="IG6 3TZ"/>
    <tag k="removemelater" v="yes"/>
  </node>
  <node id="-194" lat="51.60580639732324" lon="0.1220164629162633">
    <tag k="addr:postcode" v="IG6 3UE"/>
    <tag k="removemelater" v="yes"/>
  </node>
  <node id="-195" lat="51.60636686693858" lon="0.12185485241086706">
    <tag k="addr:postcode" v="IG6 3UF"/>
    <tag k="removemelater" v="yes"/>
  </node>
  <node id="-196" lat="51.60782212549024" lon="0.11845651117615238">
    <tag k="addr:postcode" v="IG6 3UG"/>
    <tag k="removemelater" v="yes"/>
  </node>
  <node id="-197" lat="51.60844141601381" lon="0.12101281682429098">
    <tag k="addr:postcode" v="IG6 3UJ"/>
    <tag k="removemelater" v="yes"/>
  </node>
  <node id="-198" lat="51.61000466112817" lon="0.12507201429542608">
    <tag k="addr:postcode" v="IG6 3UL"/>
    <tag k="removemelater" v="yes"/>
  </node>
  <node id="-199" lat="51.60887875057066" lon="0.12318518715240626">
    <tag k="addr:postcode" v="IG6 3UT"/>
    <tag k="removemelater" v="yes"/>
  </node>
  <node id="-200" lat="51.608807803255004" lon="0.12263304920062253">
    <tag k="addr:postcode" v="IG6 3UW"/>
    <tag k="removemelater" v="yes"/>
  </node>
  <node id="-201" lat="51.6096204451588" lon="0.12394195158318423">
    <tag k="addr:postcode" v="IG6 3WR"/>
    <tag k="removemelater" v="yes"/>
  </node>
  <node id="-202" lat="51.610203315923414" lon="0.12602010556861418">
    <tag k="addr:postcode" v="IG6 3XE"/>
    <tag k="removemelater" v="yes"/>
  </node>
  <node id="-203" lat="51.6108261710872" lon="0.12340605528669744">
    <tag k="addr:postcode" v="IG6 3XH"/>
    <tag k="removemelater" v="yes"/>
  </node>
  <node id="-204" lat="51.61284597586746" lon="0.12012040584880204">
    <tag k="addr:postcode" v="IG6 3XS"/>
    <tag k="removemelater" v="yes"/>
  </node>
  <node id="-205" lat="51.60804395640716" lon="0.10412537870612576">
    <tag k="addr:postcode" v="IG7 4DD"/>
    <tag k="removemelater" v="yes"/>
  </node>
  <node id="-206" lat="51.608412390857104" lon="0.10564445282249717">
    <tag k="addr:postcode" v="IG7 4DE"/>
    <tag k="removemelater" v="yes"/>
  </node>
  <node id="-207" lat="51.607759981062046" lon="0.10441553875948426">
    <tag k="addr:postcode" v="IG7 4DF"/>
    <tag k="removemelater" v="yes"/>
  </node>
  <node id="-208" lat="51.60847090351084" lon="0.107394725282359">
    <tag k="addr:postcode" v="IG7 4DJ"/>
    <tag k="removemelater" v="yes"/>
  </node>
  <node id="-209" lat="51.60842267053809" lon="0.1055727151926691">
    <tag k="addr:postcode" v="IG7 4DN"/>
    <tag k="removemelater" v="yes"/>
  </node>
  <node id="-210" lat="51.60847090351084" lon="0.107394725282359">
    <tag k="addr:postcode" v="IG7 4DP"/>
    <tag k="removemelater" v="yes"/>
  </node>
  <node id="-211" lat="51.608425518195325" lon="0.10541397762830937">
    <tag k="addr:postcode" v="IG7 4DW"/>
    <tag k="removemelater" v="yes"/>
  </node>
  <node id="-212" lat="51.619191450433576" lon="0.1188126521566755">
    <tag k="addr:postcode" v="IG7 4QB"/>
    <tag k="removemelater" v="yes"/>
  </node>
  <node id="-213" lat="51.618588250824104" lon="0.11536087015577016">
    <tag k="addr:postcode" v="IG7 4QD"/>
    <tag k="removemelater" v="yes"/>
  </node>
  <node id="-214" lat="51.61805319971444" lon="0.1166072129043296">
    <tag k="addr:postcode" v="IG7 4QE"/>
    <tag k="removemelater" v="yes"/>
  </node>
  <node id="-215" lat="51.618039516157005" lon="0.11586984319311854">
    <tag k="addr:postcode" v="IG7 4QF"/>
    <tag k="removemelater" v="yes"/>
  </node>
  <node id="-216" lat="51.618711852854396" lon="0.1169845658092626">
    <tag k="addr:postcode" v="IG7 4QG"/>
    <tag k="removemelater" v="yes"/>
  </node>
  <node id="-217" lat="51.6180658371439" lon="0.11740231746422468">
    <tag k="addr:postcode" v="IG7 4QH"/>
    <tag k="removemelater" v="yes"/>
  </node>
  <node id="-218" lat="51.6193039632122" lon="0.1175610783399556">
    <tag k="addr:postcode" v="IG7 4QJ"/>
    <tag k="removemelater" v="yes"/>
  </node>
  <node id="-219" lat="51.61896695457007" lon="0.11729980588315629">
    <tag k="addr:postcode" v="IG7 4QQ"/>
    <tag k="removemelater" v="yes"/>
  </node>
  <node id="-220" lat="51.605772023556604" lon="0.133337287224274">
    <tag k="addr:postcode" v="IG7 4QW"/>
    <tag k="removemelater" v="yes"/>
  </node>
  <node id="-221" lat="51.60727538839698" lon="0.08571925994504442">
    <tag k="addr:postcode" v="IG7 5AJ"/>
    <tag k="removemelater" v="yes"/>
  </node>
  <node id="-222" lat="51.60849403727115" lon="0.09101780258909574">
    <tag k="addr:postcode" v="IG7 5JN"/>
    <tag k="removemelater" v="yes"/>
  </node>
  <node id="-223" lat="51.607839381721895" lon="0.09142099243102492">
    <tag k="addr:postcode" v="IG7 5JP"/>
    <tag k="removemelater" v="yes"/>
  </node>
  <node id="-224" lat="51.608533861691306" lon="0.089286512393099">
    <tag k="addr:postcode" v="IG7 5LA"/>
    <tag k="removemelater" v="yes"/>
  </node>
  <node id="-225" lat="51.60799885267862" lon="0.0890308671841749">
    <tag k="addr:postcode" v="IG7 5LB"/>
    <tag k="removemelater" v="yes"/>
  </node>
  <node id="-226" lat="51.608505885724234" lon="0.08833201244753838">
    <tag k="addr:postcode" v="IG7 5LD"/>
    <tag k="removemelater" v="yes"/>
  </node>
  <node id="-227" lat="51.608207315976145" lon="0.08843385012444453">
    <tag k="addr:postcode" v="IG7 5LE"/>
    <tag k="removemelater" v="yes"/>
  </node>
  <node id="-228" lat="51.60980975539986" lon="0.0853010396925041">
    <tag k="addr:postcode" v="IG7 5LF"/>
    <tag k="removemelater" v="yes"/>
  </node>
  <node id="-229" lat="51.60601643096033" lon="0.08673025453044639">
    <tag k="addr:postcode" v="IG7 5LT"/>
    <tag k="removemelater" v="yes"/>
  </node>
  <node id="-230" lat="51.605187990887714" lon="0.08780426980000273">
    <tag k="addr:postcode" v="IG7 5LU"/>
    <tag k="removemelater" v="yes"/>
  </node>
  <node id="-231" lat="51.60528220448171" lon="0.08705762736046749">
    <tag k="addr:postcode" v="IG7 5LX"/>
    <tag k="removemelater" v="yes"/>
  </node>
  <node id="-232" lat="51.60584802673025" lon="0.08760348264054765">
    <tag k="addr:postcode" v="IG7 5LY"/>
    <tag k="removemelater" v="yes"/>
  </node>
  <node id="-233" lat="51.60641332973372" lon="0.08716727257602955">
    <tag k="addr:postcode" v="IG7 5LZ"/>
    <tag k="removemelater" v="yes"/>
  </node>
  <node id="-234" lat="51.606542973440696" lon="0.08695658840457421">
    <tag k="addr:postcode" v="IG7 5NA"/>
    <tag k="removemelater" v="yes"/>
  </node>
  <node id="-235" lat="51.606847961480135" lon="0.08699946007095506">
    <tag k="addr:postcode" v="IG7 5NB"/>
    <tag k="removemelater" v="yes"/>
  </node>
  <node id="-236" lat="51.60705899028615" lon="0.08726909808755011">
    <tag k="addr:postcode" v="IG7 5ND"/>
    <tag k="removemelater" v="yes"/>
  </node>
  <node id="-237" lat="51.60705899028615" lon="0.08726909808755011">
    <tag k="addr:postcode" v="IG7 5NE"/>
    <tag k="removemelater" v="yes"/>
  </node>
  <node id="-238" lat="51.6073937454716" lon="0.08614351159718199">
    <tag k="addr:postcode" v="IG7 5NF"/>
    <tag k="removemelater" v="yes"/>
  </node>
  <node id="-239" lat="51.605768185392314" lon="0.08855297784449435">
    <tag k="addr:postcode" v="IG7 5NH"/>
    <tag k="removemelater" v="yes"/>
  </node>
  <node id="-240" lat="51.60612784621437" lon="0.08956597615390584">
    <tag k="addr:postcode" v="IG7 5NJ"/>
    <tag k="removemelater" v="yes"/>
  </node>
  <node id="-241" lat="51.60609368660754" lon="0.09047424691278202">
    <tag k="addr:postcode" v="IG7 5NL"/>
    <tag k="removemelater" v="yes"/>
  </node>
  <node id="-242" lat="51.606934989229586" lon="0.08918421716512584">
    <tag k="addr:postcode" v="IG7 5NP"/>
    <tag k="removemelater" v="yes"/>
  </node>
  <node id="-243" lat="51.60567293927604" lon="0.08885188338630998">
    <tag k="addr:postcode" v="IG7 5NQ"/>
    <tag k="removemelater" v="yes"/>
  </node>
  <node id="-244" lat="51.60725075965933" lon="0.08912650346606128">
    <tag k="addr:postcode" v="IG7 5NR"/>
    <tag k="removemelater" v="yes"/>
  </node>
  <node id="-245" lat="51.60770978140575" lon="0.08910425052341733">
    <tag k="addr:postcode" v="IG7 5NS"/>
    <tag k="removemelater" v="yes"/>
  </node>
  <node id="-246" lat="51.60808201696654" lon="0.08587177336772817">
    <tag k="addr:postcode" v="IG7 5NT"/>
    <tag k="removemelater" v="yes"/>
  </node>
  <node id="-247" lat="51.60660483103739" lon="0.09005002465832536">
    <tag k="addr:postcode" v="IG7 5NW"/>
    <tag k="removemelater" v="yes"/>
  </node>
  <node id="-248" lat="51.609119409892564" lon="0.08467724467116762">
    <tag k="addr:postcode" v="IG7 5NX"/>
    <tag k="removemelater" v="yes"/>
  </node>
  <node id="-249" lat="51.60900621440637" lon="0.08548085581931715">
    <tag k="addr:postcode" v="IG7 5NY"/>
    <tag k="removemelater" v="yes"/>
  </node>
  <node id="-250" lat="51.64648082704792" lon="0.08686785196170588">
    <tag k="addr:postcode" v="IG7 5WH"/>
    <tag k="removemelater" v="yes"/>
  </node>
  <node id="-251" lat="51.64648082704792" lon="0.08686785196170588">
    <tag k="addr:postcode" v="IG7 5WZ"/>
    <tag k="removemelater" v="yes"/>
  </node>
  <node id="-252" lat="51.64648082704792" lon="0.08686785196170588">
    <tag k="addr:postcode" v="IG7 5YP"/>
    <tag k="removemelater" v="yes"/>
  </node>
  <node id="-253" lat="51.620250619754806" lon="0.07563834363516704">
    <tag k="addr:postcode" v="IG7 6AR"/>
    <tag k="removemelater" v="yes"/>
  </node>
  <node id="-254" lat="51.64648082704792" lon="0.08686785196170588">
    <tag k="addr:postcode" v="IG7 6BP"/>
    <tag k="removemelater" v="yes"/>
  </node>
  <node id="-255" lat="51.640757046745264" lon="0.09318110226376759">
    <tag k="addr:postcode" v="IG7 6BX"/>
    <tag k="removemelater" v="yes"/>
  </node>
  <node id="-256" lat="51.63356279066316" lon="0.08459853231198983">
    <tag k="addr:postcode" v="IG7 6DL"/>
    <tag k="removemelater" v="yes"/>
  </node>
  <node id="-257" lat="51.634223415994235" lon="0.11153631174422987">
    <tag k="addr:postcode" v="IG7 6DQ"/>
    <tag k="removemelater" v="yes"/>
  </node>
  <node id="-258" lat="51.619403533847894" lon="0.11453201669531105">
    <tag k="addr:postcode" v="IG7 6EG"/>
    <tag k="removemelater" v="yes"/>
  </node>
  <node id="-259" lat="51.619797481977166" lon="0.11612497834924741">
    <tag k="addr:postcode" v="IG7 6EH"/>
    <tag k="removemelater" v="yes"/>
  </node>
  <node id="-260" lat="51.620012356254485" lon="0.11817191422917998">
    <tag k="addr:postcode" v="IG7 6EL"/>
    <tag k="removemelater" v="yes"/>
  </node>
  <node id="-261" lat="51.62084731783542" lon="0.11675168956672485">
    <tag k="addr:postcode" v="IG7 6EN"/>
    <tag k="removemelater" v="yes"/>
  </node>
  <node id="-262" lat="51.62173356873635" lon="0.10296724951034407">
    <tag k="addr:postcode" v="IG7 6JG"/>
    <tag k="removemelater" v="yes"/>
  </node>
  <node id="-263" lat="51.622030261798436" lon="0.083809846442753">
    <tag k="addr:postcode" v="IG7 6LL"/>
    <tag k="removemelater" v="yes"/>
  </node>
  <node id="-264" lat="51.62219743885222" lon="0.08604234419876111">
    <tag k="addr:postcode" v="IG7 6LS"/>
    <tag k="removemelater" v="yes"/>
  </node>
  <node id="-265" lat="51.62151189314798" lon="0.0826159071037607">
    <tag k="addr:postcode" v="IG7 6LW"/>
    <tag k="removemelater" v="yes"/>
  </node>
  <node id="-266" lat="51.617077767039376" lon="0.09981958025518266">
    <tag k="addr:postcode" v="IG7 6NB"/>
    <tag k="removemelater" v="yes"/>
  </node>
  <node id="-267" lat="51.617241859670884" lon="0.10170506473647863">
    <tag k="addr:postcode" v="IG7 6ND"/>
    <tag k="removemelater" v="yes"/>
  </node>
  <node id="-268" lat="51.619451123584604" lon="0.07508179939525456">
    <tag k="addr:postcode" v="IG7 6PF"/>
    <tag k="removemelater" v="yes"/>
  </node>
  <node id="-269" lat="51.620787707159344" lon="0.0833917533257143">
    <tag k="addr:postcode" v="IG7 6PP"/>
    <tag k="removemelater" v="yes"/>
  </node>
  <node id="-270" lat="51.619451123584604" lon="0.07508179939525456">
    <tag k="addr:postcode" v="IG7 6PQ"/>
    <tag k="removemelater" v="yes"/>
  </node>
  <node id="-271" lat="51.621315321694944" lon="0.08507729461616113">
    <tag k="addr:postcode" v="IG7 6PR"/>
    <tag k="removemelater" v="yes"/>
  </node>
  <node id="-272" lat="51.62502173150584" lon="0.08094176001232607">
    <tag k="addr:postcode" v="IG7 6QE"/>
    <tag k="removemelater" v="yes"/>
  </node>
  <node id="-273" lat="51.62517502124757" lon="0.0814255565372597">
    <tag k="addr:postcode" v="IG7 6QG"/>
    <tag k="removemelater" v="yes"/>
  </node>
  <node id="-274" lat="51.61953776213502" lon="0.07628478122582094">
    <tag k="addr:postcode" v="IG7 6QZ"/>
    <tag k="removemelater" v="yes"/>
  </node>
  <node id="-275" lat="51.64648082704792" lon="0.08686785196170588">
    <tag k="addr:postcode" v="IG7 6WA"/>
    <tag k="removemelater" v="yes"/>
  </node>
  <node id="-276" lat="51.60166101016387" lon="0.03880493869534498">
    <tag k="addr:postcode" v="IG8 0AG"/>
    <tag k="removemelater" v="yes"/>
  </node>
  <node id="-277" lat="51.60706541992083" lon="0.032591451187751586">
    <tag k="addr:postcode" v="IG8 0DZ"/>
    <tag k="removemelater" v="yes"/>
  </node>
  <node id="-278" lat="51.607934264040374" lon="0.03330905153011484">
    <tag k="addr:postcode" v="IG8 0HL"/>
    <tag k="removemelater" v="yes"/>
  </node>
  <node id="-279" lat="51.622569568040454" lon="0.02473165670062704">
    <tag k="addr:postcode" v="IG8 0SE"/>
    <tag k="removemelater" v="yes"/>
  </node>
  <node id="-280" lat="51.64648082704792" lon="0.08686785196170588">
    <tag k="addr:postcode" v="IG8 0SQ"/>
    <tag k="removemelater" v="yes"/>
  </node>
  <node id="-281" lat="51.60812082376086" lon="0.019900392001608987">
    <tag k="addr:postcode" v="IG8 0UE"/>
    <tag k="removemelater" v="yes"/>
  </node>
  <node id="-282" lat="51.60864339817587" lon="0.02193110503516476">
    <tag k="addr:postcode" v="IG8 0XS"/>
    <tag k="removemelater" v="yes"/>
  </node>
  <node id="-283" lat="51.64648082704792" lon="0.08686785196170588">
    <tag k="addr:postcode" v="IG8 0XX"/>
    <tag k="removemelater" v="yes"/>
  </node>
  <node id="-284" lat="51.64648082704792" lon="0.08686785196170588">
    <tag k="addr:postcode" v="IG8 1AF"/>
    <tag k="removemelater" v="yes"/>
  </node>
  <node id="-285" lat="51.64648082704792" lon="0.08686785196170588">
    <tag k="addr:postcode" v="IG8 1AH"/>
    <tag k="removemelater" v="yes"/>
  </node>
  <node id="-286" lat="51.64648082704792" lon="0.08686785196170588">
    <tag k="addr:postcode" v="IG8 1BQ"/>
    <tag k="removemelater" v="yes"/>
  </node>
  <node id="-287" lat="51.64648082704792" lon="0.08686785196170588">
    <tag k="addr:postcode" v="IG8 1DD"/>
    <tag k="removemelater" v="yes"/>
  </node>
  <node id="-288" lat="51.64648082704792" lon="0.08686785196170588">
    <tag k="addr:postcode" v="IG8 1DN"/>
    <tag k="removemelater" v="yes"/>
  </node>
  <node id="-289" lat="51.64648082704792" lon="0.08686785196170588">
    <tag k="addr:postcode" v="IG8 1FA"/>
    <tag k="removemelater" v="yes"/>
  </node>
  <node id="-290" lat="51.64648082704792" lon="0.08686785196170588">
    <tag k="addr:postcode" v="IG8 1FW"/>
    <tag k="removemelater" v="yes"/>
  </node>
  <node id="-291" lat="51.64648082704792" lon="0.08686785196170588">
    <tag k="addr:postcode" v="IG8 1GL"/>
    <tag k="removemelater" v="yes"/>
  </node>
  <node id="-292" lat="51.64648082704792" lon="0.08686785196170588">
    <tag k="addr:postcode" v="IG8 1HQ"/>
    <tag k="removemelater" v="yes"/>
  </node>
  <node id="-293" lat="51.64648082704792" lon="0.08686785196170588">
    <tag k="addr:postcode" v="IG8 1HR"/>
    <tag k="removemelater" v="yes"/>
  </node>
  <node id="-294" lat="51.64648082704792" lon="0.08686785196170588">
    <tag k="addr:postcode" v="IG8 1LX"/>
    <tag k="removemelater" v="yes"/>
  </node>
  <node id="-295" lat="51.64648082704792" lon="0.08686785196170588">
    <tag k="addr:postcode" v="IG8 1NU"/>
    <tag k="removemelater" v="yes"/>
  </node>
  <node id="-296" lat="51.64648082704792" lon="0.08686785196170588">
    <tag k="addr:postcode" v="IG8 1PW"/>
    <tag k="removemelater" v="yes"/>
  </node>
  <node id="-297" lat="51.64648082704792" lon="0.08686785196170588">
    <tag k="addr:postcode" v="IG8 1QE"/>
    <tag k="removemelater" v="yes"/>
  </node>
  <node id="-298" lat="51.64648082704792" lon="0.08686785196170588">
    <tag k="addr:postcode" v="IG8 1QG"/>
    <tag k="removemelater" v="yes"/>
  </node>
  <node id="-299" lat="51.64648082704792" lon="0.08686785196170588">
    <tag k="addr:postcode" v="IG8 1QL"/>
    <tag k="removemelater" v="yes"/>
  </node>
  <node id="-300" lat="51.64648082704792" lon="0.08686785196170588">
    <tag k="addr:postcode" v="IG8 1QS"/>
    <tag k="removemelater" v="yes"/>
  </node>
  <node id="-301" lat="51.64648082704792" lon="0.08686785196170588">
    <tag k="addr:postcode" v="IG8 1QU"/>
    <tag k="removemelater" v="yes"/>
  </node>
  <node id="-302" lat="51.64648082704792" lon="0.08686785196170588">
    <tag k="addr:postcode" v="IG8 1RA"/>
    <tag k="removemelater" v="yes"/>
  </node>
  <node id="-303" lat="51.64648082704792" lon="0.08686785196170588">
    <tag k="addr:postcode" v="IG8 1RJ"/>
    <tag k="removemelater" v="yes"/>
  </node>
  <node id="-304" lat="51.64648082704792" lon="0.08686785196170588">
    <tag k="addr:postcode" v="IG8 1RL"/>
    <tag k="removemelater" v="yes"/>
  </node>
  <node id="-305" lat="51.64648082704792" lon="0.08686785196170588">
    <tag k="addr:postcode" v="IG8 1RN"/>
    <tag k="removemelater" v="yes"/>
  </node>
  <node id="-306" lat="51.64648082704792" lon="0.08686785196170588">
    <tag k="addr:postcode" v="IG8 1RQ"/>
    <tag k="removemelater" v="yes"/>
  </node>
  <node id="-307" lat="51.64648082704792" lon="0.08686785196170588">
    <tag k="addr:postcode" v="IG8 1RR"/>
    <tag k="removemelater" v="yes"/>
  </node>
  <node id="-308" lat="51.64648082704792" lon="0.08686785196170588">
    <tag k="addr:postcode" v="IG8 1RW"/>
    <tag k="removemelater" v="yes"/>
  </node>
  <node id="-309" lat="51.64648082704792" lon="0.08686785196170588">
    <tag k="addr:postcode" v="IG8 1RX"/>
    <tag k="removemelater" v="yes"/>
  </node>
  <node id="-310" lat="51.64648082704792" lon="0.08686785196170588">
    <tag k="addr:postcode" v="IG8 1RY"/>
    <tag k="removemelater" v="yes"/>
  </node>
  <node id="-311" lat="51.64648082704792" lon="0.08686785196170588">
    <tag k="addr:postcode" v="IG8 1RZ"/>
    <tag k="removemelater" v="yes"/>
  </node>
  <node id="-312" lat="51.64648082704792" lon="0.08686785196170588">
    <tag k="addr:postcode" v="IG8 1SF"/>
    <tag k="removemelater" v="yes"/>
  </node>
  <node id="-313" lat="51.64648082704792" lon="0.08686785196170588">
    <tag k="addr:postcode" v="IG8 1SJ"/>
    <tag k="removemelater" v="yes"/>
  </node>
  <node id="-314" lat="51.64648082704792" lon="0.08686785196170588">
    <tag k="addr:postcode" v="IG8 1SL"/>
    <tag k="removemelater" v="yes"/>
  </node>
  <node id="-315" lat="51.64648082704792" lon="0.08686785196170588">
    <tag k="addr:postcode" v="IG8 1SN"/>
    <tag k="removemelater" v="yes"/>
  </node>
  <node id="-316" lat="51.64648082704792" lon="0.08686785196170588">
    <tag k="addr:postcode" v="IG8 1SP"/>
    <tag k="removemelater" v="yes"/>
  </node>
  <node id="-317" lat="51.64648082704792" lon="0.08686785196170588">
    <tag k="addr:postcode" v="IG8 1SQ"/>
    <tag k="removemelater" v="yes"/>
  </node>
  <node id="-318" lat="51.64648082704792" lon="0.08686785196170588">
    <tag k="addr:postcode" v="IG8 1SR"/>
    <tag k="removemelater" v="yes"/>
  </node>
  <node id="-319" lat="51.64648082704792" lon="0.08686785196170588">
    <tag k="addr:postcode" v="IG8 1SS"/>
    <tag k="removemelater" v="yes"/>
  </node>
  <node id="-320" lat="51.64648082704792" lon="0.08686785196170588">
    <tag k="addr:postcode" v="IG8 1ST"/>
    <tag k="removemelater" v="yes"/>
  </node>
  <node id="-321" lat="51.64648082704792" lon="0.08686785196170588">
    <tag k="addr:postcode" v="IG8 1SU"/>
    <tag k="removemelater" v="yes"/>
  </node>
  <node id="-322" lat="51.60115305322213" lon="0.03905654941679683">
    <tag k="addr:postcode" v="IG8 7BF"/>
    <tag k="removemelater" v="yes"/>
  </node>
  <node id="-323" lat="51.60115305322213" lon="0.03905654941679683">
    <tag k="addr:postcode" v="IG8 7BH"/>
    <tag k="removemelater" v="yes"/>
  </node>
  <node id="-324" lat="51.60157169212562" lon="0.038252204380883">
    <tag k="addr:postcode" v="IG8 7BJ"/>
    <tag k="removemelater" v="yes"/>
  </node>
  <node id="-325" lat="51.60733196117648" lon="0.03381649905048771">
    <tag k="addr:postcode" v="IG8 7QE"/>
    <tag k="removemelater" v="yes"/>
  </node>
  <node id="-326" lat="51.60269826663488" lon="0.06230315528201374">
    <tag k="addr:postcode" v="IG8 8RW"/>
    <tag k="removemelater" v="yes"/>
  </node>
  <node id="-327" lat="51.64648082704792" lon="0.08686785196170588">
    <tag k="addr:postcode" v="IG8 9DL"/>
    <tag k="removemelater" v="yes"/>
  </node>
  <node id="-328" lat="51.64648082704792" lon="0.08686785196170588">
    <tag k="addr:postcode" v="IG8 9DN"/>
    <tag k="removemelater" v="yes"/>
  </node>
  <node id="-329" lat="51.602827275883335" lon="0.0102934357200621">
    <tag k="addr:postcode" v="IG8 9NX"/>
    <tag k="removemelater" v="yes"/>
  </node>
  <node id="-330" lat="51.64648082704792" lon="0.08686785196170588">
    <tag k="addr:postcode" v="IG8 9WJ"/>
    <tag k="removemelater" v="yes"/>
  </node>
  <node id="-331" lat="51.64648082704792" lon="0.08686785196170588">
    <tag k="addr:postcode" v="IG9 5BE"/>
    <tag k="removemelater" v="yes"/>
  </node>
  <node id="-332" lat="51.64648082704792" lon="0.08686785196170588">
    <tag k="addr:postcode" v="IG9 5YQ"/>
    <tag k="removemelater" v="yes"/>
  </node>
</osm>
