<?xml version="1.0" encoding="UTF-8"?><osm version="0.6" generator="import_postcodes.py" upload="false">
  <node id="-1" lat="58.442283612246555" lon="-3.0907825229142127">
    <tag k="addr:postcode" v="KW1 4AA"/>
    <tag k="removemelater" v="yes"/>
  </node>
  <node id="-2" lat="58.44242480716582" lon="-3.0910781119650723">
    <tag k="addr:postcode" v="KW1 4AB"/>
    <tag k="removemelater" v="yes"/>
  </node>
  <node id="-3" lat="58.44183406989964" lon="-3.0929441501806196">
    <tag k="addr:postcode" v="KW1 4AG"/>
    <tag k="removemelater" v="yes"/>
  </node>
  <node id="-4" lat="58.44228223979466" lon="-3.0919987429784817">
    <tag k="addr:postcode" v="KW1 4AH"/>
    <tag k="removemelater" v="yes"/>
  </node>
  <node id="-5" lat="58.4422341321563" lon="-3.092374121970453">
    <tag k="addr:postcode" v="KW1 4AJ"/>
    <tag k="removemelater" v="yes"/>
  </node>
  <node id="-6" lat="58.441538329506805" lon="-3.092866458522322">
    <tag k="addr:postcode" v="KW1 4AP"/>
    <tag k="removemelater" v="yes"/>
  </node>
  <node id="-7" lat="58.44228856545132" lon="-3.0902002406097093">
    <tag k="addr:postcode" v="KW1 4AR"/>
    <tag k="removemelater" v="yes"/>
  </node>
  <node id="-8" lat="58.44286094769411" lon="-3.0925991199355907">
    <tag k="addr:postcode" v="KW1 4BP"/>
    <tag k="removemelater" v="yes"/>
  </node>
  <node id="-9" lat="58.44653736068092" lon="-3.094374969331405">
    <tag k="addr:postcode" v="KW1 4DJ"/>
    <tag k="removemelater" v="yes"/>
  </node>
  <node id="-10" lat="58.44815090854387" lon="-3.0926432204037524">
    <tag k="addr:postcode" v="KW1 4DR"/>
    <tag k="removemelater" v="yes"/>
  </node>
  <node id="-11" lat="58.44786456258679" lon="-3.0904070283386837">
    <tag k="addr:postcode" v="KW1 4DS"/>
    <tag k="removemelater" v="yes"/>
  </node>
  <node id="-12" lat="58.44721789098157" lon="-3.0904041492058507">
    <tag k="addr:postcode" v="KW1 4DT"/>
    <tag k="removemelater" v="yes"/>
  </node>
  <node id="-13" lat="58.4470821203918" lon="-3.091582110214629">
    <tag k="addr:postcode" v="KW1 4DU"/>
    <tag k="removemelater" v="yes"/>
  </node>
  <node id="-14" lat="58.44828295753763" lon="-3.0908483108450584">
    <tag k="addr:postcode" v="KW1 4DW"/>
    <tag k="removemelater" v="yes"/>
  </node>
  <node id="-15" lat="58.44787064554356" lon="-3.0928572606724907">
    <tag k="addr:postcode" v="KW1 4DX"/>
    <tag k="removemelater" v="yes"/>
  </node>
  <node id="-16" lat="58.44591923990156" lon="-3.092077185553535">
    <tag k="addr:postcode" v="KW1 4DZ"/>
    <tag k="removemelater" v="yes"/>
  </node>
  <node id="-17" lat="58.44290460169016" lon="-3.0937996269233596">
    <tag k="addr:postcode" v="KW1 4EA"/>
    <tag k="removemelater" v="yes"/>
  </node>
  <node id="-18" lat="58.44252643878864" lon="-3.0939078040933583">
    <tag k="addr:postcode" v="KW1 4EB"/>
    <tag k="removemelater" v="yes"/>
  </node>
  <node id="-19" lat="58.44577757515881" lon="-3.089725689750281">
    <tag k="addr:postcode" v="KW1 4HE"/>
    <tag k="removemelater" v="yes"/>
  </node>
  <node id="-20" lat="58.4451014894332" lon="-3.0900131551599097">
    <tag k="addr:postcode" v="KW1 4HF"/>
    <tag k="removemelater" v="yes"/>
  </node>
  <node id="-21" lat="58.4443763313739" lon="-3.08973375283448">
    <tag k="addr:postcode" v="KW1 4HJ"/>
    <tag k="removemelater" v="yes"/>
  </node>
  <node id="-22" lat="58.446415343554804" lon="-3.0876038555877643">
    <tag k="addr:postcode" v="KW1 4HP"/>
    <tag k="removemelater" v="yes"/>
  </node>
  <node id="-23" lat="58.44592397455037" lon="-3.0851730470952896">
    <tag k="addr:postcode" v="KW1 4HR"/>
    <tag k="removemelater" v="yes"/>
  </node>
  <node id="-24" lat="58.44693068545091" lon="-3.0861463494136494">
    <tag k="addr:postcode" v="KW1 4HS"/>
    <tag k="removemelater" v="yes"/>
  </node>
  <node id="-25" lat="58.44474555272034" lon="-3.0885630867428455">
    <tag k="addr:postcode" v="KW1 4HW"/>
    <tag k="removemelater" v="yes"/>
  </node>
  <node id="-26" lat="58.44311557211149" lon="-3.078439802556595">
    <tag k="addr:postcode" v="KW1 4JJ"/>
    <tag k="removemelater" v="yes"/>
  </node>
  <node id="-27" lat="58.442828206469805" lon="-3.0837586556958185">
    <tag k="addr:postcode" v="KW1 4JW"/>
    <tag k="removemelater" v="yes"/>
  </node>
  <node id="-28" lat="58.44290187353044" lon="-3.087786646206125">
    <tag k="addr:postcode" v="KW1 4JX"/>
    <tag k="removemelater" v="yes"/>
  </node>
  <node id="-29" lat="58.442283612246555" lon="-3.0907825229142127">
    <tag k="addr:postcode" v="KW1 4LP"/>
    <tag k="removemelater" v="yes"/>
  </node>
  <node id="-30" lat="58.44294459114119" lon="-3.088044926318112">
    <tag k="addr:postcode" v="KW1 4LU"/>
    <tag k="removemelater" v="yes"/>
  </node>
  <node id="-31" lat="58.44289343129372" lon="-3.091949158232453">
    <tag k="addr:postcode" v="KW1 4NE"/>
    <tag k="removemelater" v="yes"/>
  </node>
  <node id="-32" lat="58.44231115284604" lon="-3.0928219016572287">
    <tag k="addr:postcode" v="KW1 4NG"/>
    <tag k="removemelater" v="yes"/>
  </node>
  <node id="-33" lat="58.442097467341505" lon="-3.093654663910297">
    <tag k="addr:postcode" v="KW1 4NH"/>
    <tag k="removemelater" v="yes"/>
  </node>
  <node id="-34" lat="58.443175523052346" lon="-3.092574611008739">
    <tag k="addr:postcode" v="KW1 4NR"/>
    <tag k="removemelater" v="yes"/>
  </node>
  <node id="-35" lat="58.444008972525836" lon="-3.087512456496739">
    <tag k="addr:postcode" v="KW1 4NY"/>
    <tag k="removemelater" v="yes"/>
  </node>
  <node id="-36" lat="58.444602241537424" lon="-3.0853379237696514">
    <tag k="addr:postcode" v="KW1 4PB"/>
    <tag k="removemelater" v="yes"/>
  </node>
  <node id="-37" lat="58.44457040611537" lon="-3.0784671932644843">
    <tag k="addr:postcode" v="KW1 4PE"/>
    <tag k="removemelater" v="yes"/>
  </node>
  <node id="-38" lat="58.44218273552567" lon="-3.0920813118875445">
    <tag k="addr:postcode" v="KW1 4PY"/>
    <tag k="removemelater" v="yes"/>
  </node>
  <node id="-39" lat="58.452951342537006" lon="-3.0900504057707248">
    <tag k="addr:postcode" v="KW1 4QP"/>
    <tag k="removemelater" v="yes"/>
  </node>
  <node id="-40" lat="58.456986109908996" lon="-3.1055648570601777">
    <tag k="addr:postcode" v="KW1 4QR"/>
    <tag k="removemelater" v="yes"/>
  </node>
  <node id="-41" lat="58.450330195777504" lon="-3.089866500958308">
    <tag k="addr:postcode" v="KW1 4QS"/>
    <tag k="removemelater" v="yes"/>
  </node>
  <node id="-42" lat="58.47268997982164" lon="-3.0680470376412763">
    <tag k="addr:postcode" v="KW1 4QT"/>
    <tag k="removemelater" v="yes"/>
  </node>
  <node id="-43" lat="58.45485454414227" lon="-3.0579954488525254">
    <tag k="addr:postcode" v="KW1 4QU"/>
    <tag k="removemelater" v="yes"/>
  </node>
  <node id="-44" lat="58.45476749349346" lon="-3.0565705095790516">
    <tag k="addr:postcode" v="KW1 4QW"/>
    <tag k="removemelater" v="yes"/>
  </node>
  <node id="-45" lat="58.45494610742898" lon="-3.058872162108895">
    <tag k="addr:postcode" v="KW1 4QX"/>
    <tag k="removemelater" v="yes"/>
  </node>
  <node id="-46" lat="58.450602643834614" lon="-3.0562399910738183">
    <tag k="addr:postcode" v="KW1 4QZ"/>
    <tag k="removemelater" v="yes"/>
  </node>
  <node id="-47" lat="58.450081120069875" lon="-3.0563100266890646">
    <tag k="addr:postcode" v="KW1 4RA"/>
    <tag k="removemelater" v="yes"/>
  </node>
  <node id="-48" lat="58.44944417841565" lon="-3.055125828731012">
    <tag k="addr:postcode" v="KW1 4RB"/>
    <tag k="removemelater" v="yes"/>
  </node>
  <node id="-49" lat="58.4486094533906" lon="-3.060497868001921">
    <tag k="addr:postcode" v="KW1 4RD"/>
    <tag k="removemelater" v="yes"/>
  </node>
  <node id="-50" lat="58.44782199075485" lon="-3.061228022154632">
    <tag k="addr:postcode" v="KW1 4RE"/>
    <tag k="removemelater" v="yes"/>
  </node>
  <node id="-51" lat="58.46480959938195" lon="-3.1086559693771902">
    <tag k="addr:postcode" v="KW1 4RG"/>
    <tag k="removemelater" v="yes"/>
  </node>
  <node id="-52" lat="58.46172283807657" lon="-3.111421164241991">
    <tag k="addr:postcode" v="KW1 4RH"/>
    <tag k="removemelater" v="yes"/>
  </node>
  <node id="-53" lat="58.472624425146854" lon="-3.102335456224641">
    <tag k="addr:postcode" v="KW1 4RJ"/>
    <tag k="removemelater" v="yes"/>
  </node>
  <node id="-54" lat="58.47376982131116" lon="-3.1007424752211166">
    <tag k="addr:postcode" v="KW1 4RL"/>
    <tag k="removemelater" v="yes"/>
  </node>
  <node id="-55" lat="58.47313478083616" lon="-3.1025228936549603">
    <tag k="addr:postcode" v="KW1 4RN"/>
    <tag k="removemelater" v="yes"/>
  </node>
  <node id="-56" lat="58.457744275435466" lon="-3.1103358866440427">
    <tag k="addr:postcode" v="KW1 4RQ"/>
    <tag k="removemelater" v="yes"/>
  </node>
  <node id="-57" lat="58.47479312966603" lon="-3.1348271183691856">
    <tag k="addr:postcode" v="KW1 4RW"/>
    <tag k="removemelater" v="yes"/>
  </node>
  <node id="-58" lat="58.45444600431217" lon="-3.057434817273586">
    <tag k="addr:postcode" v="KW1 4RZ"/>
    <tag k="removemelater" v="yes"/>
  </node>
  <node id="-59" lat="58.452778111091085" lon="-3.0560139141139713">
    <tag k="addr:postcode" v="KW1 4SB"/>
    <tag k="removemelater" v="yes"/>
  </node>
  <node id="-60" lat="58.447347488971566" lon="-3.0610424026006076">
    <tag k="addr:postcode" v="KW1 4SD"/>
    <tag k="removemelater" v="yes"/>
  </node>
  <node id="-61" lat="58.470072724955905" lon="-3.22423632525008">
    <tag k="addr:postcode" v="KW1 4TA"/>
    <tag k="removemelater" v="yes"/>
  </node>
  <node id="-62" lat="58.4594546427486" lon="-3.156647753138193">
    <tag k="addr:postcode" v="KW1 4TB"/>
    <tag k="removemelater" v="yes"/>
  </node>
  <node id="-63" lat="58.45356954383663" lon="-3.1028358246316445">
    <tag k="addr:postcode" v="KW1 4TD"/>
    <tag k="removemelater" v="yes"/>
  </node>
  <node id="-64" lat="58.442351804751326" lon="-3.0912128958028537">
    <tag k="addr:postcode" v="KW1 4TE"/>
    <tag k="removemelater" v="yes"/>
  </node>
  <node id="-65" lat="58.532510924584685" lon="-3.120478905641929">
    <tag k="addr:postcode" v="KW1 4XE"/>
    <tag k="removemelater" v="yes"/>
  </node>
  <node id="-66" lat="58.641019036829576" lon="-3.100747979100792">
    <tag k="addr:postcode" v="KW1 4YL"/>
    <tag k="removemelater" v="yes"/>
  </node>
  <node id="-67" lat="58.63925823654358" lon="-3.0720788135573533">
    <tag k="addr:postcode" v="KW1 4YR"/>
    <tag k="removemelater" v="yes"/>
  </node>
  <node id="-68" lat="58.63569874681913" lon="-3.0615830229974">
    <tag k="addr:postcode" v="KW1 4YT"/>
    <tag k="removemelater" v="yes"/>
  </node>
  <node id="-69" lat="58.642821125525465" lon="-3.070258456704599">
    <tag k="addr:postcode" v="KW1 4YX"/>
    <tag k="removemelater" v="yes"/>
  </node>
  <node id="-70" lat="58.43878232181537" lon="-3.0905885246052716">
    <tag k="addr:postcode" v="KW1 5AF"/>
    <tag k="removemelater" v="yes"/>
  </node>
  <node id="-71" lat="58.43889681799178" lon="-3.0887421558870107">
    <tag k="addr:postcode" v="KW1 5AG"/>
    <tag k="removemelater" v="yes"/>
  </node>
  <node id="-72" lat="58.43746601568966" lon="-3.089057652759397">
    <tag k="addr:postcode" v="KW1 5AN"/>
    <tag k="removemelater" v="yes"/>
  </node>
  <node id="-73" lat="58.43927747916045" lon="-3.087280821063903">
    <tag k="addr:postcode" v="KW1 5AR"/>
    <tag k="removemelater" v="yes"/>
  </node>
  <node id="-74" lat="58.43889164908558" lon="-3.0872346616519555">
    <tag k="addr:postcode" v="KW1 5AW"/>
    <tag k="removemelater" v="yes"/>
  </node>
  <node id="-75" lat="58.43747204289177" lon="-3.0851697580030373">
    <tag k="addr:postcode" v="KW1 5AX"/>
    <tag k="removemelater" v="yes"/>
  </node>
  <node id="-76" lat="58.4347647012398" lon="-3.085617348948311">
    <tag k="addr:postcode" v="KW1 5BG"/>
    <tag k="removemelater" v="yes"/>
  </node>
  <node id="-77" lat="58.44067439665991" lon="-3.0930623555373296">
    <tag k="addr:postcode" v="KW1 5EA"/>
    <tag k="removemelater" v="yes"/>
  </node>
  <node id="-78" lat="58.44068498230743" lon="-3.092874257286494">
    <tag k="addr:postcode" v="KW1 5EB"/>
    <tag k="removemelater" v="yes"/>
  </node>
  <node id="-79" lat="58.44036909268344" lon="-3.09305288711391">
    <tag k="addr:postcode" v="KW1 5ED"/>
    <tag k="removemelater" v="yes"/>
  </node>
  <node id="-80" lat="58.44034189911925" lon="-3.0899173424019386">
    <tag k="addr:postcode" v="KW1 5EG"/>
    <tag k="removemelater" v="yes"/>
  </node>
  <node id="-81" lat="58.440829269135435" lon="-3.089641208257799">
    <tag k="addr:postcode" v="KW1 5EH"/>
    <tag k="removemelater" v="yes"/>
  </node>
  <node id="-82" lat="58.441379388906306" lon="-3.088322075329139">
    <tag k="addr:postcode" v="KW1 5EL"/>
    <tag k="removemelater" v="yes"/>
  </node>
  <node id="-83" lat="58.44118997725677" lon="-3.087356950946223">
    <tag k="addr:postcode" v="KW1 5EN"/>
    <tag k="removemelater" v="yes"/>
  </node>
  <node id="-84" lat="58.44006927695827" lon="-3.087116823757457">
    <tag k="addr:postcode" v="KW1 5EP"/>
    <tag k="removemelater" v="yes"/>
  </node>
  <node id="-85" lat="58.44042941029638" lon="-3.0891320891422853">
    <tag k="addr:postcode" v="KW1 5EQ"/>
    <tag k="removemelater" v="yes"/>
  </node>
  <node id="-86" lat="58.44050866407112" lon="-3.088260929152377">
    <tag k="addr:postcode" v="KW1 5ES"/>
    <tag k="removemelater" v="yes"/>
  </node>
  <node id="-87" lat="58.440079099668914" lon="-3.0880763718951094">
    <tag k="addr:postcode" v="KW1 5ET"/>
    <tag k="removemelater" v="yes"/>
  </node>
  <node id="-88" lat="58.439995957779615" lon="-3.0883478746358657">
    <tag k="addr:postcode" v="KW1 5EU"/>
    <tag k="removemelater" v="yes"/>
  </node>
  <node id="-89" lat="58.43992415181262" lon="-3.0872836405563895">
    <tag k="addr:postcode" v="KW1 5EX"/>
    <tag k="removemelater" v="yes"/>
  </node>
  <node id="-90" lat="58.439852391461514" lon="-3.0893883270311395">
    <tag k="addr:postcode" v="KW1 5EY"/>
    <tag k="removemelater" v="yes"/>
  </node>
  <node id="-91" lat="58.43932920109385" lon="-3.08647735301708">
    <tag k="addr:postcode" v="KW1 5EZ"/>
    <tag k="removemelater" v="yes"/>
  </node>
  <node id="-92" lat="58.43920987972628" lon="-3.083596011517034">
    <tag k="addr:postcode" v="KW1 5HA"/>
    <tag k="removemelater" v="yes"/>
  </node>
  <node id="-93" lat="58.438943530127546" lon="-3.085352091459795">
    <tag k="addr:postcode" v="KW1 5HB"/>
    <tag k="removemelater" v="yes"/>
  </node>
  <node id="-94" lat="58.43557685134831" lon="-3.0798533736165696">
    <tag k="addr:postcode" v="KW1 5HL"/>
    <tag k="removemelater" v="yes"/>
  </node>
  <node id="-95" lat="58.44105234293019" lon="-3.097185245963596">
    <tag k="addr:postcode" v="KW1 5LB"/>
    <tag k="removemelater" v="yes"/>
  </node>
  <node id="-96" lat="58.44152200737566" lon="-3.103161146094309">
    <tag k="addr:postcode" v="KW1 5LD"/>
    <tag k="removemelater" v="yes"/>
  </node>
  <node id="-97" lat="58.43974060064552" lon="-3.0972300582952124">
    <tag k="addr:postcode" v="KW1 5LQ"/>
    <tag k="removemelater" v="yes"/>
  </node>
  <node id="-98" lat="58.4409852865684" lon="-3.099769765245914">
    <tag k="addr:postcode" v="KW1 5LW"/>
    <tag k="removemelater" v="yes"/>
  </node>
  <node id="-99" lat="58.43611249599931" lon="-3.0992580620716756">
    <tag k="addr:postcode" v="KW1 5NB"/>
    <tag k="removemelater" v="yes"/>
  </node>
  <node id="-100" lat="58.44134315861531" lon="-3.0957382481153966">
    <tag k="addr:postcode" v="KW1 5NS"/>
    <tag k="removemelater" v="yes"/>
  </node>
  <node id="-101" lat="58.43148856506687" lon="-3.0969561144487416">
    <tag k="addr:postcode" v="KW1 5NU"/>
    <tag k="removemelater" v="yes"/>
  </node>
  <node id="-102" lat="58.43860595743799" lon="-3.094419890908069">
    <tag k="addr:postcode" v="KW1 5PZ"/>
    <tag k="removemelater" v="yes"/>
  </node>
  <node id="-103" lat="58.43935081953349" lon="-3.0944944061515067">
    <tag k="addr:postcode" v="KW1 5QD"/>
    <tag k="removemelater" v="yes"/>
  </node>
  <node id="-104" lat="58.43709973544739" lon="-3.094099078811479">
    <tag k="addr:postcode" v="KW1 5QR"/>
    <tag k="removemelater" v="yes"/>
  </node>
  <node id="-105" lat="58.442286929338124" lon="-3.107159364682992">
    <tag k="addr:postcode" v="KW1 5SP"/>
    <tag k="removemelater" v="yes"/>
  </node>
  <node id="-106" lat="58.44157648719727" lon="-3.1124473969731237">
    <tag k="addr:postcode" v="KW1 5SR"/>
    <tag k="removemelater" v="yes"/>
  </node>
  <node id="-107" lat="58.44107073342203" lon="-3.119985734331029">
    <tag k="addr:postcode" v="KW1 5SS"/>
    <tag k="removemelater" v="yes"/>
  </node>
  <node id="-108" lat="58.388721175120246" lon="-3.1325390108197255">
    <tag k="addr:postcode" v="KW1 5TR"/>
    <tag k="removemelater" v="yes"/>
  </node>
  <node id="-109" lat="58.37787458741553" lon="-3.1208886608677506">
    <tag k="addr:postcode" v="KW1 5TU"/>
    <tag k="removemelater" v="yes"/>
  </node>
  <node id="-110" lat="58.42803193690076" lon="-3.0925848194090397">
    <tag k="addr:postcode" v="KW1 5TY"/>
    <tag k="removemelater" v="yes"/>
  </node>
  <node id="-111" lat="58.466777833445235" lon="-3.428209743934779">
    <tag k="addr:postcode" v="KW1 5XS"/>
    <tag k="removemelater" v="yes"/>
  </node>
  <node id="-112" lat="57.974622117709735" lon="-3.972441505167472">
    <tag k="addr:postcode" v="KW10 6RA"/>
    <tag k="removemelater" v="yes"/>
  </node>
  <node id="-113" lat="57.97549636986096" lon="-3.9734196178236183">
    <tag k="addr:postcode" v="KW10 6RW"/>
    <tag k="removemelater" v="yes"/>
  </node>
  <node id="-114" lat="57.98532123670183" lon="-3.9480297713008015">
    <tag k="addr:postcode" v="KW10 6SF"/>
    <tag k="removemelater" v="yes"/>
  </node>
  <node id="-115" lat="57.97219839974627" lon="-3.9821322198854814">
    <tag k="addr:postcode" v="KW10 6SN"/>
    <tag k="removemelater" v="yes"/>
  </node>
  <node id="-116" lat="57.97299127607954" lon="-3.9837147326312827">
    <tag k="addr:postcode" v="KW10 6SP"/>
    <tag k="removemelater" v="yes"/>
  </node>
  <node id="-117" lat="57.97226975942574" lon="-3.985619353618001">
    <tag k="addr:postcode" v="KW10 6SR"/>
    <tag k="removemelater" v="yes"/>
  </node>
  <node id="-118" lat="57.97298338519284" lon="-3.987671013376574">
    <tag k="addr:postcode" v="KW10 6SS"/>
    <tag k="removemelater" v="yes"/>
  </node>
  <node id="-119" lat="57.97325451310106" lon="-3.9887174900678324">
    <tag k="addr:postcode" v="KW10 6SX"/>
    <tag k="removemelater" v="yes"/>
  </node>
  <node id="-120" lat="58.25774370485109" lon="-3.9419097235964045">
    <tag k="addr:postcode" v="KW11 6UB"/>
    <tag k="removemelater" v="yes"/>
  </node>
  <node id="-121" lat="58.513641527508604" lon="-3.494247277901387">
    <tag k="addr:postcode" v="KW12 6WU"/>
    <tag k="removemelater" v="yes"/>
  </node>
  <node id="-122" lat="58.52179466004757" lon="-3.49758170045293">
    <tag k="addr:postcode" v="KW12 6XF"/>
    <tag k="removemelater" v="yes"/>
  </node>
  <node id="-123" lat="58.514682789235" lon="-3.4927636936134774">
    <tag k="addr:postcode" v="KW12 6XW"/>
    <tag k="removemelater" v="yes"/>
  </node>
  <node id="-124" lat="58.514663032049626" lon="-3.493689869917766">
    <tag k="addr:postcode" v="KW12 6XX"/>
    <tag k="removemelater" v="yes"/>
  </node>
  <node id="-125" lat="58.51391885584439" lon="-3.493572406162207">
    <tag k="addr:postcode" v="KW12 6XZ"/>
    <tag k="removemelater" v="yes"/>
  </node>
  <node id="-126" lat="58.51310185712028" lon="-3.4935376839235506">
    <tag k="addr:postcode" v="KW12 6YB"/>
    <tag k="removemelater" v="yes"/>
  </node>
  <node id="-127" lat="58.51671599935981" lon="-3.4940346578142236">
    <tag k="addr:postcode" v="KW12 6YN"/>
    <tag k="removemelater" v="yes"/>
  </node>
  <node id="-128" lat="58.51358826674212" lon="-3.493421024529814">
    <tag k="addr:postcode" v="KW12 6YP"/>
    <tag k="removemelater" v="yes"/>
  </node>
  <node id="-129" lat="58.59329878411117" lon="-3.523210863520728">
    <tag k="addr:postcode" v="KW14 7AA"/>
    <tag k="removemelater" v="yes"/>
  </node>
  <node id="-130" lat="58.59299804039559" lon="-3.524333345937557">
    <tag k="addr:postcode" v="KW14 7AB"/>
    <tag k="removemelater" v="yes"/>
  </node>
  <node id="-131" lat="58.59210005259035" lon="-3.5235544595303985">
    <tag k="addr:postcode" v="KW14 7AD"/>
    <tag k="removemelater" v="yes"/>
  </node>
  <node id="-132" lat="58.592331443385376" lon="-3.5252506229587444">
    <tag k="addr:postcode" v="KW14 7AE"/>
    <tag k="removemelater" v="yes"/>
  </node>
  <node id="-133" lat="58.591651986655705" lon="-3.524223165348857">
    <tag k="addr:postcode" v="KW14 7AF"/>
    <tag k="removemelater" v="yes"/>
  </node>
  <node id="-134" lat="58.59177787937482" lon="-3.524211437642419">
    <tag k="addr:postcode" v="KW14 7AG"/>
    <tag k="removemelater" v="yes"/>
  </node>
  <node id="-135" lat="58.59284928406101" lon="-3.5232429356081485">
    <tag k="addr:postcode" v="KW14 7AH"/>
    <tag k="removemelater" v="yes"/>
  </node>
  <node id="-136" lat="58.59299332275207" lon="-3.5224577487708184">
    <tag k="addr:postcode" v="KW14 7AJ"/>
    <tag k="removemelater" v="yes"/>
  </node>
  <node id="-137" lat="58.59332405769097" lon="-3.5218355152601872">
    <tag k="addr:postcode" v="KW14 7AL"/>
    <tag k="removemelater" v="yes"/>
  </node>
  <node id="-138" lat="58.59341385235188" lon="-3.522596463854849">
    <tag k="addr:postcode" v="KW14 7AN"/>
    <tag k="removemelater" v="yes"/>
  </node>
  <node id="-139" lat="58.592446493054126" lon="-3.522365164438674">
    <tag k="addr:postcode" v="KW14 7AP"/>
    <tag k="removemelater" v="yes"/>
  </node>
  <node id="-140" lat="58.59246323977512" lon="-3.5232261505443185">
    <tag k="addr:postcode" v="KW14 7AQ"/>
    <tag k="removemelater" v="yes"/>
  </node>
  <node id="-141" lat="58.59210757773075" lon="-3.5221611823269283">
    <tag k="addr:postcode" v="KW14 7AR"/>
    <tag k="removemelater" v="yes"/>
  </node>
  <node id="-142" lat="58.58869385400867" lon="-3.541039783621353">
    <tag k="addr:postcode" v="KW14 7AS"/>
    <tag k="removemelater" v="yes"/>
  </node>
  <node id="-143" lat="58.58568826649705" lon="-3.5399959068279947">
    <tag k="addr:postcode" v="KW14 7AT"/>
    <tag k="removemelater" v="yes"/>
  </node>
  <node id="-144" lat="58.59110748782781" lon="-3.530737193964756">
    <tag k="addr:postcode" v="KW14 7AU"/>
    <tag k="removemelater" v="yes"/>
  </node>
  <node id="-145" lat="58.59296634948716" lon="-3.520942500416887">
    <tag k="addr:postcode" v="KW14 7AW"/>
    <tag k="removemelater" v="yes"/>
  </node>
  <node id="-146" lat="58.59396475573856" lon="-3.5223451135925528">
    <tag k="addr:postcode" v="KW14 7BE"/>
    <tag k="removemelater" v="yes"/>
  </node>
  <node id="-147" lat="58.5941998218202" lon="-3.5229747455413185">
    <tag k="addr:postcode" v="KW14 7BG"/>
    <tag k="removemelater" v="yes"/>
  </node>
  <node id="-148" lat="58.59492879613491" lon="-3.520580339505837">
    <tag k="addr:postcode" v="KW14 7BJ"/>
    <tag k="removemelater" v="yes"/>
  </node>
  <node id="-149" lat="58.59521567825862" lon="-3.5206272055517656">
    <tag k="addr:postcode" v="KW14 7BL"/>
    <tag k="removemelater" v="yes"/>
  </node>
  <node id="-150" lat="58.59452422910901" lon="-3.522128540303517">
    <tag k="addr:postcode" v="KW14 7BQ"/>
    <tag k="removemelater" v="yes"/>
  </node>
  <node id="-151" lat="58.5909720336745" lon="-3.5300430973116153">
    <tag k="addr:postcode" v="KW14 7BY"/>
    <tag k="removemelater" v="yes"/>
  </node>
  <node id="-152" lat="58.58781059169899" lon="-3.5345326331832254">
    <tag k="addr:postcode" v="KW14 7BZ"/>
    <tag k="removemelater" v="yes"/>
  </node>
  <node id="-153" lat="58.59375176504903" lon="-3.5244005541490804">
    <tag k="addr:postcode" v="KW14 7DB"/>
    <tag k="removemelater" v="yes"/>
  </node>
  <node id="-154" lat="58.59348447423658" lon="-3.524973916136488">
    <tag k="addr:postcode" v="KW14 7DD"/>
    <tag k="removemelater" v="yes"/>
  </node>
  <node id="-155" lat="58.592752786176945" lon="-3.5253205830282917">
    <tag k="addr:postcode" v="KW14 7DE"/>
    <tag k="removemelater" v="yes"/>
  </node>
  <node id="-156" lat="58.5930725161429" lon="-3.5256269971221657">
    <tag k="addr:postcode" v="KW14 7DF"/>
    <tag k="removemelater" v="yes"/>
  </node>
  <node id="-157" lat="58.59209495577937" lon="-3.52625542202517">
    <tag k="addr:postcode" v="KW14 7DG"/>
    <tag k="removemelater" v="yes"/>
  </node>
  <node id="-158" lat="58.59205721233943" lon="-3.525651603442781">
    <tag k="addr:postcode" v="KW14 7DH"/>
    <tag k="removemelater" v="yes"/>
  </node>
  <node id="-159" lat="58.59145487997113" lon="-3.5264511986870177">
    <tag k="addr:postcode" v="KW14 7DJ"/>
    <tag k="removemelater" v="yes"/>
  </node>
  <node id="-160" lat="58.59010105359915" lon="-3.5277513338153">
    <tag k="addr:postcode" v="KW14 7DL"/>
    <tag k="removemelater" v="yes"/>
  </node>
  <node id="-161" lat="58.59104104156531" lon="-3.52877297845515">
    <tag k="addr:postcode" v="KW14 7DN"/>
    <tag k="removemelater" v="yes"/>
  </node>
  <node id="-162" lat="58.59081411837987" lon="-3.529726522099201">
    <tag k="addr:postcode" v="KW14 7DP"/>
    <tag k="removemelater" v="yes"/>
  </node>
  <node id="-163" lat="58.59225370255981" lon="-3.525746185558543">
    <tag k="addr:postcode" v="KW14 7DQ"/>
    <tag k="removemelater" v="yes"/>
  </node>
  <node id="-164" lat="58.58800758798649" lon="-3.533079003757125">
    <tag k="addr:postcode" v="KW14 7DR"/>
    <tag k="removemelater" v="yes"/>
  </node>
  <node id="-165" lat="58.58716441350796" lon="-3.530719762750658">
    <tag k="addr:postcode" v="KW14 7DS"/>
    <tag k="removemelater" v="yes"/>
  </node>
  <node id="-166" lat="58.589124314049855" lon="-3.532835404799134">
    <tag k="addr:postcode" v="KW14 7DT"/>
    <tag k="removemelater" v="yes"/>
  </node>
  <node id="-167" lat="58.58932439311154" lon="-3.534134432768454">
    <tag k="addr:postcode" v="KW14 7DU"/>
    <tag k="removemelater" v="yes"/>
  </node>
  <node id="-168" lat="58.58907093886265" lon="-3.5312847515381316">
    <tag k="addr:postcode" v="KW14 7DW"/>
    <tag k="removemelater" v="yes"/>
  </node>
  <node id="-169" lat="58.590160704195995" lon="-3.534807602740981">
    <tag k="addr:postcode" v="KW14 7DX"/>
    <tag k="removemelater" v="yes"/>
  </node>
  <node id="-170" lat="58.5891148488529" lon="-3.536636979072353">
    <tag k="addr:postcode" v="KW14 7DY"/>
    <tag k="removemelater" v="yes"/>
  </node>
  <node id="-171" lat="58.5904141292932" lon="-3.5391541661079637">
    <tag k="addr:postcode" v="KW14 7DZ"/>
    <tag k="removemelater" v="yes"/>
  </node>
  <node id="-172" lat="58.588505802601354" lon="-3.5364898462447307">
    <tag k="addr:postcode" v="KW14 7EA"/>
    <tag k="removemelater" v="yes"/>
  </node>
  <node id="-173" lat="58.587649250498195" lon="-3.5337514394193814">
    <tag k="addr:postcode" v="KW14 7EB"/>
    <tag k="removemelater" v="yes"/>
  </node>
  <node id="-174" lat="58.5856979498313" lon="-3.534680945485215">
    <tag k="addr:postcode" v="KW14 7EE"/>
    <tag k="removemelater" v="yes"/>
  </node>
  <node id="-175" lat="58.58860176767735" lon="-3.527685961954254">
    <tag k="addr:postcode" v="KW14 7EG"/>
    <tag k="removemelater" v="yes"/>
  </node>
  <node id="-176" lat="58.589215682640706" lon="-3.540219756378366">
    <tag k="addr:postcode" v="KW14 7EJ"/>
    <tag k="removemelater" v="yes"/>
  </node>
  <node id="-177" lat="58.58925978856132" lon="-3.538036831092616">
    <tag k="addr:postcode" v="KW14 7EL"/>
    <tag k="removemelater" v="yes"/>
  </node>
  <node id="-178" lat="58.58947747850393" lon="-3.540110838319993">
    <tag k="addr:postcode" v="KW14 7EP"/>
    <tag k="removemelater" v="yes"/>
  </node>
  <node id="-179" lat="58.58929776601012" lon="-3.526563664888844">
    <tag k="addr:postcode" v="KW14 7EQ"/>
    <tag k="removemelater" v="yes"/>
  </node>
  <node id="-180" lat="58.58721623171135" lon="-3.536914973791009">
    <tag k="addr:postcode" v="KW14 7ER"/>
    <tag k="removemelater" v="yes"/>
  </node>
  <node id="-181" lat="58.58702797177947" lon="-3.536132601886506">
    <tag k="addr:postcode" v="KW14 7ES"/>
    <tag k="removemelater" v="yes"/>
  </node>
  <node id="-182" lat="58.58665994701059" lon="-3.535359564454077">
    <tag k="addr:postcode" v="KW14 7ET"/>
    <tag k="removemelater" v="yes"/>
  </node>
  <node id="-183" lat="58.58799571662014" lon="-3.5363298546855435">
    <tag k="addr:postcode" v="KW14 7EU"/>
    <tag k="removemelater" v="yes"/>
  </node>
  <node id="-184" lat="58.58996318451642" lon="-3.539306396268709">
    <tag k="addr:postcode" v="KW14 7EW"/>
    <tag k="removemelater" v="yes"/>
  </node>
  <node id="-185" lat="58.58780396061363" lon="-3.53583976510217">
    <tag k="addr:postcode" v="KW14 7EX"/>
    <tag k="removemelater" v="yes"/>
  </node>
  <node id="-186" lat="58.587398847626844" lon="-3.534411385223294">
    <tag k="addr:postcode" v="KW14 7EY"/>
    <tag k="removemelater" v="yes"/>
  </node>
  <node id="-187" lat="58.58716328952793" lon="-3.5398370975237703">
    <tag k="addr:postcode" v="KW14 7GY"/>
    <tag k="removemelater" v="yes"/>
  </node>
  <node id="-188" lat="58.59185621262548" lon="-3.5274493631897053">
    <tag k="addr:postcode" v="KW14 7GZ"/>
    <tag k="removemelater" v="yes"/>
  </node>
  <node id="-189" lat="58.59463749114448" lon="-3.523183042037437">
    <tag k="addr:postcode" v="KW14 7HA"/>
    <tag k="removemelater" v="yes"/>
  </node>
  <node id="-190" lat="58.59527981432171" lon="-3.523555102918951">
    <tag k="addr:postcode" v="KW14 7HB"/>
    <tag k="removemelater" v="yes"/>
  </node>
  <node id="-191" lat="58.59499127709552" lon="-3.5221316280357122">
    <tag k="addr:postcode" v="KW14 7HD"/>
    <tag k="removemelater" v="yes"/>
  </node>
  <node id="-192" lat="58.59518532460811" lon="-3.5277321764170555">
    <tag k="addr:postcode" v="KW14 7HE"/>
    <tag k="removemelater" v="yes"/>
  </node>
  <node id="-193" lat="58.595737669637884" lon="-3.5228179186498143">
    <tag k="addr:postcode" v="KW14 7HF"/>
    <tag k="removemelater" v="yes"/>
  </node>
  <node id="-194" lat="58.59526021774804" lon="-3.5229348150500854">
    <tag k="addr:postcode" v="KW14 7HH"/>
    <tag k="removemelater" v="yes"/>
  </node>
  <node id="-195" lat="58.594905201821994" lon="-3.524089413865987">
    <tag k="addr:postcode" v="KW14 7HJ"/>
    <tag k="removemelater" v="yes"/>
  </node>
  <node id="-196" lat="58.59483583115543" lon="-3.524636998539672">
    <tag k="addr:postcode" v="KW14 7HL"/>
    <tag k="removemelater" v="yes"/>
  </node>
  <node id="-197" lat="58.59383481111413" lon="-3.5249719608835903">
    <tag k="addr:postcode" v="KW14 7HN"/>
    <tag k="removemelater" v="yes"/>
  </node>
  <node id="-198" lat="58.59256853084414" lon="-3.5264653111765916">
    <tag k="addr:postcode" v="KW14 7HP"/>
    <tag k="removemelater" v="yes"/>
  </node>
  <node id="-199" lat="58.59543403897971" lon="-3.5219099745372153">
    <tag k="addr:postcode" v="KW14 7HQ"/>
    <tag k="removemelater" v="yes"/>
  </node>
  <node id="-200" lat="58.59302597751381" lon="-3.527276694342717">
    <tag k="addr:postcode" v="KW14 7HR"/>
    <tag k="removemelater" v="yes"/>
  </node>
  <node id="-201" lat="58.59188556390084" lon="-3.5287582155249546">
    <tag k="addr:postcode" v="KW14 7HS"/>
    <tag k="removemelater" v="yes"/>
  </node>
  <node id="-202" lat="58.593478716159574" lon="-3.5284836243635445">
    <tag k="addr:postcode" v="KW14 7HT"/>
    <tag k="removemelater" v="yes"/>
  </node>
  <node id="-203" lat="58.59382072783576" lon="-3.526158551091951">
    <tag k="addr:postcode" v="KW14 7HU"/>
    <tag k="removemelater" v="yes"/>
  </node>
  <node id="-204" lat="58.59246364776961" lon="-3.5269768967228323">
    <tag k="addr:postcode" v="KW14 7HW"/>
    <tag k="removemelater" v="yes"/>
  </node>
  <node id="-205" lat="58.5945367089355" lon="-3.524864866557334">
    <tag k="addr:postcode" v="KW14 7HY"/>
    <tag k="removemelater" v="yes"/>
  </node>
  <node id="-206" lat="58.59520004069149" lon="-3.524222687430003">
    <tag k="addr:postcode" v="KW14 7HZ"/>
    <tag k="removemelater" v="yes"/>
  </node>
  <node id="-207" lat="58.59614025980223" lon="-3.5252271906661">
    <tag k="addr:postcode" v="KW14 7JA"/>
    <tag k="removemelater" v="yes"/>
  </node>
  <node id="-208" lat="58.595396125867886" lon="-3.5251087569507904">
    <tag k="addr:postcode" v="KW14 7JB"/>
    <tag k="removemelater" v="yes"/>
  </node>
  <node id="-209" lat="58.59447609546455" lon="-3.526944174377449">
    <tag k="addr:postcode" v="KW14 7JD"/>
    <tag k="removemelater" v="yes"/>
  </node>
  <node id="-210" lat="58.59446076715092" lon="-3.5282339687065045">
    <tag k="addr:postcode" v="KW14 7JE"/>
    <tag k="removemelater" v="yes"/>
  </node>
  <node id="-211" lat="58.59507128298636" lon="-3.5267464343121673">
    <tag k="addr:postcode" v="KW14 7JF"/>
    <tag k="removemelater" v="yes"/>
  </node>
  <node id="-212" lat="58.59577644977232" lon="-3.5263642056611113">
    <tag k="addr:postcode" v="KW14 7JG"/>
    <tag k="removemelater" v="yes"/>
  </node>
  <node id="-213" lat="58.596804377713696" lon="-3.5328273306911226">
    <tag k="addr:postcode" v="KW14 7JH"/>
    <tag k="removemelater" v="yes"/>
  </node>
  <node id="-214" lat="58.59656386738763" lon="-3.531904823392257">
    <tag k="addr:postcode" v="KW14 7JJ"/>
    <tag k="removemelater" v="yes"/>
  </node>
  <node id="-215" lat="58.59532667731982" lon="-3.5294417941056766">
    <tag k="addr:postcode" v="KW14 7JL"/>
    <tag k="removemelater" v="yes"/>
  </node>
  <node id="-216" lat="58.59611595975777" lon="-3.5272737625337593">
    <tag k="addr:postcode" v="KW14 7JN"/>
    <tag k="removemelater" v="yes"/>
  </node>
  <node id="-217" lat="58.59627442967129" lon="-3.5298101099133103">
    <tag k="addr:postcode" v="KW14 7JP"/>
    <tag k="removemelater" v="yes"/>
  </node>
  <node id="-218" lat="58.595840714218866" lon="-3.5270036590567195">
    <tag k="addr:postcode" v="KW14 7JQ"/>
    <tag k="removemelater" v="yes"/>
  </node>
  <node id="-219" lat="58.59679964111644" lon="-3.5294544870999327">
    <tag k="addr:postcode" v="KW14 7JR"/>
    <tag k="removemelater" v="yes"/>
  </node>
  <node id="-220" lat="58.59568051422844" lon="-3.528390423569273">
    <tag k="addr:postcode" v="KW14 7JS"/>
    <tag k="removemelater" v="yes"/>
  </node>
  <node id="-221" lat="58.59725908321422" lon="-3.530851152673052">
    <tag k="addr:postcode" v="KW14 7JT"/>
    <tag k="removemelater" v="yes"/>
  </node>
  <node id="-222" lat="58.59776145744849" lon="-3.5339188908537844">
    <tag k="addr:postcode" v="KW14 7JU"/>
    <tag k="removemelater" v="yes"/>
  </node>
  <node id="-223" lat="58.59606781381854" lon="-3.526789868630514">
    <tag k="addr:postcode" v="KW14 7JW"/>
    <tag k="removemelater" v="yes"/>
  </node>
  <node id="-224" lat="58.59749888175414" lon="-3.529571058040808">
    <tag k="addr:postcode" v="KW14 7JY"/>
    <tag k="removemelater" v="yes"/>
  </node>
  <node id="-225" lat="58.597119612064304" lon="-3.5282295202366374">
    <tag k="addr:postcode" v="KW14 7JZ"/>
    <tag k="removemelater" v="yes"/>
  </node>
  <node id="-226" lat="58.58554732697182" lon="-3.541262649078476">
    <tag k="addr:postcode" v="KW14 7LB"/>
    <tag k="removemelater" v="yes"/>
  </node>
  <node id="-227" lat="58.58757299299496" lon="-3.5431236405254656">
    <tag k="addr:postcode" v="KW14 7LD"/>
    <tag k="removemelater" v="yes"/>
  </node>
  <node id="-228" lat="58.58291880162952" lon="-3.5334756126876554">
    <tag k="addr:postcode" v="KW14 7LE"/>
    <tag k="removemelater" v="yes"/>
  </node>
  <node id="-229" lat="58.586219413997135" lon="-3.544388601146282">
    <tag k="addr:postcode" v="KW14 7LF"/>
    <tag k="removemelater" v="yes"/>
  </node>
  <node id="-230" lat="58.59964382611752" lon="-3.539508130384389">
    <tag k="addr:postcode" v="KW14 7LG"/>
    <tag k="removemelater" v="yes"/>
  </node>
  <node id="-231" lat="58.58680284867774" lon="-3.5451712237167454">
    <tag k="addr:postcode" v="KW14 7LH"/>
    <tag k="removemelater" v="yes"/>
  </node>
  <node id="-232" lat="58.59641852988686" lon="-3.528267761329166">
    <tag k="addr:postcode" v="KW14 7LJ"/>
    <tag k="removemelater" v="yes"/>
  </node>
  <node id="-233" lat="58.59613461307186" lon="-3.530991286559872">
    <tag k="addr:postcode" v="KW14 7LL"/>
    <tag k="removemelater" v="yes"/>
  </node>
  <node id="-234" lat="58.59554699770394" lon="-3.5305526430389564">
    <tag k="addr:postcode" v="KW14 7LN"/>
    <tag k="removemelater" v="yes"/>
  </node>
  <node id="-235" lat="58.59463791802319" lon="-3.532216343783788">
    <tag k="addr:postcode" v="KW14 7LP"/>
    <tag k="removemelater" v="yes"/>
  </node>
  <node id="-236" lat="58.586487619814434" lon="-3.5422501331237854">
    <tag k="addr:postcode" v="KW14 7LQ"/>
    <tag k="removemelater" v="yes"/>
  </node>
  <node id="-237" lat="58.595295503962056" lon="-3.5328129245209126">
    <tag k="addr:postcode" v="KW14 7LR"/>
    <tag k="removemelater" v="yes"/>
  </node>
  <node id="-238" lat="58.5960910351382" lon="-3.5331402548272486">
    <tag k="addr:postcode" v="KW14 7LS"/>
    <tag k="removemelater" v="yes"/>
  </node>
  <node id="-239" lat="58.595063266146894" lon="-3.533456608750649">
    <tag k="addr:postcode" v="KW14 7LT"/>
    <tag k="removemelater" v="yes"/>
  </node>
  <node id="-240" lat="58.59417447101065" lon="-3.5334177023399893">
    <tag k="addr:postcode" v="KW14 7LU"/>
    <tag k="removemelater" v="yes"/>
  </node>
  <node id="-241" lat="58.59530640796448" lon="-3.5311443616774">
    <tag k="addr:postcode" v="KW14 7LW"/>
    <tag k="removemelater" v="yes"/>
  </node>
  <node id="-242" lat="58.594204362736754" lon="-3.531663992827885">
    <tag k="addr:postcode" v="KW14 7LX"/>
    <tag k="removemelater" v="yes"/>
  </node>
  <node id="-243" lat="58.59350692844465" lon="-3.5321496710489684">
    <tag k="addr:postcode" v="KW14 7LY"/>
    <tag k="removemelater" v="yes"/>
  </node>
  <node id="-244" lat="58.59275393802929" lon="-3.5335275778314146">
    <tag k="addr:postcode" v="KW14 7LZ"/>
    <tag k="removemelater" v="yes"/>
  </node>
  <node id="-245" lat="58.59226344513943" lon="-3.5332308257685314">
    <tag k="addr:postcode" v="KW14 7NA"/>
    <tag k="removemelater" v="yes"/>
  </node>
  <node id="-246" lat="58.593492368688246" lon="-3.533370639649133">
    <tag k="addr:postcode" v="KW14 7NB"/>
    <tag k="removemelater" v="yes"/>
  </node>
  <node id="-247" lat="58.59265040935001" lon="-3.534675801180927">
    <tag k="addr:postcode" v="KW14 7ND"/>
    <tag k="removemelater" v="yes"/>
  </node>
  <node id="-248" lat="58.59109828901717" lon="-3.5345217894029846">
    <tag k="addr:postcode" v="KW14 7NE"/>
    <tag k="removemelater" v="yes"/>
  </node>
  <node id="-249" lat="58.590188605342185" lon="-3.5354797847148367">
    <tag k="addr:postcode" v="KW14 7NF"/>
    <tag k="removemelater" v="yes"/>
  </node>
  <node id="-250" lat="58.59142174569363" lon="-3.533761745312057">
    <tag k="addr:postcode" v="KW14 7NG"/>
    <tag k="removemelater" v="yes"/>
  </node>
  <node id="-251" lat="58.591076789295364" lon="-3.5325595317487912">
    <tag k="addr:postcode" v="KW14 7NH"/>
    <tag k="removemelater" v="yes"/>
  </node>
  <node id="-252" lat="58.59038258564144" lon="-3.5335270084328503">
    <tag k="addr:postcode" v="KW14 7NJ"/>
    <tag k="removemelater" v="yes"/>
  </node>
  <node id="-253" lat="58.59065770584266" lon="-3.532300339542546">
    <tag k="addr:postcode" v="KW14 7NL"/>
    <tag k="removemelater" v="yes"/>
  </node>
  <node id="-254" lat="58.59212738950516" lon="-3.5325882849341625">
    <tag k="addr:postcode" v="KW14 7NN"/>
    <tag k="removemelater" v="yes"/>
  </node>
  <node id="-255" lat="58.594260985482485" lon="-3.5291715871655094">
    <tag k="addr:postcode" v="KW14 7NP"/>
    <tag k="removemelater" v="yes"/>
  </node>
  <node id="-256" lat="58.59191634170321" lon="-3.533714578387528">
    <tag k="addr:postcode" v="KW14 7NQ"/>
    <tag k="removemelater" v="yes"/>
  </node>
  <node id="-257" lat="58.5969546936984" lon="-3.533780316328092">
    <tag k="addr:postcode" v="KW14 7NR"/>
    <tag k="removemelater" v="yes"/>
  </node>
  <node id="-258" lat="58.58377784070054" lon="-3.532997173024181">
    <tag k="addr:postcode" v="KW14 7NT"/>
    <tag k="removemelater" v="yes"/>
  </node>
  <node id="-259" lat="58.592631860931235" lon="-3.5309586466128544">
    <tag k="addr:postcode" v="KW14 7NW"/>
    <tag k="removemelater" v="yes"/>
  </node>
  <node id="-260" lat="58.59453799010224" lon="-3.5345692258885686">
    <tag k="addr:postcode" v="KW14 7NX"/>
    <tag k="removemelater" v="yes"/>
  </node>
  <node id="-261" lat="58.59497379180782" lon="-3.534932446016396">
    <tag k="addr:postcode" v="KW14 7NY"/>
    <tag k="removemelater" v="yes"/>
  </node>
  <node id="-262" lat="58.59561286577332" lon="-3.537076881195353">
    <tag k="addr:postcode" v="KW14 7NZ"/>
    <tag k="removemelater" v="yes"/>
  </node>
  <node id="-263" lat="58.595365788417595" lon="-3.5344506301420457">
    <tag k="addr:postcode" v="KW14 7PA"/>
    <tag k="removemelater" v="yes"/>
  </node>
  <node id="-264" lat="58.596134176740854" lon="-3.534794016183368">
    <tag k="addr:postcode" v="KW14 7PB"/>
    <tag k="removemelater" v="yes"/>
  </node>
  <node id="-265" lat="58.5964166708464" lon="-3.5382134116021726">
    <tag k="addr:postcode" v="KW14 7PD"/>
    <tag k="removemelater" v="yes"/>
  </node>
  <node id="-266" lat="58.59622869637361" lon="-3.5366565206066656">
    <tag k="addr:postcode" v="KW14 7PE"/>
    <tag k="removemelater" v="yes"/>
  </node>
  <node id="-267" lat="58.59581428237615" lon="-3.5367587889706456">
    <tag k="addr:postcode" v="KW14 7PF"/>
    <tag k="removemelater" v="yes"/>
  </node>
  <node id="-268" lat="58.59568510202943" lon="-3.540796721740327">
    <tag k="addr:postcode" v="KW14 7PG"/>
    <tag k="removemelater" v="yes"/>
  </node>
  <node id="-269" lat="58.59634530311959" lon="-3.5396728839383966">
    <tag k="addr:postcode" v="KW14 7PH"/>
    <tag k="removemelater" v="yes"/>
  </node>
  <node id="-270" lat="58.596228617992246" lon="-3.541164771131727">
    <tag k="addr:postcode" v="KW14 7PJ"/>
    <tag k="removemelater" v="yes"/>
  </node>
  <node id="-271" lat="58.59547016501219" lon="-3.5429897269898216">
    <tag k="addr:postcode" v="KW14 7PL"/>
    <tag k="removemelater" v="yes"/>
  </node>
  <node id="-272" lat="58.59349397626674" lon="-3.538498015180487">
    <tag k="addr:postcode" v="KW14 7PN"/>
    <tag k="removemelater" v="yes"/>
  </node>
  <node id="-273" lat="58.59462099199879" lon="-3.5411456618989043">
    <tag k="addr:postcode" v="KW14 7PP"/>
    <tag k="removemelater" v="yes"/>
  </node>
  <node id="-274" lat="58.59613016215745" lon="-3.5403861227463618">
    <tag k="addr:postcode" v="KW14 7PQ"/>
    <tag k="removemelater" v="yes"/>
  </node>
  <node id="-275" lat="58.59523351007476" lon="-3.5395035703697784">
    <tag k="addr:postcode" v="KW14 7PR"/>
    <tag k="removemelater" v="yes"/>
  </node>
  <node id="-276" lat="58.595278723393825" lon="-3.540228235186976">
    <tag k="addr:postcode" v="KW14 7PS"/>
    <tag k="removemelater" v="yes"/>
  </node>
  <node id="-277" lat="58.59434875134948" lon="-3.5398776353465005">
    <tag k="addr:postcode" v="KW14 7PT"/>
    <tag k="removemelater" v="yes"/>
  </node>
  <node id="-278" lat="58.59485364691315" lon="-3.5389706840635853">
    <tag k="addr:postcode" v="KW14 7PU"/>
    <tag k="removemelater" v="yes"/>
  </node>
  <node id="-279" lat="58.59411040422992" lon="-3.541777028973027">
    <tag k="addr:postcode" v="KW14 7PW"/>
    <tag k="removemelater" v="yes"/>
  </node>
  <node id="-280" lat="58.593775784126784" lon="-3.5382178916470566">
    <tag k="addr:postcode" v="KW14 7PX"/>
    <tag k="removemelater" v="yes"/>
  </node>
  <node id="-281" lat="58.59388098962134" lon="-3.536932067310647">
    <tag k="addr:postcode" v="KW14 7PY"/>
    <tag k="removemelater" v="yes"/>
  </node>
  <node id="-282" lat="58.592796104937015" lon="-3.5390179400291917">
    <tag k="addr:postcode" v="KW14 7PZ"/>
    <tag k="removemelater" v="yes"/>
  </node>
  <node id="-283" lat="58.59229563450422" lon="-3.5365528245463205">
    <tag k="addr:postcode" v="KW14 7QA"/>
    <tag k="removemelater" v="yes"/>
  </node>
  <node id="-284" lat="58.59252158100167" lon="-3.535685266971341">
    <tag k="addr:postcode" v="KW14 7QB"/>
    <tag k="removemelater" v="yes"/>
  </node>
  <node id="-285" lat="58.59342284568897" lon="-3.5354322783757186">
    <tag k="addr:postcode" v="KW14 7QD"/>
    <tag k="removemelater" v="yes"/>
  </node>
  <node id="-286" lat="58.59383349661093" lon="-3.5363966010246086">
    <tag k="addr:postcode" v="KW14 7QE"/>
    <tag k="removemelater" v="yes"/>
  </node>
  <node id="-287" lat="58.594122756257185" lon="-3.5347403024841126">
    <tag k="addr:postcode" v="KW14 7QF"/>
    <tag k="removemelater" v="yes"/>
  </node>
  <node id="-288" lat="58.59184270379388" lon="-3.536120041732359">
    <tag k="addr:postcode" v="KW14 7QG"/>
    <tag k="removemelater" v="yes"/>
  </node>
  <node id="-289" lat="58.58432024968114" lon="-3.534964636930499">
    <tag k="addr:postcode" v="KW14 7QH"/>
    <tag k="removemelater" v="yes"/>
  </node>
  <node id="-290" lat="58.58363623877624" lon="-3.535829123582234">
    <tag k="addr:postcode" v="KW14 7QJ"/>
    <tag k="removemelater" v="yes"/>
  </node>
  <node id="-291" lat="58.58398104728397" lon="-3.5332812786307928">
    <tag k="addr:postcode" v="KW14 7QL"/>
    <tag k="removemelater" v="yes"/>
  </node>
  <node id="-292" lat="58.584580544407544" lon="-3.535732897106688">
    <tag k="addr:postcode" v="KW14 7QQ"/>
    <tag k="removemelater" v="yes"/>
  </node>
  <node id="-293" lat="58.58259118465986" lon="-3.5353361175111746">
    <tag k="addr:postcode" v="KW14 7QS"/>
    <tag k="removemelater" v="yes"/>
  </node>
  <node id="-294" lat="58.58334813929335" lon="-3.5328751724468064">
    <tag k="addr:postcode" v="KW14 7QT"/>
    <tag k="removemelater" v="yes"/>
  </node>
  <node id="-295" lat="58.58618755682259" lon="-3.5380568044658123">
    <tag k="addr:postcode" v="KW14 7QU"/>
    <tag k="removemelater" v="yes"/>
  </node>
  <node id="-296" lat="58.582371405336254" lon="-3.5356876949868927">
    <tag k="addr:postcode" v="KW14 7QX"/>
    <tag k="removemelater" v="yes"/>
  </node>
  <node id="-297" lat="58.55832616716275" lon="-3.7857483330377115">
    <tag k="addr:postcode" v="KW14 7RF"/>
    <tag k="removemelater" v="yes"/>
  </node>
  <node id="-298" lat="58.55839480173614" lon="-3.787917703928537">
    <tag k="addr:postcode" v="KW14 7RG"/>
    <tag k="removemelater" v="yes"/>
  </node>
  <node id="-299" lat="58.55512705894022" lon="-3.7929247293750534">
    <tag k="addr:postcode" v="KW14 7RH"/>
    <tag k="removemelater" v="yes"/>
  </node>
  <node id="-300" lat="58.55656547308482" lon="-3.7928435463278105">
    <tag k="addr:postcode" v="KW14 7RJ"/>
    <tag k="removemelater" v="yes"/>
  </node>
  <node id="-301" lat="58.556505047510115" lon="-3.795882841328298">
    <tag k="addr:postcode" v="KW14 7RL"/>
    <tag k="removemelater" v="yes"/>
  </node>
  <node id="-302" lat="58.57030633613128" lon="-3.7228221854628982">
    <tag k="addr:postcode" v="KW14 7RP"/>
    <tag k="removemelater" v="yes"/>
  </node>
  <node id="-303" lat="58.55692014025303" lon="-3.78995676571733">
    <tag k="addr:postcode" v="KW14 7RQ"/>
    <tag k="removemelater" v="yes"/>
  </node>
  <node id="-304" lat="58.59220331945547" lon="-3.537512260850273">
    <tag k="addr:postcode" v="KW14 7RS"/>
    <tag k="removemelater" v="yes"/>
  </node>
  <node id="-305" lat="58.57443465770319" lon="-4.014027839609779">
    <tag k="addr:postcode" v="KW14 7RY"/>
    <tag k="removemelater" v="yes"/>
  </node>
  <node id="-306" lat="58.55121042693048" lon="-4.085619734735081">
    <tag k="addr:postcode" v="KW14 7SA"/>
    <tag k="removemelater" v="yes"/>
  </node>
  <node id="-307" lat="58.561639928765985" lon="-4.005556586058497">
    <tag k="addr:postcode" v="KW14 7SB"/>
    <tag k="removemelater" v="yes"/>
  </node>
  <node id="-308" lat="58.5114955652129" lon="-4.220419306117651">
    <tag k="addr:postcode" v="KW14 7SG"/>
    <tag k="removemelater" v="yes"/>
  </node>
  <node id="-309" lat="58.588832347779196" lon="-3.5429726617603317">
    <tag k="addr:postcode" v="KW14 7SH"/>
    <tag k="removemelater" v="yes"/>
  </node>
  <node id="-310" lat="58.588285121089896" lon="-3.54291415782884">
    <tag k="addr:postcode" v="KW14 7SJ"/>
    <tag k="removemelater" v="yes"/>
  </node>
  <node id="-311" lat="58.58774037101053" lon="-3.542649329853469">
    <tag k="addr:postcode" v="KW14 7SL"/>
    <tag k="removemelater" v="yes"/>
  </node>
  <node id="-312" lat="58.58818079164272" lon="-3.5418773755962962">
    <tag k="addr:postcode" v="KW14 7SN"/>
    <tag k="removemelater" v="yes"/>
  </node>
  <node id="-313" lat="58.52523280052719" lon="-4.212064646903914">
    <tag k="addr:postcode" v="KW14 7SR"/>
    <tag k="removemelater" v="yes"/>
  </node>
  <node id="-314" lat="58.52870619558235" lon="-4.221627750108326">
    <tag k="addr:postcode" v="KW14 7SS"/>
    <tag k="removemelater" v="yes"/>
  </node>
  <node id="-315" lat="58.52620801103715" lon="-4.22114336546122">
    <tag k="addr:postcode" v="KW14 7ST"/>
    <tag k="removemelater" v="yes"/>
  </node>
  <node id="-316" lat="58.52639933734146" lon="-4.2225467155970655">
    <tag k="addr:postcode" v="KW14 7SU"/>
    <tag k="removemelater" v="yes"/>
  </node>
  <node id="-317" lat="58.587557189657815" lon="-3.5406973456965436">
    <tag k="addr:postcode" v="KW14 7SW"/>
    <tag k="removemelater" v="yes"/>
  </node>
  <node id="-318" lat="58.52695978251148" lon="-4.223904753420506">
    <tag k="addr:postcode" v="KW14 7SX"/>
    <tag k="removemelater" v="yes"/>
  </node>
  <node id="-319" lat="58.52957135505652" lon="-4.221991683803176">
    <tag k="addr:postcode" v="KW14 7SY"/>
    <tag k="removemelater" v="yes"/>
  </node>
  <node id="-320" lat="58.53250707101937" lon="-4.199157831134601">
    <tag k="addr:postcode" v="KW14 7SZ"/>
    <tag k="removemelater" v="yes"/>
  </node>
  <node id="-321" lat="58.53559309389897" lon="-4.194695297238775">
    <tag k="addr:postcode" v="KW14 7TA"/>
    <tag k="removemelater" v="yes"/>
  </node>
  <node id="-322" lat="58.52539677240461" lon="-4.223891651150861">
    <tag k="addr:postcode" v="KW14 7TD"/>
    <tag k="removemelater" v="yes"/>
  </node>
  <node id="-323" lat="58.522343637014366" lon="-4.2781058260470175">
    <tag k="addr:postcode" v="KW14 7TH"/>
    <tag k="removemelater" v="yes"/>
  </node>
  <node id="-324" lat="58.53594134366598" lon="-4.31501674449076">
    <tag k="addr:postcode" v="KW14 7TJ"/>
    <tag k="removemelater" v="yes"/>
  </node>
  <node id="-325" lat="58.59996214019722" lon="-3.546663826710306">
    <tag k="addr:postcode" v="KW14 7UD"/>
    <tag k="removemelater" v="yes"/>
  </node>
  <node id="-326" lat="58.600259951040414" lon="-3.5383133705379017">
    <tag k="addr:postcode" v="KW14 7UG"/>
    <tag k="removemelater" v="yes"/>
  </node>
  <node id="-327" lat="58.61209053687023" lon="-3.549472020980306">
    <tag k="addr:postcode" v="KW14 7UJ"/>
    <tag k="removemelater" v="yes"/>
  </node>
  <node id="-328" lat="58.611373116120006" lon="-3.5516093016860406">
    <tag k="addr:postcode" v="KW14 7UL"/>
    <tag k="removemelater" v="yes"/>
  </node>
  <node id="-329" lat="58.60755359832858" lon="-3.554004724427557">
    <tag k="addr:postcode" v="KW14 7UN"/>
    <tag k="removemelater" v="yes"/>
  </node>
  <node id="-330" lat="58.610033917227845" lon="-3.5539082537589053">
    <tag k="addr:postcode" v="KW14 7UP"/>
    <tag k="removemelater" v="yes"/>
  </node>
  <node id="-331" lat="58.609614323218864" lon="-3.555180658445018">
    <tag k="addr:postcode" v="KW14 7UR"/>
    <tag k="removemelater" v="yes"/>
  </node>
  <node id="-332" lat="58.5987732784111" lon="-3.538695490678039">
    <tag k="addr:postcode" v="KW14 7UU"/>
    <tag k="removemelater" v="yes"/>
  </node>
  <node id="-333" lat="58.613782271618135" lon="-3.54921980681007">
    <tag k="addr:postcode" v="KW14 7UW"/>
    <tag k="removemelater" v="yes"/>
  </node>
  <node id="-334" lat="58.610482654413225" lon="-3.5554258018104816">
    <tag k="addr:postcode" v="KW14 7UX"/>
    <tag k="removemelater" v="yes"/>
  </node>
  <node id="-335" lat="58.60170499146551" lon="-3.548134791525851">
    <tag k="addr:postcode" v="KW14 7UY"/>
    <tag k="removemelater" v="yes"/>
  </node>
  <node id="-336" lat="58.60536155222162" lon="-3.6831685603213016">
    <tag k="addr:postcode" v="KW14 7UZ"/>
    <tag k="removemelater" v="yes"/>
  </node>
  <node id="-337" lat="58.59912201772921" lon="-3.543322691011201">
    <tag k="addr:postcode" v="KW14 7XA"/>
    <tag k="removemelater" v="yes"/>
  </node>
  <node id="-338" lat="58.59869098822507" lon="-3.5425637412914006">
    <tag k="addr:postcode" v="KW14 7XB"/>
    <tag k="removemelater" v="yes"/>
  </node>
  <node id="-339" lat="58.57747905671406" lon="-3.5436767462153567">
    <tag k="addr:postcode" v="KW14 7XD"/>
    <tag k="removemelater" v="yes"/>
  </node>
  <node id="-340" lat="58.58344618643456" lon="-3.5389513393918315">
    <tag k="addr:postcode" v="KW14 7XE"/>
    <tag k="removemelater" v="yes"/>
  </node>
  <node id="-341" lat="58.59728441071264" lon="-3.5302327873059327">
    <tag k="addr:postcode" v="KW14 7XR"/>
    <tag k="removemelater" v="yes"/>
  </node>
  <node id="-342" lat="58.598291424954084" lon="-3.541427617404559">
    <tag k="addr:postcode" v="KW14 7XT"/>
    <tag k="removemelater" v="yes"/>
  </node>
  <node id="-343" lat="58.59641189508064" lon="-3.5498280518265966">
    <tag k="addr:postcode" v="KW14 7XW"/>
    <tag k="removemelater" v="yes"/>
  </node>
  <node id="-344" lat="58.596152097443245" lon="-3.6605454641114212">
    <tag k="addr:postcode" v="KW14 7XY"/>
    <tag k="removemelater" v="yes"/>
  </node>
  <node id="-345" lat="58.56445264409014" lon="-3.932835100977531">
    <tag k="addr:postcode" v="KW14 7YL"/>
    <tag k="removemelater" v="yes"/>
  </node>
  <node id="-346" lat="58.57013599327529" lon="-3.9324433737778843">
    <tag k="addr:postcode" v="KW14 7YN"/>
    <tag k="removemelater" v="yes"/>
  </node>
  <node id="-347" lat="58.564833620792314" lon="-3.9337845377544154">
    <tag k="addr:postcode" v="KW14 7YP"/>
    <tag k="removemelater" v="yes"/>
  </node>
  <node id="-348" lat="58.557101291365626" lon="-3.9282529746444355">
    <tag k="addr:postcode" v="KW14 7YQ"/>
    <tag k="removemelater" v="yes"/>
  </node>
  <node id="-349" lat="58.564307946662154" lon="-3.935285732244353">
    <tag k="addr:postcode" v="KW14 7YR"/>
    <tag k="removemelater" v="yes"/>
  </node>
  <node id="-350" lat="58.55752546074235" lon="-3.9311125929886406">
    <tag k="addr:postcode" v="KW14 7YS"/>
    <tag k="removemelater" v="yes"/>
  </node>
  <node id="-351" lat="58.56327668168598" lon="-3.931584003936271">
    <tag k="addr:postcode" v="KW14 7YU"/>
    <tag k="removemelater" v="yes"/>
  </node>
  <node id="-352" lat="58.565443739715306" lon="-3.935623512133529">
    <tag k="addr:postcode" v="KW14 7YW"/>
    <tag k="removemelater" v="yes"/>
  </node>
  <node id="-353" lat="58.56384261239344" lon="-3.932182537673448">
    <tag k="addr:postcode" v="KW14 7YX"/>
    <tag k="removemelater" v="yes"/>
  </node>
  <node id="-354" lat="58.5951352565891" lon="-3.51983221684048">
    <tag k="addr:postcode" v="KW14 8AA"/>
    <tag k="removemelater" v="yes"/>
  </node>
  <node id="-355" lat="58.59493957528739" lon="-3.519668869571936">
    <tag k="addr:postcode" v="KW14 8AB"/>
    <tag k="removemelater" v="yes"/>
  </node>
  <node id="-356" lat="58.595502735709175" lon="-3.519899780702246">
    <tag k="addr:postcode" v="KW14 8AD"/>
    <tag k="removemelater" v="yes"/>
  </node>
  <node id="-357" lat="58.5949456368283" lon="-3.5183958609150907">
    <tag k="addr:postcode" v="KW14 8AE"/>
    <tag k="removemelater" v="yes"/>
  </node>
  <node id="-358" lat="58.59534415146023" lon="-3.518877712240125">
    <tag k="addr:postcode" v="KW14 8AG"/>
    <tag k="removemelater" v="yes"/>
  </node>
  <node id="-359" lat="58.595342851717426" lon="-3.5174667175388454">
    <tag k="addr:postcode" v="KW14 8AH"/>
    <tag k="removemelater" v="yes"/>
  </node>
  <node id="-360" lat="58.59565041231452" lon="-3.5188049581996976">
    <tag k="addr:postcode" v="KW14 8AJ"/>
    <tag k="removemelater" v="yes"/>
  </node>
  <node id="-361" lat="58.595590041851736" lon="-3.5193529547231233">
    <tag k="addr:postcode" v="KW14 8AL"/>
    <tag k="removemelater" v="yes"/>
  </node>
  <node id="-362" lat="58.59567842726747" lon="-3.520234331878567">
    <tag k="addr:postcode" v="KW14 8AN"/>
    <tag k="removemelater" v="yes"/>
  </node>
  <node id="-363" lat="58.59609276226494" lon="-3.5186176547870267">
    <tag k="addr:postcode" v="KW14 8AP"/>
    <tag k="removemelater" v="yes"/>
  </node>
  <node id="-364" lat="58.59508903702157" lon="-3.5176621997611117">
    <tag k="addr:postcode" v="KW14 8AQ"/>
    <tag k="removemelater" v="yes"/>
  </node>
  <node id="-365" lat="58.59563830679183" lon="-3.5175483434721033">
    <tag k="addr:postcode" v="KW14 8AR"/>
    <tag k="removemelater" v="yes"/>
  </node>
  <node id="-366" lat="58.59593696278306" lon="-3.5165976983153455">
    <tag k="addr:postcode" v="KW14 8AS"/>
    <tag k="removemelater" v="yes"/>
  </node>
  <node id="-367" lat="58.59545586316" lon="-3.5170242411089716">
    <tag k="addr:postcode" v="KW14 8AT"/>
    <tag k="removemelater" v="yes"/>
  </node>
  <node id="-368" lat="58.59561208748092" lon="-3.515964191901129">
    <tag k="addr:postcode" v="KW14 8AU"/>
    <tag k="removemelater" v="yes"/>
  </node>
  <node id="-369" lat="58.596012404343114" lon="-3.5193368606591484">
    <tag k="addr:postcode" v="KW14 8AW"/>
    <tag k="removemelater" v="yes"/>
  </node>
  <node id="-370" lat="58.596010558425476" lon="-3.515688919752788">
    <tag k="addr:postcode" v="KW14 8AX"/>
    <tag k="removemelater" v="yes"/>
  </node>
  <node id="-371" lat="58.596214411362624" lon="-3.515921431310146">
    <tag k="addr:postcode" v="KW14 8AY"/>
    <tag k="removemelater" v="yes"/>
  </node>
  <node id="-372" lat="58.596368596601344" lon="-3.51807898709942">
    <tag k="addr:postcode" v="KW14 8AZ"/>
    <tag k="removemelater" v="yes"/>
  </node>
  <node id="-373" lat="58.596559200872356" lon="-3.5186722912612565">
    <tag k="addr:postcode" v="KW14 8BB"/>
    <tag k="removemelater" v="yes"/>
  </node>
  <node id="-374" lat="58.596429713073576" lon="-3.5205078373592564">
    <tag k="addr:postcode" v="KW14 8BD"/>
    <tag k="removemelater" v="yes"/>
  </node>
  <node id="-375" lat="58.59605200727761" lon="-3.5197859582848414">
    <tag k="addr:postcode" v="KW14 8BE"/>
    <tag k="removemelater" v="yes"/>
  </node>
  <node id="-376" lat="58.59616386392457" lon="-3.5209608858241728">
    <tag k="addr:postcode" v="KW14 8BG"/>
    <tag k="removemelater" v="yes"/>
  </node>
  <node id="-377" lat="58.596086376444475" lon="-3.5229535267961105">
    <tag k="addr:postcode" v="KW14 8BH"/>
    <tag k="removemelater" v="yes"/>
  </node>
  <node id="-378" lat="58.59605859537587" lon="-3.5215069366982767">
    <tag k="addr:postcode" v="KW14 8BJ"/>
    <tag k="removemelater" v="yes"/>
  </node>
  <node id="-379" lat="58.59661333693589" lon="-3.5201716642512264">
    <tag k="addr:postcode" v="KW14 8BL"/>
    <tag k="removemelater" v="yes"/>
  </node>
  <node id="-380" lat="58.59704995512737" lon="-3.5159059698776223">
    <tag k="addr:postcode" v="KW14 8BN"/>
    <tag k="removemelater" v="yes"/>
  </node>
  <node id="-381" lat="58.59667902570882" lon="-3.5161308180386843">
    <tag k="addr:postcode" v="KW14 8BP"/>
    <tag k="removemelater" v="yes"/>
  </node>
  <node id="-382" lat="58.596467721328054" lon="-3.5226087570987428">
    <tag k="addr:postcode" v="KW14 8BQ"/>
    <tag k="removemelater" v="yes"/>
  </node>
  <node id="-383" lat="58.59653583706101" lon="-3.5168473204335746">
    <tag k="addr:postcode" v="KW14 8BS"/>
    <tag k="removemelater" v="yes"/>
  </node>
  <node id="-384" lat="58.59670766912833" lon="-3.5144629569920323">
    <tag k="addr:postcode" v="KW14 8BT"/>
    <tag k="removemelater" v="yes"/>
  </node>
  <node id="-385" lat="58.595161371965645" lon="-3.5160995447636805">
    <tag k="addr:postcode" v="KW14 8BU"/>
    <tag k="removemelater" v="yes"/>
  </node>
  <node id="-386" lat="58.59720095505044" lon="-3.5160501646247244">
    <tag k="addr:postcode" v="KW14 8BW"/>
    <tag k="removemelater" v="yes"/>
  </node>
  <node id="-387" lat="58.59478622844239" lon="-3.5174426053391454">
    <tag k="addr:postcode" v="KW14 8BY"/>
    <tag k="removemelater" v="yes"/>
  </node>
  <node id="-388" lat="58.5941478321865" lon="-3.5182580448348135">
    <tag k="addr:postcode" v="KW14 8BZ"/>
    <tag k="removemelater" v="yes"/>
  </node>
  <node id="-389" lat="58.5973799912636" lon="-3.514578063986724">
    <tag k="addr:postcode" v="KW14 8DA"/>
    <tag k="removemelater" v="yes"/>
  </node>
  <node id="-390" lat="58.594356870274524" lon="-3.5165292907413384">
    <tag k="addr:postcode" v="KW14 8DB"/>
    <tag k="removemelater" v="yes"/>
  </node>
  <node id="-391" lat="58.59402607736202" lon="-3.5194399765326505">
    <tag k="addr:postcode" v="KW14 8DD"/>
    <tag k="removemelater" v="yes"/>
  </node>
  <node id="-392" lat="58.592810129846235" lon="-3.505984308907012">
    <tag k="addr:postcode" v="KW14 8DF"/>
    <tag k="removemelater" v="yes"/>
  </node>
  <node id="-393" lat="58.59232428674787" lon="-3.504518201132382">
    <tag k="addr:postcode" v="KW14 8DG"/>
    <tag k="removemelater" v="yes"/>
  </node>
  <node id="-394" lat="58.594081652140154" lon="-3.5215759253400036">
    <tag k="addr:postcode" v="KW14 8EG"/>
    <tag k="removemelater" v="yes"/>
  </node>
  <node id="-395" lat="58.594500507081214" lon="-3.5203380686445644">
    <tag k="addr:postcode" v="KW14 8EJ"/>
    <tag k="removemelater" v="yes"/>
  </node>
  <node id="-396" lat="58.594649642821174" lon="-3.5198799729231194">
    <tag k="addr:postcode" v="KW14 8EN"/>
    <tag k="removemelater" v="yes"/>
  </node>
  <node id="-397" lat="58.59338418162711" lon="-3.519790659178576">
    <tag k="addr:postcode" v="KW14 8EP"/>
    <tag k="removemelater" v="yes"/>
  </node>
  <node id="-398" lat="58.594251384101376" lon="-3.511758658145163">
    <tag k="addr:postcode" v="KW14 8HL"/>
    <tag k="removemelater" v="yes"/>
  </node>
  <node id="-399" lat="58.599871053736216" lon="-3.506683713297769">
    <tag k="addr:postcode" v="KW14 8HP"/>
    <tag k="removemelater" v="yes"/>
  </node>
  <node id="-400" lat="58.592736154764495" lon="-3.5115212196713275">
    <tag k="addr:postcode" v="KW14 8HR"/>
    <tag k="removemelater" v="yes"/>
  </node>
  <node id="-401" lat="58.593335161198425" lon="-3.5109964867916084">
    <tag k="addr:postcode" v="KW14 8HS"/>
    <tag k="removemelater" v="yes"/>
  </node>
  <node id="-402" lat="58.593209790534765" lon="-3.510199626866072">
    <tag k="addr:postcode" v="KW14 8HT"/>
    <tag k="removemelater" v="yes"/>
  </node>
  <node id="-403" lat="58.59270278871887" lon="-3.510539081254823">
    <tag k="addr:postcode" v="KW14 8HU"/>
    <tag k="removemelater" v="yes"/>
  </node>
  <node id="-404" lat="58.59345432337413" lon="-3.509263859983455">
    <tag k="addr:postcode" v="KW14 8HX"/>
    <tag k="removemelater" v="yes"/>
  </node>
  <node id="-405" lat="58.593837650911524" lon="-3.5087469951744987">
    <tag k="addr:postcode" v="KW14 8HY"/>
    <tag k="removemelater" v="yes"/>
  </node>
  <node id="-406" lat="58.59531354881331" lon="-3.507743758369237">
    <tag k="addr:postcode" v="KW14 8HZ"/>
    <tag k="removemelater" v="yes"/>
  </node>
  <node id="-407" lat="58.59481643734715" lon="-3.5072405866429235">
    <tag k="addr:postcode" v="KW14 8JA"/>
    <tag k="removemelater" v="yes"/>
  </node>
  <node id="-408" lat="58.59453094196612" lon="-3.505542102738121">
    <tag k="addr:postcode" v="KW14 8JB"/>
    <tag k="removemelater" v="yes"/>
  </node>
  <node id="-409" lat="58.59447830407055" lon="-3.5069679465720163">
    <tag k="addr:postcode" v="KW14 8JD"/>
    <tag k="removemelater" v="yes"/>
  </node>
  <node id="-410" lat="58.59447336466979" lon="-3.508154954964676">
    <tag k="addr:postcode" v="KW14 8JE"/>
    <tag k="removemelater" v="yes"/>
  </node>
  <node id="-411" lat="58.594058870557454" lon="-3.5075004921644375">
    <tag k="addr:postcode" v="KW14 8JF"/>
    <tag k="removemelater" v="yes"/>
  </node>
  <node id="-412" lat="58.59388344086879" lon="-3.5063745654879983">
    <tag k="addr:postcode" v="KW14 8JG"/>
    <tag k="removemelater" v="yes"/>
  </node>
  <node id="-413" lat="58.59425037737657" lon="-3.5041879783789325">
    <tag k="addr:postcode" v="KW14 8JH"/>
    <tag k="removemelater" v="yes"/>
  </node>
  <node id="-414" lat="58.59409928407443" lon="-3.5048181091742796">
    <tag k="addr:postcode" v="KW14 8JJ"/>
    <tag k="removemelater" v="yes"/>
  </node>
  <node id="-415" lat="58.593452907490054" lon="-3.5063216415011818">
    <tag k="addr:postcode" v="KW14 8JL"/>
    <tag k="removemelater" v="yes"/>
  </node>
  <node id="-416" lat="58.59313162806194" lon="-3.5069100175599934">
    <tag k="addr:postcode" v="KW14 8JN"/>
    <tag k="removemelater" v="yes"/>
  </node>
  <node id="-417" lat="58.592629170520254" lon="-3.5091594908750845">
    <tag k="addr:postcode" v="KW14 8JP"/>
    <tag k="removemelater" v="yes"/>
  </node>
  <node id="-418" lat="58.59374008585887" lon="-3.5055769374536427">
    <tag k="addr:postcode" v="KW14 8JQ"/>
    <tag k="removemelater" v="yes"/>
  </node>
  <node id="-419" lat="58.592482706136906" lon="-3.5078627971499574">
    <tag k="addr:postcode" v="KW14 8JR"/>
    <tag k="removemelater" v="yes"/>
  </node>
  <node id="-420" lat="58.59300785843054" lon="-3.5075068819667563">
    <tag k="addr:postcode" v="KW14 8JS"/>
    <tag k="removemelater" v="yes"/>
  </node>
  <node id="-421" lat="58.59157382373222" lon="-3.508769936972277">
    <tag k="addr:postcode" v="KW14 8JT"/>
    <tag k="removemelater" v="yes"/>
  </node>
  <node id="-422" lat="58.5920441024239" lon="-3.5084977062720006">
    <tag k="addr:postcode" v="KW14 8JU"/>
    <tag k="removemelater" v="yes"/>
  </node>
  <node id="-423" lat="58.5933850288256" lon="-3.5082801571748328">
    <tag k="addr:postcode" v="KW14 8JW"/>
    <tag k="removemelater" v="yes"/>
  </node>
  <node id="-424" lat="58.59212953349691" lon="-3.5096369117232875">
    <tag k="addr:postcode" v="KW14 8JX"/>
    <tag k="removemelater" v="yes"/>
  </node>
  <node id="-425" lat="58.593601347793715" lon="-3.514328666024874">
    <tag k="addr:postcode" v="KW14 8JZ"/>
    <tag k="removemelater" v="yes"/>
  </node>
  <node id="-426" lat="58.59119144476347" lon="-3.5145513875229173">
    <tag k="addr:postcode" v="KW14 8NE"/>
    <tag k="removemelater" v="yes"/>
  </node>
  <node id="-427" lat="58.59020171561123" lon="-3.5154548253302633">
    <tag k="addr:postcode" v="KW14 8NF"/>
    <tag k="removemelater" v="yes"/>
  </node>
  <node id="-428" lat="58.59173774368245" lon="-3.5131642121561746">
    <tag k="addr:postcode" v="KW14 8NG"/>
    <tag k="removemelater" v="yes"/>
  </node>
  <node id="-429" lat="58.59114966079139" lon="-3.5127603143368824">
    <tag k="addr:postcode" v="KW14 8NH"/>
    <tag k="removemelater" v="yes"/>
  </node>
  <node id="-430" lat="58.58992354681065" lon="-3.514668618558876">
    <tag k="addr:postcode" v="KW14 8NJ"/>
    <tag k="removemelater" v="yes"/>
  </node>
  <node id="-431" lat="58.58980413812102" lon="-3.514130137719718">
    <tag k="addr:postcode" v="KW14 8NL"/>
    <tag k="removemelater" v="yes"/>
  </node>
  <node id="-432" lat="58.59106425727662" lon="-3.511621133610338">
    <tag k="addr:postcode" v="KW14 8NN"/>
    <tag k="removemelater" v="yes"/>
  </node>
  <node id="-433" lat="58.589696468021955" lon="-3.512594348834401">
    <tag k="addr:postcode" v="KW14 8NP"/>
    <tag k="removemelater" v="yes"/>
  </node>
  <node id="-434" lat="58.59135277845357" lon="-3.5138185644721864">
    <tag k="addr:postcode" v="KW14 8NQ"/>
    <tag k="removemelater" v="yes"/>
  </node>
  <node id="-435" lat="58.590276060351016" lon="-3.5099011306072527">
    <tag k="addr:postcode" v="KW14 8NR"/>
    <tag k="removemelater" v="yes"/>
  </node>
  <node id="-436" lat="58.589955074160265" lon="-3.5135173199028906">
    <tag k="addr:postcode" v="KW14 8NT"/>
    <tag k="removemelater" v="yes"/>
  </node>
  <node id="-437" lat="58.59072645398308" lon="-3.5105570985308985">
    <tag k="addr:postcode" v="KW14 8NW"/>
    <tag k="removemelater" v="yes"/>
  </node>
  <node id="-438" lat="58.5922310521656" lon="-3.5177964660392336">
    <tag k="addr:postcode" v="KW14 8PP"/>
    <tag k="removemelater" v="yes"/>
  </node>
  <node id="-439" lat="58.58821345979031" lon="-3.5218027790165">
    <tag k="addr:postcode" v="KW14 8PT"/>
    <tag k="removemelater" v="yes"/>
  </node>
  <node id="-440" lat="58.58776988330951" lon="-3.5220931657469983">
    <tag k="addr:postcode" v="KW14 8PU"/>
    <tag k="removemelater" v="yes"/>
  </node>
  <node id="-441" lat="58.587761347772684" lon="-3.524329166841736">
    <tag k="addr:postcode" v="KW14 8PX"/>
    <tag k="removemelater" v="yes"/>
  </node>
  <node id="-442" lat="58.587066790073706" lon="-3.5238172819181752">
    <tag k="addr:postcode" v="KW14 8PY"/>
    <tag k="removemelater" v="yes"/>
  </node>
  <node id="-443" lat="58.5861267761779" lon="-3.526580341750957">
    <tag k="addr:postcode" v="KW14 8PZ"/>
    <tag k="removemelater" v="yes"/>
  </node>
  <node id="-444" lat="58.58553282016652" lon="-3.52591800141939">
    <tag k="addr:postcode" v="KW14 8QA"/>
    <tag k="removemelater" v="yes"/>
  </node>
  <node id="-445" lat="58.586777439244486" lon="-3.522462913704363">
    <tag k="addr:postcode" v="KW14 8QB"/>
    <tag k="removemelater" v="yes"/>
  </node>
  <node id="-446" lat="58.58623084285542" lon="-3.524623833884108">
    <tag k="addr:postcode" v="KW14 8QD"/>
    <tag k="removemelater" v="yes"/>
  </node>
  <node id="-447" lat="58.585599338774486" lon="-3.5248543858740535">
    <tag k="addr:postcode" v="KW14 8QE"/>
    <tag k="removemelater" v="yes"/>
  </node>
  <node id="-448" lat="58.58501108868745" lon="-3.5244675575587716">
    <tag k="addr:postcode" v="KW14 8QF"/>
    <tag k="removemelater" v="yes"/>
  </node>
  <node id="-449" lat="58.58469094740908" lon="-3.52419561064322">
    <tag k="addr:postcode" v="KW14 8QG"/>
    <tag k="removemelater" v="yes"/>
  </node>
  <node id="-450" lat="58.58491618585082" lon="-3.5226228723708193">
    <tag k="addr:postcode" v="KW14 8QH"/>
    <tag k="removemelater" v="yes"/>
  </node>
  <node id="-451" lat="58.585339785077466" lon="-3.5232605377203496">
    <tag k="addr:postcode" v="KW14 8QJ"/>
    <tag k="removemelater" v="yes"/>
  </node>
  <node id="-452" lat="58.58643588978466" lon="-3.5232393759795944">
    <tag k="addr:postcode" v="KW14 8QL"/>
    <tag k="removemelater" v="yes"/>
  </node>
  <node id="-453" lat="58.58671277452294" lon="-3.5233718284545255">
    <tag k="addr:postcode" v="KW14 8QN"/>
    <tag k="removemelater" v="yes"/>
  </node>
  <node id="-454" lat="58.586816996077665" lon="-3.5213980840346557">
    <tag k="addr:postcode" v="KW14 8QP"/>
    <tag k="removemelater" v="yes"/>
  </node>
  <node id="-455" lat="58.58500353106111" lon="-3.523589951793971">
    <tag k="addr:postcode" v="KW14 8QQ"/>
    <tag k="removemelater" v="yes"/>
  </node>
  <node id="-456" lat="58.58728445173618" lon="-3.5213667721229096">
    <tag k="addr:postcode" v="KW14 8QR"/>
    <tag k="removemelater" v="yes"/>
  </node>
  <node id="-457" lat="58.5864366490392" lon="-3.520899908962073">
    <tag k="addr:postcode" v="KW14 8QS"/>
    <tag k="removemelater" v="yes"/>
  </node>
  <node id="-458" lat="58.587007335980175" lon="-3.520494616565319">
    <tag k="addr:postcode" v="KW14 8QT"/>
    <tag k="removemelater" v="yes"/>
  </node>
  <node id="-459" lat="58.58745683587327" lon="-3.5204625133488534">
    <tag k="addr:postcode" v="KW14 8QU"/>
    <tag k="removemelater" v="yes"/>
  </node>
  <node id="-460" lat="58.587285490104186" lon="-3.5220377194407138">
    <tag k="addr:postcode" v="KW14 8QW"/>
    <tag k="removemelater" v="yes"/>
  </node>
  <node id="-461" lat="58.58743722373737" lon="-3.519842365498208">
    <tag k="addr:postcode" v="KW14 8QX"/>
    <tag k="removemelater" v="yes"/>
  </node>
  <node id="-462" lat="58.58754152782948" lon="-3.520896256864039">
    <tag k="addr:postcode" v="KW14 8QY"/>
    <tag k="removemelater" v="yes"/>
  </node>
  <node id="-463" lat="58.58771085822478" lon="-3.5202498991520916">
    <tag k="addr:postcode" v="KW14 8QZ"/>
    <tag k="removemelater" v="yes"/>
  </node>
  <node id="-464" lat="58.588031032904446" lon="-3.521278766449903">
    <tag k="addr:postcode" v="KW14 8RA"/>
    <tag k="removemelater" v="yes"/>
  </node>
  <node id="-465" lat="58.58821015675034" lon="-3.5205640142717556">
    <tag k="addr:postcode" v="KW14 8RB"/>
    <tag k="removemelater" v="yes"/>
  </node>
  <node id="-466" lat="58.58777407812479" lon="-3.5194613107052026">
    <tag k="addr:postcode" v="KW14 8RD"/>
    <tag k="removemelater" v="yes"/>
  </node>
  <node id="-467" lat="58.588654544634124" lon="-3.516402901632878">
    <tag k="addr:postcode" v="KW14 8RE"/>
    <tag k="removemelater" v="yes"/>
  </node>
  <node id="-468" lat="58.588878733345595" lon="-3.515672858620528">
    <tag k="addr:postcode" v="KW14 8RF"/>
    <tag k="removemelater" v="yes"/>
  </node>
  <node id="-469" lat="58.59493837516892" lon="-3.3904334739342143">
    <tag k="addr:postcode" v="KW14 8TG"/>
    <tag k="removemelater" v="yes"/>
  </node>
  <node id="-470" lat="58.596090085186056" lon="-3.515038497839661">
    <tag k="addr:postcode" v="KW14 8TQ"/>
    <tag k="removemelater" v="yes"/>
  </node>
  <node id="-471" lat="58.59151554417215" lon="-3.389661075346878">
    <tag k="addr:postcode" v="KW14 8TY"/>
    <tag k="removemelater" v="yes"/>
  </node>
  <node id="-472" lat="58.59373337181764" lon="-3.3897318449341496">
    <tag k="addr:postcode" v="KW14 8UF"/>
    <tag k="removemelater" v="yes"/>
  </node>
  <node id="-473" lat="58.59304706168137" lon="-3.389240085164567">
    <tag k="addr:postcode" v="KW14 8UG"/>
    <tag k="removemelater" v="yes"/>
  </node>
  <node id="-474" lat="58.59332545153009" lon="-3.3875822277754093">
    <tag k="addr:postcode" v="KW14 8UH"/>
    <tag k="removemelater" v="yes"/>
  </node>
  <node id="-475" lat="58.59300341128613" lon="-3.388292081109147">
    <tag k="addr:postcode" v="KW14 8UQ"/>
    <tag k="removemelater" v="yes"/>
  </node>
  <node id="-476" lat="58.59384538748007" lon="-3.3893405647896397">
    <tag k="addr:postcode" v="KW14 8UR"/>
    <tag k="removemelater" v="yes"/>
  </node>
  <node id="-477" lat="58.59182093601291" lon="-3.3888301736323476">
    <tag k="addr:postcode" v="KW14 8UX"/>
    <tag k="removemelater" v="yes"/>
  </node>
  <node id="-478" lat="58.637316969051234" lon="-3.227949359366676">
    <tag k="addr:postcode" v="KW14 8XJ"/>
    <tag k="removemelater" v="yes"/>
  </node>
  <node id="-479" lat="58.6295756847836" lon="-3.3124298888853017">
    <tag k="addr:postcode" v="KW14 8XQ"/>
    <tag k="removemelater" v="yes"/>
  </node>
  <node id="-480" lat="58.64812605514751" lon="-3.351225987570693">
    <tag k="addr:postcode" v="KW14 8XR"/>
    <tag k="removemelater" v="yes"/>
  </node>
  <node id="-481" lat="58.67065279680457" lon="-3.3724614932676844">
    <tag k="addr:postcode" v="KW14 8XS"/>
    <tag k="removemelater" v="yes"/>
  </node>
  <node id="-482" lat="58.64331470044427" lon="-3.3389104272509824">
    <tag k="addr:postcode" v="KW14 8YE"/>
    <tag k="removemelater" v="yes"/>
  </node>
  <node id="-483" lat="58.59332405769097" lon="-3.5218355152601872">
    <tag k="addr:postcode" v="KW14 9AE"/>
    <tag k="removemelater" v="yes"/>
  </node>
  <node id="-484" lat="58.983310758343805" lon="-2.9607206128702432">
    <tag k="addr:postcode" v="KW15 1AA"/>
    <tag k="removemelater" v="yes"/>
  </node>
  <node id="-485" lat="58.98346043424514" lon="-2.9611249357877814">
    <tag k="addr:postcode" v="KW15 1AB"/>
    <tag k="removemelater" v="yes"/>
  </node>
  <node id="-486" lat="58.98277013840192" lon="-2.962166963294804">
    <tag k="addr:postcode" v="KW15 1AE"/>
    <tag k="removemelater" v="yes"/>
  </node>
  <node id="-487" lat="58.982399278592545" lon="-2.962521967810577">
    <tag k="addr:postcode" v="KW15 1AF"/>
    <tag k="removemelater" v="yes"/>
  </node>
  <node id="-488" lat="58.982005101772316" lon="-2.9623891895756436">
    <tag k="addr:postcode" v="KW15 1AG"/>
    <tag k="removemelater" v="yes"/>
  </node>
  <node id="-489" lat="58.983393033904996" lon="-2.9641503100936917">
    <tag k="addr:postcode" v="KW15 1AH"/>
    <tag k="removemelater" v="yes"/>
  </node>
  <node id="-490" lat="58.98154540500222" lon="-2.9638203233123805">
    <tag k="addr:postcode" v="KW15 1AL"/>
    <tag k="removemelater" v="yes"/>
  </node>
  <node id="-491" lat="58.98177069967073" lon="-2.964922639963366">
    <tag k="addr:postcode" v="KW15 1AN"/>
    <tag k="removemelater" v="yes"/>
  </node>
  <node id="-492" lat="58.98088198492347" lon="-2.9636626165021793">
    <tag k="addr:postcode" v="KW15 1AP"/>
    <tag k="removemelater" v="yes"/>
  </node>
  <node id="-493" lat="58.98116745557556" lon="-2.9627137616036316">
    <tag k="addr:postcode" v="KW15 1AQ"/>
    <tag k="removemelater" v="yes"/>
  </node>
  <node id="-494" lat="58.98011586165989" lon="-2.9628235902371514">
    <tag k="addr:postcode" v="KW15 1AS"/>
    <tag k="removemelater" v="yes"/>
  </node>
  <node id="-495" lat="58.979012770851696" lon="-2.963819160849026">
    <tag k="addr:postcode" v="KW15 1AT"/>
    <tag k="removemelater" v="yes"/>
  </node>
  <node id="-496" lat="58.97884126076217" lon="-2.9639361400108144">
    <tag k="addr:postcode" v="KW15 1AU"/>
    <tag k="removemelater" v="yes"/>
  </node>
  <node id="-497" lat="58.97884359148178" lon="-2.9636230823484997">
    <tag k="addr:postcode" v="KW15 1AX"/>
    <tag k="removemelater" v="yes"/>
  </node>
  <node id="-498" lat="58.97765890463455" lon="-2.9647206809137097">
    <tag k="addr:postcode" v="KW15 1AY"/>
    <tag k="removemelater" v="yes"/>
  </node>
  <node id="-499" lat="58.977230034884116" lon="-2.966830868763687">
    <tag k="addr:postcode" v="KW15 1AZ"/>
    <tag k="removemelater" v="yes"/>
  </node>
  <node id="-500" lat="58.97768264031847" lon="-2.9699572795651576">
    <tag k="addr:postcode" v="KW15 1BA"/>
    <tag k="removemelater" v="yes"/>
  </node>
  <node id="-501" lat="58.97854359343437" lon="-2.9701206459241907">
    <tag k="addr:postcode" v="KW15 1BF"/>
    <tag k="removemelater" v="yes"/>
  </node>
  <node id="-502" lat="58.97700277956298" lon="-2.964789311409697">
    <tag k="addr:postcode" v="KW15 1BG"/>
    <tag k="removemelater" v="yes"/>
  </node>
  <node id="-503" lat="58.97664662286812" lon="-2.9619614282833293">
    <tag k="addr:postcode" v="KW15 1BP"/>
    <tag k="removemelater" v="yes"/>
  </node>
  <node id="-504" lat="58.97728995561587" lon="-2.961196591250657">
    <tag k="addr:postcode" v="KW15 1BS"/>
    <tag k="removemelater" v="yes"/>
  </node>
  <node id="-505" lat="58.9770650746129" lon="-2.963660390194557">
    <tag k="addr:postcode" v="KW15 1BT"/>
    <tag k="removemelater" v="yes"/>
  </node>
  <node id="-506" lat="58.98041014837607" lon="-2.964310504963412">
    <tag k="addr:postcode" v="KW15 1BX"/>
    <tag k="removemelater" v="yes"/>
  </node>
  <node id="-507" lat="58.978929906345144" lon="-2.972497332268404">
    <tag k="addr:postcode" v="KW15 1BY"/>
    <tag k="removemelater" v="yes"/>
  </node>
  <node id="-508" lat="58.978572210752404" lon="-2.9662944221357943">
    <tag k="addr:postcode" v="KW15 1BZ"/>
    <tag k="removemelater" v="yes"/>
  </node>
  <node id="-509" lat="58.979678608835954" lon="-2.967264798828052">
    <tag k="addr:postcode" v="KW15 1DA"/>
    <tag k="removemelater" v="yes"/>
  </node>
  <node id="-510" lat="58.979678608835954" lon="-2.967264798828052">
    <tag k="addr:postcode" v="KW15 1DB"/>
    <tag k="removemelater" v="yes"/>
  </node>
  <node id="-511" lat="58.983310758343805" lon="-2.9607206128702432">
    <tag k="addr:postcode" v="KW15 1DD"/>
    <tag k="removemelater" v="yes"/>
  </node>
  <node id="-512" lat="58.98226084429324" lon="-2.9606043886255606">
    <tag k="addr:postcode" v="KW15 1DF"/>
    <tag k="removemelater" v="yes"/>
  </node>
  <node id="-513" lat="58.981001570116774" lon="-2.9608650728063997">
    <tag k="addr:postcode" v="KW15 1DG"/>
    <tag k="removemelater" v="yes"/>
  </node>
  <node id="-514" lat="58.98160330171086" lon="-2.960864434161572">
    <tag k="addr:postcode" v="KW15 1DH"/>
    <tag k="removemelater" v="yes"/>
  </node>
  <node id="-515" lat="58.98188998870753" lon="-2.9609594047926655">
    <tag k="addr:postcode" v="KW15 1DJ"/>
    <tag k="removemelater" v="yes"/>
  </node>
  <node id="-516" lat="58.97852577383332" lon="-2.9689024554938417">
    <tag k="addr:postcode" v="KW15 1DL"/>
    <tag k="removemelater" v="yes"/>
  </node>
  <node id="-517" lat="58.983310758343805" lon="-2.9607206128702432">
    <tag k="addr:postcode" v="KW15 1DP"/>
    <tag k="removemelater" v="yes"/>
  </node>
  <node id="-518" lat="58.97915529281279" lon="-2.961561679619112">
    <tag k="addr:postcode" v="KW15 1DQ"/>
    <tag k="removemelater" v="yes"/>
  </node>
  <node id="-519" lat="58.97799860838925" lon="-2.96853974705347">
    <tag k="addr:postcode" v="KW15 1DR"/>
    <tag k="removemelater" v="yes"/>
  </node>
  <node id="-520" lat="58.98021353954552" lon="-2.9617651358064667">
    <tag k="addr:postcode" v="KW15 1DS"/>
    <tag k="removemelater" v="yes"/>
  </node>
  <node id="-521" lat="58.98010423910357" lon="-2.9619708451534303">
    <tag k="addr:postcode" v="KW15 1DT"/>
    <tag k="removemelater" v="yes"/>
  </node>
  <node id="-522" lat="58.979600631727884" lon="-2.9620611809147284">
    <tag k="addr:postcode" v="KW15 1DU"/>
    <tag k="removemelater" v="yes"/>
  </node>
  <node id="-523" lat="58.97954675688176" lon="-2.962059678729738">
    <tag k="addr:postcode" v="KW15 1DX"/>
    <tag k="removemelater" v="yes"/>
  </node>
  <node id="-524" lat="58.97899114548033" lon="-2.960687316310343">
    <tag k="addr:postcode" v="KW15 1DY"/>
    <tag k="removemelater" v="yes"/>
  </node>
  <node id="-525" lat="58.97947563208969" lon="-2.96075299388096">
    <tag k="addr:postcode" v="KW15 1DZ"/>
    <tag k="removemelater" v="yes"/>
  </node>
  <node id="-526" lat="58.97703472385871" lon="-2.960493690115091">
    <tag k="addr:postcode" v="KW15 1EE"/>
    <tag k="removemelater" v="yes"/>
  </node>
  <node id="-527" lat="58.975890036460164" lon="-2.9598356377353023">
    <tag k="addr:postcode" v="KW15 1EG"/>
    <tag k="removemelater" v="yes"/>
  </node>
  <node id="-528" lat="58.97616761641116" lon="-2.9599477246191377">
    <tag k="addr:postcode" v="KW15 1EH"/>
    <tag k="removemelater" v="yes"/>
  </node>
  <node id="-529" lat="58.976493315818615" lon="-2.959626289191912">
    <tag k="addr:postcode" v="KW15 1EJ"/>
    <tag k="removemelater" v="yes"/>
  </node>
  <node id="-530" lat="58.97615275262306" lon="-2.959529846888024">
    <tag k="addr:postcode" v="KW15 1EL"/>
    <tag k="removemelater" v="yes"/>
  </node>
  <node id="-531" lat="58.975635570251406" lon="-2.95902843219654">
    <tag k="addr:postcode" v="KW15 1EQ"/>
    <tag k="removemelater" v="yes"/>
  </node>
  <node id="-532" lat="58.977964115073114" lon="-2.967147156774552">
    <tag k="addr:postcode" v="KW15 1EX"/>
    <tag k="removemelater" v="yes"/>
  </node>
  <node id="-533" lat="58.979149155216895" lon="-2.961178799702216">
    <tag k="addr:postcode" v="KW15 1EZ"/>
    <tag k="removemelater" v="yes"/>
  </node>
  <node id="-534" lat="58.980124159394876" lon="-2.9713306433427724">
    <tag k="addr:postcode" v="KW15 1FJ"/>
    <tag k="removemelater" v="yes"/>
  </node>
  <node id="-535" lat="58.99247977881891" lon="-2.9775955160422938">
    <tag k="addr:postcode" v="KW15 1FL"/>
    <tag k="removemelater" v="yes"/>
  </node>
  <node id="-536" lat="58.98449595406273" lon="-2.9411976732636007">
    <tag k="addr:postcode" v="KW15 1FQ"/>
    <tag k="removemelater" v="yes"/>
  </node>
  <node id="-537" lat="58.98440957492583" lon="-2.941960848918888">
    <tag k="addr:postcode" v="KW15 1FR"/>
    <tag k="removemelater" v="yes"/>
  </node>
  <node id="-538" lat="58.97990036074481" lon="-2.9688366781604394">
    <tag k="addr:postcode" v="KW15 1FT"/>
    <tag k="removemelater" v="yes"/>
  </node>
  <node id="-539" lat="58.97930409417346" lon="-2.9681067014990115">
    <tag k="addr:postcode" v="KW15 1FY"/>
    <tag k="removemelater" v="yes"/>
  </node>
  <node id="-540" lat="58.97930409417346" lon="-2.9681067014990115">
    <tag k="addr:postcode" v="KW15 1FZ"/>
    <tag k="removemelater" v="yes"/>
  </node>
  <node id="-541" lat="58.981306108167516" lon="-2.954906404839672">
    <tag k="addr:postcode" v="KW15 1GA"/>
    <tag k="removemelater" v="yes"/>
  </node>
  <node id="-542" lat="58.983310758343805" lon="-2.9607206128702432">
    <tag k="addr:postcode" v="KW15 1GB"/>
    <tag k="removemelater" v="yes"/>
  </node>
  <node id="-543" lat="58.988999486261285" lon="-2.9782103054334197">
    <tag k="addr:postcode" v="KW15 1GD"/>
    <tag k="removemelater" v="yes"/>
  </node>
  <node id="-544" lat="58.99027918878913" lon="-2.974052838372205">
    <tag k="addr:postcode" v="KW15 1GE"/>
    <tag k="removemelater" v="yes"/>
  </node>
  <node id="-545" lat="58.993723299949316" lon="-2.9758556373683644">
    <tag k="addr:postcode" v="KW15 1GG"/>
    <tag k="removemelater" v="yes"/>
  </node>
  <node id="-546" lat="58.98924980359778" lon="-2.977173345442713">
    <tag k="addr:postcode" v="KW15 1GJ"/>
    <tag k="removemelater" v="yes"/>
  </node>
  <node id="-547" lat="58.9886883907923" lon="-2.9753999688896404">
    <tag k="addr:postcode" v="KW15 1GL"/>
    <tag k="removemelater" v="yes"/>
  </node>
  <node id="-548" lat="58.9874012843425" lon="-2.9709961597495407">
    <tag k="addr:postcode" v="KW15 1GN"/>
    <tag k="removemelater" v="yes"/>
  </node>
  <node id="-549" lat="58.988957691141906" lon="-2.9742243278310654">
    <tag k="addr:postcode" v="KW15 1GP"/>
    <tag k="removemelater" v="yes"/>
  </node>
  <node id="-550" lat="58.987876402617616" lon="-2.974698395423709">
    <tag k="addr:postcode" v="KW15 1GR"/>
    <tag k="removemelater" v="yes"/>
  </node>
  <node id="-551" lat="58.989026241443206" lon="-2.971076707464542">
    <tag k="addr:postcode" v="KW15 1GT"/>
    <tag k="removemelater" v="yes"/>
  </node>
  <node id="-552" lat="58.98301619384203" lon="-2.9616866870666287">
    <tag k="addr:postcode" v="KW15 1GU"/>
    <tag k="removemelater" v="yes"/>
  </node>
  <node id="-553" lat="58.97923277062171" lon="-2.9668347985499794">
    <tag k="addr:postcode" v="KW15 1GW"/>
    <tag k="removemelater" v="yes"/>
  </node>
  <node id="-554" lat="58.98173359817195" lon="-2.961459566441422">
    <tag k="addr:postcode" v="KW15 1GY"/>
    <tag k="removemelater" v="yes"/>
  </node>
  <node id="-555" lat="58.98282175740972" lon="-2.9576276016917555">
    <tag k="addr:postcode" v="KW15 1GZ"/>
    <tag k="removemelater" v="yes"/>
  </node>
  <node id="-556" lat="58.982751082297014" lon="-2.961105173692685">
    <tag k="addr:postcode" v="KW15 1HD"/>
    <tag k="removemelater" v="yes"/>
  </node>
  <node id="-557" lat="58.9822921684975" lon="-2.9600137478513253">
    <tag k="addr:postcode" v="KW15 1HE"/>
    <tag k="removemelater" v="yes"/>
  </node>
  <node id="-558" lat="58.98228654212888" lon="-2.9595612579590522">
    <tag k="addr:postcode" v="KW15 1HF"/>
    <tag k="removemelater" v="yes"/>
  </node>
  <node id="-559" lat="58.98215623696113" lon="-2.95896612320221">
    <tag k="addr:postcode" v="KW15 1HG"/>
    <tag k="removemelater" v="yes"/>
  </node>
  <node id="-560" lat="58.98327081044626" lon="-2.958840523740328">
    <tag k="addr:postcode" v="KW15 1HL"/>
    <tag k="removemelater" v="yes"/>
  </node>
  <node id="-561" lat="58.98278976092624" lon="-2.9595230613732113">
    <tag k="addr:postcode" v="KW15 1HQ"/>
    <tag k="removemelater" v="yes"/>
  </node>
  <node id="-562" lat="58.984191705756295" lon="-2.9581875822243973">
    <tag k="addr:postcode" v="KW15 1HR"/>
    <tag k="removemelater" v="yes"/>
  </node>
  <node id="-563" lat="58.983310758343805" lon="-2.9607206128702432">
    <tag k="addr:postcode" v="KW15 1HS"/>
    <tag k="removemelater" v="yes"/>
  </node>
  <node id="-564" lat="58.98361597096676" lon="-2.9595286431952332">
    <tag k="addr:postcode" v="KW15 1HW"/>
    <tag k="removemelater" v="yes"/>
  </node>
  <node id="-565" lat="58.98396225959635" lon="-2.95642398349593">
    <tag k="addr:postcode" v="KW15 1JA"/>
    <tag k="removemelater" v="yes"/>
  </node>
  <node id="-566" lat="58.98400764816739" lon="-2.957573529461661">
    <tag k="addr:postcode" v="KW15 1JB"/>
    <tag k="removemelater" v="yes"/>
  </node>
  <node id="-567" lat="58.983734181871995" lon="-2.9569048086710454">
    <tag k="addr:postcode" v="KW15 1JD"/>
    <tag k="removemelater" v="yes"/>
  </node>
  <node id="-568" lat="58.98328933731282" lon="-2.956335735867781">
    <tag k="addr:postcode" v="KW15 1JE"/>
    <tag k="removemelater" v="yes"/>
  </node>
  <node id="-569" lat="58.98129671710762" lon="-2.9573939056361294">
    <tag k="addr:postcode" v="KW15 1JG"/>
    <tag k="removemelater" v="yes"/>
  </node>
  <node id="-570" lat="58.980008545789495" lon="-2.9591325820140426">
    <tag k="addr:postcode" v="KW15 1JN"/>
    <tag k="removemelater" v="yes"/>
  </node>
  <node id="-571" lat="58.97954209940092" lon="-2.96026775514759">
    <tag k="addr:postcode" v="KW15 1JP"/>
    <tag k="removemelater" v="yes"/>
  </node>
  <node id="-572" lat="58.97985100186155" lon="-2.959789258426126">
    <tag k="addr:postcode" v="KW15 1JW"/>
    <tag k="removemelater" v="yes"/>
  </node>
  <node id="-573" lat="58.98365862092543" lon="-2.961043466661539">
    <tag k="addr:postcode" v="KW15 1JY"/>
    <tag k="removemelater" v="yes"/>
  </node>
  <node id="-574" lat="58.98359620757678" lon="-2.9597716668383285">
    <tag k="addr:postcode" v="KW15 1JZ"/>
    <tag k="removemelater" v="yes"/>
  </node>
  <node id="-575" lat="58.98364509969538" lon="-2.9592336853448673">
    <tag k="addr:postcode" v="KW15 1LA"/>
    <tag k="removemelater" v="yes"/>
  </node>
  <node id="-576" lat="58.98419819687915" lon="-2.959736219911272">
    <tag k="addr:postcode" v="KW15 1LB"/>
    <tag k="removemelater" v="yes"/>
  </node>
  <node id="-577" lat="58.984311489216786" lon="-2.9589912381880286">
    <tag k="addr:postcode" v="KW15 1LD"/>
    <tag k="removemelater" v="yes"/>
  </node>
  <node id="-578" lat="58.9845396621115" lon="-2.959710922648677">
    <tag k="addr:postcode" v="KW15 1LE"/>
    <tag k="removemelater" v="yes"/>
  </node>
  <node id="-579" lat="58.98510773432411" lon="-2.9569777078026265">
    <tag k="addr:postcode" v="KW15 1LG"/>
    <tag k="removemelater" v="yes"/>
  </node>
  <node id="-580" lat="58.982478182376816" lon="-2.9735890123794175">
    <tag k="addr:postcode" v="KW15 1LR"/>
    <tag k="removemelater" v="yes"/>
  </node>
  <node id="-581" lat="58.983185189153815" lon="-2.9546278566796467">
    <tag k="addr:postcode" v="KW15 1NE"/>
    <tag k="removemelater" v="yes"/>
  </node>
  <node id="-582" lat="58.9842991089845" lon="-2.9606611452858074">
    <tag k="addr:postcode" v="KW15 1NU"/>
    <tag k="removemelater" v="yes"/>
  </node>
  <node id="-583" lat="58.983149481170145" lon="-2.9582456240666235">
    <tag k="addr:postcode" v="KW15 1NW"/>
    <tag k="removemelater" v="yes"/>
  </node>
  <node id="-584" lat="58.982087453735886" lon="-2.959764488687451">
    <tag k="addr:postcode" v="KW15 1NX"/>
    <tag k="removemelater" v="yes"/>
  </node>
  <node id="-585" lat="58.98115752638357" lon="-2.9579989333341956">
    <tag k="addr:postcode" v="KW15 1PA"/>
    <tag k="removemelater" v="yes"/>
  </node>
  <node id="-586" lat="58.98086125952451" lon="-2.960408850503352">
    <tag k="addr:postcode" v="KW15 1PB"/>
    <tag k="removemelater" v="yes"/>
  </node>
  <node id="-587" lat="58.98040079272347" lon="-2.9595262086828167">
    <tag k="addr:postcode" v="KW15 1PD"/>
    <tag k="removemelater" v="yes"/>
  </node>
  <node id="-588" lat="58.98111401307252" lon="-2.950499690739162">
    <tag k="addr:postcode" v="KW15 1PJ"/>
    <tag k="removemelater" v="yes"/>
  </node>
  <node id="-589" lat="58.98185224931072" lon="-2.9636201287053696">
    <tag k="addr:postcode" v="KW15 1QS"/>
    <tag k="removemelater" v="yes"/>
  </node>
  <node id="-590" lat="58.9844992319506" lon="-2.9627371464159222">
    <tag k="addr:postcode" v="KW15 1QX"/>
    <tag k="removemelater" v="yes"/>
  </node>
  <node id="-591" lat="58.98393929125966" lon="-2.9631564768503695">
    <tag k="addr:postcode" v="KW15 1QY"/>
    <tag k="removemelater" v="yes"/>
  </node>
  <node id="-592" lat="58.98563137447732" lon="-2.9698849908168463">
    <tag k="addr:postcode" v="KW15 1QZ"/>
    <tag k="removemelater" v="yes"/>
  </node>
  <node id="-593" lat="58.993323314673624" lon="-2.97171979902601">
    <tag k="addr:postcode" v="KW15 1RA"/>
    <tag k="removemelater" v="yes"/>
  </node>
  <node id="-594" lat="58.98943521259763" lon="-2.9775962244241505">
    <tag k="addr:postcode" v="KW15 1RE"/>
    <tag k="removemelater" v="yes"/>
  </node>
  <node id="-595" lat="58.99281020037086" lon="-2.971879368394008">
    <tag k="addr:postcode" v="KW15 1RG"/>
    <tag k="removemelater" v="yes"/>
  </node>
  <node id="-596" lat="58.986768071721116" lon="-2.970404144034702">
    <tag k="addr:postcode" v="KW15 1RH"/>
    <tag k="removemelater" v="yes"/>
  </node>
  <node id="-597" lat="58.981749529887814" lon="-2.970158600141698">
    <tag k="addr:postcode" v="KW15 1RP"/>
    <tag k="removemelater" v="yes"/>
  </node>
  <node id="-598" lat="58.981664128475465" lon="-2.9719655021597493">
    <tag k="addr:postcode" v="KW15 1RR"/>
    <tag k="removemelater" v="yes"/>
  </node>
  <node id="-599" lat="58.980824833509466" lon="-2.978465633978927">
    <tag k="addr:postcode" v="KW15 1RS"/>
    <tag k="removemelater" v="yes"/>
  </node>
  <node id="-600" lat="58.96882778164098" lon="-2.977064708716207">
    <tag k="addr:postcode" v="KW15 1SB"/>
    <tag k="removemelater" v="yes"/>
  </node>
  <node id="-601" lat="58.96837069923908" lon="-2.935610411583623">
    <tag k="addr:postcode" v="KW15 1SR"/>
    <tag k="removemelater" v="yes"/>
  </node>
  <node id="-602" lat="58.974155203127154" lon="-2.935506328474153">
    <tag k="addr:postcode" v="KW15 1TA"/>
    <tag k="removemelater" v="yes"/>
  </node>
  <node id="-603" lat="58.986584253449976" lon="-2.930606131074322">
    <tag k="addr:postcode" v="KW15 1TB"/>
    <tag k="removemelater" v="yes"/>
  </node>
  <node id="-604" lat="58.9958335463383" lon="-2.9456319263866826">
    <tag k="addr:postcode" v="KW15 1TE"/>
    <tag k="removemelater" v="yes"/>
  </node>
  <node id="-605" lat="58.98244049531123" lon="-2.9618098194508113">
    <tag k="addr:postcode" v="KW15 1TG"/>
    <tag k="removemelater" v="yes"/>
  </node>
  <node id="-606" lat="58.95374257934298" lon="-2.9024646215903913">
    <tag k="addr:postcode" v="KW15 1TH"/>
    <tag k="removemelater" v="yes"/>
  </node>
  <node id="-607" lat="58.99552098104848" lon="-3.0936814012450182">
    <tag k="addr:postcode" v="KW15 1TT"/>
    <tag k="removemelater" v="yes"/>
  </node>
  <node id="-608" lat="59.0014544608163" lon="-3.0940437089159043">
    <tag k="addr:postcode" v="KW15 1TU"/>
    <tag k="removemelater" v="yes"/>
  </node>
  <node id="-609" lat="58.998191091208426" lon="-2.942546204635651">
    <tag k="addr:postcode" v="KW15 1UE"/>
    <tag k="removemelater" v="yes"/>
  </node>
  <node id="-610" lat="58.99568807501394" lon="-2.928502261290971">
    <tag k="addr:postcode" v="KW15 1UF"/>
    <tag k="removemelater" v="yes"/>
  </node>
  <node id="-611" lat="58.98504358940808" lon="-2.9740093922756676">
    <tag k="addr:postcode" v="KW15 1UH"/>
    <tag k="removemelater" v="yes"/>
  </node>
  <node id="-612" lat="58.99352736515617" lon="-2.940434781362905">
    <tag k="addr:postcode" v="KW15 1UJ"/>
    <tag k="removemelater" v="yes"/>
  </node>
  <node id="-613" lat="58.983310758343805" lon="-2.9607206128702432">
    <tag k="addr:postcode" v="KW15 1WP"/>
    <tag k="removemelater" v="yes"/>
  </node>
  <node id="-614" lat="58.983310758343805" lon="-2.9607206128702432">
    <tag k="addr:postcode" v="KW15 1WQ"/>
    <tag k="removemelater" v="yes"/>
  </node>
  <node id="-615" lat="58.96914510601276" lon="-2.953787373799182">
    <tag k="addr:postcode" v="KW15 1WU"/>
    <tag k="removemelater" v="yes"/>
  </node>
  <node id="-616" lat="58.97527311695511" lon="-2.9691068278241386">
    <tag k="addr:postcode" v="KW15 1WY"/>
    <tag k="removemelater" v="yes"/>
  </node>
  <node id="-617" lat="58.98348283069669" lon="-2.9593161635992127">
    <tag k="addr:postcode" v="KW15 1WZ"/>
    <tag k="removemelater" v="yes"/>
  </node>
  <node id="-618" lat="58.979881935628704" lon="-2.9592508360124463">
    <tag k="addr:postcode" v="KW15 1XY"/>
    <tag k="removemelater" v="yes"/>
  </node>
  <node id="-619" lat="58.983310758343805" lon="-2.9607206128702432">
    <tag k="addr:postcode" v="KW15 1YA"/>
    <tag k="removemelater" v="yes"/>
  </node>
  <node id="-620" lat="58.983310758343805" lon="-2.9607206128702432">
    <tag k="addr:postcode" v="KW15 1YB"/>
    <tag k="removemelater" v="yes"/>
  </node>
  <node id="-621" lat="58.983310758343805" lon="-2.9607206128702432">
    <tag k="addr:postcode" v="KW15 1YQ"/>
    <tag k="removemelater" v="yes"/>
  </node>
  <node id="-622" lat="58.984626824959314" lon="-2.975685294226273">
    <tag k="addr:postcode" v="KW15 1ZG"/>
    <tag k="removemelater" v="yes"/>
  </node>
  <node id="-623" lat="58.98376286494191" lon="-2.9759218325213466">
    <tag k="addr:postcode" v="KW15 1ZH"/>
    <tag k="removemelater" v="yes"/>
  </node>
  <node id="-624" lat="58.98376489130061" lon="-2.9768439955613513">
    <tag k="addr:postcode" v="KW15 1ZJ"/>
    <tag k="removemelater" v="yes"/>
  </node>
  <node id="-625" lat="58.99816901346433" lon="-2.985328216046144">
    <tag k="addr:postcode" v="KW15 1ZL"/>
    <tag k="removemelater" v="yes"/>
  </node>
  <node id="-626" lat="58.98387421647839" lon="-2.958613719653939">
    <tag k="addr:postcode" v="KW15 1ZQ"/>
    <tag k="removemelater" v="yes"/>
  </node>
  <node id="-627" lat="58.983310758343805" lon="-2.9607206128702432">
    <tag k="addr:postcode" v="KW15 9AD"/>
    <tag k="removemelater" v="yes"/>
  </node>
  <node id="-628" lat="58.983310758343805" lon="-2.9607206128702432">
    <tag k="addr:postcode" v="KW15 9BD"/>
    <tag k="removemelater" v="yes"/>
  </node>
  <node id="-629" lat="58.983310758343805" lon="-2.9607206128702432">
    <tag k="addr:postcode" v="KW15 9BG"/>
    <tag k="removemelater" v="yes"/>
  </node>
  <node id="-630" lat="58.9814716930736" lon="-2.956807262533425">
    <tag k="addr:postcode" v="KW15 9SA"/>
    <tag k="removemelater" v="yes"/>
  </node>
  <node id="-631" lat="58.9831955783107" lon="-2.960508630578381">
    <tag k="addr:postcode" v="KW15 9ZZ"/>
    <tag k="removemelater" v="yes"/>
  </node>
  <node id="-632" lat="58.96334282934353" lon="-3.2976726211448235">
    <tag k="addr:postcode" v="KW16 3AA"/>
    <tag k="removemelater" v="yes"/>
  </node>
  <node id="-633" lat="58.964651453561615" lon="-3.2970436187945134">
    <tag k="addr:postcode" v="KW16 3AD"/>
    <tag k="removemelater" v="yes"/>
  </node>
  <node id="-634" lat="58.9649112007753" lon="-3.296218675545961">
    <tag k="addr:postcode" v="KW16 3AE"/>
    <tag k="removemelater" v="yes"/>
  </node>
  <node id="-635" lat="58.96717896186615" lon="-3.283156425494167">
    <tag k="addr:postcode" v="KW16 3AF"/>
    <tag k="removemelater" v="yes"/>
  </node>
  <node id="-636" lat="58.9670783078168" lon="-3.29506530737704">
    <tag k="addr:postcode" v="KW16 3AG"/>
    <tag k="removemelater" v="yes"/>
  </node>
  <node id="-637" lat="58.97056101732861" lon="-3.2943785340660954">
    <tag k="addr:postcode" v="KW16 3AH"/>
    <tag k="removemelater" v="yes"/>
  </node>
  <node id="-638" lat="58.96504030349049" lon="-3.2985711311462893">
    <tag k="addr:postcode" v="KW16 3AJ"/>
    <tag k="removemelater" v="yes"/>
  </node>
  <node id="-639" lat="58.96482125634242" lon="-3.298023814790792">
    <tag k="addr:postcode" v="KW16 3AL"/>
    <tag k="removemelater" v="yes"/>
  </node>
  <node id="-640" lat="58.964354380467775" lon="-3.2997973644542005">
    <tag k="addr:postcode" v="KW16 3AN"/>
    <tag k="removemelater" v="yes"/>
  </node>
  <node id="-641" lat="58.96200131209378" lon="-3.300682518644418">
    <tag k="addr:postcode" v="KW16 3AP"/>
    <tag k="removemelater" v="yes"/>
  </node>
  <node id="-642" lat="58.96936390256831" lon="-3.2955336811429827">
    <tag k="addr:postcode" v="KW16 3AQ"/>
    <tag k="removemelater" v="yes"/>
  </node>
  <node id="-643" lat="58.961685330917994" lon="-3.300844495556919">
    <tag k="addr:postcode" v="KW16 3AR"/>
    <tag k="removemelater" v="yes"/>
  </node>
  <node id="-644" lat="58.96191777717091" lon="-3.301844376575893">
    <tag k="addr:postcode" v="KW16 3AS"/>
    <tag k="removemelater" v="yes"/>
  </node>
  <node id="-645" lat="58.961529445040625" lon="-3.3020557780638464">
    <tag k="addr:postcode" v="KW16 3AT"/>
    <tag k="removemelater" v="yes"/>
  </node>
  <node id="-646" lat="58.961698335084854" lon="-3.3031228164689153">
    <tag k="addr:postcode" v="KW16 3AU"/>
    <tag k="removemelater" v="yes"/>
  </node>
  <node id="-647" lat="58.9635309779976" lon="-3.3012965919275277">
    <tag k="addr:postcode" v="KW16 3AW"/>
    <tag k="removemelater" v="yes"/>
  </node>
  <node id="-648" lat="58.96215871905807" lon="-3.3037835578148513">
    <tag k="addr:postcode" v="KW16 3AX"/>
    <tag k="removemelater" v="yes"/>
  </node>
  <node id="-649" lat="58.96257166176212" lon="-3.302912339393001">
    <tag k="addr:postcode" v="KW16 3AY"/>
    <tag k="removemelater" v="yes"/>
  </node>
  <node id="-650" lat="58.96354222274657" lon="-3.3037488581284946">
    <tag k="addr:postcode" v="KW16 3AZ"/>
    <tag k="removemelater" v="yes"/>
  </node>
  <node id="-651" lat="58.96258072761582" lon="-3.2993306578651875">
    <tag k="addr:postcode" v="KW16 3BB"/>
    <tag k="removemelater" v="yes"/>
  </node>
  <node id="-652" lat="58.96219749743539" lon="-3.301715817221202">
    <tag k="addr:postcode" v="KW16 3BF"/>
    <tag k="removemelater" v="yes"/>
  </node>
  <node id="-653" lat="58.962975069551256" lon="-3.304770761990983">
    <tag k="addr:postcode" v="KW16 3BG"/>
    <tag k="removemelater" v="yes"/>
  </node>
  <node id="-654" lat="58.96406506655186" lon="-3.295508728862282">
    <tag k="addr:postcode" v="KW16 3BH"/>
    <tag k="removemelater" v="yes"/>
  </node>
  <node id="-655" lat="58.968324509388566" lon="-3.2817555306077484">
    <tag k="addr:postcode" v="KW16 3BL"/>
    <tag k="removemelater" v="yes"/>
  </node>
  <node id="-656" lat="58.96368681485899" lon="-3.30187630337565">
    <tag k="addr:postcode" v="KW16 3BP"/>
    <tag k="removemelater" v="yes"/>
  </node>
  <node id="-657" lat="58.96254275521675" lon="-3.305780343732244">
    <tag k="addr:postcode" v="KW16 3BQ"/>
    <tag k="removemelater" v="yes"/>
  </node>
  <node id="-658" lat="58.96221175204387" lon="-3.2994037138423717">
    <tag k="addr:postcode" v="KW16 3BT"/>
    <tag k="removemelater" v="yes"/>
  </node>
  <node id="-659" lat="58.96605481133059" lon="-3.2851145096501346">
    <tag k="addr:postcode" v="KW16 3BW"/>
    <tag k="removemelater" v="yes"/>
  </node>
  <node id="-660" lat="58.9619123322135" lon="-3.2997054317071672">
    <tag k="addr:postcode" v="KW16 3BX"/>
    <tag k="removemelater" v="yes"/>
  </node>
  <node id="-661" lat="58.961182485720634" lon="-3.2999387754133145">
    <tag k="addr:postcode" v="KW16 3BY"/>
    <tag k="removemelater" v="yes"/>
  </node>
  <node id="-662" lat="58.96061564188466" lon="-3.3000391474346156">
    <tag k="addr:postcode" v="KW16 3BZ"/>
    <tag k="removemelater" v="yes"/>
  </node>
  <node id="-663" lat="58.95990008300278" lon="-3.3006381430936487">
    <tag k="addr:postcode" v="KW16 3DA"/>
    <tag k="removemelater" v="yes"/>
  </node>
  <node id="-664" lat="58.96073801756264" lon="-3.300374118074577">
    <tag k="addr:postcode" v="KW16 3DB"/>
    <tag k="removemelater" v="yes"/>
  </node>
  <node id="-665" lat="58.959705951295724" lon="-3.301187215371689">
    <tag k="addr:postcode" v="KW16 3DD"/>
    <tag k="removemelater" v="yes"/>
  </node>
  <node id="-666" lat="58.959791537505915" lon="-3.30160772991804">
    <tag k="addr:postcode" v="KW16 3DE"/>
    <tag k="removemelater" v="yes"/>
  </node>
  <node id="-667" lat="58.95847734691847" lon="-3.301001829584318">
    <tag k="addr:postcode" v="KW16 3DF"/>
    <tag k="removemelater" v="yes"/>
  </node>
  <node id="-668" lat="58.95887716796023" lon="-3.3014341714552042">
    <tag k="addr:postcode" v="KW16 3DG"/>
    <tag k="removemelater" v="yes"/>
  </node>
  <node id="-669" lat="58.95771339622224" lon="-3.3019466652978307">
    <tag k="addr:postcode" v="KW16 3DH"/>
    <tag k="removemelater" v="yes"/>
  </node>
  <node id="-670" lat="58.957279412204045" lon="-3.301339186709571">
    <tag k="addr:postcode" v="KW16 3DJ"/>
    <tag k="removemelater" v="yes"/>
  </node>
  <node id="-671" lat="58.95570485402786" lon="-3.3007235357510543">
    <tag k="addr:postcode" v="KW16 3DL"/>
    <tag k="removemelater" v="yes"/>
  </node>
  <node id="-672" lat="58.954432929353935" lon="-3.300380099427535">
    <tag k="addr:postcode" v="KW16 3DN"/>
    <tag k="removemelater" v="yes"/>
  </node>
  <node id="-673" lat="58.95487135273899" lon="-3.3014396816923828">
    <tag k="addr:postcode" v="KW16 3DP"/>
    <tag k="removemelater" v="yes"/>
  </node>
  <node id="-674" lat="58.95812796332411" lon="-3.3018058191957205">
    <tag k="addr:postcode" v="KW16 3DQ"/>
    <tag k="removemelater" v="yes"/>
  </node>
  <node id="-675" lat="58.95585888640371" lon="-3.303267559183138">
    <tag k="addr:postcode" v="KW16 3DR"/>
    <tag k="removemelater" v="yes"/>
  </node>
  <node id="-676" lat="58.95643453600011" lon="-3.303184970488279">
    <tag k="addr:postcode" v="KW16 3DS"/>
    <tag k="removemelater" v="yes"/>
  </node>
  <node id="-677" lat="58.957686395131304" lon="-3.30373640589699">
    <tag k="addr:postcode" v="KW16 3DT"/>
    <tag k="removemelater" v="yes"/>
  </node>
  <node id="-678" lat="58.96027598950923" lon="-3.30433841173869">
    <tag k="addr:postcode" v="KW16 3DU"/>
    <tag k="removemelater" v="yes"/>
  </node>
  <node id="-679" lat="58.95310601093027" lon="-3.2992523531115463">
    <tag k="addr:postcode" v="KW16 3DW"/>
    <tag k="removemelater" v="yes"/>
  </node>
  <node id="-680" lat="58.961803709863396" lon="-3.3051438110586147">
    <tag k="addr:postcode" v="KW16 3DX"/>
    <tag k="removemelater" v="yes"/>
  </node>
  <node id="-681" lat="58.96041056180379" lon="-3.3025699824804633">
    <tag k="addr:postcode" v="KW16 3DY"/>
    <tag k="removemelater" v="yes"/>
  </node>
  <node id="-682" lat="58.96101151223846" lon="-3.3017580442815233">
    <tag k="addr:postcode" v="KW16 3DZ"/>
    <tag k="removemelater" v="yes"/>
  </node>
  <node id="-683" lat="58.9611848935836" lon="-3.3014863767123908">
    <tag k="addr:postcode" v="KW16 3EA"/>
    <tag k="removemelater" v="yes"/>
  </node>
  <node id="-684" lat="58.9597954895643" lon="-3.3003212363513073">
    <tag k="addr:postcode" v="KW16 3EB"/>
    <tag k="removemelater" v="yes"/>
  </node>
  <node id="-685" lat="58.9586820962109" lon="-3.3011834085856346">
    <tag k="addr:postcode" v="KW16 3ED"/>
    <tag k="removemelater" v="yes"/>
  </node>
  <node id="-686" lat="58.96690494662299" lon="-3.2827114755755926">
    <tag k="addr:postcode" v="KW16 3EE"/>
    <tag k="removemelater" v="yes"/>
  </node>
  <node id="-687" lat="58.967687942821925" lon="-3.2825492699396697">
    <tag k="addr:postcode" v="KW16 3EF"/>
    <tag k="removemelater" v="yes"/>
  </node>
  <node id="-688" lat="58.96152442513887" lon="-3.303446623772987">
    <tag k="addr:postcode" v="KW16 3EH"/>
    <tag k="removemelater" v="yes"/>
  </node>
  <node id="-689" lat="58.95690674620122" lon="-3.304454554097373">
    <tag k="addr:postcode" v="KW16 3EJ"/>
    <tag k="removemelater" v="yes"/>
  </node>
  <node id="-690" lat="58.955929358337684" lon="-3.304295940895274">
    <tag k="addr:postcode" v="KW16 3EL"/>
    <tag k="removemelater" v="yes"/>
  </node>
  <node id="-691" lat="58.965515874228984" lon="-3.2995106863466495">
    <tag k="addr:postcode" v="KW16 3EP"/>
    <tag k="removemelater" v="yes"/>
  </node>
  <node id="-692" lat="58.95794294979916" lon="-3.3050152798998327">
    <tag k="addr:postcode" v="KW16 3EQ"/>
    <tag k="removemelater" v="yes"/>
  </node>
  <node id="-693" lat="58.97707562845265" lon="-3.288673552085064">
    <tag k="addr:postcode" v="KW16 3EU"/>
    <tag k="removemelater" v="yes"/>
  </node>
  <node id="-694" lat="58.97675460290374" lon="-3.2406326170579303">
    <tag k="addr:postcode" v="KW16 3EY"/>
    <tag k="removemelater" v="yes"/>
  </node>
  <node id="-695" lat="58.97245609666661" lon="-3.222319575691477">
    <tag k="addr:postcode" v="KW16 3EZ"/>
    <tag k="removemelater" v="yes"/>
  </node>
  <node id="-696" lat="58.96217484804177" lon="-3.113577097884076">
    <tag k="addr:postcode" v="KW16 3HD"/>
    <tag k="removemelater" v="yes"/>
  </node>
  <node id="-697" lat="59.00272528080081" lon="-3.1735524811439872">
    <tag k="addr:postcode" v="KW16 3HG"/>
    <tag k="removemelater" v="yes"/>
  </node>
  <node id="-698" lat="58.993221943137" lon="-3.1786241519343053">
    <tag k="addr:postcode" v="KW16 3HH"/>
    <tag k="removemelater" v="yes"/>
  </node>
  <node id="-699" lat="58.97316258096379" lon="-3.2919887953367666">
    <tag k="addr:postcode" v="KW16 3HJ"/>
    <tag k="removemelater" v="yes"/>
  </node>
  <node id="-700" lat="58.99917112493261" lon="-3.1772435289469274">
    <tag k="addr:postcode" v="KW16 3HQ"/>
    <tag k="removemelater" v="yes"/>
  </node>
  <node id="-701" lat="58.97370724428693" lon="-3.2932093745046918">
    <tag k="addr:postcode" v="KW16 3HR"/>
    <tag k="removemelater" v="yes"/>
  </node>
  <node id="-702" lat="58.97305706135927" lon="-3.2989423345792783">
    <tag k="addr:postcode" v="KW16 3HS"/>
    <tag k="removemelater" v="yes"/>
  </node>
  <node id="-703" lat="58.96992058466892" lon="-3.287449842609441">
    <tag k="addr:postcode" v="KW16 3JG"/>
    <tag k="removemelater" v="yes"/>
  </node>
  <node id="-704" lat="58.97193744787044" lon="-3.2742367375007415">
    <tag k="addr:postcode" v="KW16 3JH"/>
    <tag k="removemelater" v="yes"/>
  </node>
  <node id="-705" lat="58.95959047141762" lon="-3.289394518634204">
    <tag k="addr:postcode" v="KW16 3JJ"/>
    <tag k="removemelater" v="yes"/>
  </node>
  <node id="-706" lat="58.97059447611353" lon="-3.2865183939017584">
    <tag k="addr:postcode" v="KW16 3JL"/>
    <tag k="removemelater" v="yes"/>
  </node>
  <node id="-707" lat="58.96233332813129" lon="-3.307841637969526">
    <tag k="addr:postcode" v="KW16 3JN"/>
    <tag k="removemelater" v="yes"/>
  </node>
  <node id="-708" lat="58.96663870189169" lon="-3.3278125957770883">
    <tag k="addr:postcode" v="KW16 3JP"/>
    <tag k="removemelater" v="yes"/>
  </node>
  <node id="-709" lat="58.96726668949142" lon="-3.2860813360335235">
    <tag k="addr:postcode" v="KW16 3JQ"/>
    <tag k="removemelater" v="yes"/>
  </node>
  <node id="-710" lat="58.957326510346036" lon="-3.3064697807245764">
    <tag k="addr:postcode" v="KW16 3JR"/>
    <tag k="removemelater" v="yes"/>
  </node>
  <node id="-711" lat="58.969975248048605" lon="-3.290078096059061">
    <tag k="addr:postcode" v="KW16 3JS"/>
    <tag k="removemelater" v="yes"/>
  </node>
  <node id="-712" lat="58.97097173634194" lon="-3.285610645806174">
    <tag k="addr:postcode" v="KW16 3JT"/>
    <tag k="removemelater" v="yes"/>
  </node>
  <node id="-713" lat="58.97598345395317" lon="-3.2737947004294594">
    <tag k="addr:postcode" v="KW16 3JU"/>
    <tag k="removemelater" v="yes"/>
  </node>
  <node id="-714" lat="58.96085985290326" lon="-3.3140975366735965">
    <tag k="addr:postcode" v="KW16 3JW"/>
    <tag k="removemelater" v="yes"/>
  </node>
  <node id="-715" lat="58.98533280988942" lon="-3.2292311036959864">
    <tag k="addr:postcode" v="KW16 3JX"/>
    <tag k="removemelater" v="yes"/>
  </node>
  <node id="-716" lat="58.98759936555809" lon="-3.207891473202775">
    <tag k="addr:postcode" v="KW16 3JY"/>
    <tag k="removemelater" v="yes"/>
  </node>
  <node id="-717" lat="58.99696187837469" lon="-3.214189534718491">
    <tag k="addr:postcode" v="KW16 3JZ"/>
    <tag k="removemelater" v="yes"/>
  </node>
  <node id="-718" lat="58.979373247107965" lon="-3.175611163219789">
    <tag k="addr:postcode" v="KW16 3LA"/>
    <tag k="removemelater" v="yes"/>
  </node>
  <node id="-719" lat="58.98327802398096" lon="-3.2147518089190465">
    <tag k="addr:postcode" v="KW16 3LB"/>
    <tag k="removemelater" v="yes"/>
  </node>
  <node id="-720" lat="58.970315984027394" lon="-3.2847166056285753">
    <tag k="addr:postcode" v="KW16 3LE"/>
    <tag k="removemelater" v="yes"/>
  </node>
  <node id="-721" lat="58.972420345894975" lon="-3.2916653222649885">
    <tag k="addr:postcode" v="KW16 3LH"/>
    <tag k="removemelater" v="yes"/>
  </node>
  <node id="-722" lat="58.97371032779491" lon="-3.290200321004448">
    <tag k="addr:postcode" v="KW16 3LJ"/>
    <tag k="removemelater" v="yes"/>
  </node>
  <node id="-723" lat="59.048926722360804" lon="-3.335728229287789">
    <tag k="addr:postcode" v="KW16 3LR"/>
    <tag k="removemelater" v="yes"/>
  </node>
  <node id="-724" lat="59.07074791043867" lon="-3.3158882990085523">
    <tag k="addr:postcode" v="KW16 3LT"/>
    <tag k="removemelater" v="yes"/>
  </node>
  <node id="-725" lat="59.07571486385445" lon="-3.3202828645576736">
    <tag k="addr:postcode" v="KW16 3LU"/>
    <tag k="removemelater" v="yes"/>
  </node>
  <node id="-726" lat="59.067867592556055" lon="-3.3156210868254496">
    <tag k="addr:postcode" v="KW16 3LX"/>
    <tag k="removemelater" v="yes"/>
  </node>
  <node id="-727" lat="59.06777033428767" lon="-3.321652188180034">
    <tag k="addr:postcode" v="KW16 3LZ"/>
    <tag k="removemelater" v="yes"/>
  </node>
  <node id="-728" lat="58.93372223612624" lon="-3.2895413719635775">
    <tag k="addr:postcode" v="KW16 3NG"/>
    <tag k="removemelater" v="yes"/>
  </node>
  <node id="-729" lat="58.91193306156972" lon="-3.3303135587634096">
    <tag k="addr:postcode" v="KW16 3NJ"/>
    <tag k="removemelater" v="yes"/>
  </node>
  <node id="-730" lat="58.93529107142805" lon="-3.2726074748789835">
    <tag k="addr:postcode" v="KW16 3NN"/>
    <tag k="removemelater" v="yes"/>
  </node>
  <node id="-731" lat="58.82588131268881" lon="-3.104404370881629">
    <tag k="addr:postcode" v="KW16 3NP"/>
    <tag k="removemelater" v="yes"/>
  </node>
  <node id="-732" lat="58.838274395173094" lon="-3.197248651971547">
    <tag k="addr:postcode" v="KW16 3NR"/>
    <tag k="removemelater" v="yes"/>
  </node>
  <node id="-733" lat="58.835842431101035" lon="-3.20859898927114">
    <tag k="addr:postcode" v="KW16 3NS"/>
    <tag k="removemelater" v="yes"/>
  </node>
  <node id="-734" lat="58.83228409191045" lon="-3.2058939640921635">
    <tag k="addr:postcode" v="KW16 3NT"/>
    <tag k="removemelater" v="yes"/>
  </node>
  <node id="-735" lat="58.841788853202395" lon="-3.21140528324072">
    <tag k="addr:postcode" v="KW16 3NU"/>
    <tag k="removemelater" v="yes"/>
  </node>
  <node id="-736" lat="58.83152689199063" lon="-3.205226723214424">
    <tag k="addr:postcode" v="KW16 3NW"/>
    <tag k="removemelater" v="yes"/>
  </node>
  <node id="-737" lat="58.80304610617477" lon="-3.227172148911294">
    <tag k="addr:postcode" v="KW16 3NY"/>
    <tag k="removemelater" v="yes"/>
  </node>
  <node id="-738" lat="58.78142385935319" lon="-3.2397454789362223">
    <tag k="addr:postcode" v="KW16 3NZ"/>
    <tag k="removemelater" v="yes"/>
  </node>
  <node id="-739" lat="58.79269025171025" lon="-3.1927020565349067">
    <tag k="addr:postcode" v="KW16 3PA"/>
    <tag k="removemelater" v="yes"/>
  </node>
  <node id="-740" lat="58.79905996086305" lon="-3.200258520522578">
    <tag k="addr:postcode" v="KW16 3PG"/>
    <tag k="removemelater" v="yes"/>
  </node>
  <node id="-741" lat="58.79899628952158" lon="-3.2061231391113867">
    <tag k="addr:postcode" v="KW16 3PH"/>
    <tag k="removemelater" v="yes"/>
  </node>
  <node id="-742" lat="58.80059710701686" lon="-3.160851703677234">
    <tag k="addr:postcode" v="KW16 3PQ"/>
    <tag k="removemelater" v="yes"/>
  </node>
  <node id="-743" lat="58.96368681485899" lon="-3.30187630337565">
    <tag k="addr:postcode" v="KW16 9AB"/>
    <tag k="removemelater" v="yes"/>
  </node>
  <node id="-744" lat="59.213446160006306" lon="-2.756513764728732">
    <tag k="addr:postcode" v="KW17 2AB"/>
    <tag k="removemelater" v="yes"/>
  </node>
  <node id="-745" lat="59.120966639072286" lon="-2.611295652410943">
    <tag k="addr:postcode" v="KW17 2AE"/>
    <tag k="removemelater" v="yes"/>
  </node>
  <node id="-746" lat="59.099492065381774" lon="-2.5884822585501928">
    <tag k="addr:postcode" v="KW17 2AF"/>
    <tag k="removemelater" v="yes"/>
  </node>
  <node id="-747" lat="59.11023709466572" lon="-2.5775085872592443">
    <tag k="addr:postcode" v="KW17 2AG"/>
    <tag k="removemelater" v="yes"/>
  </node>
  <node id="-748" lat="59.09431664641098" lon="-2.5949735122975133">
    <tag k="addr:postcode" v="KW17 2AJ"/>
    <tag k="removemelater" v="yes"/>
  </node>
  <node id="-749" lat="59.140768572445296" lon="-2.601669318180423">
    <tag k="addr:postcode" v="KW17 2AR"/>
    <tag k="removemelater" v="yes"/>
  </node>
  <node id="-750" lat="59.14005463567353" lon="-2.59288348523207">
    <tag k="addr:postcode" v="KW17 2AS"/>
    <tag k="removemelater" v="yes"/>
  </node>
  <node id="-751" lat="59.141334628750286" lon="-2.637368073502157">
    <tag k="addr:postcode" v="KW17 2AT"/>
    <tag k="removemelater" v="yes"/>
  </node>
  <node id="-752" lat="59.03806248398076" lon="-2.5751296790646854">
    <tag k="addr:postcode" v="KW17 2AU"/>
    <tag k="removemelater" v="yes"/>
  </node>
  <node id="-753" lat="59.254728944283436" lon="-2.5978030314677905">
    <tag k="addr:postcode" v="KW17 2AY"/>
    <tag k="removemelater" v="yes"/>
  </node>
  <node id="-754" lat="59.28259165822689" lon="-2.5806015234861057">
    <tag k="addr:postcode" v="KW17 2AZ"/>
    <tag k="removemelater" v="yes"/>
  </node>
  <node id="-755" lat="59.227433635806754" lon="-2.659964363041812">
    <tag k="addr:postcode" v="KW17 2BA"/>
    <tag k="removemelater" v="yes"/>
  </node>
  <node id="-756" lat="59.25553131504929" lon="-2.550277681587378">
    <tag k="addr:postcode" v="KW17 2BB"/>
    <tag k="removemelater" v="yes"/>
  </node>
  <node id="-757" lat="59.380763530934786" lon="-2.410113751258644">
    <tag k="addr:postcode" v="KW17 2BG"/>
    <tag k="removemelater" v="yes"/>
  </node>
  <node id="-758" lat="59.23338555141534" lon="-2.599164329462006">
    <tag k="addr:postcode" v="KW17 2BJ"/>
    <tag k="removemelater" v="yes"/>
  </node>
  <node id="-759" lat="59.24624896336372" lon="-2.5724274203505693">
    <tag k="addr:postcode" v="KW17 2BL"/>
    <tag k="removemelater" v="yes"/>
  </node>
  <node id="-760" lat="59.25277527255687" lon="-2.579042122318918">
    <tag k="addr:postcode" v="KW17 2BN"/>
    <tag k="removemelater" v="yes"/>
  </node>
  <node id="-761" lat="59.28323423600021" lon="-2.4577630696750448">
    <tag k="addr:postcode" v="KW17 2BP"/>
    <tag k="removemelater" v="yes"/>
  </node>
  <node id="-762" lat="59.347385505938426" lon="-2.8931969384566583">
    <tag k="addr:postcode" v="KW17 2BU"/>
    <tag k="removemelater" v="yes"/>
  </node>
  <node id="-763" lat="59.2556915266339" lon="-2.5442128821272574">
    <tag k="addr:postcode" v="KW17 2BW"/>
    <tag k="removemelater" v="yes"/>
  </node>
  <node id="-764" lat="59.31559551437485" lon="-2.988825237293018">
    <tag k="addr:postcode" v="KW17 2BZ"/>
    <tag k="removemelater" v="yes"/>
  </node>
  <node id="-765" lat="59.31588831804384" lon="-2.9785918122259414">
    <tag k="addr:postcode" v="KW17 2DA"/>
    <tag k="removemelater" v="yes"/>
  </node>
  <node id="-766" lat="59.305139859416016" lon="-2.9554347548259083">
    <tag k="addr:postcode" v="KW17 2DB"/>
    <tag k="removemelater" v="yes"/>
  </node>
  <node id="-767" lat="59.28973658097925" lon="-2.9066766747701562">
    <tag k="addr:postcode" v="KW17 2DD"/>
    <tag k="removemelater" v="yes"/>
  </node>
  <node id="-768" lat="59.25274237875743" lon="-2.870343394633443">
    <tag k="addr:postcode" v="KW17 2DE"/>
    <tag k="removemelater" v="yes"/>
  </node>
  <node id="-769" lat="59.32239924302844" lon="-2.9881091981047954">
    <tag k="addr:postcode" v="KW17 2DF"/>
    <tag k="removemelater" v="yes"/>
  </node>
  <node id="-770" lat="59.321551433966036" lon="-2.9897713607835446">
    <tag k="addr:postcode" v="KW17 2DG"/>
    <tag k="removemelater" v="yes"/>
  </node>
  <node id="-771" lat="59.32108841601552" lon="-2.98924835755627">
    <tag k="addr:postcode" v="KW17 2DH"/>
    <tag k="removemelater" v="yes"/>
  </node>
  <node id="-772" lat="59.32131481608359" lon="-2.99136339120633">
    <tag k="addr:postcode" v="KW17 2DJ"/>
    <tag k="removemelater" v="yes"/>
  </node>
  <node id="-773" lat="59.32475124136484" lon="-2.9763162475867495">
    <tag k="addr:postcode" v="KW17 2DL"/>
    <tag k="removemelater" v="yes"/>
  </node>
  <node id="-774" lat="59.33619040171879" lon="-2.972988289156828">
    <tag k="addr:postcode" v="KW17 2DN"/>
    <tag k="removemelater" v="yes"/>
  </node>
  <node id="-775" lat="59.290395545087215" lon="-2.9769819799480075">
    <tag k="addr:postcode" v="KW17 2DP"/>
    <tag k="removemelater" v="yes"/>
  </node>
  <node id="-776" lat="59.276329143018444" lon="-2.9821238597090525">
    <tag k="addr:postcode" v="KW17 2DR"/>
    <tag k="removemelater" v="yes"/>
  </node>
  <node id="-777" lat="59.03757716242312" lon="-2.9014900586208143">
    <tag k="addr:postcode" v="KW17 2DU"/>
    <tag k="removemelater" v="yes"/>
  </node>
  <node id="-778" lat="59.317586435349845" lon="-3.00444879237124">
    <tag k="addr:postcode" v="KW17 2DW"/>
    <tag k="removemelater" v="yes"/>
  </node>
  <node id="-779" lat="59.03221519330182" lon="-2.909259492956259">
    <tag k="addr:postcode" v="KW17 2DX"/>
    <tag k="removemelater" v="yes"/>
  </node>
  <node id="-780" lat="59.04169364889105" lon="-2.9023123950595573">
    <tag k="addr:postcode" v="KW17 2DY"/>
    <tag k="removemelater" v="yes"/>
  </node>
  <node id="-781" lat="59.04516784225036" lon="-2.856181717957163">
    <tag k="addr:postcode" v="KW17 2DZ"/>
    <tag k="removemelater" v="yes"/>
  </node>
  <node id="-782" lat="59.03374614300255" lon="-2.8572566757652567">
    <tag k="addr:postcode" v="KW17 2EA"/>
    <tag k="removemelater" v="yes"/>
  </node>
  <node id="-783" lat="59.06451016215363" lon="-2.8260757083253436">
    <tag k="addr:postcode" v="KW17 2EB"/>
    <tag k="removemelater" v="yes"/>
  </node>
  <node id="-784" lat="59.0365410372409" lon="-2.9019682422948243">
    <tag k="addr:postcode" v="KW17 2ED"/>
    <tag k="removemelater" v="yes"/>
  </node>
  <node id="-785" lat="59.0072700678472" lon="-3.1155908863786657">
    <tag k="addr:postcode" v="KW17 2EE"/>
    <tag k="removemelater" v="yes"/>
  </node>
  <node id="-786" lat="59.00684402200881" lon="-3.1160471725850343">
    <tag k="addr:postcode" v="KW17 2EG"/>
    <tag k="removemelater" v="yes"/>
  </node>
  <node id="-787" lat="59.00307185536437" lon="-3.105584506269682">
    <tag k="addr:postcode" v="KW17 2EH"/>
    <tag k="removemelater" v="yes"/>
  </node>
  <node id="-788" lat="59.00187263551801" lon="-3.1061379077185727">
    <tag k="addr:postcode" v="KW17 2EJ"/>
    <tag k="removemelater" v="yes"/>
  </node>
  <node id="-789" lat="59.008093054384936" lon="-3.121171592549526">
    <tag k="addr:postcode" v="KW17 2EL"/>
    <tag k="removemelater" v="yes"/>
  </node>
  <node id="-790" lat="59.008771220346915" lon="-3.1185645609212047">
    <tag k="addr:postcode" v="KW17 2EN"/>
    <tag k="removemelater" v="yes"/>
  </node>
  <node id="-791" lat="59.008786067452455" lon="-3.1210026139413536">
    <tag k="addr:postcode" v="KW17 2EP"/>
    <tag k="removemelater" v="yes"/>
  </node>
  <node id="-792" lat="59.003903006432274" lon="-3.109214769368876">
    <tag k="addr:postcode" v="KW17 2EQ"/>
    <tag k="removemelater" v="yes"/>
  </node>
  <node id="-793" lat="59.01612394596592" lon="-3.1136832757207156">
    <tag k="addr:postcode" v="KW17 2ER"/>
    <tag k="removemelater" v="yes"/>
  </node>
  <node id="-794" lat="59.013643236701455" lon="-3.1097198515290403">
    <tag k="addr:postcode" v="KW17 2ES"/>
    <tag k="removemelater" v="yes"/>
  </node>
  <node id="-795" lat="59.028090450793584" lon="-3.071720016605217">
    <tag k="addr:postcode" v="KW17 2ET"/>
    <tag k="removemelater" v="yes"/>
  </node>
  <node id="-796" lat="59.00849716134873" lon="-3.114934163958214">
    <tag k="addr:postcode" v="KW17 2EW"/>
    <tag k="removemelater" v="yes"/>
  </node>
  <node id="-797" lat="59.050763571225744" lon="-3.0700379418866244">
    <tag k="addr:postcode" v="KW17 2EX"/>
    <tag k="removemelater" v="yes"/>
  </node>
  <node id="-798" lat="59.00258964843292" lon="-3.1073620708562015">
    <tag k="addr:postcode" v="KW17 2HJ"/>
    <tag k="removemelater" v="yes"/>
  </node>
  <node id="-799" lat="59.082075860896985" lon="-3.2851932467042912">
    <tag k="addr:postcode" v="KW17 2JH"/>
    <tag k="removemelater" v="yes"/>
  </node>
  <node id="-800" lat="59.06971163437104" lon="-3.2601719536343303">
    <tag k="addr:postcode" v="KW17 2JQ"/>
    <tag k="removemelater" v="yes"/>
  </node>
  <node id="-801" lat="58.996533386847545" lon="-3.1243811342824652">
    <tag k="addr:postcode" v="KW17 2JX"/>
    <tag k="removemelater" v="yes"/>
  </node>
  <node id="-802" lat="58.99876717541345" lon="-3.1552803971900047">
    <tag k="addr:postcode" v="KW17 2JY"/>
    <tag k="removemelater" v="yes"/>
  </node>
  <node id="-803" lat="59.00627600725615" lon="-3.142056701334322">
    <tag k="addr:postcode" v="KW17 2JZ"/>
    <tag k="removemelater" v="yes"/>
  </node>
  <node id="-804" lat="59.003924457303945" lon="-3.120287426624689">
    <tag k="addr:postcode" v="KW17 2LH"/>
    <tag k="removemelater" v="yes"/>
  </node>
  <node id="-805" lat="59.13084104749448" lon="-3.314226659571924">
    <tag k="addr:postcode" v="KW17 2LL"/>
    <tag k="removemelater" v="yes"/>
  </node>
  <node id="-806" lat="59.126538725996056" lon="-3.2873653781337873">
    <tag k="addr:postcode" v="KW17 2LS"/>
    <tag k="removemelater" v="yes"/>
  </node>
  <node id="-807" lat="59.10886559212032" lon="-3.2532096343735875">
    <tag k="addr:postcode" v="KW17 2LW"/>
    <tag k="removemelater" v="yes"/>
  </node>
  <node id="-808" lat="59.127172153383256" lon="-3.3039873619397477">
    <tag k="addr:postcode" v="KW17 2LY"/>
    <tag k="removemelater" v="yes"/>
  </node>
  <node id="-809" lat="59.09303786259803" lon="-3.327529023569048">
    <tag k="addr:postcode" v="KW17 2NB"/>
    <tag k="removemelater" v="yes"/>
  </node>
  <node id="-810" lat="59.13607916360069" lon="-3.171402423067657">
    <tag k="addr:postcode" v="KW17 2NN"/>
    <tag k="removemelater" v="yes"/>
  </node>
  <node id="-811" lat="59.0957006011362" lon="-3.0726944064449127">
    <tag k="addr:postcode" v="KW17 2PQ"/>
    <tag k="removemelater" v="yes"/>
  </node>
  <node id="-812" lat="59.16309523937041" lon="-2.9839995718193557">
    <tag k="addr:postcode" v="KW17 2PR"/>
    <tag k="removemelater" v="yes"/>
  </node>
  <node id="-813" lat="59.179045934456184" lon="-3.0614818974183793">
    <tag k="addr:postcode" v="KW17 2PS"/>
    <tag k="removemelater" v="yes"/>
  </node>
  <node id="-814" lat="59.13146541651033" lon="-3.0492977846530724">
    <tag k="addr:postcode" v="KW17 2PT"/>
    <tag k="removemelater" v="yes"/>
  </node>
  <node id="-815" lat="59.13179866895087" lon="-2.987347482941575">
    <tag k="addr:postcode" v="KW17 2PU"/>
    <tag k="removemelater" v="yes"/>
  </node>
  <node id="-816" lat="59.131346137880875" lon="-2.9878062273078334">
    <tag k="addr:postcode" v="KW17 2PY"/>
    <tag k="removemelater" v="yes"/>
  </node>
  <node id="-817" lat="59.13109286868186" lon="-2.9880435535133016">
    <tag k="addr:postcode" v="KW17 2PZ"/>
    <tag k="removemelater" v="yes"/>
  </node>
  <node id="-818" lat="59.12101987347989" lon="-2.9745128984159446">
    <tag k="addr:postcode" v="KW17 2QA"/>
    <tag k="removemelater" v="yes"/>
  </node>
  <node id="-819" lat="59.14940731501114" lon="-2.931806862301561">
    <tag k="addr:postcode" v="KW17 2QD"/>
    <tag k="removemelater" v="yes"/>
  </node>
  <node id="-820" lat="58.918802554001225" lon="-2.8194323724835155">
    <tag k="addr:postcode" v="KW17 2QG"/>
    <tag k="removemelater" v="yes"/>
  </node>
  <node id="-821" lat="58.92277178420363" lon="-2.830745634256625">
    <tag k="addr:postcode" v="KW17 2QN"/>
    <tag k="removemelater" v="yes"/>
  </node>
  <node id="-822" lat="58.94837905427123" lon="-2.8805818683351583">
    <tag k="addr:postcode" v="KW17 2QP"/>
    <tag k="removemelater" v="yes"/>
  </node>
  <node id="-823" lat="58.97445666699483" lon="-2.8251539544790187">
    <tag k="addr:postcode" v="KW17 2QS"/>
    <tag k="removemelater" v="yes"/>
  </node>
  <node id="-824" lat="58.93380175684743" lon="-2.8553325924569637">
    <tag k="addr:postcode" v="KW17 2QU"/>
    <tag k="removemelater" v="yes"/>
  </node>
  <node id="-825" lat="58.82310977225641" lon="-2.9577730180654807">
    <tag k="addr:postcode" v="KW17 2QY"/>
    <tag k="removemelater" v="yes"/>
  </node>
  <node id="-826" lat="58.896341924465005" lon="-2.9182003809344126">
    <tag k="addr:postcode" v="KW17 2QZ"/>
    <tag k="removemelater" v="yes"/>
  </node>
  <node id="-827" lat="58.94705681260546" lon="-3.0691704328025398">
    <tag k="addr:postcode" v="KW17 2RA"/>
    <tag k="removemelater" v="yes"/>
  </node>
  <node id="-828" lat="58.93508680578604" lon="-3.135342723773569">
    <tag k="addr:postcode" v="KW17 2RB"/>
    <tag k="removemelater" v="yes"/>
  </node>
  <node id="-829" lat="58.91907464344556" lon="-3.173404630422707">
    <tag k="addr:postcode" v="KW17 2RD"/>
    <tag k="removemelater" v="yes"/>
  </node>
  <node id="-830" lat="58.93569845677722" lon="-3.1931157275535402">
    <tag k="addr:postcode" v="KW17 2RF"/>
    <tag k="removemelater" v="yes"/>
  </node>
  <node id="-831" lat="58.89701366859517" lon="-2.915927408740815">
    <tag k="addr:postcode" v="KW17 2RG"/>
    <tag k="removemelater" v="yes"/>
  </node>
  <node id="-832" lat="58.79151384814826" lon="-2.9757440755113205">
    <tag k="addr:postcode" v="KW17 2RJ"/>
    <tag k="removemelater" v="yes"/>
  </node>
  <node id="-833" lat="58.788226520578384" lon="-2.9407053251476563">
    <tag k="addr:postcode" v="KW17 2RL"/>
    <tag k="removemelater" v="yes"/>
  </node>
  <node id="-834" lat="58.76259051256909" lon="-2.960670798946058">
    <tag k="addr:postcode" v="KW17 2RN"/>
    <tag k="removemelater" v="yes"/>
  </node>
  <node id="-835" lat="58.93554815354349" lon="-3.141091420790103">
    <tag k="addr:postcode" v="KW17 2RQ"/>
    <tag k="removemelater" v="yes"/>
  </node>
  <node id="-836" lat="58.89814729862972" lon="-2.9067245311896484">
    <tag k="addr:postcode" v="KW17 2RR"/>
    <tag k="removemelater" v="yes"/>
  </node>
  <node id="-837" lat="58.8962097817661" lon="-2.912765053905117">
    <tag k="addr:postcode" v="KW17 2RS"/>
    <tag k="removemelater" v="yes"/>
  </node>
  <node id="-838" lat="58.89605693495919" lon="-2.9165962546277977">
    <tag k="addr:postcode" v="KW17 2RT"/>
    <tag k="removemelater" v="yes"/>
  </node>
  <node id="-839" lat="58.89684598350255" lon="-2.907870541988086">
    <tag k="addr:postcode" v="KW17 2RU"/>
    <tag k="removemelater" v="yes"/>
  </node>
  <node id="-840" lat="58.74423059137429" lon="-2.9427131431318156">
    <tag k="addr:postcode" v="KW17 2RW"/>
    <tag k="removemelater" v="yes"/>
  </node>
  <node id="-841" lat="58.90326267395438" lon="-2.9034217500078427">
    <tag k="addr:postcode" v="KW17 2RX"/>
    <tag k="removemelater" v="yes"/>
  </node>
  <node id="-842" lat="58.90715323300577" lon="-2.9310208599738754">
    <tag k="addr:postcode" v="KW17 2RY"/>
    <tag k="removemelater" v="yes"/>
  </node>
  <node id="-843" lat="58.902312094640045" lon="-2.8651419892147216">
    <tag k="addr:postcode" v="KW17 2SB"/>
    <tag k="removemelater" v="yes"/>
  </node>
  <node id="-844" lat="58.896614674431135" lon="-2.8439316762175677">
    <tag k="addr:postcode" v="KW17 2SD"/>
    <tag k="removemelater" v="yes"/>
  </node>
  <node id="-845" lat="58.897133271404556" lon="-2.911713424222628">
    <tag k="addr:postcode" v="KW17 2SE"/>
    <tag k="removemelater" v="yes"/>
  </node>
  <node id="-846" lat="58.884790367408144" lon="-2.896729149398705">
    <tag k="addr:postcode" v="KW17 2SF"/>
    <tag k="removemelater" v="yes"/>
  </node>
  <node id="-847" lat="58.89608870361469" lon="-2.9070003364870143">
    <tag k="addr:postcode" v="KW17 2SG"/>
    <tag k="removemelater" v="yes"/>
  </node>
  <node id="-848" lat="58.82656824550722" lon="-2.9552532193396153">
    <tag k="addr:postcode" v="KW17 2SH"/>
    <tag k="removemelater" v="yes"/>
  </node>
  <node id="-849" lat="58.82518713607047" lon="-2.9610342821966644">
    <tag k="addr:postcode" v="KW17 2SN"/>
    <tag k="removemelater" v="yes"/>
  </node>
  <node id="-850" lat="58.82542694405441" lon="-2.9589799866154114">
    <tag k="addr:postcode" v="KW17 2SP"/>
    <tag k="removemelater" v="yes"/>
  </node>
  <node id="-851" lat="58.82465872187457" lon="-2.95599732116679">
    <tag k="addr:postcode" v="KW17 2SR"/>
    <tag k="removemelater" v="yes"/>
  </node>
  <node id="-852" lat="58.84548118728855" lon="-2.9145143096896358">
    <tag k="addr:postcode" v="KW17 2SS"/>
    <tag k="removemelater" v="yes"/>
  </node>
  <node id="-853" lat="58.84442059296881" lon="-2.9322130677741023">
    <tag k="addr:postcode" v="KW17 2ST"/>
    <tag k="removemelater" v="yes"/>
  </node>
  <node id="-854" lat="58.84968574266834" lon="-2.9206389610997836">
    <tag k="addr:postcode" v="KW17 2SU"/>
    <tag k="removemelater" v="yes"/>
  </node>
  <node id="-855" lat="58.828591422853286" lon="-2.9621850776042606">
    <tag k="addr:postcode" v="KW17 2SW"/>
    <tag k="removemelater" v="yes"/>
  </node>
  <node id="-856" lat="58.85509800720651" lon="-2.9298827528111144">
    <tag k="addr:postcode" v="KW17 2SX"/>
    <tag k="removemelater" v="yes"/>
  </node>
  <node id="-857" lat="58.86413689677931" lon="-2.9053145365900894">
    <tag k="addr:postcode" v="KW17 2SY"/>
    <tag k="removemelater" v="yes"/>
  </node>
  <node id="-858" lat="58.85564851697436" lon="-2.9029261776463975">
    <tag k="addr:postcode" v="KW17 2SZ"/>
    <tag k="removemelater" v="yes"/>
  </node>
  <node id="-859" lat="58.84755172507473" lon="-2.891988316113469">
    <tag k="addr:postcode" v="KW17 2TA"/>
    <tag k="removemelater" v="yes"/>
  </node>
  <node id="-860" lat="58.826081052564064" lon="-2.9555515563986225">
    <tag k="addr:postcode" v="KW17 2TD"/>
    <tag k="removemelater" v="yes"/>
  </node>
  <node id="-861" lat="58.8447150876562" lon="-2.9199525281783782">
    <tag k="addr:postcode" v="KW17 2TE"/>
    <tag k="removemelater" v="yes"/>
  </node>
  <node id="-862" lat="58.89746458667144" lon="-2.908025603483059">
    <tag k="addr:postcode" v="KW17 2TF"/>
    <tag k="removemelater" v="yes"/>
  </node>
  <node id="-863" lat="58.81638117764282" lon="-2.9640283444785216">
    <tag k="addr:postcode" v="KW17 2TG"/>
    <tag k="removemelater" v="yes"/>
  </node>
  <node id="-864" lat="58.829597197586175" lon="-2.9076351226362576">
    <tag k="addr:postcode" v="KW17 2TH"/>
    <tag k="removemelater" v="yes"/>
  </node>
  <node id="-865" lat="58.80820806762874" lon="-2.9409347805536434">
    <tag k="addr:postcode" v="KW17 2TJ"/>
    <tag k="removemelater" v="yes"/>
  </node>
  <node id="-866" lat="58.82738723314218" lon="-2.9730631546786923">
    <tag k="addr:postcode" v="KW17 2TL"/>
    <tag k="removemelater" v="yes"/>
  </node>
  <node id="-867" lat="58.825376297851" lon="-2.962165237940845">
    <tag k="addr:postcode" v="KW17 2TP"/>
    <tag k="removemelater" v="yes"/>
  </node>
  <node id="-868" lat="58.83165204674684" lon="-2.9343297768282803">
    <tag k="addr:postcode" v="KW17 2TQ"/>
    <tag k="removemelater" v="yes"/>
  </node>
  <node id="-869" lat="58.82464294284068" lon="-2.9569147606149437">
    <tag k="addr:postcode" v="KW17 2TR"/>
    <tag k="removemelater" v="yes"/>
  </node>
  <node id="-870" lat="58.825732244771274" lon="-2.962608076936923">
    <tag k="addr:postcode" v="KW17 2TS"/>
    <tag k="removemelater" v="yes"/>
  </node>
  <node id="-871" lat="58.82110333295233" lon="-2.993892167005955">
    <tag k="addr:postcode" v="KW17 2TW"/>
    <tag k="removemelater" v="yes"/>
  </node>
  <node id="-872" lat="59.08045236785322" lon="-2.98770383337568">
    <tag k="addr:postcode" v="KW17 2TY"/>
    <tag k="removemelater" v="yes"/>
  </node>
  <node id="-873" lat="59.00437804926358" lon="-3.114557201964558">
    <tag k="addr:postcode" v="KW17 2UB"/>
    <tag k="removemelater" v="yes"/>
  </node>
  <node id="-874" lat="58.824773995281156" lon="-2.959827872025604">
    <tag k="addr:postcode" v="KW17 2UD"/>
    <tag k="removemelater" v="yes"/>
  </node>
  <node id="-875" lat="59.00389468813444" lon="-3.1154120100540803">
    <tag k="addr:postcode" v="KW17 2UE"/>
    <tag k="removemelater" v="yes"/>
  </node>
  <node id="-876" lat="59.00355395808487" lon="-3.1143042450252443">
    <tag k="addr:postcode" v="KW17 2UF"/>
    <tag k="removemelater" v="yes"/>
  </node>
  <node id="-877" lat="59.00453903273733" lon="-3.1167211314447534">
    <tag k="addr:postcode" v="KW17 2UQ"/>
    <tag k="removemelater" v="yes"/>
  </node>
  <node id="-878" lat="59.005273669552594" lon="-3.1148473035548063">
    <tag k="addr:postcode" v="KW17 2UR"/>
    <tag k="removemelater" v="yes"/>
  </node>
  <node id="-879" lat="59.00499906457004" lon="-3.1154477472638726">
    <tag k="addr:postcode" v="KW17 2UT"/>
    <tag k="removemelater" v="yes"/>
  </node>
  <node id="-880" lat="58.346786349036165" lon="-3.163314707323021">
    <tag k="addr:postcode" v="KW2 6AB"/>
    <tag k="removemelater" v="yes"/>
  </node>
  <node id="-881" lat="58.30194017954404" lon="-3.2851047677505076">
    <tag k="addr:postcode" v="KW3 6AE"/>
    <tag k="removemelater" v="yes"/>
  </node>
  <node id="-882" lat="58.3012368954416" lon="-3.2853693309391216">
    <tag k="addr:postcode" v="KW3 6AG"/>
    <tag k="removemelater" v="yes"/>
  </node>
  <node id="-883" lat="58.298802561673305" lon="-3.283591943324233">
    <tag k="addr:postcode" v="KW3 6AJ"/>
    <tag k="removemelater" v="yes"/>
  </node>
  <node id="-884" lat="58.300162419785856" lon="-3.284136001889571">
    <tag k="addr:postcode" v="KW3 6AQ"/>
    <tag k="removemelater" v="yes"/>
  </node>
  <node id="-885" lat="58.300135578209456" lon="-3.2832307307066446">
    <tag k="addr:postcode" v="KW3 6BG"/>
    <tag k="removemelater" v="yes"/>
  </node>
  <node id="-886" lat="58.30192382744104" lon="-3.2858378881975865">
    <tag k="addr:postcode" v="KW3 6BQ"/>
    <tag k="removemelater" v="yes"/>
  </node>
  <node id="-887" lat="58.26803932119715" lon="-3.3998132756893367">
    <tag k="addr:postcode" v="KW5 6DT"/>
    <tag k="removemelater" v="yes"/>
  </node>
  <node id="-888" lat="58.09886745562358" lon="-3.6841413251745223">
    <tag k="addr:postcode" v="KW8 6HN"/>
    <tag k="removemelater" v="yes"/>
  </node>
  <node id="-889" lat="58.11887494765956" lon="-3.6545271195994498">
    <tag k="addr:postcode" v="KW8 6HT"/>
    <tag k="removemelater" v="yes"/>
  </node>
  <node id="-890" lat="58.12893237359355" lon="-3.6692920180538056">
    <tag k="addr:postcode" v="KW8 6HU"/>
    <tag k="removemelater" v="yes"/>
  </node>
  <node id="-891" lat="58.154582512187744" lon="-3.8314107667077937">
    <tag k="addr:postcode" v="KW8 6HY"/>
    <tag k="removemelater" v="yes"/>
  </node>
  <node id="-892" lat="58.11754284041136" lon="-3.652648921649435">
    <tag k="addr:postcode" v="KW8 6JE"/>
    <tag k="removemelater" v="yes"/>
  </node>
  <node id="-893" lat="58.11740944916164" lon="-3.653236906705378">
    <tag k="addr:postcode" v="KW8 6JF"/>
    <tag k="removemelater" v="yes"/>
  </node>
  <node id="-894" lat="58.11822854085507" lon="-3.6544971528399337">
    <tag k="addr:postcode" v="KW8 6JG"/>
    <tag k="removemelater" v="yes"/>
  </node>
  <node id="-895" lat="58.12008133620094" lon="-3.6563996242453602">
    <tag k="addr:postcode" v="KW8 6JL"/>
    <tag k="removemelater" v="yes"/>
  </node>
  <node id="-896" lat="58.121493812949524" lon="-3.6596910090777897">
    <tag k="addr:postcode" v="KW8 6JN"/>
    <tag k="removemelater" v="yes"/>
  </node>
  <node id="-897" lat="58.11629578490841" lon="-3.6434923110253705">
    <tag k="addr:postcode" v="KW8 6LE"/>
    <tag k="removemelater" v="yes"/>
  </node>
  <node id="-898" lat="58.11683903291518" lon="-3.6480328754648728">
    <tag k="addr:postcode" v="KW8 6LG"/>
    <tag k="removemelater" v="yes"/>
  </node>
  <node id="-899" lat="58.01269972004001" lon="-3.853353268977889">
    <tag k="addr:postcode" v="KW9 6LY"/>
    <tag k="removemelater" v="yes"/>
  </node>
  <node id="-900" lat="58.014620247847816" lon="-3.8491697919298082">
    <tag k="addr:postcode" v="KW9 6LZ"/>
    <tag k="removemelater" v="yes"/>
  </node>
  <node id="-901" lat="58.00652893133049" lon="-3.8612763258558527">
    <tag k="addr:postcode" v="KW9 6NA"/>
    <tag k="removemelater" v="yes"/>
  </node>
  <node id="-902" lat="58.00930771957324" lon="-3.8567830129416865">
    <tag k="addr:postcode" v="KW9 6PG"/>
    <tag k="removemelater" v="yes"/>
  </node>
  <node id="-903" lat="58.00776960704835" lon="-3.8581419465386486">
    <tag k="addr:postcode" v="KW9 6PL"/>
    <tag k="removemelater" v="yes"/>
  </node>
  <node id="-904" lat="58.00893696845111" lon="-3.8464562201105923">
    <tag k="addr:postcode" v="KW9 6QA"/>
    <tag k="removemelater" v="yes"/>
  </node>
  <node id="-905" lat="58.00851164943685" lon="-3.859619064127802">
    <tag k="addr:postcode" v="KW9 6QH"/>
    <tag k="removemelater" v="yes"/>
  </node>
  <node id="-906" lat="58.01241086809856" lon="-3.8528305176515545">
    <tag k="addr:postcode" v="KW9 6QJ"/>
    <tag k="removemelater" v="yes"/>
  </node>
  <node id="-907" lat="58.01429510578784" lon="-3.849288436271854">
    <tag k="addr:postcode" v="KW9 6QQ"/>
    <tag k="removemelater" v="yes"/>
  </node>
  <node id="-908" lat="58.012760012246005" lon="-3.8516805908272658">
    <tag k="addr:postcode" v="KW9 6QU"/>
    <tag k="removemelater" v="yes"/>
  </node>
  <node id="-909" lat="58.01451141751846" lon="-3.855410630915639">
    <tag k="addr:postcode" v="KW9 6QW"/>
    <tag k="removemelater" v="yes"/>
  </node>
  <node id="-910" lat="58.013774667952774" lon="-3.851716095004342">
    <tag k="addr:postcode" v="KW9 6QX"/>
    <tag k="removemelater" v="yes"/>
  </node>
</osm>
