<?xml version="1.0" encoding="UTF-8"?><osm version="0.6" generator="import_postcodes.py" upload="false">
  <node id="-1" lat="52.34558806951054" lon="-3.043705154710353">
    <tag k="addr:postcode" v="LD7 1DY"/>
    <tag k="removemelater" v="yes"/>
  </node>
  <node id="-2" lat="52.35476128034814" lon="-3.0123821296052364">
    <tag k="addr:postcode" v="LD7 1NB"/>
    <tag k="removemelater" v="yes"/>
  </node>
  <node id="-3" lat="52.3501930567209" lon="-3.054633953240623">
    <tag k="addr:postcode" v="LD7 1TN"/>
    <tag k="removemelater" v="yes"/>
  </node>
  <node id="-4" lat="52.39110650083583" lon="-3.1549046184635317">
    <tag k="addr:postcode" v="LD7 1UF"/>
    <tag k="removemelater" v="yes"/>
  </node>
  <node id="-5" lat="52.428044480166605" lon="-3.218892123674845">
    <tag k="addr:postcode" v="LD7 1YS"/>
    <tag k="removemelater" v="yes"/>
  </node>
  <node id="-6" lat="52.4192538892886" lon="-3.1993423643608927">
    <tag k="addr:postcode" v="LD7 1YU"/>
    <tag k="removemelater" v="yes"/>
  </node>
  <node id="-7" lat="52.25407859574573" lon="-2.9876441726879506">
    <tag k="addr:postcode" v="LD8 2LH"/>
    <tag k="removemelater" v="yes"/>
  </node>
  <node id="-8" lat="52.275863705061916" lon="-3.0024776202816583">
    <tag k="addr:postcode" v="LD8 2LN"/>
    <tag k="removemelater" v="yes"/>
  </node>
  <node id="-9" lat="52.28264038388716" lon="-3.000622291550261">
    <tag k="addr:postcode" v="LD8 2LR"/>
    <tag k="removemelater" v="yes"/>
  </node>
  <node id="-10" lat="52.28343678031081" lon="-2.9925482406536963">
    <tag k="addr:postcode" v="LD8 2LS"/>
    <tag k="removemelater" v="yes"/>
  </node>
  <node id="-11" lat="52.2770772964319" lon="-3.0014350267820777">
    <tag k="addr:postcode" v="LD8 2LW"/>
    <tag k="removemelater" v="yes"/>
  </node>
  <node id="-12" lat="52.23541611830931" lon="-3.0589395444188487">
    <tag k="addr:postcode" v="LD8 2PS"/>
    <tag k="removemelater" v="yes"/>
  </node>
  <node id="-13" lat="52.25303212583815" lon="-3.370488615203397">
    <tag k="addr:postcode" v="LD1 5AB"/>
    <tag k="removemelater" v="yes"/>
  </node>
  <node id="-14" lat="52.2466822295832" lon="-3.376093411968679">
    <tag k="addr:postcode" v="LD1 5AD"/>
    <tag k="removemelater" v="yes"/>
  </node>
  <node id="-15" lat="52.24192348710424" lon="-3.3654741077114445">
    <tag k="addr:postcode" v="LD1 5AE"/>
    <tag k="removemelater" v="yes"/>
  </node>
  <node id="-16" lat="52.24972937638767" lon="-3.3707530220918245">
    <tag k="addr:postcode" v="LD1 5AF"/>
    <tag k="removemelater" v="yes"/>
  </node>
  <node id="-17" lat="52.249633682917064" lon="-3.3720245139651603">
    <tag k="addr:postcode" v="LD1 5AJ"/>
    <tag k="removemelater" v="yes"/>
  </node>
  <node id="-18" lat="52.228607945580784" lon="-3.383221304192971">
    <tag k="addr:postcode" v="LD1 5AL"/>
    <tag k="removemelater" v="yes"/>
  </node>
  <node id="-19" lat="52.2416556673669" lon="-3.3784570058639583">
    <tag k="addr:postcode" v="LD1 5AP"/>
    <tag k="removemelater" v="yes"/>
  </node>
  <node id="-20" lat="52.25083919306447" lon="-3.372735579274815">
    <tag k="addr:postcode" v="LD1 5BA"/>
    <tag k="removemelater" v="yes"/>
  </node>
  <node id="-21" lat="52.24119104203759" lon="-3.3782082685652663">
    <tag k="addr:postcode" v="LD1 5BD"/>
    <tag k="removemelater" v="yes"/>
  </node>
  <node id="-22" lat="52.24432560621264" lon="-3.3777195370759134">
    <tag k="addr:postcode" v="LD1 5BE"/>
    <tag k="removemelater" v="yes"/>
  </node>
  <node id="-23" lat="52.25081008718003" lon="-3.3713723095497423">
    <tag k="addr:postcode" v="LD1 5BF"/>
    <tag k="removemelater" v="yes"/>
  </node>
  <node id="-24" lat="52.248867269296895" lon="-3.376073149340137">
    <tag k="addr:postcode" v="LD1 5BG"/>
    <tag k="removemelater" v="yes"/>
  </node>
  <node id="-25" lat="52.254689855706154" lon="-3.3725175328360777">
    <tag k="addr:postcode" v="LD1 5BJ"/>
    <tag k="removemelater" v="yes"/>
  </node>
  <node id="-26" lat="52.25264125069067" lon="-3.3739485565305456">
    <tag k="addr:postcode" v="LD1 5BL"/>
    <tag k="removemelater" v="yes"/>
  </node>
  <node id="-27" lat="52.25071834058231" lon="-3.374621584467901">
    <tag k="addr:postcode" v="LD1 5BN"/>
    <tag k="removemelater" v="yes"/>
  </node>
  <node id="-28" lat="52.251915583139265" lon="-3.3744974599271225">
    <tag k="addr:postcode" v="LD1 5BP"/>
    <tag k="removemelater" v="yes"/>
  </node>
  <node id="-29" lat="52.24707922577384" lon="-3.3759738672812523">
    <tag k="addr:postcode" v="LD1 5BQ"/>
    <tag k="removemelater" v="yes"/>
  </node>
  <node id="-30" lat="52.25154657508299" lon="-3.37452999901039">
    <tag k="addr:postcode" v="LD1 5BS"/>
    <tag k="removemelater" v="yes"/>
  </node>
  <node id="-31" lat="52.25130271280203" lon="-3.3746250043108597">
    <tag k="addr:postcode" v="LD1 5BT"/>
    <tag k="removemelater" v="yes"/>
  </node>
  <node id="-32" lat="52.25108461951721" lon="-3.37482335015877">
    <tag k="addr:postcode" v="LD1 5BU"/>
    <tag k="removemelater" v="yes"/>
  </node>
  <node id="-33" lat="52.2526810739403" lon="-3.374389280464212">
    <tag k="addr:postcode" v="LD1 5BW"/>
    <tag k="removemelater" v="yes"/>
  </node>
  <node id="-34" lat="52.25217274182444" lon="-3.373260194783718">
    <tag k="addr:postcode" v="LD1 5BX"/>
    <tag k="removemelater" v="yes"/>
  </node>
  <node id="-35" lat="52.25077767238026" lon="-3.3749310510410044">
    <tag k="addr:postcode" v="LD1 5BY"/>
    <tag k="removemelater" v="yes"/>
  </node>
  <node id="-36" lat="52.2519051943429" lon="-3.3722997116983704">
    <tag k="addr:postcode" v="LD1 5BZ"/>
    <tag k="removemelater" v="yes"/>
  </node>
  <node id="-37" lat="52.24990819685122" lon="-3.3754754668091818">
    <tag k="addr:postcode" v="LD1 5DA"/>
    <tag k="removemelater" v="yes"/>
  </node>
  <node id="-38" lat="52.24943742194036" lon="-3.37575387605717">
    <tag k="addr:postcode" v="LD1 5DB"/>
    <tag k="removemelater" v="yes"/>
  </node>
  <node id="-39" lat="52.26943154290726" lon="-3.303008801757633">
    <tag k="addr:postcode" v="LD1 5DD"/>
    <tag k="removemelater" v="yes"/>
  </node>
  <node id="-40" lat="52.23972926789419" lon="-3.3693903137074748">
    <tag k="addr:postcode" v="LD1 5DE"/>
    <tag k="removemelater" v="yes"/>
  </node>
  <node id="-41" lat="52.252024672502195" lon="-3.3697543783405544">
    <tag k="addr:postcode" v="LD1 5DF"/>
    <tag k="removemelater" v="yes"/>
  </node>
  <node id="-42" lat="52.24079704505587" lon="-3.378840476614122">
    <tag k="addr:postcode" v="LD1 5DG"/>
    <tag k="removemelater" v="yes"/>
  </node>
  <node id="-43" lat="52.24052253076649" lon="-3.3784804671518143">
    <tag k="addr:postcode" v="LD1 5DH"/>
    <tag k="removemelater" v="yes"/>
  </node>
  <node id="-44" lat="52.240920798784146" lon="-3.377482244586178">
    <tag k="addr:postcode" v="LD1 5DL"/>
    <tag k="removemelater" v="yes"/>
  </node>
  <node id="-45" lat="52.23943372258261" lon="-3.3777876765367205">
    <tag k="addr:postcode" v="LD1 5DP"/>
    <tag k="removemelater" v="yes"/>
  </node>
  <node id="-46" lat="52.23933168044178" lon="-3.3772865725713412">
    <tag k="addr:postcode" v="LD1 5DU"/>
    <tag k="removemelater" v="yes"/>
  </node>
  <node id="-47" lat="52.240043931901006" lon="-3.3771182365869">
    <tag k="addr:postcode" v="LD1 5DY"/>
    <tag k="removemelater" v="yes"/>
  </node>
  <node id="-48" lat="52.2395903728627" lon="-3.3782318932890605">
    <tag k="addr:postcode" v="LD1 5EA"/>
    <tag k="removemelater" v="yes"/>
  </node>
  <node id="-49" lat="52.24610035558737" lon="-3.3766466606417054">
    <tag k="addr:postcode" v="LD1 5EB"/>
    <tag k="removemelater" v="yes"/>
  </node>
  <node id="-50" lat="52.2409434523313" lon="-3.376311273641593">
    <tag k="addr:postcode" v="LD1 5EE"/>
    <tag k="removemelater" v="yes"/>
  </node>
  <node id="-51" lat="52.24272595735172" lon="-3.37302704001385">
    <tag k="addr:postcode" v="LD1 5EF"/>
    <tag k="removemelater" v="yes"/>
  </node>
  <node id="-52" lat="52.24345106772292" lon="-3.373298422865257">
    <tag k="addr:postcode" v="LD1 5EG"/>
    <tag k="removemelater" v="yes"/>
  </node>
  <node id="-53" lat="52.24260186950622" lon="-3.3721004826088277">
    <tag k="addr:postcode" v="LD1 5EH"/>
    <tag k="removemelater" v="yes"/>
  </node>
  <node id="-54" lat="52.24164114116233" lon="-3.375849543091027">
    <tag k="addr:postcode" v="LD1 5EL"/>
    <tag k="removemelater" v="yes"/>
  </node>
  <node id="-55" lat="52.247613704684625" lon="-3.374086154520015">
    <tag k="addr:postcode" v="LD1 5EP"/>
    <tag k="removemelater" v="yes"/>
  </node>
  <node id="-56" lat="52.2395046950811" lon="-3.378639310450061">
    <tag k="addr:postcode" v="LD1 5EQ"/>
    <tag k="removemelater" v="yes"/>
  </node>
  <node id="-57" lat="52.23974993826074" lon="-3.3799650091705713">
    <tag k="addr:postcode" v="LD1 5ER"/>
    <tag k="removemelater" v="yes"/>
  </node>
  <node id="-58" lat="52.23841636381589" lon="-3.3763648788547447">
    <tag k="addr:postcode" v="LD1 5ES"/>
    <tag k="removemelater" v="yes"/>
  </node>
  <node id="-59" lat="52.24069219184827" lon="-3.3793498297525315">
    <tag k="addr:postcode" v="LD1 5ET"/>
    <tag k="removemelater" v="yes"/>
  </node>
  <node id="-60" lat="52.24020240535197" lon="-3.379715426485291">
    <tag k="addr:postcode" v="LD1 5EU"/>
    <tag k="removemelater" v="yes"/>
  </node>
  <node id="-61" lat="52.23090523328775" lon="-3.3820627493574293">
    <tag k="addr:postcode" v="LD1 5EW"/>
    <tag k="removemelater" v="yes"/>
  </node>
  <node id="-62" lat="52.2316168770703" lon="-3.3827144995534337">
    <tag k="addr:postcode" v="LD1 5EX"/>
    <tag k="removemelater" v="yes"/>
  </node>
  <node id="-63" lat="52.239088009977046" lon="-3.3789046549245345">
    <tag k="addr:postcode" v="LD1 5EY"/>
    <tag k="removemelater" v="yes"/>
  </node>
  <node id="-64" lat="52.238919279281305" lon="-3.374871982463447">
    <tag k="addr:postcode" v="LD1 5HA"/>
    <tag k="removemelater" v="yes"/>
  </node>
  <node id="-65" lat="52.229752061777035" lon="-3.3822612027078875">
    <tag k="addr:postcode" v="LD1 5HB"/>
    <tag k="removemelater" v="yes"/>
  </node>
  <node id="-66" lat="52.23871001252439" lon="-3.378936871365933">
    <tag k="addr:postcode" v="LD1 5HE"/>
    <tag k="removemelater" v="yes"/>
  </node>
  <node id="-67" lat="52.242108032510316" lon="-3.3774457871732646">
    <tag k="addr:postcode" v="LD1 5HF"/>
    <tag k="removemelater" v="yes"/>
  </node>
  <node id="-68" lat="52.23822150313463" lon="-3.378423795501299">
    <tag k="addr:postcode" v="LD1 5HG"/>
    <tag k="removemelater" v="yes"/>
  </node>
  <node id="-69" lat="52.236413431476194" lon="-3.3784995631386563">
    <tag k="addr:postcode" v="LD1 5HP"/>
    <tag k="removemelater" v="yes"/>
  </node>
  <node id="-70" lat="52.237100773391724" lon="-3.378154749087155">
    <tag k="addr:postcode" v="LD1 5HR"/>
    <tag k="removemelater" v="yes"/>
  </node>
  <node id="-71" lat="52.24142400775915" lon="-3.3767362355118413">
    <tag k="addr:postcode" v="LD1 5HS"/>
    <tag k="removemelater" v="yes"/>
  </node>
  <node id="-72" lat="52.2407620307378" lon="-3.373361844411536">
    <tag k="addr:postcode" v="LD1 5HT"/>
    <tag k="removemelater" v="yes"/>
  </node>
  <node id="-73" lat="52.238419715770455" lon="-3.376848270091088">
    <tag k="addr:postcode" v="LD1 5HU"/>
    <tag k="removemelater" v="yes"/>
  </node>
  <node id="-74" lat="52.236757624022786" lon="-3.379052077911226">
    <tag k="addr:postcode" v="LD1 5HW"/>
    <tag k="removemelater" v="yes"/>
  </node>
  <node id="-75" lat="52.24283434768463" lon="-3.3753005981623607">
    <tag k="addr:postcode" v="LD1 5HY"/>
    <tag k="removemelater" v="yes"/>
  </node>
  <node id="-76" lat="52.242779680249804" lon="-3.3761337585888835">
    <tag k="addr:postcode" v="LD1 5LA"/>
    <tag k="removemelater" v="yes"/>
  </node>
  <node id="-77" lat="52.24412209480881" lon="-3.375897009452823">
    <tag k="addr:postcode" v="LD1 5LB"/>
    <tag k="removemelater" v="yes"/>
  </node>
  <node id="-78" lat="52.241717954286365" lon="-3.3653652739435147">
    <tag k="addr:postcode" v="LD1 5LE"/>
    <tag k="removemelater" v="yes"/>
  </node>
  <node id="-79" lat="52.24132113336909" lon="-3.368575214634559">
    <tag k="addr:postcode" v="LD1 5LF"/>
    <tag k="removemelater" v="yes"/>
  </node>
  <node id="-80" lat="52.2375820740269" lon="-3.3731172065185926">
    <tag k="addr:postcode" v="LD1 5LG"/>
    <tag k="removemelater" v="yes"/>
  </node>
  <node id="-81" lat="52.24427919917503" lon="-3.377073630956719">
    <tag k="addr:postcode" v="LD1 5LH"/>
    <tag k="removemelater" v="yes"/>
  </node>
  <node id="-82" lat="52.24103742987722" lon="-3.368229627838719">
    <tag k="addr:postcode" v="LD1 5LJ"/>
    <tag k="removemelater" v="yes"/>
  </node>
  <node id="-83" lat="52.237400804610125" lon="-3.3794088486614857">
    <tag k="addr:postcode" v="LD1 5LL"/>
    <tag k="removemelater" v="yes"/>
  </node>
  <node id="-84" lat="52.237291578611206" lon="-3.3810603135018353">
    <tag k="addr:postcode" v="LD1 5LN"/>
    <tag k="removemelater" v="yes"/>
  </node>
  <node id="-85" lat="52.236488766172016" lon="-3.3797466756100034">
    <tag k="addr:postcode" v="LD1 5LP"/>
    <tag k="removemelater" v="yes"/>
  </node>
  <node id="-86" lat="52.23549043730053" lon="-3.3813119177213284">
    <tag k="addr:postcode" v="LD1 5LQ"/>
    <tag k="removemelater" v="yes"/>
  </node>
  <node id="-87" lat="52.23618181428822" lon="-3.3798543089723427">
    <tag k="addr:postcode" v="LD1 5LR"/>
    <tag k="removemelater" v="yes"/>
  </node>
  <node id="-88" lat="52.23589335130893" lon="-3.379918581735025">
    <tag k="addr:postcode" v="LD1 5LS"/>
    <tag k="removemelater" v="yes"/>
  </node>
  <node id="-89" lat="52.235543256436905" lon="-3.3806399277061816">
    <tag k="addr:postcode" v="LD1 5LT"/>
    <tag k="removemelater" v="yes"/>
  </node>
  <node id="-90" lat="52.23549112908347" lon="-3.3797157303714416">
    <tag k="addr:postcode" v="LD1 5LU"/>
    <tag k="removemelater" v="yes"/>
  </node>
  <node id="-91" lat="52.23722096573139" lon="-3.3801794397386313">
    <tag k="addr:postcode" v="LD1 5LW"/>
    <tag k="removemelater" v="yes"/>
  </node>
  <node id="-92" lat="52.242656961622046" lon="-3.361131986737097">
    <tag k="addr:postcode" v="LD1 5LX"/>
    <tag k="removemelater" v="yes"/>
  </node>
  <node id="-93" lat="52.23570442712204" lon="-3.37838972551136">
    <tag k="addr:postcode" v="LD1 5LY"/>
    <tag k="removemelater" v="yes"/>
  </node>
  <node id="-94" lat="52.23416796171253" lon="-3.3790742995594854">
    <tag k="addr:postcode" v="LD1 5NA"/>
    <tag k="removemelater" v="yes"/>
  </node>
  <node id="-95" lat="52.23263070389547" lon="-3.3821309974184457">
    <tag k="addr:postcode" v="LD1 5NB"/>
    <tag k="removemelater" v="yes"/>
  </node>
  <node id="-96" lat="52.22809473665859" lon="-3.384815935162029">
    <tag k="addr:postcode" v="LD1 5ND"/>
    <tag k="removemelater" v="yes"/>
  </node>
  <node id="-97" lat="52.233923753327126" lon="-3.3791985211304216">
    <tag k="addr:postcode" v="LD1 5NE"/>
    <tag k="removemelater" v="yes"/>
  </node>
  <node id="-98" lat="52.23468753901381" lon="-3.380774450605414">
    <tag k="addr:postcode" v="LD1 5NF"/>
    <tag k="removemelater" v="yes"/>
  </node>
  <node id="-99" lat="52.234341722909896" lon="-3.381129809898969">
    <tag k="addr:postcode" v="LD1 5NG"/>
    <tag k="removemelater" v="yes"/>
  </node>
  <node id="-100" lat="52.23391347384054" lon="-3.3816143961205234">
    <tag k="addr:postcode" v="LD1 5NH"/>
    <tag k="removemelater" v="yes"/>
  </node>
  <node id="-101" lat="52.22772577634146" lon="-3.3833110119253895">
    <tag k="addr:postcode" v="LD1 5NL"/>
    <tag k="removemelater" v="yes"/>
  </node>
  <node id="-102" lat="52.23578631836073" lon="-3.382917325642553">
    <tag k="addr:postcode" v="LD1 5NN"/>
    <tag k="removemelater" v="yes"/>
  </node>
  <node id="-103" lat="52.24140910405719" lon="-3.363305345908266">
    <tag k="addr:postcode" v="LD1 5NP"/>
    <tag k="removemelater" v="yes"/>
  </node>
  <node id="-104" lat="52.23207184830613" lon="-3.381483986030359">
    <tag k="addr:postcode" v="LD1 5NQ"/>
    <tag k="removemelater" v="yes"/>
  </node>
  <node id="-105" lat="52.235927672874894" lon="-3.380827590678359">
    <tag k="addr:postcode" v="LD1 5NR"/>
    <tag k="removemelater" v="yes"/>
  </node>
  <node id="-106" lat="52.2327116901143" lon="-3.3813574237184723">
    <tag k="addr:postcode" v="LD1 5NS"/>
    <tag k="removemelater" v="yes"/>
  </node>
  <node id="-107" lat="52.231024111480465" lon="-3.3772782971300255">
    <tag k="addr:postcode" v="LD1 5NT"/>
    <tag k="removemelater" v="yes"/>
  </node>
  <node id="-108" lat="52.235573587635834" lon="-3.372645169277684">
    <tag k="addr:postcode" v="LD1 5NU"/>
    <tag k="removemelater" v="yes"/>
  </node>
  <node id="-109" lat="52.229061620517236" lon="-3.3828693584191534">
    <tag k="addr:postcode" v="LD1 5NW"/>
    <tag k="removemelater" v="yes"/>
  </node>
  <node id="-110" lat="52.23312051032489" lon="-3.3802279379750897">
    <tag k="addr:postcode" v="LD1 5NX"/>
    <tag k="removemelater" v="yes"/>
  </node>
  <node id="-111" lat="52.22678178522944" lon="-3.384072292122458">
    <tag k="addr:postcode" v="LD1 5NZ"/>
    <tag k="removemelater" v="yes"/>
  </node>
  <node id="-112" lat="52.248240360107516" lon="-3.367352654282069">
    <tag k="addr:postcode" v="LD1 5PE"/>
    <tag k="removemelater" v="yes"/>
  </node>
  <node id="-113" lat="52.24508047608657" lon="-3.3715764261411016">
    <tag k="addr:postcode" v="LD1 5PF"/>
    <tag k="removemelater" v="yes"/>
  </node>
  <node id="-114" lat="52.21073271822624" lon="-3.392486622252752">
    <tag k="addr:postcode" v="LD1 5PG"/>
    <tag k="removemelater" v="yes"/>
  </node>
  <node id="-115" lat="52.225685314834536" lon="-3.3870981343283266">
    <tag k="addr:postcode" v="LD1 5PH"/>
    <tag k="removemelater" v="yes"/>
  </node>
  <node id="-116" lat="52.210181186474756" lon="-3.3927474527800046">
    <tag k="addr:postcode" v="LD1 5PJ"/>
    <tag k="removemelater" v="yes"/>
  </node>
  <node id="-117" lat="52.22367684933099" lon="-3.3896854126944964">
    <tag k="addr:postcode" v="LD1 5PL"/>
    <tag k="removemelater" v="yes"/>
  </node>
  <node id="-118" lat="52.222054038694125" lon="-3.3892980239226747">
    <tag k="addr:postcode" v="LD1 5PN"/>
    <tag k="removemelater" v="yes"/>
  </node>
  <node id="-119" lat="52.22161180934915" lon="-3.394774056530261">
    <tag k="addr:postcode" v="LD1 5PP"/>
    <tag k="removemelater" v="yes"/>
  </node>
  <node id="-120" lat="52.21965429007492" lon="-3.3884618902580503">
    <tag k="addr:postcode" v="LD1 5PR"/>
    <tag k="removemelater" v="yes"/>
  </node>
  <node id="-121" lat="52.22057293100893" lon="-3.388329517911056">
    <tag k="addr:postcode" v="LD1 5PS"/>
    <tag k="removemelater" v="yes"/>
  </node>
  <node id="-122" lat="52.21780460171512" lon="-3.3897801909626075">
    <tag k="addr:postcode" v="LD1 5PT"/>
    <tag k="removemelater" v="yes"/>
  </node>
  <node id="-123" lat="52.21082571037486" lon="-3.3945093019079198">
    <tag k="addr:postcode" v="LD1 5PU"/>
    <tag k="removemelater" v="yes"/>
  </node>
  <node id="-124" lat="52.22141628126042" lon="-3.390010089824139">
    <tag k="addr:postcode" v="LD1 5PW"/>
    <tag k="removemelater" v="yes"/>
  </node>
  <node id="-125" lat="52.211906481370335" lon="-3.392830698954799">
    <tag k="addr:postcode" v="LD1 5PY"/>
    <tag k="removemelater" v="yes"/>
  </node>
  <node id="-126" lat="52.21739303464558" lon="-3.3888451352858198">
    <tag k="addr:postcode" v="LD1 5RA"/>
    <tag k="removemelater" v="yes"/>
  </node>
  <node id="-127" lat="52.21634997110727" lon="-3.3896176709117913">
    <tag k="addr:postcode" v="LD1 5RB"/>
    <tag k="removemelater" v="yes"/>
  </node>
  <node id="-128" lat="52.21449248962318" lon="-3.3908331244189105">
    <tag k="addr:postcode" v="LD1 5RD"/>
    <tag k="removemelater" v="yes"/>
  </node>
  <node id="-129" lat="52.21302203305269" lon="-3.3851374033784745">
    <tag k="addr:postcode" v="LD1 5RE"/>
    <tag k="removemelater" v="yes"/>
  </node>
  <node id="-130" lat="52.202269309503784" lon="-3.385856536190205">
    <tag k="addr:postcode" v="LD1 5RF"/>
    <tag k="removemelater" v="yes"/>
  </node>
  <node id="-131" lat="52.20145270007059" lon="-3.4009469544347684">
    <tag k="addr:postcode" v="LD1 5RG"/>
    <tag k="removemelater" v="yes"/>
  </node>
  <node id="-132" lat="52.204690203167935" lon="-3.362502879115881">
    <tag k="addr:postcode" v="LD1 5RH"/>
    <tag k="removemelater" v="yes"/>
  </node>
  <node id="-133" lat="52.21513271543653" lon="-3.392199772036893">
    <tag k="addr:postcode" v="LD1 5RJ"/>
    <tag k="removemelater" v="yes"/>
  </node>
  <node id="-134" lat="52.20428261696845" lon="-3.369748788406387">
    <tag k="addr:postcode" v="LD1 5RN"/>
    <tag k="removemelater" v="yes"/>
  </node>
  <node id="-135" lat="52.20805572438485" lon="-3.2951969827962335">
    <tag k="addr:postcode" v="LD1 5RP"/>
    <tag k="removemelater" v="yes"/>
  </node>
  <node id="-136" lat="52.23976488668563" lon="-3.3647634310173005">
    <tag k="addr:postcode" v="LD1 5SH"/>
    <tag k="removemelater" v="yes"/>
  </node>
  <node id="-137" lat="52.2153399386517" lon="-3.391401190296228">
    <tag k="addr:postcode" v="LD1 5SJ"/>
    <tag k="removemelater" v="yes"/>
  </node>
  <node id="-138" lat="52.26022557911249" lon="-3.3642194885865586">
    <tag k="addr:postcode" v="LD1 5SL"/>
    <tag k="removemelater" v="yes"/>
  </node>
  <node id="-139" lat="52.27229677201287" lon="-3.3386193707537886">
    <tag k="addr:postcode" v="LD1 5SN"/>
    <tag k="removemelater" v="yes"/>
  </node>
  <node id="-140" lat="52.258568226415164" lon="-3.342528085706692">
    <tag k="addr:postcode" v="LD1 5SS"/>
    <tag k="removemelater" v="yes"/>
  </node>
  <node id="-141" lat="52.270131057498624" lon="-3.3424817808042078">
    <tag k="addr:postcode" v="LD1 5ST"/>
    <tag k="removemelater" v="yes"/>
  </node>
  <node id="-142" lat="52.28600843580187" lon="-3.249148303594818">
    <tag k="addr:postcode" v="LD1 5TD"/>
    <tag k="removemelater" v="yes"/>
  </node>
  <node id="-143" lat="52.29355430726939" lon="-3.258217140539072">
    <tag k="addr:postcode" v="LD1 5TE"/>
    <tag k="removemelater" v="yes"/>
  </node>
  <node id="-144" lat="52.29515742955452" lon="-3.2537315274741085">
    <tag k="addr:postcode" v="LD1 5TF"/>
    <tag k="removemelater" v="yes"/>
  </node>
  <node id="-145" lat="52.29497716911734" lon="-3.2630524574534028">
    <tag k="addr:postcode" v="LD1 5TG"/>
    <tag k="removemelater" v="yes"/>
  </node>
  <node id="-146" lat="52.289719809897804" lon="-3.2433586834536228">
    <tag k="addr:postcode" v="LD1 5TH"/>
    <tag k="removemelater" v="yes"/>
  </node>
  <node id="-147" lat="52.29636134975771" lon="-3.2333239290464766">
    <tag k="addr:postcode" v="LD1 5TL"/>
    <tag k="removemelater" v="yes"/>
  </node>
  <node id="-148" lat="52.21111764012996" lon="-3.39339146469978">
    <tag k="addr:postcode" v="LD1 5TP"/>
    <tag k="removemelater" v="yes"/>
  </node>
  <node id="-149" lat="52.232367850473395" lon="-3.3807756665931685">
    <tag k="addr:postcode" v="LD1 5TS"/>
    <tag k="removemelater" v="yes"/>
  </node>
  <node id="-150" lat="52.29779591236311" lon="-3.237997761154233">
    <tag k="addr:postcode" v="LD1 5TW"/>
    <tag k="removemelater" v="yes"/>
  </node>
  <node id="-151" lat="52.266726829682575" lon="-3.30042359781008">
    <tag k="addr:postcode" v="LD1 5TY"/>
    <tag k="removemelater" v="yes"/>
  </node>
  <node id="-152" lat="52.26793923432397" lon="-3.297279016048527">
    <tag k="addr:postcode" v="LD1 5UA"/>
    <tag k="removemelater" v="yes"/>
  </node>
  <node id="-153" lat="52.26471341697994" lon="-3.2938291576281884">
    <tag k="addr:postcode" v="LD1 5UB"/>
    <tag k="removemelater" v="yes"/>
  </node>
  <node id="-154" lat="52.258467416500125" lon="-3.2712451173639496">
    <tag k="addr:postcode" v="LD1 5UD"/>
    <tag k="removemelater" v="yes"/>
  </node>
  <node id="-155" lat="52.25703738977155" lon="-3.2603917443721935">
    <tag k="addr:postcode" v="LD1 5UF"/>
    <tag k="removemelater" v="yes"/>
  </node>
  <node id="-156" lat="52.240978087371886" lon="-3.3795051561710987">
    <tag k="addr:postcode" v="LD1 5UL"/>
    <tag k="removemelater" v="yes"/>
  </node>
  <node id="-157" lat="52.32882659208537" lon="-3.189527819372933">
    <tag k="addr:postcode" v="LD1 5UR"/>
    <tag k="removemelater" v="yes"/>
  </node>
  <node id="-158" lat="52.266832471520146" lon="-3.295722652208851">
    <tag k="addr:postcode" v="LD1 5US"/>
    <tag k="removemelater" v="yes"/>
  </node>
  <node id="-159" lat="52.33155268860406" lon="-3.217572619013815">
    <tag k="addr:postcode" v="LD1 5UW"/>
    <tag k="removemelater" v="yes"/>
  </node>
  <node id="-160" lat="52.239442064601754" lon="-3.372442360171257">
    <tag k="addr:postcode" v="LD1 5WA"/>
    <tag k="removemelater" v="yes"/>
  </node>
  <node id="-161" lat="52.2416556673669" lon="-3.3784570058639583">
    <tag k="addr:postcode" v="LD1 5WF"/>
    <tag k="removemelater" v="yes"/>
  </node>
  <node id="-162" lat="52.24573072636783" lon="-3.3759614326224336">
    <tag k="addr:postcode" v="LD1 5YA"/>
    <tag k="removemelater" v="yes"/>
  </node>
  <node id="-163" lat="52.24561155485509" lon="-3.3753864946250904">
    <tag k="addr:postcode" v="LD1 5YB"/>
    <tag k="removemelater" v="yes"/>
  </node>
  <node id="-164" lat="52.24527838074257" lon="-3.3746584698244066">
    <tag k="addr:postcode" v="LD1 5YD"/>
    <tag k="removemelater" v="yes"/>
  </node>
  <node id="-165" lat="52.24610342570923" lon="-3.374068777244045">
    <tag k="addr:postcode" v="LD1 5YE"/>
    <tag k="removemelater" v="yes"/>
  </node>
  <node id="-166" lat="52.24691419638125" lon="-3.3739327061190947">
    <tag k="addr:postcode" v="LD1 5YF"/>
    <tag k="removemelater" v="yes"/>
  </node>
  <node id="-167" lat="52.237790154859326" lon="-3.3730064714372854">
    <tag k="addr:postcode" v="LD1 5ZG"/>
    <tag k="removemelater" v="yes"/>
  </node>
  <node id="-168" lat="52.239763173611955" lon="-3.38267484208159">
    <tag k="addr:postcode" v="LD1 6AA"/>
    <tag k="removemelater" v="yes"/>
  </node>
  <node id="-169" lat="52.23983013140968" lon="-3.381563862016024">
    <tag k="addr:postcode" v="LD1 6AB"/>
    <tag k="removemelater" v="yes"/>
  </node>
  <node id="-170" lat="52.238099256355106" lon="-3.385024892116569">
    <tag k="addr:postcode" v="LD1 6AE"/>
    <tag k="removemelater" v="yes"/>
  </node>
  <node id="-171" lat="52.24003917016569" lon="-3.3844408969965287">
    <tag k="addr:postcode" v="LD1 6AF"/>
    <tag k="removemelater" v="yes"/>
  </node>
  <node id="-172" lat="52.24075792205288" lon="-3.3814169334982274">
    <tag k="addr:postcode" v="LD1 6AG"/>
    <tag k="removemelater" v="yes"/>
  </node>
  <node id="-173" lat="52.24180372526632" lon="-3.3827089921185314">
    <tag k="addr:postcode" v="LD1 6AH"/>
    <tag k="removemelater" v="yes"/>
  </node>
  <node id="-174" lat="52.24064969984138" lon="-3.3852800686025706">
    <tag k="addr:postcode" v="LD1 6AJ"/>
    <tag k="removemelater" v="yes"/>
  </node>
  <node id="-175" lat="52.241116817642855" lon="-3.3822482560015876">
    <tag k="addr:postcode" v="LD1 6AL"/>
    <tag k="removemelater" v="yes"/>
  </node>
  <node id="-176" lat="52.24223238990902" lon="-3.382956661798285">
    <tag k="addr:postcode" v="LD1 6AN"/>
    <tag k="removemelater" v="yes"/>
  </node>
  <node id="-177" lat="52.2420147454738" lon="-3.3846488609521197">
    <tag k="addr:postcode" v="LD1 6AP"/>
    <tag k="removemelater" v="yes"/>
  </node>
  <node id="-178" lat="52.242579993074706" lon="-3.3832164614529296">
    <tag k="addr:postcode" v="LD1 6AQ"/>
    <tag k="removemelater" v="yes"/>
  </node>
  <node id="-179" lat="52.240524952296575" lon="-3.3859498889350164">
    <tag k="addr:postcode" v="LD1 6AR"/>
    <tag k="removemelater" v="yes"/>
  </node>
  <node id="-180" lat="52.24235465748181" lon="-3.3863291324756317">
    <tag k="addr:postcode" v="LD1 6AS"/>
    <tag k="removemelater" v="yes"/>
  </node>
  <node id="-181" lat="52.23952595407934" lon="-3.383736585103625">
    <tag k="addr:postcode" v="LD1 6AT"/>
    <tag k="removemelater" v="yes"/>
  </node>
  <node id="-182" lat="52.23962269654885" lon="-3.3854531166973305">
    <tag k="addr:postcode" v="LD1 6AX"/>
    <tag k="removemelater" v="yes"/>
  </node>
  <node id="-183" lat="52.239078494530816" lon="-3.3820238085699295">
    <tag k="addr:postcode" v="LD1 6AY"/>
    <tag k="removemelater" v="yes"/>
  </node>
  <node id="-184" lat="52.24164865482083" lon="-3.380595125502534">
    <tag k="addr:postcode" v="LD1 6AZ"/>
    <tag k="removemelater" v="yes"/>
  </node>
  <node id="-185" lat="52.24071850959979" lon="-3.383246439505179">
    <tag k="addr:postcode" v="LD1 6BA"/>
    <tag k="removemelater" v="yes"/>
  </node>
  <node id="-186" lat="52.24849343644914" lon="-3.3803682076917125">
    <tag k="addr:postcode" v="LD1 6BB"/>
    <tag k="removemelater" v="yes"/>
  </node>
  <node id="-187" lat="52.24722025157121" lon="-3.38160305511308">
    <tag k="addr:postcode" v="LD1 6BD"/>
    <tag k="removemelater" v="yes"/>
  </node>
  <node id="-188" lat="52.247227106951584" lon="-3.381017348765377">
    <tag k="addr:postcode" v="LD1 6BE"/>
    <tag k="removemelater" v="yes"/>
  </node>
  <node id="-189" lat="52.24242108391796" lon="-3.380663044775113">
    <tag k="addr:postcode" v="LD1 6BG"/>
    <tag k="removemelater" v="yes"/>
  </node>
  <node id="-190" lat="52.24479718009857" lon="-3.379682222775177">
    <tag k="addr:postcode" v="LD1 6BH"/>
    <tag k="removemelater" v="yes"/>
  </node>
  <node id="-191" lat="52.245155039256986" lon="-3.3821394255560784">
    <tag k="addr:postcode" v="LD1 6BJ"/>
    <tag k="removemelater" v="yes"/>
  </node>
  <node id="-192" lat="52.24744048291237" lon="-3.37737661152579">
    <tag k="addr:postcode" v="LD1 6BL"/>
    <tag k="removemelater" v="yes"/>
  </node>
  <node id="-193" lat="52.24767032209357" lon="-3.381558447925219">
    <tag k="addr:postcode" v="LD1 6BN"/>
    <tag k="removemelater" v="yes"/>
  </node>
  <node id="-194" lat="52.24895839978328" lon="-3.37904962531111">
    <tag k="addr:postcode" v="LD1 6BP"/>
    <tag k="removemelater" v="yes"/>
  </node>
  <node id="-195" lat="52.24664101723833" lon="-3.3780842352058498">
    <tag k="addr:postcode" v="LD1 6BS"/>
    <tag k="removemelater" v="yes"/>
  </node>
  <node id="-196" lat="52.246971681604684" lon="-3.378255610577185">
    <tag k="addr:postcode" v="LD1 6BT"/>
    <tag k="removemelater" v="yes"/>
  </node>
  <node id="-197" lat="52.24736242775135" lon="-3.3779015223380275">
    <tag k="addr:postcode" v="LD1 6BU"/>
    <tag k="removemelater" v="yes"/>
  </node>
  <node id="-198" lat="52.248589295411875" lon="-3.381396574085121">
    <tag k="addr:postcode" v="LD1 6BW"/>
    <tag k="removemelater" v="yes"/>
  </node>
  <node id="-199" lat="52.24815403011554" lon="-3.3778674616339783">
    <tag k="addr:postcode" v="LD1 6BX"/>
    <tag k="removemelater" v="yes"/>
  </node>
  <node id="-200" lat="52.250001734684304" lon="-3.3813232693944006">
    <tag k="addr:postcode" v="LD1 6BY"/>
    <tag k="removemelater" v="yes"/>
  </node>
  <node id="-201" lat="52.24300313448875" lon="-3.381633144347178">
    <tag k="addr:postcode" v="LD1 6BZ"/>
    <tag k="removemelater" v="yes"/>
  </node>
  <node id="-202" lat="52.24912257760569" lon="-3.384225676807765">
    <tag k="addr:postcode" v="LD1 6DA"/>
    <tag k="removemelater" v="yes"/>
  </node>
  <node id="-203" lat="52.2489492220759" lon="-3.3775258917600133">
    <tag k="addr:postcode" v="LD1 6DB"/>
    <tag k="removemelater" v="yes"/>
  </node>
  <node id="-204" lat="52.24866178626497" lon="-3.3775023376273925">
    <tag k="addr:postcode" v="LD1 6DD"/>
    <tag k="removemelater" v="yes"/>
  </node>
  <node id="-205" lat="52.24883538629766" lon="-3.37803506254716">
    <tag k="addr:postcode" v="LD1 6DE"/>
    <tag k="removemelater" v="yes"/>
  </node>
  <node id="-206" lat="52.25350134206455" lon="-3.376524247510265">
    <tag k="addr:postcode" v="LD1 6DF"/>
    <tag k="removemelater" v="yes"/>
  </node>
  <node id="-207" lat="52.24882023287151" lon="-3.3816381255419774">
    <tag k="addr:postcode" v="LD1 6DG"/>
    <tag k="removemelater" v="yes"/>
  </node>
  <node id="-208" lat="52.249043821404676" lon="-3.3809712389808553">
    <tag k="addr:postcode" v="LD1 6DH"/>
    <tag k="removemelater" v="yes"/>
  </node>
  <node id="-209" lat="52.248668226441296" lon="-3.379260351697937">
    <tag k="addr:postcode" v="LD1 6DJ"/>
    <tag k="removemelater" v="yes"/>
  </node>
  <node id="-210" lat="52.2487648338779" lon="-3.382529961987128">
    <tag k="addr:postcode" v="LD1 6DL"/>
    <tag k="removemelater" v="yes"/>
  </node>
  <node id="-211" lat="52.24790008065118" lon="-3.384202264698344">
    <tag k="addr:postcode" v="LD1 6DN"/>
    <tag k="removemelater" v="yes"/>
  </node>
  <node id="-212" lat="52.246299220430195" lon="-3.3819406284422664">
    <tag k="addr:postcode" v="LD1 6DP"/>
    <tag k="removemelater" v="yes"/>
  </node>
  <node id="-213" lat="52.24787987516999" lon="-3.379016172960913">
    <tag k="addr:postcode" v="LD1 6DQ"/>
    <tag k="removemelater" v="yes"/>
  </node>
  <node id="-214" lat="52.247379700017625" lon="-3.3825747800686843">
    <tag k="addr:postcode" v="LD1 6DR"/>
    <tag k="removemelater" v="yes"/>
  </node>
  <node id="-215" lat="52.24830783383402" lon="-3.3823985646461927">
    <tag k="addr:postcode" v="LD1 6DS"/>
    <tag k="removemelater" v="yes"/>
  </node>
  <node id="-216" lat="52.254750446696704" lon="-3.401029221905784">
    <tag k="addr:postcode" v="LD1 6DT"/>
    <tag k="removemelater" v="yes"/>
  </node>
  <node id="-217" lat="52.24671940272894" lon="-3.386743525441939">
    <tag k="addr:postcode" v="LD1 6DU"/>
    <tag k="removemelater" v="yes"/>
  </node>
  <node id="-218" lat="52.24771631903566" lon="-3.383771747440548">
    <tag k="addr:postcode" v="LD1 6DW"/>
    <tag k="removemelater" v="yes"/>
  </node>
  <node id="-219" lat="52.25350342779145" lon="-3.403070230775041">
    <tag k="addr:postcode" v="LD1 6DX"/>
    <tag k="removemelater" v="yes"/>
  </node>
  <node id="-220" lat="52.25247598583308" lon="-3.4040339851476404">
    <tag k="addr:postcode" v="LD1 6DY"/>
    <tag k="removemelater" v="yes"/>
  </node>
  <node id="-221" lat="52.24670197226575" lon="-3.3790235840579266">
    <tag k="addr:postcode" v="LD1 6DZ"/>
    <tag k="removemelater" v="yes"/>
  </node>
  <node id="-222" lat="52.25740016997929" lon="-3.402006478020288">
    <tag k="addr:postcode" v="LD1 6EA"/>
    <tag k="removemelater" v="yes"/>
  </node>
  <node id="-223" lat="52.26223778539433" lon="-3.398935445064594">
    <tag k="addr:postcode" v="LD1 6EB"/>
    <tag k="removemelater" v="yes"/>
  </node>
  <node id="-224" lat="52.26565684841844" lon="-3.4175658729577862">
    <tag k="addr:postcode" v="LD1 6EE"/>
    <tag k="removemelater" v="yes"/>
  </node>
  <node id="-225" lat="52.27432337061897" lon="-3.4093707077412496">
    <tag k="addr:postcode" v="LD1 6EF"/>
    <tag k="removemelater" v="yes"/>
  </node>
  <node id="-226" lat="52.28141166225289" lon="-3.386302056726876">
    <tag k="addr:postcode" v="LD1 6EG"/>
    <tag k="removemelater" v="yes"/>
  </node>
  <node id="-227" lat="52.29408405923712" lon="-3.4042059820987296">
    <tag k="addr:postcode" v="LD1 6EH"/>
    <tag k="removemelater" v="yes"/>
  </node>
  <node id="-228" lat="52.248078218907835" lon="-3.3858777134304456">
    <tag k="addr:postcode" v="LD1 6EJ"/>
    <tag k="removemelater" v="yes"/>
  </node>
  <node id="-229" lat="52.28238939546359" lon="-3.4092748640728163">
    <tag k="addr:postcode" v="LD1 6EL"/>
    <tag k="removemelater" v="yes"/>
  </node>
  <node id="-230" lat="52.28636579209649" lon="-3.423314314281317">
    <tag k="addr:postcode" v="LD1 6EN"/>
    <tag k="removemelater" v="yes"/>
  </node>
  <node id="-231" lat="52.25119878205349" lon="-3.3827521459777774">
    <tag k="addr:postcode" v="LD1 6EP"/>
    <tag k="removemelater" v="yes"/>
  </node>
  <node id="-232" lat="52.24828405815782" lon="-3.378281644419609">
    <tag k="addr:postcode" v="LD1 6ER"/>
    <tag k="removemelater" v="yes"/>
  </node>
  <node id="-233" lat="52.24746824062517" lon="-3.3796186244873585">
    <tag k="addr:postcode" v="LD1 6ES"/>
    <tag k="removemelater" v="yes"/>
  </node>
  <node id="-234" lat="52.24347897939591" lon="-3.3954451771559397">
    <tag k="addr:postcode" v="LD1 6ET"/>
    <tag k="removemelater" v="yes"/>
  </node>
  <node id="-235" lat="52.24707582682697" lon="-3.403746270666892">
    <tag k="addr:postcode" v="LD1 6EU"/>
    <tag k="removemelater" v="yes"/>
  </node>
  <node id="-236" lat="52.28040023982955" lon="-3.442209135026554">
    <tag k="addr:postcode" v="LD1 6EW"/>
    <tag k="removemelater" v="yes"/>
  </node>
  <node id="-237" lat="52.236380234417084" lon="-3.4266787574803113">
    <tag k="addr:postcode" v="LD1 6EY"/>
    <tag k="removemelater" v="yes"/>
  </node>
  <node id="-238" lat="52.219785344415605" lon="-3.439790317783291">
    <tag k="addr:postcode" v="LD1 6HA"/>
    <tag k="removemelater" v="yes"/>
  </node>
  <node id="-239" lat="52.23066685403528" lon="-3.442543838466397">
    <tag k="addr:postcode" v="LD1 6HB"/>
    <tag k="removemelater" v="yes"/>
  </node>
  <node id="-240" lat="52.255277515005204" lon="-3.450433367233978">
    <tag k="addr:postcode" v="LD1 6HD"/>
    <tag k="removemelater" v="yes"/>
  </node>
  <node id="-241" lat="52.24329602761845" lon="-3.4618039210255835">
    <tag k="addr:postcode" v="LD1 6HE"/>
    <tag k="removemelater" v="yes"/>
  </node>
  <node id="-242" lat="52.251448166526224" lon="-3.4692648773633703">
    <tag k="addr:postcode" v="LD1 6HG"/>
    <tag k="removemelater" v="yes"/>
  </node>
  <node id="-243" lat="52.25450925340431" lon="-3.4739809726088873">
    <tag k="addr:postcode" v="LD1 6HH"/>
    <tag k="removemelater" v="yes"/>
  </node>
  <node id="-244" lat="52.27408217933097" lon="-3.334188202615328">
    <tag k="addr:postcode" v="LD1 6HN"/>
    <tag k="removemelater" v="yes"/>
  </node>
  <node id="-245" lat="52.21892397944063" lon="-3.4285491710252525">
    <tag k="addr:postcode" v="LD1 6HR"/>
    <tag k="removemelater" v="yes"/>
  </node>
  <node id="-246" lat="52.21420057563711" lon="-3.4384240660495187">
    <tag k="addr:postcode" v="LD1 6HT"/>
    <tag k="removemelater" v="yes"/>
  </node>
  <node id="-247" lat="52.21337956372278" lon="-3.439392848938847">
    <tag k="addr:postcode" v="LD1 6HU"/>
    <tag k="removemelater" v="yes"/>
  </node>
  <node id="-248" lat="52.213625730570335" lon="-3.4383762174451675">
    <tag k="addr:postcode" v="LD1 6HW"/>
    <tag k="removemelater" v="yes"/>
  </node>
  <node id="-249" lat="52.21387500890761" lon="-3.4400529010453833">
    <tag k="addr:postcode" v="LD1 6HY"/>
    <tag k="removemelater" v="yes"/>
  </node>
  <node id="-250" lat="52.213199035084806" lon="-3.4409238838394867">
    <tag k="addr:postcode" v="LD1 6LA"/>
    <tag k="removemelater" v="yes"/>
  </node>
  <node id="-251" lat="52.21284060641337" lon="-3.4408244618342634">
    <tag k="addr:postcode" v="LD1 6LB"/>
    <tag k="removemelater" v="yes"/>
  </node>
  <node id="-252" lat="52.21255116403956" lon="-3.440229627492811">
    <tag k="addr:postcode" v="LD1 6LD"/>
    <tag k="removemelater" v="yes"/>
  </node>
  <node id="-253" lat="52.21496839172033" lon="-3.4396052360021074">
    <tag k="addr:postcode" v="LD1 6LE"/>
    <tag k="removemelater" v="yes"/>
  </node>
  <node id="-254" lat="52.211583664690174" lon="-3.4392030568932914">
    <tag k="addr:postcode" v="LD1 6LF"/>
    <tag k="removemelater" v="yes"/>
  </node>
  <node id="-255" lat="52.210608072536886" lon="-3.4403131293893">
    <tag k="addr:postcode" v="LD1 6LG"/>
    <tag k="removemelater" v="yes"/>
  </node>
  <node id="-256" lat="52.21422656979312" lon="-3.442186670131386">
    <tag k="addr:postcode" v="LD1 6LH"/>
    <tag k="removemelater" v="yes"/>
  </node>
  <node id="-257" lat="52.21473836345431" lon="-3.4429790326665772">
    <tag k="addr:postcode" v="LD1 6LL"/>
    <tag k="removemelater" v="yes"/>
  </node>
  <node id="-258" lat="52.2156144463324" lon="-3.442656128159176">
    <tag k="addr:postcode" v="LD1 6LN"/>
    <tag k="removemelater" v="yes"/>
  </node>
  <node id="-259" lat="52.2162792513072" lon="-3.4412285233212434">
    <tag k="addr:postcode" v="LD1 6LP"/>
    <tag k="removemelater" v="yes"/>
  </node>
  <node id="-260" lat="52.215558998938924" lon="-3.4413076668383846">
    <tag k="addr:postcode" v="LD1 6LQ"/>
    <tag k="removemelater" v="yes"/>
  </node>
  <node id="-261" lat="52.216656596066606" lon="-3.4419872800464075">
    <tag k="addr:postcode" v="LD1 6LR"/>
    <tag k="removemelater" v="yes"/>
  </node>
  <node id="-262" lat="52.21627419567673" lon="-3.4409063260676174">
    <tag k="addr:postcode" v="LD1 6LS"/>
    <tag k="removemelater" v="yes"/>
  </node>
  <node id="-263" lat="52.21556557217091" lon="-3.4429765726642074">
    <tag k="addr:postcode" v="LD1 6LT"/>
    <tag k="removemelater" v="yes"/>
  </node>
  <node id="-264" lat="52.20837559319383" lon="-3.4405336167585214">
    <tag k="addr:postcode" v="LD1 6LU"/>
    <tag k="removemelater" v="yes"/>
  </node>
  <node id="-265" lat="52.21613536400199" lon="-3.442702286848341">
    <tag k="addr:postcode" v="LD1 6LW"/>
    <tag k="removemelater" v="yes"/>
  </node>
  <node id="-266" lat="52.21009803371218" lon="-3.441584584827715">
    <tag k="addr:postcode" v="LD1 6LX"/>
    <tag k="removemelater" v="yes"/>
  </node>
  <node id="-267" lat="52.2150014001072" lon="-3.444261019580115">
    <tag k="addr:postcode" v="LD1 6LY"/>
    <tag k="removemelater" v="yes"/>
  </node>
  <node id="-268" lat="52.21109005749047" lon="-3.4413386190564235">
    <tag k="addr:postcode" v="LD1 6LZ"/>
    <tag k="removemelater" v="yes"/>
  </node>
  <node id="-269" lat="52.211287755880925" lon="-3.436924873122162">
    <tag k="addr:postcode" v="LD1 6NA"/>
    <tag k="removemelater" v="yes"/>
  </node>
  <node id="-270" lat="52.21595548033393" lon="-3.4551532217920045">
    <tag k="addr:postcode" v="LD1 6NB"/>
    <tag k="removemelater" v="yes"/>
  </node>
  <node id="-271" lat="52.21288154927284" lon="-3.4382058049514694">
    <tag k="addr:postcode" v="LD1 6NE"/>
    <tag k="removemelater" v="yes"/>
  </node>
  <node id="-272" lat="52.25657603388126" lon="-3.402507921749134">
    <tag k="addr:postcode" v="LD1 6NF"/>
    <tag k="removemelater" v="yes"/>
  </node>
  <node id="-273" lat="52.253597250612074" lon="-3.401227277575692">
    <tag k="addr:postcode" v="LD1 6NG"/>
    <tag k="removemelater" v="yes"/>
  </node>
  <node id="-274" lat="52.21336932594656" lon="-3.401409759398014">
    <tag k="addr:postcode" v="LD1 6NL"/>
    <tag k="removemelater" v="yes"/>
  </node>
  <node id="-275" lat="52.26095260168303" lon="-3.4970968062846475">
    <tag k="addr:postcode" v="LD1 6NN"/>
    <tag k="removemelater" v="yes"/>
  </node>
  <node id="-276" lat="52.26901055202419" lon="-3.508242606115348">
    <tag k="addr:postcode" v="LD1 6NP"/>
    <tag k="removemelater" v="yes"/>
  </node>
  <node id="-277" lat="52.26309988006481" lon="-3.5035873412505802">
    <tag k="addr:postcode" v="LD1 6NR"/>
    <tag k="removemelater" v="yes"/>
  </node>
  <node id="-278" lat="52.262592425361554" lon="-3.502485830712203">
    <tag k="addr:postcode" v="LD1 6NS"/>
    <tag k="removemelater" v="yes"/>
  </node>
  <node id="-279" lat="52.258857152344" lon="-3.4999712719103986">
    <tag k="addr:postcode" v="LD1 6NT"/>
    <tag k="removemelater" v="yes"/>
  </node>
  <node id="-280" lat="52.26478688754983" lon="-3.5241746627775377">
    <tag k="addr:postcode" v="LD1 6NU"/>
    <tag k="removemelater" v="yes"/>
  </node>
  <node id="-281" lat="52.275547767822" lon="-3.507482525811193">
    <tag k="addr:postcode" v="LD1 6NW"/>
    <tag k="removemelater" v="yes"/>
  </node>
  <node id="-282" lat="52.2778163427676" lon="-3.5434430587641086">
    <tag k="addr:postcode" v="LD1 6NY"/>
    <tag k="removemelater" v="yes"/>
  </node>
  <node id="-283" lat="52.2692886838466" lon="-3.4450432659816155">
    <tag k="addr:postcode" v="LD1 6PB"/>
    <tag k="removemelater" v="yes"/>
  </node>
  <node id="-284" lat="52.24938800691269" lon="-3.37844770585327">
    <tag k="addr:postcode" v="LD1 6PE"/>
    <tag k="removemelater" v="yes"/>
  </node>
  <node id="-285" lat="52.249399633055376" lon="-3.377451955071459">
    <tag k="addr:postcode" v="LD1 6PF"/>
    <tag k="removemelater" v="yes"/>
  </node>
  <node id="-286" lat="52.33014738007193" lon="-3.3881631784789854">
    <tag k="addr:postcode" v="LD1 6PH"/>
    <tag k="removemelater" v="yes"/>
  </node>
  <node id="-287" lat="52.32854531611122" lon="-3.395934711111717">
    <tag k="addr:postcode" v="LD1 6PL"/>
    <tag k="removemelater" v="yes"/>
  </node>
  <node id="-288" lat="52.34467733321723" lon="-3.354017220040097">
    <tag k="addr:postcode" v="LD1 6PU"/>
    <tag k="removemelater" v="yes"/>
  </node>
  <node id="-289" lat="52.338769200940895" lon="-3.4071920405341376">
    <tag k="addr:postcode" v="LD1 6PW"/>
    <tag k="removemelater" v="yes"/>
  </node>
  <node id="-290" lat="52.27270838393989" lon="-3.3387929938035232">
    <tag k="addr:postcode" v="LD1 6RA"/>
    <tag k="removemelater" v="yes"/>
  </node>
  <node id="-291" lat="52.27397681159288" lon="-3.3379371620512948">
    <tag k="addr:postcode" v="LD1 6RB"/>
    <tag k="removemelater" v="yes"/>
  </node>
  <node id="-292" lat="52.276347149246845" lon="-3.346920338349315">
    <tag k="addr:postcode" v="LD1 6RF"/>
    <tag k="removemelater" v="yes"/>
  </node>
  <node id="-293" lat="52.2742454784554" lon="-3.3396161327877616">
    <tag k="addr:postcode" v="LD1 6RJ"/>
    <tag k="removemelater" v="yes"/>
  </node>
  <node id="-294" lat="52.27898844775105" lon="-3.3557368556132765">
    <tag k="addr:postcode" v="LD1 6RL"/>
    <tag k="removemelater" v="yes"/>
  </node>
  <node id="-295" lat="52.28085614744241" lon="-3.366084521349378">
    <tag k="addr:postcode" v="LD1 6RN"/>
    <tag k="removemelater" v="yes"/>
  </node>
  <node id="-296" lat="52.278098288966426" lon="-3.3352323039037315">
    <tag k="addr:postcode" v="LD1 6RP"/>
    <tag k="removemelater" v="yes"/>
  </node>
  <node id="-297" lat="52.28073316937127" lon="-3.36893924584587">
    <tag k="addr:postcode" v="LD1 6RQ"/>
    <tag k="removemelater" v="yes"/>
  </node>
  <node id="-298" lat="52.28221450519715" lon="-3.334579116586601">
    <tag k="addr:postcode" v="LD1 6RR"/>
    <tag k="removemelater" v="yes"/>
  </node>
  <node id="-299" lat="52.28339620391852" lon="-3.3382062939339785">
    <tag k="addr:postcode" v="LD1 6RS"/>
    <tag k="removemelater" v="yes"/>
  </node>
  <node id="-300" lat="52.2829430105012" lon="-3.357426179008105">
    <tag k="addr:postcode" v="LD1 6RW"/>
    <tag k="removemelater" v="yes"/>
  </node>
  <node id="-301" lat="52.27451661490937" lon="-3.3418668186710208">
    <tag k="addr:postcode" v="LD1 6RX"/>
    <tag k="removemelater" v="yes"/>
  </node>
  <node id="-302" lat="52.2759196927115" lon="-3.3386552673033147">
    <tag k="addr:postcode" v="LD1 6RY"/>
    <tag k="removemelater" v="yes"/>
  </node>
  <node id="-303" lat="52.275229149514004" lon="-3.3416684868627797">
    <tag k="addr:postcode" v="LD1 6SA"/>
    <tag k="removemelater" v="yes"/>
  </node>
  <node id="-304" lat="52.28252931564569" lon="-3.3329760268109894">
    <tag k="addr:postcode" v="LD1 6SB"/>
    <tag k="removemelater" v="yes"/>
  </node>
  <node id="-305" lat="52.30006415516687" lon="-3.32875108256035">
    <tag k="addr:postcode" v="LD1 6SD"/>
    <tag k="removemelater" v="yes"/>
  </node>
  <node id="-306" lat="52.33296711820612" lon="-3.2448943076802452">
    <tag k="addr:postcode" v="LD1 6SR"/>
    <tag k="removemelater" v="yes"/>
  </node>
  <node id="-307" lat="52.34478896938255" lon="-3.266967569240378">
    <tag k="addr:postcode" v="LD1 6SS"/>
    <tag k="removemelater" v="yes"/>
  </node>
  <node id="-308" lat="52.275178386713755" lon="-3.3405969823743424">
    <tag k="addr:postcode" v="LD1 6TB"/>
    <tag k="removemelater" v="yes"/>
  </node>
  <node id="-309" lat="52.35165435230688" lon="-3.31096139248994">
    <tag k="addr:postcode" v="LD1 6TD"/>
    <tag k="removemelater" v="yes"/>
  </node>
  <node id="-310" lat="52.36802007267103" lon="-3.3099184498765197">
    <tag k="addr:postcode" v="LD1 6TG"/>
    <tag k="removemelater" v="yes"/>
  </node>
  <node id="-311" lat="52.27603439214001" lon="-3.341223772686378">
    <tag k="addr:postcode" v="LD1 6TJ"/>
    <tag k="removemelater" v="yes"/>
  </node>
  <node id="-312" lat="52.35222332522567" lon="-3.2837127259084418">
    <tag k="addr:postcode" v="LD1 6TL"/>
    <tag k="removemelater" v="yes"/>
  </node>
  <node id="-313" lat="52.35013778399062" lon="-3.309081275006832">
    <tag k="addr:postcode" v="LD1 6TN"/>
    <tag k="removemelater" v="yes"/>
  </node>
  <node id="-314" lat="52.35322952429817" lon="-3.3116100124685404">
    <tag k="addr:postcode" v="LD1 6TP"/>
    <tag k="removemelater" v="yes"/>
  </node>
  <node id="-315" lat="52.36340690581831" lon="-3.345205343048264">
    <tag k="addr:postcode" v="LD1 6TT"/>
    <tag k="removemelater" v="yes"/>
  </node>
  <node id="-316" lat="52.38341070852202" lon="-3.3245674352975993">
    <tag k="addr:postcode" v="LD1 6UA"/>
    <tag k="removemelater" v="yes"/>
  </node>
  <node id="-317" lat="52.36997278899768" lon="-3.325883849892187">
    <tag k="addr:postcode" v="LD1 6UB"/>
    <tag k="removemelater" v="yes"/>
  </node>
  <node id="-318" lat="52.36805028291756" lon="-3.2541057715366977">
    <tag k="addr:postcode" v="LD1 6UG"/>
    <tag k="removemelater" v="yes"/>
  </node>
  <node id="-319" lat="52.3642864715561" lon="-3.299556761946512">
    <tag k="addr:postcode" v="LD1 6UL"/>
    <tag k="removemelater" v="yes"/>
  </node>
  <node id="-320" lat="52.29528934771714" lon="-3.262445466848881">
    <tag k="addr:postcode" v="LD1 6UP"/>
    <tag k="removemelater" v="yes"/>
  </node>
  <node id="-321" lat="52.40385828527374" lon="-3.3323240276356474">
    <tag k="addr:postcode" v="LD1 6YB"/>
    <tag k="removemelater" v="yes"/>
  </node>
  <node id="-322" lat="52.408365131878085" lon="-3.3200814161132803">
    <tag k="addr:postcode" v="LD1 6YD"/>
    <tag k="removemelater" v="yes"/>
  </node>
  <node id="-323" lat="52.427375654131254" lon="-3.317281415249021">
    <tag k="addr:postcode" v="LD1 6YE"/>
    <tag k="removemelater" v="yes"/>
  </node>
  <node id="-324" lat="52.40823425930999" lon="-3.305964378807741">
    <tag k="addr:postcode" v="LD1 6YF"/>
    <tag k="removemelater" v="yes"/>
  </node>
  <node id="-325" lat="52.397935390142734" lon="-3.290830197118077">
    <tag k="addr:postcode" v="LD1 6YG"/>
    <tag k="removemelater" v="yes"/>
  </node>
  <node id="-326" lat="52.390171936969544" lon="-3.3277530134293998">
    <tag k="addr:postcode" v="LD1 6YH"/>
    <tag k="removemelater" v="yes"/>
  </node>
  <node id="-327" lat="52.39694050335175" lon="-3.3445790478513806">
    <tag k="addr:postcode" v="LD1 6YL"/>
    <tag k="removemelater" v="yes"/>
  </node>
  <node id="-328" lat="52.404529832156506" lon="-3.358627853623135">
    <tag k="addr:postcode" v="LD1 6YN"/>
    <tag k="removemelater" v="yes"/>
  </node>
  <node id="-329" lat="52.39259594078033" lon="-3.375999387939571">
    <tag k="addr:postcode" v="LD1 6YP"/>
    <tag k="removemelater" v="yes"/>
  </node>
  <node id="-330" lat="52.424082705165446" lon="-3.369700124798093">
    <tag k="addr:postcode" v="LD1 6YS"/>
    <tag k="removemelater" v="yes"/>
  </node>
  <node id="-331" lat="52.2416556673669" lon="-3.3784570058639583">
    <tag k="addr:postcode" v="LD1 9AQ"/>
    <tag k="removemelater" v="yes"/>
  </node>
  <node id="-332" lat="52.2416556673669" lon="-3.3784570058639583">
    <tag k="addr:postcode" v="LD1 9AY"/>
    <tag k="removemelater" v="yes"/>
  </node>
  <node id="-333" lat="52.2416556673669" lon="-3.3784570058639583">
    <tag k="addr:postcode" v="LD1 9BE"/>
    <tag k="removemelater" v="yes"/>
  </node>
  <node id="-334" lat="52.2416556673669" lon="-3.3784570058639583">
    <tag k="addr:postcode" v="LD1 9BL"/>
    <tag k="removemelater" v="yes"/>
  </node>
  <node id="-335" lat="52.2416556673669" lon="-3.3784570058639583">
    <tag k="addr:postcode" v="LD1 9BU"/>
    <tag k="removemelater" v="yes"/>
  </node>
  <node id="-336" lat="52.2416556673669" lon="-3.3784570058639583">
    <tag k="addr:postcode" v="LD1 9BW"/>
    <tag k="removemelater" v="yes"/>
  </node>
  <node id="-337" lat="52.2416556673669" lon="-3.3784570058639583">
    <tag k="addr:postcode" v="LD1 9BY"/>
    <tag k="removemelater" v="yes"/>
  </node>
  <node id="-338" lat="52.2416556673669" lon="-3.3784570058639583">
    <tag k="addr:postcode" v="LD1 9BZ"/>
    <tag k="removemelater" v="yes"/>
  </node>
  <node id="-339" lat="52.2416556673669" lon="-3.3784570058639583">
    <tag k="addr:postcode" v="LD1 9DA"/>
    <tag k="removemelater" v="yes"/>
  </node>
  <node id="-340" lat="52.237790154859326" lon="-3.3730064714372854">
    <tag k="addr:postcode" v="LD1 9SA"/>
    <tag k="removemelater" v="yes"/>
  </node>
  <node id="-341" lat="52.237790154859326" lon="-3.3730064714372854">
    <tag k="addr:postcode" v="LD1 9SB"/>
    <tag k="removemelater" v="yes"/>
  </node>
  <node id="-342" lat="52.237790154859326" lon="-3.3730064714372854">
    <tag k="addr:postcode" v="LD1 9XF"/>
    <tag k="removemelater" v="yes"/>
  </node>
  <node id="-343" lat="52.237790154859326" lon="-3.3730064714372854">
    <tag k="addr:postcode" v="LD1 9ZX"/>
    <tag k="removemelater" v="yes"/>
  </node>
  <node id="-344" lat="52.237790154859326" lon="-3.3730064714372854">
    <tag k="addr:postcode" v="LD1 9ZY"/>
    <tag k="removemelater" v="yes"/>
  </node>
  <node id="-345" lat="52.14889737321766" lon="-3.4034179326539395">
    <tag k="addr:postcode" v="LD2 3AA"/>
    <tag k="removemelater" v="yes"/>
  </node>
  <node id="-346" lat="52.14848810898786" lon="-3.4030542866973987">
    <tag k="addr:postcode" v="LD2 3AB"/>
    <tag k="removemelater" v="yes"/>
  </node>
  <node id="-347" lat="52.148341870630155" lon="-3.4032543059525877">
    <tag k="addr:postcode" v="LD2 3AD"/>
    <tag k="removemelater" v="yes"/>
  </node>
  <node id="-348" lat="52.14959786771182" lon="-3.4012183416942183">
    <tag k="addr:postcode" v="LD2 3AE"/>
    <tag k="removemelater" v="yes"/>
  </node>
  <node id="-349" lat="52.148350280233196" lon="-3.4040584249191697">
    <tag k="addr:postcode" v="LD2 3AH"/>
    <tag k="removemelater" v="yes"/>
  </node>
  <node id="-350" lat="52.148538895384554" lon="-3.4055843822637235">
    <tag k="addr:postcode" v="LD2 3AL"/>
    <tag k="removemelater" v="yes"/>
  </node>
  <node id="-351" lat="52.14780213947846" lon="-3.4047865608184833">
    <tag k="addr:postcode" v="LD2 3AN"/>
    <tag k="removemelater" v="yes"/>
  </node>
  <node id="-352" lat="52.14917852289324" lon="-3.406233010873667">
    <tag k="addr:postcode" v="LD2 3AP"/>
    <tag k="removemelater" v="yes"/>
  </node>
  <node id="-353" lat="52.14926580210934" lon="-3.4079604308336826">
    <tag k="addr:postcode" v="LD2 3AR"/>
    <tag k="removemelater" v="yes"/>
  </node>
  <node id="-354" lat="52.14980661319252" lon="-3.41085685238575">
    <tag k="addr:postcode" v="LD2 3AS"/>
    <tag k="removemelater" v="yes"/>
  </node>
  <node id="-355" lat="52.14837417853119" lon="-3.407333059515996">
    <tag k="addr:postcode" v="LD2 3AT"/>
    <tag k="removemelater" v="yes"/>
  </node>
  <node id="-356" lat="52.15020384154437" lon="-3.409217787454504">
    <tag k="addr:postcode" v="LD2 3AU"/>
    <tag k="removemelater" v="yes"/>
  </node>
  <node id="-357" lat="52.14681017822979" lon="-3.4050330190320848">
    <tag k="addr:postcode" v="LD2 3AW"/>
    <tag k="removemelater" v="yes"/>
  </node>
  <node id="-358" lat="52.14988185315564" lon="-3.4075706209481313">
    <tag k="addr:postcode" v="LD2 3AY"/>
    <tag k="removemelater" v="yes"/>
  </node>
  <node id="-359" lat="52.14986273671993" lon="-3.4069122962143745">
    <tag k="addr:postcode" v="LD2 3BA"/>
    <tag k="removemelater" v="yes"/>
  </node>
  <node id="-360" lat="52.148489375318434" lon="-3.4021920072709206">
    <tag k="addr:postcode" v="LD2 3BB"/>
    <tag k="removemelater" v="yes"/>
  </node>
  <node id="-361" lat="52.149174308328924" lon="-3.4028127790482436">
    <tag k="addr:postcode" v="LD2 3BD"/>
    <tag k="removemelater" v="yes"/>
  </node>
  <node id="-362" lat="52.147324431638765" lon="-3.406393809688837">
    <tag k="addr:postcode" v="LD2 3BE"/>
    <tag k="removemelater" v="yes"/>
  </node>
  <node id="-363" lat="52.149473060722485" lon="-3.39658118301377">
    <tag k="addr:postcode" v="LD2 3BF"/>
    <tag k="removemelater" v="yes"/>
  </node>
  <node id="-364" lat="52.14936798501864" lon="-3.4039150582332893">
    <tag k="addr:postcode" v="LD2 3BG"/>
    <tag k="removemelater" v="yes"/>
  </node>
  <node id="-365" lat="52.14918498168" lon="-3.403426978584399">
    <tag k="addr:postcode" v="LD2 3BH"/>
    <tag k="removemelater" v="yes"/>
  </node>
  <node id="-366" lat="52.03861765243459" lon="-3.371573946529923">
    <tag k="addr:postcode" v="LD2 3BJ"/>
    <tag k="removemelater" v="yes"/>
  </node>
  <node id="-367" lat="52.15003299475521" lon="-3.39940499604934">
    <tag k="addr:postcode" v="LD2 3BN"/>
    <tag k="removemelater" v="yes"/>
  </node>
  <node id="-368" lat="52.15039362876615" lon="-3.395528398628566">
    <tag k="addr:postcode" v="LD2 3BP"/>
    <tag k="removemelater" v="yes"/>
  </node>
  <node id="-369" lat="52.14960972358161" lon="-3.4047557734185445">
    <tag k="addr:postcode" v="LD2 3BS"/>
    <tag k="removemelater" v="yes"/>
  </node>
  <node id="-370" lat="52.1500640952025" lon="-3.405106248784085">
    <tag k="addr:postcode" v="LD2 3BT"/>
    <tag k="removemelater" v="yes"/>
  </node>
  <node id="-371" lat="52.1515687583318" lon="-3.4078577045501652">
    <tag k="addr:postcode" v="LD2 3BU"/>
    <tag k="removemelater" v="yes"/>
  </node>
  <node id="-372" lat="52.151224166635146" lon="-3.4073498707713465">
    <tag k="addr:postcode" v="LD2 3BW"/>
    <tag k="removemelater" v="yes"/>
  </node>
  <node id="-373" lat="52.15078827651057" lon="-3.413723464840283">
    <tag k="addr:postcode" v="LD2 3BY"/>
    <tag k="removemelater" v="yes"/>
  </node>
  <node id="-374" lat="52.151094209407006" lon="-3.4137039255544015">
    <tag k="addr:postcode" v="LD2 3DA"/>
    <tag k="removemelater" v="yes"/>
  </node>
  <node id="-375" lat="52.150563855430214" lon="-3.4106907851938537">
    <tag k="addr:postcode" v="LD2 3DB"/>
    <tag k="removemelater" v="yes"/>
  </node>
  <node id="-376" lat="52.15245102997342" lon="-3.4100196105994067">
    <tag k="addr:postcode" v="LD2 3DD"/>
    <tag k="removemelater" v="yes"/>
  </node>
  <node id="-377" lat="52.15019619468009" lon="-3.4121115440246816">
    <tag k="addr:postcode" v="LD2 3DE"/>
    <tag k="removemelater" v="yes"/>
  </node>
  <node id="-378" lat="52.14970879609198" lon="-3.415267790228373">
    <tag k="addr:postcode" v="LD2 3DF"/>
    <tag k="removemelater" v="yes"/>
  </node>
  <node id="-379" lat="52.151815381355114" lon="-3.414296827229842">
    <tag k="addr:postcode" v="LD2 3DG"/>
    <tag k="removemelater" v="yes"/>
  </node>
  <node id="-380" lat="52.14690101458357" lon="-3.401177503021568">
    <tag k="addr:postcode" v="LD2 3DH"/>
    <tag k="removemelater" v="yes"/>
  </node>
  <node id="-381" lat="52.150398573962086" lon="-3.3989048949280254">
    <tag k="addr:postcode" v="LD2 3DJ"/>
    <tag k="removemelater" v="yes"/>
  </node>
  <node id="-382" lat="52.14899785529039" lon="-3.4025295324245297">
    <tag k="addr:postcode" v="LD2 3DL"/>
    <tag k="removemelater" v="yes"/>
  </node>
  <node id="-383" lat="52.14934998828566" lon="-3.4016490332925127">
    <tag k="addr:postcode" v="LD2 3DN"/>
    <tag k="removemelater" v="yes"/>
  </node>
  <node id="-384" lat="52.14920379466377" lon="-3.4010890400805374">
    <tag k="addr:postcode" v="LD2 3DP"/>
    <tag k="removemelater" v="yes"/>
  </node>
  <node id="-385" lat="52.14551895073914" lon="-3.39641359236979">
    <tag k="addr:postcode" v="LD2 3DQ"/>
    <tag k="removemelater" v="yes"/>
  </node>
  <node id="-386" lat="52.149198278726274" lon="-3.4007965506786064">
    <tag k="addr:postcode" v="LD2 3DR"/>
    <tag k="removemelater" v="yes"/>
  </node>
  <node id="-387" lat="52.14886364807715" lon="-3.400961433939143">
    <tag k="addr:postcode" v="LD2 3DS"/>
    <tag k="removemelater" v="yes"/>
  </node>
  <node id="-388" lat="52.14947585823739" lon="-3.4008929603624933">
    <tag k="addr:postcode" v="LD2 3DT"/>
    <tag k="removemelater" v="yes"/>
  </node>
  <node id="-389" lat="52.149372691106166" lon="-3.400495092930255">
    <tag k="addr:postcode" v="LD2 3DU"/>
    <tag k="removemelater" v="yes"/>
  </node>
  <node id="-390" lat="52.14928824426023" lon="-3.402304806590556">
    <tag k="addr:postcode" v="LD2 3DW"/>
    <tag k="removemelater" v="yes"/>
  </node>
  <node id="-391" lat="52.147631523428174" lon="-3.3994758362002964">
    <tag k="addr:postcode" v="LD2 3DX"/>
    <tag k="removemelater" v="yes"/>
  </node>
  <node id="-392" lat="52.14397394959246" lon="-3.400837162868721">
    <tag k="addr:postcode" v="LD2 3DY"/>
    <tag k="removemelater" v="yes"/>
  </node>
  <node id="-393" lat="52.14980661319252" lon="-3.41085685238575">
    <tag k="addr:postcode" v="LD2 3DZ"/>
    <tag k="removemelater" v="yes"/>
  </node>
  <node id="-394" lat="52.14690161952592" lon="-3.4026390279404546">
    <tag k="addr:postcode" v="LD2 3EB"/>
    <tag k="removemelater" v="yes"/>
  </node>
  <node id="-395" lat="52.14784915858772" lon="-3.4023472738985974">
    <tag k="addr:postcode" v="LD2 3ED"/>
    <tag k="removemelater" v="yes"/>
  </node>
  <node id="-396" lat="52.146604201662825" lon="-3.4019427762764756">
    <tag k="addr:postcode" v="LD2 3EE"/>
    <tag k="removemelater" v="yes"/>
  </node>
  <node id="-397" lat="52.14841189961114" lon="-3.3996318510075287">
    <tag k="addr:postcode" v="LD2 3EG"/>
    <tag k="removemelater" v="yes"/>
  </node>
  <node id="-398" lat="52.14796481333908" lon="-3.397907825523346">
    <tag k="addr:postcode" v="LD2 3EH"/>
    <tag k="removemelater" v="yes"/>
  </node>
  <node id="-399" lat="52.07824226181466" lon="-3.3195841230650607">
    <tag k="addr:postcode" v="LD2 3EJ"/>
    <tag k="removemelater" v="yes"/>
  </node>
  <node id="-400" lat="52.14889661689825" lon="-3.397425467591081">
    <tag k="addr:postcode" v="LD2 3EL"/>
    <tag k="removemelater" v="yes"/>
  </node>
  <node id="-401" lat="52.14958368982029" lon="-3.3955907624849715">
    <tag k="addr:postcode" v="LD2 3EN"/>
    <tag k="removemelater" v="yes"/>
  </node>
  <node id="-402" lat="52.148298428586074" lon="-3.3963105708914">
    <tag k="addr:postcode" v="LD2 3EP"/>
    <tag k="removemelater" v="yes"/>
  </node>
  <node id="-403" lat="52.07867940703789" lon="-3.3214940609053927">
    <tag k="addr:postcode" v="LD2 3EQ"/>
    <tag k="removemelater" v="yes"/>
  </node>
  <node id="-404" lat="52.150479353561586" lon="-3.393601738802693">
    <tag k="addr:postcode" v="LD2 3ER"/>
    <tag k="removemelater" v="yes"/>
  </node>
  <node id="-405" lat="52.14978072953883" lon="-3.3956553893616332">
    <tag k="addr:postcode" v="LD2 3ES"/>
    <tag k="removemelater" v="yes"/>
  </node>
  <node id="-406" lat="52.15000698074551" lon="-3.3955309217126213">
    <tag k="addr:postcode" v="LD2 3ET"/>
    <tag k="removemelater" v="yes"/>
  </node>
  <node id="-407" lat="52.14987112627751" lon="-3.3956143688191456">
    <tag k="addr:postcode" v="LD2 3EU"/>
    <tag k="removemelater" v="yes"/>
  </node>
  <node id="-408" lat="52.15011120624371" lon="-3.395081082410388">
    <tag k="addr:postcode" v="LD2 3EW"/>
    <tag k="removemelater" v="yes"/>
  </node>
  <node id="-409" lat="52.07801771415995" lon="-3.318760323966404">
    <tag k="addr:postcode" v="LD2 3EX"/>
    <tag k="removemelater" v="yes"/>
  </node>
  <node id="-410" lat="52.150107402712685" lon="-3.3954025176679905">
    <tag k="addr:postcode" v="LD2 3EY"/>
    <tag k="removemelater" v="yes"/>
  </node>
  <node id="-411" lat="52.07875671194515" lon="-3.3194095936545245">
    <tag k="addr:postcode" v="LD2 3EZ"/>
    <tag k="removemelater" v="yes"/>
  </node>
  <node id="-412" lat="52.152770539816295" lon="-3.4605900289925207">
    <tag k="addr:postcode" v="LD2 3FA"/>
    <tag k="removemelater" v="yes"/>
  </node>
  <node id="-413" lat="52.14588193276998" lon="-3.4059683655026927">
    <tag k="addr:postcode" v="LD2 3FD"/>
    <tag k="removemelater" v="yes"/>
  </node>
  <node id="-414" lat="52.14703228960084" lon="-3.399208586585888">
    <tag k="addr:postcode" v="LD2 3FE"/>
    <tag k="removemelater" v="yes"/>
  </node>
  <node id="-415" lat="52.117373086900145" lon="-3.34648883810948">
    <tag k="addr:postcode" v="LD2 3FF"/>
    <tag k="removemelater" v="yes"/>
  </node>
  <node id="-416" lat="52.15259174466357" lon="-3.451770119544917">
    <tag k="addr:postcode" v="LD2 3FL"/>
    <tag k="removemelater" v="yes"/>
  </node>
  <node id="-417" lat="52.152304617789845" lon="-3.458279919415607">
    <tag k="addr:postcode" v="LD2 3GE"/>
    <tag k="removemelater" v="yes"/>
  </node>
  <node id="-418" lat="52.14786500036714" lon="-3.4002577732931143">
    <tag k="addr:postcode" v="LD2 3GF"/>
    <tag k="removemelater" v="yes"/>
  </node>
  <node id="-419" lat="52.147386959124425" lon="-3.4026542834721853">
    <tag k="addr:postcode" v="LD2 3GG"/>
    <tag k="removemelater" v="yes"/>
  </node>
  <node id="-420" lat="52.14854704498114" lon="-3.4086685318936802">
    <tag k="addr:postcode" v="LD2 3HA"/>
    <tag k="removemelater" v="yes"/>
  </node>
  <node id="-421" lat="52.150080958711584" lon="-3.3945978057129937">
    <tag k="addr:postcode" v="LD2 3HB"/>
    <tag k="removemelater" v="yes"/>
  </node>
  <node id="-422" lat="52.14729151635142" lon="-3.4114057851206976">
    <tag k="addr:postcode" v="LD2 3HE"/>
    <tag k="removemelater" v="yes"/>
  </node>
  <node id="-423" lat="52.14697284648344" lon="-3.4154879340477464">
    <tag k="addr:postcode" v="LD2 3HF"/>
    <tag k="removemelater" v="yes"/>
  </node>
  <node id="-424" lat="52.145355799418574" lon="-3.4161235282067066">
    <tag k="addr:postcode" v="LD2 3HG"/>
    <tag k="removemelater" v="yes"/>
  </node>
  <node id="-425" lat="52.1402818615388" lon="-3.430517015036009">
    <tag k="addr:postcode" v="LD2 3HH"/>
    <tag k="removemelater" v="yes"/>
  </node>
  <node id="-426" lat="52.13970161936695" lon="-3.461696683812368">
    <tag k="addr:postcode" v="LD2 3HN"/>
    <tag k="removemelater" v="yes"/>
  </node>
  <node id="-427" lat="52.131882245241606" lon="-3.410524147868172">
    <tag k="addr:postcode" v="LD2 3HR"/>
    <tag k="removemelater" v="yes"/>
  </node>
  <node id="-428" lat="52.13381321575588" lon="-3.4867953331827533">
    <tag k="addr:postcode" v="LD2 3HW"/>
    <tag k="removemelater" v="yes"/>
  </node>
  <node id="-429" lat="52.0954997168184" lon="-3.297407966025058">
    <tag k="addr:postcode" v="LD2 3JF"/>
    <tag k="removemelater" v="yes"/>
  </node>
  <node id="-430" lat="52.108636693804925" lon="-3.2172428852106045">
    <tag k="addr:postcode" v="LD2 3JL"/>
    <tag k="removemelater" v="yes"/>
  </node>
  <node id="-431" lat="52.09698639568033" lon="-3.2248526187758895">
    <tag k="addr:postcode" v="LD2 3JN"/>
    <tag k="removemelater" v="yes"/>
  </node>
  <node id="-432" lat="52.11187649349127" lon="-3.192315658242314">
    <tag k="addr:postcode" v="LD2 3JR"/>
    <tag k="removemelater" v="yes"/>
  </node>
  <node id="-433" lat="52.10710448388092" lon="-3.2167338938012247">
    <tag k="addr:postcode" v="LD2 3JX"/>
    <tag k="removemelater" v="yes"/>
  </node>
  <node id="-434" lat="52.10788251294471" lon="-3.2153970886163403">
    <tag k="addr:postcode" v="LD2 3JZ"/>
    <tag k="removemelater" v="yes"/>
  </node>
  <node id="-435" lat="52.13810137826043" lon="-3.404729660992715">
    <tag k="addr:postcode" v="LD2 3LB"/>
    <tag k="removemelater" v="yes"/>
  </node>
  <node id="-436" lat="52.14623059099101" lon="-3.415902835793043">
    <tag k="addr:postcode" v="LD2 3LD"/>
    <tag k="removemelater" v="yes"/>
  </node>
  <node id="-437" lat="52.14717999453094" lon="-3.4139599120193167">
    <tag k="addr:postcode" v="LD2 3LE"/>
    <tag k="removemelater" v="yes"/>
  </node>
  <node id="-438" lat="52.145523709588375" lon="-3.4028295526265087">
    <tag k="addr:postcode" v="LD2 3LF"/>
    <tag k="removemelater" v="yes"/>
  </node>
  <node id="-439" lat="52.150218172867525" lon="-3.466294507423074">
    <tag k="addr:postcode" v="LD2 3LG"/>
    <tag k="removemelater" v="yes"/>
  </node>
  <node id="-440" lat="52.15168452146061" lon="-3.5375264441722862">
    <tag k="addr:postcode" v="LD2 3LN"/>
    <tag k="removemelater" v="yes"/>
  </node>
  <node id="-441" lat="52.169901949551644" lon="-3.560030347816604">
    <tag k="addr:postcode" v="LD2 3LP"/>
    <tag k="removemelater" v="yes"/>
  </node>
  <node id="-442" lat="52.10468570565106" lon="-3.3645478520490686">
    <tag k="addr:postcode" v="LD2 3LQ"/>
    <tag k="removemelater" v="yes"/>
  </node>
  <node id="-443" lat="52.17754124787769" lon="-3.5473103899125493">
    <tag k="addr:postcode" v="LD2 3LY"/>
    <tag k="removemelater" v="yes"/>
  </node>
  <node id="-444" lat="52.1684496159005" lon="-3.5315829207468368">
    <tag k="addr:postcode" v="LD2 3NA"/>
    <tag k="removemelater" v="yes"/>
  </node>
  <node id="-445" lat="52.15342124837799" lon="-3.4153417049111012">
    <tag k="addr:postcode" v="LD2 3NF"/>
    <tag k="removemelater" v="yes"/>
  </node>
  <node id="-446" lat="52.15478605152271" lon="-3.4169929473403724">
    <tag k="addr:postcode" v="LD2 3NG"/>
    <tag k="removemelater" v="yes"/>
  </node>
  <node id="-447" lat="52.149805406705" lon="-3.4132099944295122">
    <tag k="addr:postcode" v="LD2 3NH"/>
    <tag k="removemelater" v="yes"/>
  </node>
  <node id="-448" lat="52.158296279977755" lon="-3.406169586150097">
    <tag k="addr:postcode" v="LD2 3NJ"/>
    <tag k="removemelater" v="yes"/>
  </node>
  <node id="-449" lat="52.149040979244816" lon="-3.4139750356465806">
    <tag k="addr:postcode" v="LD2 3NL"/>
    <tag k="removemelater" v="yes"/>
  </node>
  <node id="-450" lat="52.15072782126465" lon="-3.416513268915051">
    <tag k="addr:postcode" v="LD2 3NN"/>
    <tag k="removemelater" v="yes"/>
  </node>
  <node id="-451" lat="52.14716330413934" lon="-3.4183439332502212">
    <tag k="addr:postcode" v="LD2 3NP"/>
    <tag k="removemelater" v="yes"/>
  </node>
  <node id="-452" lat="52.151640277163196" lon="-3.424362140525274">
    <tag k="addr:postcode" v="LD2 3NR"/>
    <tag k="removemelater" v="yes"/>
  </node>
  <node id="-453" lat="52.14905714995649" lon="-3.428299027252794">
    <tag k="addr:postcode" v="LD2 3NS"/>
    <tag k="removemelater" v="yes"/>
  </node>
  <node id="-454" lat="52.1549277897061" lon="-3.4489810582272806">
    <tag k="addr:postcode" v="LD2 3NT"/>
    <tag k="removemelater" v="yes"/>
  </node>
  <node id="-455" lat="52.15155648307904" lon="-3.4584308666399464">
    <tag k="addr:postcode" v="LD2 3NU"/>
    <tag k="removemelater" v="yes"/>
  </node>
  <node id="-456" lat="52.14815061994056" lon="-3.409489099514121">
    <tag k="addr:postcode" v="LD2 3NX"/>
    <tag k="removemelater" v="yes"/>
  </node>
  <node id="-457" lat="52.15325549023278" lon="-3.4584571726032896">
    <tag k="addr:postcode" v="LD2 3NY"/>
    <tag k="removemelater" v="yes"/>
  </node>
  <node id="-458" lat="52.2416556673669" lon="-3.3784570058639583">
    <tag k="addr:postcode" v="LD2 3NZ"/>
    <tag k="removemelater" v="yes"/>
  </node>
  <node id="-459" lat="52.15355161058325" lon="-3.459957820558857">
    <tag k="addr:postcode" v="LD2 3PA"/>
    <tag k="removemelater" v="yes"/>
  </node>
  <node id="-460" lat="52.156918753206995" lon="-3.4675672798100297">
    <tag k="addr:postcode" v="LD2 3PB"/>
    <tag k="removemelater" v="yes"/>
  </node>
  <node id="-461" lat="52.16919253650966" lon="-3.4918643730859142">
    <tag k="addr:postcode" v="LD2 3PD"/>
    <tag k="removemelater" v="yes"/>
  </node>
  <node id="-462" lat="52.16895800802535" lon="-3.5158958357921617">
    <tag k="addr:postcode" v="LD2 3PE"/>
    <tag k="removemelater" v="yes"/>
  </node>
  <node id="-463" lat="52.185200530319996" lon="-3.522533479891111">
    <tag k="addr:postcode" v="LD2 3PF"/>
    <tag k="removemelater" v="yes"/>
  </node>
  <node id="-464" lat="52.191216915740725" lon="-3.5307708352133944">
    <tag k="addr:postcode" v="LD2 3PG"/>
    <tag k="removemelater" v="yes"/>
  </node>
  <node id="-465" lat="52.19009733445548" lon="-3.5123139306879123">
    <tag k="addr:postcode" v="LD2 3PN"/>
    <tag k="removemelater" v="yes"/>
  </node>
  <node id="-466" lat="52.076718961295974" lon="-3.3167083444409693">
    <tag k="addr:postcode" v="LD2 3PQ"/>
    <tag k="removemelater" v="yes"/>
  </node>
  <node id="-467" lat="52.1981742759123" lon="-3.508578973415184">
    <tag k="addr:postcode" v="LD2 3PW"/>
    <tag k="removemelater" v="yes"/>
  </node>
  <node id="-468" lat="52.16902411048456" lon="-3.427008391118336">
    <tag k="addr:postcode" v="LD2 3PY"/>
    <tag k="removemelater" v="yes"/>
  </node>
  <node id="-469" lat="52.16121702745282" lon="-3.4175481276666697">
    <tag k="addr:postcode" v="LD2 3RD"/>
    <tag k="removemelater" v="yes"/>
  </node>
  <node id="-470" lat="52.14599308890495" lon="-3.413966148999616">
    <tag k="addr:postcode" v="LD2 3RE"/>
    <tag k="removemelater" v="yes"/>
  </node>
  <node id="-471" lat="52.16825294172581" lon="-3.426837490194247">
    <tag k="addr:postcode" v="LD2 3RG"/>
    <tag k="removemelater" v="yes"/>
  </node>
  <node id="-472" lat="52.16973112709712" lon="-3.4272796028587793">
    <tag k="addr:postcode" v="LD2 3RH"/>
    <tag k="removemelater" v="yes"/>
  </node>
  <node id="-473" lat="52.1691524275965" lon="-3.429776130107768">
    <tag k="addr:postcode" v="LD2 3RL"/>
    <tag k="removemelater" v="yes"/>
  </node>
  <node id="-474" lat="52.17180546242915" lon="-3.4222863611702175">
    <tag k="addr:postcode" v="LD2 3RN"/>
    <tag k="removemelater" v="yes"/>
  </node>
  <node id="-475" lat="52.17691503263431" lon="-3.4220691394712848">
    <tag k="addr:postcode" v="LD2 3RW"/>
    <tag k="removemelater" v="yes"/>
  </node>
  <node id="-476" lat="52.20756280559366" lon="-3.4327068564321666">
    <tag k="addr:postcode" v="LD2 3SA"/>
    <tag k="removemelater" v="yes"/>
  </node>
  <node id="-477" lat="52.207346135302764" lon="-3.440163707344136">
    <tag k="addr:postcode" v="LD2 3SB"/>
    <tag k="removemelater" v="yes"/>
  </node>
  <node id="-478" lat="52.20752499267238" lon="-3.448321197085585">
    <tag k="addr:postcode" v="LD2 3SD"/>
    <tag k="removemelater" v="yes"/>
  </node>
  <node id="-479" lat="52.19523848893646" lon="-3.459641120441002">
    <tag k="addr:postcode" v="LD2 3SE"/>
    <tag k="removemelater" v="yes"/>
  </node>
  <node id="-480" lat="52.20069511366817" lon="-3.479208425048834">
    <tag k="addr:postcode" v="LD2 3SH"/>
    <tag k="removemelater" v="yes"/>
  </node>
  <node id="-481" lat="52.101829830970765" lon="-3.3494224080773045">
    <tag k="addr:postcode" v="LD2 3SQ"/>
    <tag k="removemelater" v="yes"/>
  </node>
  <node id="-482" lat="52.152087088444816" lon="-3.4020858224570296">
    <tag k="addr:postcode" v="LD2 3SR"/>
    <tag k="removemelater" v="yes"/>
  </node>
  <node id="-483" lat="52.152656965822274" lon="-3.4017967757339247">
    <tag k="addr:postcode" v="LD2 3SS"/>
    <tag k="removemelater" v="yes"/>
  </node>
  <node id="-484" lat="52.15370389152225" lon="-3.4059955989128765">
    <tag k="addr:postcode" v="LD2 3ST"/>
    <tag k="removemelater" v="yes"/>
  </node>
  <node id="-485" lat="52.153380924557155" lon="-3.405181475318291">
    <tag k="addr:postcode" v="LD2 3SU"/>
    <tag k="removemelater" v="yes"/>
  </node>
  <node id="-486" lat="52.15673746555818" lon="-3.405696517413671">
    <tag k="addr:postcode" v="LD2 3SY"/>
    <tag k="removemelater" v="yes"/>
  </node>
  <node id="-487" lat="52.15810728221685" lon="-3.409949881856687">
    <tag k="addr:postcode" v="LD2 3TA"/>
    <tag k="removemelater" v="yes"/>
  </node>
  <node id="-488" lat="52.157173278276865" lon="-3.37406140149382">
    <tag k="addr:postcode" v="LD2 3TB"/>
    <tag k="removemelater" v="yes"/>
  </node>
  <node id="-489" lat="52.16254884335136" lon="-3.3679695921051325">
    <tag k="addr:postcode" v="LD2 3TD"/>
    <tag k="removemelater" v="yes"/>
  </node>
  <node id="-490" lat="52.171331623091845" lon="-3.3987573326377016">
    <tag k="addr:postcode" v="LD2 3TF"/>
    <tag k="removemelater" v="yes"/>
  </node>
  <node id="-491" lat="52.19385395230445" lon="-3.379698666129334">
    <tag k="addr:postcode" v="LD2 3TL"/>
    <tag k="removemelater" v="yes"/>
  </node>
  <node id="-492" lat="52.16228604278445" lon="-3.3804909213107748">
    <tag k="addr:postcode" v="LD2 3TP"/>
    <tag k="removemelater" v="yes"/>
  </node>
  <node id="-493" lat="52.157078466679245" lon="-3.3959129406192865">
    <tag k="addr:postcode" v="LD2 3TR"/>
    <tag k="removemelater" v="yes"/>
  </node>
  <node id="-494" lat="52.15739882471023" lon="-3.4067845094321925">
    <tag k="addr:postcode" v="LD2 3TU"/>
    <tag k="removemelater" v="yes"/>
  </node>
  <node id="-495" lat="52.156264213628745" lon="-3.3948203382977127">
    <tag k="addr:postcode" v="LD2 3TY"/>
    <tag k="removemelater" v="yes"/>
  </node>
  <node id="-496" lat="52.07757488625851" lon="-3.302797925258996">
    <tag k="addr:postcode" v="LD2 3TZ"/>
    <tag k="removemelater" v="yes"/>
  </node>
  <node id="-497" lat="52.15633861437012" lon="-3.390042533996488">
    <tag k="addr:postcode" v="LD2 3UA"/>
    <tag k="removemelater" v="yes"/>
  </node>
  <node id="-498" lat="52.157985002732126" lon="-3.3922427839121547">
    <tag k="addr:postcode" v="LD2 3UB"/>
    <tag k="removemelater" v="yes"/>
  </node>
  <node id="-499" lat="52.15676442618453" lon="-3.3767385657425817">
    <tag k="addr:postcode" v="LD2 3UD"/>
    <tag k="removemelater" v="yes"/>
  </node>
  <node id="-500" lat="52.15214341629429" lon="-3.3689806507197515">
    <tag k="addr:postcode" v="LD2 3UF"/>
    <tag k="removemelater" v="yes"/>
  </node>
  <node id="-501" lat="52.118568792065446" lon="-3.351213311818593">
    <tag k="addr:postcode" v="LD2 3UH"/>
    <tag k="removemelater" v="yes"/>
  </node>
  <node id="-502" lat="52.08836388930626" lon="-3.288107771452681">
    <tag k="addr:postcode" v="LD2 3UJ"/>
    <tag k="removemelater" v="yes"/>
  </node>
  <node id="-503" lat="52.11748790809886" lon="-3.3474562521824796">
    <tag k="addr:postcode" v="LD2 3UL"/>
    <tag k="removemelater" v="yes"/>
  </node>
  <node id="-504" lat="52.116968140700884" lon="-3.3457317683754937">
    <tag k="addr:postcode" v="LD2 3UN"/>
    <tag k="removemelater" v="yes"/>
  </node>
  <node id="-505" lat="52.11925790622505" lon="-3.3269591207318143">
    <tag k="addr:postcode" v="LD2 3UR"/>
    <tag k="removemelater" v="yes"/>
  </node>
  <node id="-506" lat="52.14623406777524" lon="-3.4126146026827193">
    <tag k="addr:postcode" v="LD2 3US"/>
    <tag k="removemelater" v="yes"/>
  </node>
  <node id="-507" lat="52.14309528918944" lon="-3.278770407607625">
    <tag k="addr:postcode" v="LD2 3UU"/>
    <tag k="removemelater" v="yes"/>
  </node>
  <node id="-508" lat="52.116585332250146" lon="-3.3438215798631394">
    <tag k="addr:postcode" v="LD2 3UW"/>
    <tag k="removemelater" v="yes"/>
  </node>
  <node id="-509" lat="52.09460130501931" lon="-3.2634128653704573">
    <tag k="addr:postcode" v="LD2 3UX"/>
    <tag k="removemelater" v="yes"/>
  </node>
  <node id="-510" lat="52.14080303979826" lon="-3.2611985172840394">
    <tag k="addr:postcode" v="LD2 3UY"/>
    <tag k="removemelater" v="yes"/>
  </node>
  <node id="-511" lat="52.15804688847343" lon="-3.4059716809744516">
    <tag k="addr:postcode" v="LD2 3WY"/>
    <tag k="removemelater" v="yes"/>
  </node>
  <node id="-512" lat="52.149233377046954" lon="-3.277367818730435">
    <tag k="addr:postcode" v="LD2 3YA"/>
    <tag k="removemelater" v="yes"/>
  </node>
  <node id="-513" lat="52.151024528711176" lon="-3.2895798044924307">
    <tag k="addr:postcode" v="LD2 3YB"/>
    <tag k="removemelater" v="yes"/>
  </node>
  <node id="-514" lat="52.20360672611026" lon="-3.523133435630162">
    <tag k="addr:postcode" v="LD2 3YG"/>
    <tag k="removemelater" v="yes"/>
  </node>
  <node id="-515" lat="52.15108717863608" lon="-3.3908582212508915">
    <tag k="addr:postcode" v="LD2 3YL"/>
    <tag k="removemelater" v="yes"/>
  </node>
  <node id="-516" lat="52.14694430816967" lon="-3.3714956969651966">
    <tag k="addr:postcode" v="LD2 3YN"/>
    <tag k="removemelater" v="yes"/>
  </node>
  <node id="-517" lat="52.13111372570621" lon="-3.366611819241322">
    <tag k="addr:postcode" v="LD2 3YP"/>
    <tag k="removemelater" v="yes"/>
  </node>
  <node id="-518" lat="52.10616167671437" lon="-3.355072630574761">
    <tag k="addr:postcode" v="LD2 3YR"/>
    <tag k="removemelater" v="yes"/>
  </node>
  <node id="-519" lat="52.2416556673669" lon="-3.3784570058639583">
    <tag k="addr:postcode" v="LD2 9AP"/>
    <tag k="removemelater" v="yes"/>
  </node>
  <node id="-520" lat="52.06250839677267" lon="-3.2671018188225776">
    <tag k="addr:postcode" v="LD3 0AJ"/>
    <tag k="removemelater" v="yes"/>
  </node>
  <node id="-521" lat="52.06435150126593" lon="-3.27128237049018">
    <tag k="addr:postcode" v="LD3 0AQ"/>
    <tag k="removemelater" v="yes"/>
  </node>
  <node id="-522" lat="51.9995610910044" lon="-3.2323730973379385">
    <tag k="addr:postcode" v="LD3 0AW"/>
    <tag k="removemelater" v="yes"/>
  </node>
  <node id="-523" lat="52.07448820643109" lon="-3.2617359060628877">
    <tag k="addr:postcode" v="LD3 0AX"/>
    <tag k="removemelater" v="yes"/>
  </node>
  <node id="-524" lat="52.04564679443972" lon="-3.248878701467688">
    <tag k="addr:postcode" v="LD3 0BJ"/>
    <tag k="removemelater" v="yes"/>
  </node>
  <node id="-525" lat="52.05317174081988" lon="-3.251480385543252">
    <tag k="addr:postcode" v="LD3 0BZ"/>
    <tag k="removemelater" v="yes"/>
  </node>
  <node id="-526" lat="51.9901107716406" lon="-3.224671524038248">
    <tag k="addr:postcode" v="LD3 0DT"/>
    <tag k="removemelater" v="yes"/>
  </node>
  <node id="-527" lat="51.98972056992158" lon="-3.224151151370292">
    <tag k="addr:postcode" v="LD3 0DU"/>
    <tag k="removemelater" v="yes"/>
  </node>
  <node id="-528" lat="52.00027001532134" lon="-3.189667646785538">
    <tag k="addr:postcode" v="LD3 0EB"/>
    <tag k="removemelater" v="yes"/>
  </node>
  <node id="-529" lat="51.94749008790268" lon="-3.191602077956023">
    <tag k="addr:postcode" v="LD3 0ER"/>
    <tag k="removemelater" v="yes"/>
  </node>
  <node id="-530" lat="51.963491866626164" lon="-3.2059847674608246">
    <tag k="addr:postcode" v="LD3 0EW"/>
    <tag k="removemelater" v="yes"/>
  </node>
  <node id="-531" lat="52.02280927550997" lon="-3.1871468504274563">
    <tag k="addr:postcode" v="LD3 0HB"/>
    <tag k="removemelater" v="yes"/>
  </node>
  <node id="-532" lat="52.06158838751376" lon="-3.2573024962446913">
    <tag k="addr:postcode" v="LD3 0LQ"/>
    <tag k="removemelater" v="yes"/>
  </node>
  <node id="-533" lat="52.009176830082104" lon="-3.260859228452244">
    <tag k="addr:postcode" v="LD3 0LU"/>
    <tag k="removemelater" v="yes"/>
  </node>
  <node id="-534" lat="52.01206691256777" lon="-3.2870952289922597">
    <tag k="addr:postcode" v="LD3 0NA"/>
    <tag k="removemelater" v="yes"/>
  </node>
  <node id="-535" lat="52.01349824211627" lon="-3.304913399018721">
    <tag k="addr:postcode" v="LD3 0ND"/>
    <tag k="removemelater" v="yes"/>
  </node>
  <node id="-536" lat="52.026126732875866" lon="-3.3044793883493955">
    <tag k="addr:postcode" v="LD3 0NR"/>
    <tag k="removemelater" v="yes"/>
  </node>
  <node id="-537" lat="52.031924288776885" lon="-3.3303626932788823">
    <tag k="addr:postcode" v="LD3 0NS"/>
    <tag k="removemelater" v="yes"/>
  </node>
  <node id="-538" lat="52.018645267822066" lon="-3.3374154667730105">
    <tag k="addr:postcode" v="LD3 0NU"/>
    <tag k="removemelater" v="yes"/>
  </node>
  <node id="-539" lat="51.9934296624679" lon="-3.237462585545091">
    <tag k="addr:postcode" v="LD3 0PL"/>
    <tag k="removemelater" v="yes"/>
  </node>
  <node id="-540" lat="51.97419075061755" lon="-3.245769371820555">
    <tag k="addr:postcode" v="LD3 0PR"/>
    <tag k="removemelater" v="yes"/>
  </node>
  <node id="-541" lat="51.961430461521275" lon="-3.271991897972134">
    <tag k="addr:postcode" v="LD3 0PT"/>
    <tag k="removemelater" v="yes"/>
  </node>
  <node id="-542" lat="51.98365302459127" lon="-3.2547543705180315">
    <tag k="addr:postcode" v="LD3 0PY"/>
    <tag k="removemelater" v="yes"/>
  </node>
  <node id="-543" lat="51.99270527503344" lon="-3.2841220906197237">
    <tag k="addr:postcode" v="LD3 0RD"/>
    <tag k="removemelater" v="yes"/>
  </node>
  <node id="-544" lat="51.99116291389467" lon="-3.283742981623798">
    <tag k="addr:postcode" v="LD3 0RE"/>
    <tag k="removemelater" v="yes"/>
  </node>
  <node id="-545" lat="51.986990975202865" lon="-3.2738083593994625">
    <tag k="addr:postcode" v="LD3 0RG"/>
    <tag k="removemelater" v="yes"/>
  </node>
  <node id="-546" lat="51.98501229012817" lon="-3.2887366200303885">
    <tag k="addr:postcode" v="LD3 0RH"/>
    <tag k="removemelater" v="yes"/>
  </node>
  <node id="-547" lat="51.97574035310142" lon="-3.2823265407069235">
    <tag k="addr:postcode" v="LD3 0RL"/>
    <tag k="removemelater" v="yes"/>
  </node>
  <node id="-548" lat="51.9666207230525" lon="-3.309504543601097">
    <tag k="addr:postcode" v="LD3 0RP"/>
    <tag k="removemelater" v="yes"/>
  </node>
  <node id="-549" lat="52.0224761317644" lon="-3.18808534774735">
    <tag k="addr:postcode" v="LD3 0RS"/>
    <tag k="removemelater" v="yes"/>
  </node>
  <node id="-550" lat="52.02751512689302" lon="-3.2132747407939743">
    <tag k="addr:postcode" v="LD3 0SD"/>
    <tag k="removemelater" v="yes"/>
  </node>
  <node id="-551" lat="52.023454228841864" lon="-3.186493505737337">
    <tag k="addr:postcode" v="LD3 0ST"/>
    <tag k="removemelater" v="yes"/>
  </node>
  <node id="-552" lat="52.0222215254103" lon="-3.189259099627224">
    <tag k="addr:postcode" v="LD3 0SU"/>
    <tag k="removemelater" v="yes"/>
  </node>
  <node id="-553" lat="52.02197925314199" lon="-3.188319936443648">
    <tag k="addr:postcode" v="LD3 0SY"/>
    <tag k="removemelater" v="yes"/>
  </node>
  <node id="-554" lat="52.02343821907395" lon="-3.1880816989406977">
    <tag k="addr:postcode" v="LD3 0SZ"/>
    <tag k="removemelater" v="yes"/>
  </node>
  <node id="-555" lat="52.01899519175536" lon="-3.1855448295757505">
    <tag k="addr:postcode" v="LD3 0TB"/>
    <tag k="removemelater" v="yes"/>
  </node>
  <node id="-556" lat="52.02214425658358" lon="-3.18711466459891">
    <tag k="addr:postcode" v="LD3 0TD"/>
    <tag k="removemelater" v="yes"/>
  </node>
  <node id="-557" lat="52.01986787221783" lon="-3.1863840126500738">
    <tag k="addr:postcode" v="LD3 0TG"/>
    <tag k="removemelater" v="yes"/>
  </node>
  <node id="-558" lat="51.959544619024335" lon="-3.321567226908387">
    <tag k="addr:postcode" v="LD3 0TL"/>
    <tag k="removemelater" v="yes"/>
  </node>
  <node id="-559" lat="52.00615550987189" lon="-3.3094929661163524">
    <tag k="addr:postcode" v="LD3 0UN"/>
    <tag k="removemelater" v="yes"/>
  </node>
  <node id="-560" lat="52.0312260140311" lon="-3.2689721578912483">
    <tag k="addr:postcode" v="LD3 0UP"/>
    <tag k="removemelater" v="yes"/>
  </node>
  <node id="-561" lat="52.03234820349397" lon="-3.264951400084387">
    <tag k="addr:postcode" v="LD3 0UR"/>
    <tag k="removemelater" v="yes"/>
  </node>
  <node id="-562" lat="52.03062954526735" lon="-3.2549905927890497">
    <tag k="addr:postcode" v="LD3 0UT"/>
    <tag k="removemelater" v="yes"/>
  </node>
  <node id="-563" lat="52.03420924859266" lon="-3.2666366831649456">
    <tag k="addr:postcode" v="LD3 0UY"/>
    <tag k="removemelater" v="yes"/>
  </node>
  <node id="-564" lat="52.04449286936179" lon="-3.272687139184373">
    <tag k="addr:postcode" v="LD3 0YG"/>
    <tag k="removemelater" v="yes"/>
  </node>
  <node id="-565" lat="52.074848383624456" lon="-3.284158333960049">
    <tag k="addr:postcode" v="LD3 0YS"/>
    <tag k="removemelater" v="yes"/>
  </node>
  <node id="-566" lat="52.06651599226109" lon="-3.273167428692495">
    <tag k="addr:postcode" v="LD3 0YY"/>
    <tag k="removemelater" v="yes"/>
  </node>
  <node id="-567" lat="51.94118962044669" lon="-3.4117054839837992">
    <tag k="addr:postcode" v="LD3 3DE"/>
    <tag k="removemelater" v="yes"/>
  </node>
  <node id="-568" lat="51.94118962044669" lon="-3.4117054839837992">
    <tag k="addr:postcode" v="LD3 3DG"/>
    <tag k="removemelater" v="yes"/>
  </node>
  <node id="-569" lat="51.94118962044669" lon="-3.4117054839837992">
    <tag k="addr:postcode" v="LD3 3DP"/>
    <tag k="removemelater" v="yes"/>
  </node>
  <node id="-570" lat="51.94118962044669" lon="-3.4117054839837992">
    <tag k="addr:postcode" v="LD3 3DQ"/>
    <tag k="removemelater" v="yes"/>
  </node>
  <node id="-571" lat="51.94118962044669" lon="-3.4117054839837992">
    <tag k="addr:postcode" v="LD3 3DR"/>
    <tag k="removemelater" v="yes"/>
  </node>
  <node id="-572" lat="51.94698552890331" lon="-3.391619419212138">
    <tag k="addr:postcode" v="LD3 7AA"/>
    <tag k="removemelater" v="yes"/>
  </node>
  <node id="-573" lat="51.946593385391196" lon="-3.3898031008714318">
    <tag k="addr:postcode" v="LD3 7AD"/>
    <tag k="removemelater" v="yes"/>
  </node>
  <node id="-574" lat="51.946618804006555" lon="-3.389934835236498">
    <tag k="addr:postcode" v="LD3 7AE"/>
    <tag k="removemelater" v="yes"/>
  </node>
  <node id="-575" lat="51.94673032421079" lon="-3.390389329478793">
    <tag k="addr:postcode" v="LD3 7AF"/>
    <tag k="removemelater" v="yes"/>
  </node>
  <node id="-576" lat="51.947270986181636" lon="-3.3902896539209952">
    <tag k="addr:postcode" v="LD3 7AG"/>
    <tag k="removemelater" v="yes"/>
  </node>
  <node id="-577" lat="51.94738525450683" lon="-3.390511439543172">
    <tag k="addr:postcode" v="LD3 7AH"/>
    <tag k="removemelater" v="yes"/>
  </node>
  <node id="-578" lat="51.92370514320653" lon="-3.3477227939702106">
    <tag k="addr:postcode" v="LD3 7AJ"/>
    <tag k="removemelater" v="yes"/>
  </node>
  <node id="-579" lat="51.94770229591824" lon="-3.3910741545699703">
    <tag k="addr:postcode" v="LD3 7AL"/>
    <tag k="removemelater" v="yes"/>
  </node>
  <node id="-580" lat="51.94787432082004" lon="-3.3917342391874814">
    <tag k="addr:postcode" v="LD3 7AN"/>
    <tag k="removemelater" v="yes"/>
  </node>
  <node id="-581" lat="51.947438889751616" lon="-3.391298803773065">
    <tag k="addr:postcode" v="LD3 7AP"/>
    <tag k="removemelater" v="yes"/>
  </node>
  <node id="-582" lat="51.947661357493" lon="-3.391494842292505">
    <tag k="addr:postcode" v="LD3 7AR"/>
    <tag k="removemelater" v="yes"/>
  </node>
  <node id="-583" lat="51.94724596441039" lon="-3.390885431116057">
    <tag k="addr:postcode" v="LD3 7AS"/>
    <tag k="removemelater" v="yes"/>
  </node>
  <node id="-584" lat="51.946707081186325" lon="-3.389311921391019">
    <tag k="addr:postcode" v="LD3 7AU"/>
    <tag k="removemelater" v="yes"/>
  </node>
  <node id="-585" lat="51.947378500059216" lon="-3.390322079660019">
    <tag k="addr:postcode" v="LD3 7AY"/>
    <tag k="removemelater" v="yes"/>
  </node>
  <node id="-586" lat="51.94769234115314" lon="-3.38963337939937">
    <tag k="addr:postcode" v="LD3 7BA"/>
    <tag k="removemelater" v="yes"/>
  </node>
  <node id="-587" lat="51.922358687724305" lon="-3.344381442878063">
    <tag k="addr:postcode" v="LD3 7BD"/>
    <tag k="removemelater" v="yes"/>
  </node>
  <node id="-588" lat="51.943740367789054" lon="-3.380869170041443">
    <tag k="addr:postcode" v="LD3 7BE"/>
    <tag k="removemelater" v="yes"/>
  </node>
  <node id="-589" lat="51.94596333571916" lon="-3.387572079258589">
    <tag k="addr:postcode" v="LD3 7BG"/>
    <tag k="removemelater" v="yes"/>
  </node>
  <node id="-590" lat="51.94726491848656" lon="-3.3900421156620153">
    <tag k="addr:postcode" v="LD3 7BH"/>
    <tag k="removemelater" v="yes"/>
  </node>
  <node id="-591" lat="51.921921956074286" lon="-3.3464042399793548">
    <tag k="addr:postcode" v="LD3 7BJ"/>
    <tag k="removemelater" v="yes"/>
  </node>
  <node id="-592" lat="51.946470614687556" lon="-3.3872530943047208">
    <tag k="addr:postcode" v="LD3 7BL"/>
    <tag k="removemelater" v="yes"/>
  </node>
  <node id="-593" lat="51.92729357254537" lon="-3.3397732091556804">
    <tag k="addr:postcode" v="LD3 7BS"/>
    <tag k="removemelater" v="yes"/>
  </node>
  <node id="-594" lat="51.9472619274971" lon="-3.385720664406198">
    <tag k="addr:postcode" v="LD3 7BU"/>
    <tag k="removemelater" v="yes"/>
  </node>
  <node id="-595" lat="51.92241530755042" lon="-3.3457209924012603">
    <tag k="addr:postcode" v="LD3 7BX"/>
    <tag k="removemelater" v="yes"/>
  </node>
  <node id="-596" lat="51.94718407771833" lon="-3.3824008646081594">
    <tag k="addr:postcode" v="LD3 7BY"/>
    <tag k="removemelater" v="yes"/>
  </node>
  <node id="-597" lat="51.944776349708896" lon="-3.3891067548980893">
    <tag k="addr:postcode" v="LD3 7DD"/>
    <tag k="removemelater" v="yes"/>
  </node>
  <node id="-598" lat="51.94389316806938" lon="-3.390039693133107">
    <tag k="addr:postcode" v="LD3 7DE"/>
    <tag k="removemelater" v="yes"/>
  </node>
  <node id="-599" lat="51.94724171253362" lon="-3.39200565171297">
    <tag k="addr:postcode" v="LD3 7DG"/>
    <tag k="removemelater" v="yes"/>
  </node>
  <node id="-600" lat="51.94715819473902" lon="-3.391464715126884">
    <tag k="addr:postcode" v="LD3 7DH"/>
    <tag k="removemelater" v="yes"/>
  </node>
  <node id="-601" lat="51.94717491880117" lon="-3.39081048259079">
    <tag k="addr:postcode" v="LD3 7DJ"/>
    <tag k="removemelater" v="yes"/>
  </node>
  <node id="-602" lat="51.946352135678715" lon="-3.3904358299376556">
    <tag k="addr:postcode" v="LD3 7DW"/>
    <tag k="removemelater" v="yes"/>
  </node>
  <node id="-603" lat="51.944014196174194" lon="-3.3835836900081016">
    <tag k="addr:postcode" v="LD3 7EA"/>
    <tag k="removemelater" v="yes"/>
  </node>
  <node id="-604" lat="51.944461381116724" lon="-3.383786592546871">
    <tag k="addr:postcode" v="LD3 7EB"/>
    <tag k="removemelater" v="yes"/>
  </node>
  <node id="-605" lat="51.94506625181376" lon="-3.3858712157562993">
    <tag k="addr:postcode" v="LD3 7ED"/>
    <tag k="removemelater" v="yes"/>
  </node>
  <node id="-606" lat="51.94590477665447" lon="-3.387963110486086">
    <tag k="addr:postcode" v="LD3 7EF"/>
    <tag k="removemelater" v="yes"/>
  </node>
  <node id="-607" lat="51.94560868270647" lon="-3.387910319172848">
    <tag k="addr:postcode" v="LD3 7EG"/>
    <tag k="removemelater" v="yes"/>
  </node>
  <node id="-608" lat="51.945206686211506" lon="-3.388450782767052">
    <tag k="addr:postcode" v="LD3 7EH"/>
    <tag k="removemelater" v="yes"/>
  </node>
  <node id="-609" lat="51.92514849331734" lon="-3.293623270479409">
    <tag k="addr:postcode" v="LD3 7EJ"/>
    <tag k="removemelater" v="yes"/>
  </node>
  <node id="-610" lat="51.94463704697136" lon="-3.385668843843028">
    <tag k="addr:postcode" v="LD3 7EL"/>
    <tag k="removemelater" v="yes"/>
  </node>
  <node id="-611" lat="51.94370842792659" lon="-3.383588827767753">
    <tag k="addr:postcode" v="LD3 7EN"/>
    <tag k="removemelater" v="yes"/>
  </node>
  <node id="-612" lat="51.94242848894841" lon="-3.3800287081148777">
    <tag k="addr:postcode" v="LD3 7EP"/>
    <tag k="removemelater" v="yes"/>
  </node>
  <node id="-613" lat="51.94553615853665" lon="-3.3887228502575657">
    <tag k="addr:postcode" v="LD3 7ER"/>
    <tag k="removemelater" v="yes"/>
  </node>
  <node id="-614" lat="51.945584359430136" lon="-3.3884478991597495">
    <tag k="addr:postcode" v="LD3 7ES"/>
    <tag k="removemelater" v="yes"/>
  </node>
  <node id="-615" lat="51.943903234958974" lon="-3.3884250716131374">
    <tag k="addr:postcode" v="LD3 7EW"/>
    <tag k="removemelater" v="yes"/>
  </node>
  <node id="-616" lat="51.92545565637878" lon="-3.2902145368100686">
    <tag k="addr:postcode" v="LD3 7EX"/>
    <tag k="removemelater" v="yes"/>
  </node>
  <node id="-617" lat="51.944315419915064" lon="-3.3877830942776743">
    <tag k="addr:postcode" v="LD3 7EY"/>
    <tag k="removemelater" v="yes"/>
  </node>
  <node id="-618" lat="51.92622335497418" lon="-3.292359847166961">
    <tag k="addr:postcode" v="LD3 7EZ"/>
    <tag k="removemelater" v="yes"/>
  </node>
  <node id="-619" lat="51.94454070633491" lon="-3.3885029578080843">
    <tag k="addr:postcode" v="LD3 7FD"/>
    <tag k="removemelater" v="yes"/>
  </node>
  <node id="-620" lat="51.94695559690819" lon="-3.3888249052068513">
    <tag k="addr:postcode" v="LD3 7GA"/>
    <tag k="removemelater" v="yes"/>
  </node>
  <node id="-621" lat="51.94433838329207" lon="-3.385834226292805">
    <tag k="addr:postcode" v="LD3 7HA"/>
    <tag k="removemelater" v="yes"/>
  </node>
  <node id="-622" lat="51.942861660532394" lon="-3.3837228006575315">
    <tag k="addr:postcode" v="LD3 7HG"/>
    <tag k="removemelater" v="yes"/>
  </node>
  <node id="-623" lat="51.89689121474429" lon="-3.2535125077032485">
    <tag k="addr:postcode" v="LD3 7HQ"/>
    <tag k="removemelater" v="yes"/>
  </node>
  <node id="-624" lat="51.9448578532447" lon="-3.382183831542469">
    <tag k="addr:postcode" v="LD3 7HR"/>
    <tag k="removemelater" v="yes"/>
  </node>
  <node id="-625" lat="51.94389316806938" lon="-3.390039693133107">
    <tag k="addr:postcode" v="LD3 7HW"/>
    <tag k="removemelater" v="yes"/>
  </node>
  <node id="-626" lat="51.9479121166835" lon="-3.3908187440856516">
    <tag k="addr:postcode" v="LD3 7HY"/>
    <tag k="removemelater" v="yes"/>
  </node>
  <node id="-627" lat="51.89496912209477" lon="-3.2882799828326186">
    <tag k="addr:postcode" v="LD3 7JA"/>
    <tag k="removemelater" v="yes"/>
  </node>
  <node id="-628" lat="51.89480239498835" lon="-3.2887257340733007">
    <tag k="addr:postcode" v="LD3 7JB"/>
    <tag k="removemelater" v="yes"/>
  </node>
  <node id="-629" lat="51.89433872607342" lon="-3.2875498426175063">
    <tag k="addr:postcode" v="LD3 7JD"/>
    <tag k="removemelater" v="yes"/>
  </node>
  <node id="-630" lat="51.88684124990991" lon="-3.260861242103604">
    <tag k="addr:postcode" v="LD3 7JJ"/>
    <tag k="removemelater" v="yes"/>
  </node>
  <node id="-631" lat="51.893207875153" lon="-3.2489921436253275">
    <tag k="addr:postcode" v="LD3 7JL"/>
    <tag k="removemelater" v="yes"/>
  </node>
  <node id="-632" lat="51.94794578270159" lon="-3.3902523259176034">
    <tag k="addr:postcode" v="LD3 7JP"/>
    <tag k="removemelater" v="yes"/>
  </node>
  <node id="-633" lat="51.89651737123237" lon="-3.264082449757044">
    <tag k="addr:postcode" v="LD3 7JQ"/>
    <tag k="removemelater" v="yes"/>
  </node>
  <node id="-634" lat="51.894119802997665" lon="-3.241838303737995">
    <tag k="addr:postcode" v="LD3 7JR"/>
    <tag k="removemelater" v="yes"/>
  </node>
  <node id="-635" lat="51.94832854166225" lon="-3.3913408934587292">
    <tag k="addr:postcode" v="LD3 7LA"/>
    <tag k="removemelater" v="yes"/>
  </node>
  <node id="-636" lat="51.946794558727966" lon="-3.389518323594889">
    <tag k="addr:postcode" v="LD3 7LB"/>
    <tag k="removemelater" v="yes"/>
  </node>
  <node id="-637" lat="51.948835142845084" lon="-3.3910801158446064">
    <tag k="addr:postcode" v="LD3 7LD"/>
    <tag k="removemelater" v="yes"/>
  </node>
  <node id="-638" lat="51.94828605426921" lon="-3.3918924921377145">
    <tag k="addr:postcode" v="LD3 7LE"/>
    <tag k="removemelater" v="yes"/>
  </node>
  <node id="-639" lat="51.94837817136558" lon="-3.3917061897174934">
    <tag k="addr:postcode" v="LD3 7LF"/>
    <tag k="removemelater" v="yes"/>
  </node>
  <node id="-640" lat="51.948615989518494" lon="-3.3913643423209283">
    <tag k="addr:postcode" v="LD3 7LH"/>
    <tag k="removemelater" v="yes"/>
  </node>
  <node id="-641" lat="51.94889290166153" lon="-3.3915184204194153">
    <tag k="addr:postcode" v="LD3 7LT"/>
    <tag k="removemelater" v="yes"/>
  </node>
  <node id="-642" lat="51.9085468875775" lon="-3.3077706876969803">
    <tag k="addr:postcode" v="LD3 7LZ"/>
    <tag k="removemelater" v="yes"/>
  </node>
  <node id="-643" lat="51.951577855881965" lon="-3.3864794525470496">
    <tag k="addr:postcode" v="LD3 7NN"/>
    <tag k="removemelater" v="yes"/>
  </node>
  <node id="-644" lat="51.95029324154566" lon="-3.3848537616591634">
    <tag k="addr:postcode" v="LD3 7NP"/>
    <tag k="removemelater" v="yes"/>
  </node>
  <node id="-645" lat="51.949115966139004" lon="-3.3848029356031164">
    <tag k="addr:postcode" v="LD3 7NS"/>
    <tag k="removemelater" v="yes"/>
  </node>
  <node id="-646" lat="51.882998649735185" lon="-3.236606380573583">
    <tag k="addr:postcode" v="LD3 7NX"/>
    <tag k="removemelater" v="yes"/>
  </node>
  <node id="-647" lat="51.94235783972008" lon="-3.3814522856259575">
    <tag k="addr:postcode" v="LD3 7PF"/>
    <tag k="removemelater" v="yes"/>
  </node>
  <node id="-648" lat="51.949630431545664" lon="-3.385400819060526">
    <tag k="addr:postcode" v="LD3 7PG"/>
    <tag k="removemelater" v="yes"/>
  </node>
  <node id="-649" lat="51.92585384548305" lon="-3.275130370920009">
    <tag k="addr:postcode" v="LD3 7PJ"/>
    <tag k="removemelater" v="yes"/>
  </node>
  <node id="-650" lat="51.92654103276123" lon="-3.2929070724168628">
    <tag k="addr:postcode" v="LD3 7PQ"/>
    <tag k="removemelater" v="yes"/>
  </node>
  <node id="-651" lat="51.944735499764846" lon="-3.3664814913969128">
    <tag k="addr:postcode" v="LD3 7PR"/>
    <tag k="removemelater" v="yes"/>
  </node>
  <node id="-652" lat="51.94479428124019" lon="-3.365290244024793">
    <tag k="addr:postcode" v="LD3 7PS"/>
    <tag k="removemelater" v="yes"/>
  </node>
  <node id="-653" lat="51.94527217538214" lon="-3.3651738149834336">
    <tag k="addr:postcode" v="LD3 7PT"/>
    <tag k="removemelater" v="yes"/>
  </node>
  <node id="-654" lat="51.948959601194765" lon="-3.3912003726448123">
    <tag k="addr:postcode" v="LD3 7QA"/>
    <tag k="removemelater" v="yes"/>
  </node>
  <node id="-655" lat="51.942216516245885" lon="-3.365051924277931">
    <tag k="addr:postcode" v="LD3 7RA"/>
    <tag k="removemelater" v="yes"/>
  </node>
  <node id="-656" lat="51.942216516245885" lon="-3.365051924277931">
    <tag k="addr:postcode" v="LD3 7RB"/>
    <tag k="removemelater" v="yes"/>
  </node>
  <node id="-657" lat="51.94458425679267" lon="-3.3671170555661583">
    <tag k="addr:postcode" v="LD3 7RD"/>
    <tag k="removemelater" v="yes"/>
  </node>
  <node id="-658" lat="51.94231158893695" lon="-3.3669315541005345">
    <tag k="addr:postcode" v="LD3 7RE"/>
    <tag k="removemelater" v="yes"/>
  </node>
  <node id="-659" lat="51.89035176966799" lon="-3.2367791917275017">
    <tag k="addr:postcode" v="LD3 7RQ"/>
    <tag k="removemelater" v="yes"/>
  </node>
  <node id="-660" lat="51.94663924975384" lon="-3.3836208428770957">
    <tag k="addr:postcode" v="LD3 7RS"/>
    <tag k="removemelater" v="yes"/>
  </node>
  <node id="-661" lat="51.88935857583688" lon="-3.2371733220955554">
    <tag k="addr:postcode" v="LD3 7RZ"/>
    <tag k="removemelater" v="yes"/>
  </node>
  <node id="-662" lat="51.92207192223416" lon="-3.345870680800426">
    <tag k="addr:postcode" v="LD3 7SD"/>
    <tag k="removemelater" v="yes"/>
  </node>
  <node id="-663" lat="51.94221929372735" lon="-3.328666615741527">
    <tag k="addr:postcode" v="LD3 7SU"/>
    <tag k="removemelater" v="yes"/>
  </node>
  <node id="-664" lat="51.90292409156427" lon="-3.2433748077070548">
    <tag k="addr:postcode" v="LD3 7SX"/>
    <tag k="removemelater" v="yes"/>
  </node>
  <node id="-665" lat="51.93592918744401" lon="-3.300144637487062">
    <tag k="addr:postcode" v="LD3 7SY"/>
    <tag k="removemelater" v="yes"/>
  </node>
  <node id="-666" lat="51.93716076743047" lon="-3.297721867508838">
    <tag k="addr:postcode" v="LD3 7TA"/>
    <tag k="removemelater" v="yes"/>
  </node>
  <node id="-667" lat="51.93857773388588" lon="-3.3004976181397945">
    <tag k="addr:postcode" v="LD3 7TB"/>
    <tag k="removemelater" v="yes"/>
  </node>
  <node id="-668" lat="51.938804059143784" lon="-3.2995440515281125">
    <tag k="addr:postcode" v="LD3 7TD"/>
    <tag k="removemelater" v="yes"/>
  </node>
  <node id="-669" lat="51.947131602814636" lon="-3.2936884156511037">
    <tag k="addr:postcode" v="LD3 7TF"/>
    <tag k="removemelater" v="yes"/>
  </node>
  <node id="-670" lat="51.94590780863244" lon="-3.292140050259914">
    <tag k="addr:postcode" v="LD3 7TG"/>
    <tag k="removemelater" v="yes"/>
  </node>
  <node id="-671" lat="51.94725103325991" lon="-3.2910001234465622">
    <tag k="addr:postcode" v="LD3 7TH"/>
    <tag k="removemelater" v="yes"/>
  </node>
  <node id="-672" lat="51.94688707091624" lon="-3.289752939315242">
    <tag k="addr:postcode" v="LD3 7TL"/>
    <tag k="removemelater" v="yes"/>
  </node>
  <node id="-673" lat="51.94823171064084" lon="-3.286837833129551">
    <tag k="addr:postcode" v="LD3 7TN"/>
    <tag k="removemelater" v="yes"/>
  </node>
  <node id="-674" lat="51.95741752964838" lon="-3.2821964811029125">
    <tag k="addr:postcode" v="LD3 7TW"/>
    <tag k="removemelater" v="yes"/>
  </node>
  <node id="-675" lat="51.94663918888632" lon="-3.2943144297533533">
    <tag k="addr:postcode" v="LD3 7TX"/>
    <tag k="removemelater" v="yes"/>
  </node>
  <node id="-676" lat="51.94058601483416" lon="-3.26053494097465">
    <tag k="addr:postcode" v="LD3 7TY"/>
    <tag k="removemelater" v="yes"/>
  </node>
  <node id="-677" lat="51.93286817483756" lon="-3.2405371550020474">
    <tag k="addr:postcode" v="LD3 7UH"/>
    <tag k="removemelater" v="yes"/>
  </node>
  <node id="-678" lat="51.95781512042751" lon="-3.2967902407788645">
    <tag k="addr:postcode" v="LD3 7UP"/>
    <tag k="removemelater" v="yes"/>
  </node>
  <node id="-679" lat="51.904060127821026" lon="-3.298032085803316">
    <tag k="addr:postcode" v="LD3 7UQ"/>
    <tag k="removemelater" v="yes"/>
  </node>
  <node id="-680" lat="51.94866252989731" lon="-3.308923055921182">
    <tag k="addr:postcode" v="LD3 7UW"/>
    <tag k="removemelater" v="yes"/>
  </node>
  <node id="-681" lat="51.89894095668357" lon="-3.2925940256305997">
    <tag k="addr:postcode" v="LD3 7UX"/>
    <tag k="removemelater" v="yes"/>
  </node>
  <node id="-682" lat="51.94118962044669" lon="-3.4117054839837992">
    <tag k="addr:postcode" v="LD3 7WD"/>
    <tag k="removemelater" v="yes"/>
  </node>
  <node id="-683" lat="51.915781744770044" lon="-3.3031973684723823">
    <tag k="addr:postcode" v="LD3 7YE"/>
    <tag k="removemelater" v="yes"/>
  </node>
  <node id="-684" lat="51.90389062614039" lon="-3.277371733982591">
    <tag k="addr:postcode" v="LD3 7YF"/>
    <tag k="removemelater" v="yes"/>
  </node>
  <node id="-685" lat="51.89571675490177" lon="-3.2897982939268955">
    <tag k="addr:postcode" v="LD3 7YL"/>
    <tag k="removemelater" v="yes"/>
  </node>
  <node id="-686" lat="51.893364135498445" lon="-3.2837580706746907">
    <tag k="addr:postcode" v="LD3 7YP"/>
    <tag k="removemelater" v="yes"/>
  </node>
  <node id="-687" lat="51.896484355394165" lon="-3.2903144184676676">
    <tag k="addr:postcode" v="LD3 7YQ"/>
    <tag k="removemelater" v="yes"/>
  </node>
  <node id="-688" lat="51.87693555686736" lon="-3.2731209777632255">
    <tag k="addr:postcode" v="LD3 7YR"/>
    <tag k="removemelater" v="yes"/>
  </node>
  <node id="-689" lat="51.883519453544146" lon="-3.304922768762212">
    <tag k="addr:postcode" v="LD3 7YS"/>
    <tag k="removemelater" v="yes"/>
  </node>
  <node id="-690" lat="51.85824748948318" lon="-3.3038427857882913">
    <tag k="addr:postcode" v="LD3 7YT"/>
    <tag k="removemelater" v="yes"/>
  </node>
  <node id="-691" lat="51.89608103086498" lon="-3.2975550044618767">
    <tag k="addr:postcode" v="LD3 7YW"/>
    <tag k="removemelater" v="yes"/>
  </node>
  <node id="-692" lat="51.89526741359715" lon="-3.288957038168507">
    <tag k="addr:postcode" v="LD3 7YX"/>
    <tag k="removemelater" v="yes"/>
  </node>
  <node id="-693" lat="51.89500960971658" lon="-3.288688065077036">
    <tag k="addr:postcode" v="LD3 7YZ"/>
    <tag k="removemelater" v="yes"/>
  </node>
  <node id="-694" lat="51.94623859745087" lon="-3.393953346270605">
    <tag k="addr:postcode" v="LD3 8AD"/>
    <tag k="removemelater" v="yes"/>
  </node>
  <node id="-695" lat="51.94525086840901" lon="-3.3983893785708124">
    <tag k="addr:postcode" v="LD3 8AP"/>
    <tag k="removemelater" v="yes"/>
  </node>
  <node id="-696" lat="51.948319956926795" lon="-3.398892276330131">
    <tag k="addr:postcode" v="LD3 8BE"/>
    <tag k="removemelater" v="yes"/>
  </node>
  <node id="-697" lat="51.94321837630318" lon="-3.414227933573022">
    <tag k="addr:postcode" v="LD3 8BT"/>
    <tag k="removemelater" v="yes"/>
  </node>
  <node id="-698" lat="51.945030811829945" lon="-3.4055408021425944">
    <tag k="addr:postcode" v="LD3 8DN"/>
    <tag k="removemelater" v="yes"/>
  </node>
  <node id="-699" lat="51.94489137292622" lon="-3.4074278497654245">
    <tag k="addr:postcode" v="LD3 8ED"/>
    <tag k="removemelater" v="yes"/>
  </node>
  <node id="-700" lat="51.94556959419922" lon="-3.4168480739921567">
    <tag k="addr:postcode" v="LD3 8EF"/>
    <tag k="removemelater" v="yes"/>
  </node>
  <node id="-701" lat="51.924935731782945" lon="-3.488825331121415">
    <tag k="addr:postcode" v="LD3 8ER"/>
    <tag k="removemelater" v="yes"/>
  </node>
  <node id="-702" lat="51.947997236607925" lon="-3.498173883731215">
    <tag k="addr:postcode" v="LD3 8EU"/>
    <tag k="removemelater" v="yes"/>
  </node>
  <node id="-703" lat="51.919924746489656" lon="-3.464680864356558">
    <tag k="addr:postcode" v="LD3 8EW"/>
    <tag k="removemelater" v="yes"/>
  </node>
  <node id="-704" lat="51.94647980991583" lon="-3.4144323960993557">
    <tag k="addr:postcode" v="LD3 8EX"/>
    <tag k="removemelater" v="yes"/>
  </node>
  <node id="-705" lat="51.94132417278238" lon="-3.4109823020100185">
    <tag k="addr:postcode" v="LD3 8LA"/>
    <tag k="removemelater" v="yes"/>
  </node>
  <node id="-706" lat="51.91329515876155" lon="-3.4059451423678158">
    <tag k="addr:postcode" v="LD3 8LH"/>
    <tag k="removemelater" v="yes"/>
  </node>
  <node id="-707" lat="51.93907216618494" lon="-3.4150721874289784">
    <tag k="addr:postcode" v="LD3 8NA"/>
    <tag k="removemelater" v="yes"/>
  </node>
  <node id="-708" lat="51.91215373969259" lon="-3.474227086136034">
    <tag k="addr:postcode" v="LD3 8NG"/>
    <tag k="removemelater" v="yes"/>
  </node>
  <node id="-709" lat="51.87237646040132" lon="-3.47912815690122">
    <tag k="addr:postcode" v="LD3 8NL"/>
    <tag k="removemelater" v="yes"/>
  </node>
  <node id="-710" lat="51.90226237798431" lon="-3.5250686473091366">
    <tag k="addr:postcode" v="LD3 8NP"/>
    <tag k="removemelater" v="yes"/>
  </node>
  <node id="-711" lat="51.94118962044669" lon="-3.4117054839837992">
    <tag k="addr:postcode" v="LD3 8NU"/>
    <tag k="removemelater" v="yes"/>
  </node>
  <node id="-712" lat="51.90660446320473" lon="-3.5125975700569874">
    <tag k="addr:postcode" v="LD3 8NW"/>
    <tag k="removemelater" v="yes"/>
  </node>
  <node id="-713" lat="51.94602441882691" lon="-3.571541255233279">
    <tag k="addr:postcode" v="LD3 8PH"/>
    <tag k="removemelater" v="yes"/>
  </node>
  <node id="-714" lat="51.922101768023715" lon="-3.6163825067419313">
    <tag k="addr:postcode" v="LD3 8PY"/>
    <tag k="removemelater" v="yes"/>
  </node>
  <node id="-715" lat="51.91963943975806" lon="-3.6143164017503784">
    <tag k="addr:postcode" v="LD3 8RA"/>
    <tag k="removemelater" v="yes"/>
  </node>
  <node id="-716" lat="51.908033501665116" lon="-3.6069220079320803">
    <tag k="addr:postcode" v="LD3 8YP"/>
    <tag k="removemelater" v="yes"/>
  </node>
  <node id="-717" lat="51.947605924311745" lon="-3.3923806850984977">
    <tag k="addr:postcode" v="LD3 9AD"/>
    <tag k="removemelater" v="yes"/>
  </node>
  <node id="-718" lat="51.947923433230955" lon="-3.3921431669213886">
    <tag k="addr:postcode" v="LD3 9AE"/>
    <tag k="removemelater" v="yes"/>
  </node>
  <node id="-719" lat="51.94807833641702" lon="-3.392729976884526">
    <tag k="addr:postcode" v="LD3 9AH"/>
    <tag k="removemelater" v="yes"/>
  </node>
  <node id="-720" lat="51.957517014481034" lon="-3.392163884765914">
    <tag k="addr:postcode" v="LD3 9BS"/>
    <tag k="removemelater" v="yes"/>
  </node>
  <node id="-721" lat="51.948892429212584" lon="-3.3923186867742063">
    <tag k="addr:postcode" v="LD3 9BU"/>
    <tag k="removemelater" v="yes"/>
  </node>
  <node id="-722" lat="51.9487347720446" lon="-3.3919645904859665">
    <tag k="addr:postcode" v="LD3 9DD"/>
    <tag k="removemelater" v="yes"/>
  </node>
  <node id="-723" lat="51.94903958361907" lon="-3.393560047500569">
    <tag k="addr:postcode" v="LD3 9DE"/>
    <tag k="removemelater" v="yes"/>
  </node>
  <node id="-724" lat="51.95088086683901" lon="-3.392205674995082">
    <tag k="addr:postcode" v="LD3 9DP"/>
    <tag k="removemelater" v="yes"/>
  </node>
  <node id="-725" lat="51.9971725425999" lon="-3.5392321398569235">
    <tag k="addr:postcode" v="LD3 9NA"/>
    <tag k="removemelater" v="yes"/>
  </node>
  <node id="-726" lat="51.99277007191921" lon="-3.411973092603758">
    <tag k="addr:postcode" v="LD3 9PY"/>
    <tag k="removemelater" v="yes"/>
  </node>
  <node id="-727" lat="52.03649522033749" lon="-3.480778958989115">
    <tag k="addr:postcode" v="LD3 9SE"/>
    <tag k="removemelater" v="yes"/>
  </node>
  <node id="-728" lat="51.974642749541985" lon="-3.3468052172315907">
    <tag k="addr:postcode" v="LD3 9TA"/>
    <tag k="removemelater" v="yes"/>
  </node>
  <node id="-729" lat="52.11664830359903" lon="-3.555132014346973">
    <tag k="addr:postcode" v="LD4 4AA"/>
    <tag k="removemelater" v="yes"/>
  </node>
  <node id="-730" lat="52.13360999800562" lon="-3.5335433816210955">
    <tag k="addr:postcode" v="LD4 4AE"/>
    <tag k="removemelater" v="yes"/>
  </node>
  <node id="-731" lat="52.13414192506975" lon="-3.535504929200737">
    <tag k="addr:postcode" v="LD4 4AG"/>
    <tag k="removemelater" v="yes"/>
  </node>
  <node id="-732" lat="52.134402453817955" lon="-3.534140439100775">
    <tag k="addr:postcode" v="LD4 4AH"/>
    <tag k="removemelater" v="yes"/>
  </node>
  <node id="-733" lat="52.133086005030066" lon="-3.5309685023174753">
    <tag k="addr:postcode" v="LD4 4AJ"/>
    <tag k="removemelater" v="yes"/>
  </node>
  <node id="-734" lat="52.13711944546445" lon="-3.545032139869257">
    <tag k="addr:postcode" v="LD4 4AL"/>
    <tag k="removemelater" v="yes"/>
  </node>
  <node id="-735" lat="52.13497672753216" lon="-3.560942851681221">
    <tag k="addr:postcode" v="LD4 4AN"/>
    <tag k="removemelater" v="yes"/>
  </node>
  <node id="-736" lat="52.14617644611644" lon="-3.55507933349671">
    <tag k="addr:postcode" v="LD4 4AP"/>
    <tag k="removemelater" v="yes"/>
  </node>
  <node id="-737" lat="52.13469286775" lon="-3.52978164914842">
    <tag k="addr:postcode" v="LD4 4AR"/>
    <tag k="removemelater" v="yes"/>
  </node>
  <node id="-738" lat="52.13590758384193" lon="-3.529019633877781">
    <tag k="addr:postcode" v="LD4 4AS"/>
    <tag k="removemelater" v="yes"/>
  </node>
  <node id="-739" lat="52.13902301869972" lon="-3.5105390382491084">
    <tag k="addr:postcode" v="LD4 4AY"/>
    <tag k="removemelater" v="yes"/>
  </node>
  <node id="-740" lat="52.14337365286342" lon="-3.493690131974972">
    <tag k="addr:postcode" v="LD4 4BA"/>
    <tag k="removemelater" v="yes"/>
  </node>
  <node id="-741" lat="52.15434772725049" lon="-3.4933120402631577">
    <tag k="addr:postcode" v="LD4 4BD"/>
    <tag k="removemelater" v="yes"/>
  </node>
  <node id="-742" lat="52.15202459605247" lon="-3.516124349344449">
    <tag k="addr:postcode" v="LD4 4BG"/>
    <tag k="removemelater" v="yes"/>
  </node>
  <node id="-743" lat="52.120151046381544" lon="-3.5327745115772995">
    <tag k="addr:postcode" v="LD4 4BU"/>
    <tag k="removemelater" v="yes"/>
  </node>
  <node id="-744" lat="52.116111767885286" lon="-3.554908863314979">
    <tag k="addr:postcode" v="LD4 4BW"/>
    <tag k="removemelater" v="yes"/>
  </node>
  <node id="-745" lat="52.113886351784316" lon="-3.5586577894377207">
    <tag k="addr:postcode" v="LD4 4BY"/>
    <tag k="removemelater" v="yes"/>
  </node>
  <node id="-746" lat="52.124274598602234" lon="-3.575994728432124">
    <tag k="addr:postcode" v="LD4 4DA"/>
    <tag k="removemelater" v="yes"/>
  </node>
  <node id="-747" lat="52.11403399647299" lon="-3.5786419983388087">
    <tag k="addr:postcode" v="LD4 4DD"/>
    <tag k="removemelater" v="yes"/>
  </node>
  <node id="-748" lat="52.107116121785346" lon="-3.5835960320925566">
    <tag k="addr:postcode" v="LD4 4DH"/>
    <tag k="removemelater" v="yes"/>
  </node>
  <node id="-749" lat="52.09807459280249" lon="-3.6006197928595545">
    <tag k="addr:postcode" v="LD4 4DL"/>
    <tag k="removemelater" v="yes"/>
  </node>
  <node id="-750" lat="52.09751551039389" lon="-3.604045193457682">
    <tag k="addr:postcode" v="LD4 4DN"/>
    <tag k="removemelater" v="yes"/>
  </node>
  <node id="-751" lat="52.1141199433852" lon="-3.5559494865319494">
    <tag k="addr:postcode" v="LD4 4EE"/>
    <tag k="removemelater" v="yes"/>
  </node>
  <node id="-752" lat="52.11268661535056" lon="-3.555549070668892">
    <tag k="addr:postcode" v="LD4 4EF"/>
    <tag k="removemelater" v="yes"/>
  </node>
  <node id="-753" lat="52.13518859218493" lon="-3.6270674750950733">
    <tag k="addr:postcode" v="LD5 4AB"/>
    <tag k="removemelater" v="yes"/>
  </node>
  <node id="-754" lat="52.114779076943364" lon="-3.6302527634909754">
    <tag k="addr:postcode" v="LD5 4AG"/>
    <tag k="removemelater" v="yes"/>
  </node>
  <node id="-755" lat="52.10653944985778" lon="-3.6350483345675917">
    <tag k="addr:postcode" v="LD5 4AH"/>
    <tag k="removemelater" v="yes"/>
  </node>
  <node id="-756" lat="52.10762427327239" lon="-3.6398046676574585">
    <tag k="addr:postcode" v="LD5 4RA"/>
    <tag k="removemelater" v="yes"/>
  </node>
  <node id="-757" lat="52.10799363739089" lon="-3.638460168946761">
    <tag k="addr:postcode" v="LD5 4RD"/>
    <tag k="removemelater" v="yes"/>
  </node>
  <node id="-758" lat="52.107608764179574" lon="-3.637686722014056">
    <tag k="addr:postcode" v="LD5 4RE"/>
    <tag k="removemelater" v="yes"/>
  </node>
  <node id="-759" lat="52.10821527755253" lon="-3.6367451663133847">
    <tag k="addr:postcode" v="LD5 4RF"/>
    <tag k="removemelater" v="yes"/>
  </node>
  <node id="-760" lat="52.107956539405784" lon="-3.6353046239691356">
    <tag k="addr:postcode" v="LD5 4RG"/>
    <tag k="removemelater" v="yes"/>
  </node>
  <node id="-761" lat="52.107151043120034" lon="-3.6376261398242518">
    <tag k="addr:postcode" v="LD5 4RH"/>
    <tag k="removemelater" v="yes"/>
  </node>
  <node id="-762" lat="52.10695251675596" lon="-3.635735157615613">
    <tag k="addr:postcode" v="LD5 4RL"/>
    <tag k="removemelater" v="yes"/>
  </node>
  <node id="-763" lat="52.10505860480021" lon="-3.6316065479812782">
    <tag k="addr:postcode" v="LD5 4RP"/>
    <tag k="removemelater" v="yes"/>
  </node>
  <node id="-764" lat="52.10633297076709" lon="-3.6369682668924606">
    <tag k="addr:postcode" v="LD5 4RW"/>
    <tag k="removemelater" v="yes"/>
  </node>
  <node id="-765" lat="52.10960562956468" lon="-3.6337440175698">
    <tag k="addr:postcode" v="LD5 4SA"/>
    <tag k="removemelater" v="yes"/>
  </node>
  <node id="-766" lat="52.11548479155012" lon="-3.6292853664975326">
    <tag k="addr:postcode" v="LD5 4SE"/>
    <tag k="removemelater" v="yes"/>
  </node>
  <node id="-767" lat="52.13090768435035" lon="-3.616684334675099">
    <tag k="addr:postcode" v="LD5 4SF"/>
    <tag k="removemelater" v="yes"/>
  </node>
  <node id="-768" lat="52.136449025187545" lon="-3.6164904921708936">
    <tag k="addr:postcode" v="LD5 4SG"/>
    <tag k="removemelater" v="yes"/>
  </node>
  <node id="-769" lat="52.10693568273502" lon="-3.638888654217894">
    <tag k="addr:postcode" v="LD5 4SP"/>
    <tag k="removemelater" v="yes"/>
  </node>
  <node id="-770" lat="52.106584992740665" lon="-3.638890395004874">
    <tag k="addr:postcode" v="LD5 4SR"/>
    <tag k="removemelater" v="yes"/>
  </node>
  <node id="-771" lat="52.10693533206742" lon="-3.6395603507172316">
    <tag k="addr:postcode" v="LD5 4SS"/>
    <tag k="removemelater" v="yes"/>
  </node>
  <node id="-772" lat="52.10628787319842" lon="-3.6395658001148528">
    <tag k="addr:postcode" v="LD5 4ST"/>
    <tag k="removemelater" v="yes"/>
  </node>
  <node id="-773" lat="52.1091051361757" lon="-3.654155448041264">
    <tag k="addr:postcode" v="LD5 4SY"/>
    <tag k="removemelater" v="yes"/>
  </node>
  <node id="-774" lat="52.10168648951661" lon="-3.6381121424145877">
    <tag k="addr:postcode" v="LD5 4TB"/>
    <tag k="removemelater" v="yes"/>
  </node>
  <node id="-775" lat="52.10983459510593" lon="-3.649582398512675">
    <tag k="addr:postcode" v="LD5 4TH"/>
    <tag k="removemelater" v="yes"/>
  </node>
  <node id="-776" lat="52.164011331876466" lon="-3.668502305892642">
    <tag k="addr:postcode" v="LD5 4TP"/>
    <tag k="removemelater" v="yes"/>
  </node>
  <node id="-777" lat="52.15983916131016" lon="-3.6037125757222768">
    <tag k="addr:postcode" v="LD5 4TT"/>
    <tag k="removemelater" v="yes"/>
  </node>
  <node id="-778" lat="52.150069626974386" lon="-3.588803448713694">
    <tag k="addr:postcode" v="LD5 4UA"/>
    <tag k="removemelater" v="yes"/>
  </node>
  <node id="-779" lat="52.1499929627549" lon="-3.5817994763753696">
    <tag k="addr:postcode" v="LD5 4UB"/>
    <tag k="removemelater" v="yes"/>
  </node>
  <node id="-780" lat="52.15278391294931" lon="-3.5741366573067035">
    <tag k="addr:postcode" v="LD5 4UD"/>
    <tag k="removemelater" v="yes"/>
  </node>
  <node id="-781" lat="52.16208453833292" lon="-3.5745380116535053">
    <tag k="addr:postcode" v="LD5 4UE"/>
    <tag k="removemelater" v="yes"/>
  </node>
  <node id="-782" lat="52.143948274928036" lon="-3.6171128638016663">
    <tag k="addr:postcode" v="LD5 4UL"/>
    <tag k="removemelater" v="yes"/>
  </node>
  <node id="-783" lat="52.13656492027832" lon="-3.6099923385737256">
    <tag k="addr:postcode" v="LD5 4UN"/>
    <tag k="removemelater" v="yes"/>
  </node>
  <node id="-784" lat="52.14823394341056" lon="-3.578200097969322">
    <tag k="addr:postcode" v="LD5 4UP"/>
    <tag k="removemelater" v="yes"/>
  </node>
  <node id="-785" lat="52.149408693324844" lon="-3.5791040034880397">
    <tag k="addr:postcode" v="LD5 4UU"/>
    <tag k="removemelater" v="yes"/>
  </node>
  <node id="-786" lat="52.14939967208037" lon="-3.580448371711175">
    <tag k="addr:postcode" v="LD5 4UY"/>
    <tag k="removemelater" v="yes"/>
  </node>
  <node id="-787" lat="52.14943514800111" lon="-3.5824958939302385">
    <tag k="addr:postcode" v="LD5 4YA"/>
    <tag k="removemelater" v="yes"/>
  </node>
  <node id="-788" lat="52.148609483741154" lon="-3.5830512472651046">
    <tag k="addr:postcode" v="LD5 4YB"/>
    <tag k="removemelater" v="yes"/>
  </node>
  <node id="-789" lat="52.14956734827032" lon="-3.575309401566404">
    <tag k="addr:postcode" v="LD5 4YD"/>
    <tag k="removemelater" v="yes"/>
  </node>
  <node id="-790" lat="52.15350602933398" lon="-3.577290283491444">
    <tag k="addr:postcode" v="LD5 4YE"/>
    <tag k="removemelater" v="yes"/>
  </node>
  <node id="-791" lat="52.30011573920053" lon="-3.5113527488056784">
    <tag k="addr:postcode" v="LD6 5AB"/>
    <tag k="removemelater" v="yes"/>
  </node>
  <node id="-792" lat="52.2999833718935" lon="-3.511157587912063">
    <tag k="addr:postcode" v="LD6 5AD"/>
    <tag k="removemelater" v="yes"/>
  </node>
  <node id="-793" lat="52.299565380996164" lon="-3.5136071528468036">
    <tag k="addr:postcode" v="LD6 5AG"/>
    <tag k="removemelater" v="yes"/>
  </node>
  <node id="-794" lat="52.2993180641003" lon="-3.5132614136682663">
    <tag k="addr:postcode" v="LD6 5AH"/>
    <tag k="removemelater" v="yes"/>
  </node>
  <node id="-795" lat="52.29910049494108" lon="-3.5134006479115296">
    <tag k="addr:postcode" v="LD6 5AL"/>
    <tag k="removemelater" v="yes"/>
  </node>
  <node id="-796" lat="52.29873612527549" lon="-3.513769517322413">
    <tag k="addr:postcode" v="LD6 5AN"/>
    <tag k="removemelater" v="yes"/>
  </node>
  <node id="-797" lat="52.29905022051442" lon="-3.515217430665365">
    <tag k="addr:postcode" v="LD6 5AP"/>
    <tag k="removemelater" v="yes"/>
  </node>
  <node id="-798" lat="52.298296057583705" lon="-3.5151330216006573">
    <tag k="addr:postcode" v="LD6 5AR"/>
    <tag k="removemelater" v="yes"/>
  </node>
  <node id="-799" lat="52.2977280839939" lon="-3.5166534420984514">
    <tag k="addr:postcode" v="LD6 5AS"/>
    <tag k="removemelater" v="yes"/>
  </node>
  <node id="-800" lat="52.30024580144076" lon="-3.5131317270920777">
    <tag k="addr:postcode" v="LD6 5AT"/>
    <tag k="removemelater" v="yes"/>
  </node>
  <node id="-801" lat="52.300572718153255" lon="-3.512878889826665">
    <tag k="addr:postcode" v="LD6 5AU"/>
    <tag k="removemelater" v="yes"/>
  </node>
  <node id="-802" lat="52.299504422753984" lon="-3.515555578670081">
    <tag k="addr:postcode" v="LD6 5AW"/>
    <tag k="removemelater" v="yes"/>
  </node>
  <node id="-803" lat="52.30139223419956" lon="-3.512774834975701">
    <tag k="addr:postcode" v="LD6 5AY"/>
    <tag k="removemelater" v="yes"/>
  </node>
  <node id="-804" lat="52.30081477473187" lon="-3.5136351020921612">
    <tag k="addr:postcode" v="LD6 5BA"/>
    <tag k="removemelater" v="yes"/>
  </node>
  <node id="-805" lat="52.30222205181884" lon="-3.5125684633511054">
    <tag k="addr:postcode" v="LD6 5BB"/>
    <tag k="removemelater" v="yes"/>
  </node>
  <node id="-806" lat="52.3024167627974" lon="-3.5128097631147384">
    <tag k="addr:postcode" v="LD6 5BD"/>
    <tag k="removemelater" v="yes"/>
  </node>
  <node id="-807" lat="52.302669903978604" lon="-3.512701061553961">
    <tag k="addr:postcode" v="LD6 5BE"/>
    <tag k="removemelater" v="yes"/>
  </node>
  <node id="-808" lat="52.30291051647633" lon="-3.5121666010859935">
    <tag k="addr:postcode" v="LD6 5BG"/>
    <tag k="removemelater" v="yes"/>
  </node>
  <node id="-809" lat="52.29872989788175" lon="-3.507932559919624">
    <tag k="addr:postcode" v="LD6 5BH"/>
    <tag k="removemelater" v="yes"/>
  </node>
  <node id="-810" lat="52.297233810079504" lon="-3.499742828845095">
    <tag k="addr:postcode" v="LD6 5BL"/>
    <tag k="removemelater" v="yes"/>
  </node>
  <node id="-811" lat="52.299549220045265" lon="-3.5071391344927814">
    <tag k="addr:postcode" v="LD6 5BN"/>
    <tag k="removemelater" v="yes"/>
  </node>
  <node id="-812" lat="52.29904587693124" lon="-3.5120495780885417">
    <tag k="addr:postcode" v="LD6 5BP"/>
    <tag k="removemelater" v="yes"/>
  </node>
  <node id="-813" lat="52.30078284871729" lon="-3.5112141446264205">
    <tag k="addr:postcode" v="LD6 5BT"/>
    <tag k="removemelater" v="yes"/>
  </node>
  <node id="-814" lat="52.30117098267102" lon="-3.511095368699557">
    <tag k="addr:postcode" v="LD6 5BU"/>
    <tag k="removemelater" v="yes"/>
  </node>
  <node id="-815" lat="52.29994234357086" lon="-3.515761187164989">
    <tag k="addr:postcode" v="LD6 5BW"/>
    <tag k="removemelater" v="yes"/>
  </node>
  <node id="-816" lat="52.30088168558566" lon="-3.511921473760529">
    <tag k="addr:postcode" v="LD6 5BY"/>
    <tag k="removemelater" v="yes"/>
  </node>
  <node id="-817" lat="52.30256681283156" lon="-3.510218915762607">
    <tag k="addr:postcode" v="LD6 5DA"/>
    <tag k="removemelater" v="yes"/>
  </node>
  <node id="-818" lat="52.30367710614762" lon="-3.506355331571913">
    <tag k="addr:postcode" v="LD6 5DB"/>
    <tag k="removemelater" v="yes"/>
  </node>
  <node id="-819" lat="52.302365119748465" lon="-3.511928018902919">
    <tag k="addr:postcode" v="LD6 5DD"/>
    <tag k="removemelater" v="yes"/>
  </node>
  <node id="-820" lat="52.30301782158314" lon="-3.5115102606210513">
    <tag k="addr:postcode" v="LD6 5DE"/>
    <tag k="removemelater" v="yes"/>
  </node>
  <node id="-821" lat="52.302923121844" lon="-3.5097763790044354">
    <tag k="addr:postcode" v="LD6 5DF"/>
    <tag k="removemelater" v="yes"/>
  </node>
  <node id="-822" lat="52.303450548843976" lon="-3.510014326288551">
    <tag k="addr:postcode" v="LD6 5DG"/>
    <tag k="removemelater" v="yes"/>
  </node>
  <node id="-823" lat="52.304539110156625" lon="-3.5057392440526143">
    <tag k="addr:postcode" v="LD6 5DH"/>
    <tag k="removemelater" v="yes"/>
  </node>
  <node id="-824" lat="52.303369087836636" lon="-3.5107595568526295">
    <tag k="addr:postcode" v="LD6 5DJ"/>
    <tag k="removemelater" v="yes"/>
  </node>
  <node id="-825" lat="52.300780441486474" lon="-3.509996795793819">
    <tag k="addr:postcode" v="LD6 5DL"/>
    <tag k="removemelater" v="yes"/>
  </node>
  <node id="-826" lat="52.30101242947135" lon="-3.5094327181265554">
    <tag k="addr:postcode" v="LD6 5DN"/>
    <tag k="removemelater" v="yes"/>
  </node>
  <node id="-827" lat="52.30181434921535" lon="-3.508594690051913">
    <tag k="addr:postcode" v="LD6 5DP"/>
    <tag k="removemelater" v="yes"/>
  </node>
  <node id="-828" lat="52.30211784561952" lon="-3.506654389900675">
    <tag k="addr:postcode" v="LD6 5DR"/>
    <tag k="removemelater" v="yes"/>
  </node>
  <node id="-829" lat="52.30113001761388" lon="-3.5086740870216957">
    <tag k="addr:postcode" v="LD6 5DS"/>
    <tag k="removemelater" v="yes"/>
  </node>
  <node id="-830" lat="52.302456363063136" lon="-3.509012510371734">
    <tag k="addr:postcode" v="LD6 5DW"/>
    <tag k="removemelater" v="yes"/>
  </node>
  <node id="-831" lat="52.30316473966803" lon="-3.5028179430374395">
    <tag k="addr:postcode" v="LD6 5DY"/>
    <tag k="removemelater" v="yes"/>
  </node>
  <node id="-832" lat="52.30427563639386" lon="-3.500303509783015">
    <tag k="addr:postcode" v="LD6 5DZ"/>
    <tag k="removemelater" v="yes"/>
  </node>
  <node id="-833" lat="52.30155840432329" lon="-3.507515362060714">
    <tag k="addr:postcode" v="LD6 5EA"/>
    <tag k="removemelater" v="yes"/>
  </node>
  <node id="-834" lat="52.300901409519966" lon="-3.508270335471183">
    <tag k="addr:postcode" v="LD6 5EB"/>
    <tag k="removemelater" v="yes"/>
  </node>
  <node id="-835" lat="52.30102067628464" lon="-3.5080837319797276">
    <tag k="addr:postcode" v="LD6 5ED"/>
    <tag k="removemelater" v="yes"/>
  </node>
  <node id="-836" lat="52.30047452037979" lon="-3.5086078044896656">
    <tag k="addr:postcode" v="LD6 5EE"/>
    <tag k="removemelater" v="yes"/>
  </node>
  <node id="-837" lat="52.30344638157561" lon="-3.5040008207191367">
    <tag k="addr:postcode" v="LD6 5EF"/>
    <tag k="removemelater" v="yes"/>
  </node>
  <node id="-838" lat="52.30392344624483" lon="-3.5039583237764247">
    <tag k="addr:postcode" v="LD6 5EG"/>
    <tag k="removemelater" v="yes"/>
  </node>
  <node id="-839" lat="52.302953824781866" lon="-3.505964113010117">
    <tag k="addr:postcode" v="LD6 5EH"/>
    <tag k="removemelater" v="yes"/>
  </node>
  <node id="-840" lat="52.30268684955645" lon="-3.507861695783755">
    <tag k="addr:postcode" v="LD6 5EL"/>
    <tag k="removemelater" v="yes"/>
  </node>
  <node id="-841" lat="52.30173422350059" lon="-3.501478872812129">
    <tag k="addr:postcode" v="LD6 5EN"/>
    <tag k="removemelater" v="yes"/>
  </node>
  <node id="-842" lat="52.30495810796355" lon="-3.5046094188745998">
    <tag k="addr:postcode" v="LD6 5EP"/>
    <tag k="removemelater" v="yes"/>
  </node>
  <node id="-843" lat="52.30218465562263" lon="-3.504940698717823">
    <tag k="addr:postcode" v="LD6 5ER"/>
    <tag k="removemelater" v="yes"/>
  </node>
  <node id="-844" lat="52.30232923712383" lon="-3.5077028798945697">
    <tag k="addr:postcode" v="LD6 5ES"/>
    <tag k="removemelater" v="yes"/>
  </node>
  <node id="-845" lat="52.29915961958926" lon="-3.5192981307854483">
    <tag k="addr:postcode" v="LD6 5EU"/>
    <tag k="removemelater" v="yes"/>
  </node>
  <node id="-846" lat="52.30246766126699" lon="-3.502486339833801">
    <tag k="addr:postcode" v="LD6 5EW"/>
    <tag k="removemelater" v="yes"/>
  </node>
  <node id="-847" lat="52.303241766084945" lon="-3.5338846066521614">
    <tag k="addr:postcode" v="LD6 5EY"/>
    <tag k="removemelater" v="yes"/>
  </node>
  <node id="-848" lat="52.317794119295876" lon="-3.5397283225196703">
    <tag k="addr:postcode" v="LD6 5HA"/>
    <tag k="removemelater" v="yes"/>
  </node>
  <node id="-849" lat="52.29536987993873" lon="-3.542528333635609">
    <tag k="addr:postcode" v="LD6 5HB"/>
    <tag k="removemelater" v="yes"/>
  </node>
  <node id="-850" lat="52.26664047607424" lon="-3.6080923768014284">
    <tag k="addr:postcode" v="LD6 5HE"/>
    <tag k="removemelater" v="yes"/>
  </node>
  <node id="-851" lat="52.29452482272167" lon="-3.5154441992582677">
    <tag k="addr:postcode" v="LD6 5HG"/>
    <tag k="removemelater" v="yes"/>
  </node>
  <node id="-852" lat="52.29338932526864" lon="-3.526813588947375">
    <tag k="addr:postcode" v="LD6 5HH"/>
    <tag k="removemelater" v="yes"/>
  </node>
  <node id="-853" lat="52.28676266976624" lon="-3.546862242459114">
    <tag k="addr:postcode" v="LD6 5HL"/>
    <tag k="removemelater" v="yes"/>
  </node>
  <node id="-854" lat="52.28011189122057" lon="-3.5582845614508103">
    <tag k="addr:postcode" v="LD6 5HN"/>
    <tag k="removemelater" v="yes"/>
  </node>
  <node id="-855" lat="52.27192323852774" lon="-3.565589320088591">
    <tag k="addr:postcode" v="LD6 5HP"/>
    <tag k="removemelater" v="yes"/>
  </node>
  <node id="-856" lat="52.26741384219101" lon="-3.5666321179368143">
    <tag k="addr:postcode" v="LD6 5HR"/>
    <tag k="removemelater" v="yes"/>
  </node>
  <node id="-857" lat="52.316563574337195" lon="-3.6320262380211923">
    <tag k="addr:postcode" v="LD6 5HS"/>
    <tag k="removemelater" v="yes"/>
  </node>
  <node id="-858" lat="52.30967390440464" lon="-3.541896162597129">
    <tag k="addr:postcode" v="LD6 5HT"/>
    <tag k="removemelater" v="yes"/>
  </node>
  <node id="-859" lat="52.27617932157774" lon="-3.5633061393369005">
    <tag k="addr:postcode" v="LD6 5HW"/>
    <tag k="removemelater" v="yes"/>
  </node>
  <node id="-860" lat="52.27737670636347" lon="-3.5611495525689985">
    <tag k="addr:postcode" v="LD6 5HY"/>
    <tag k="removemelater" v="yes"/>
  </node>
  <node id="-861" lat="52.30385522972963" lon="-3.513518816643157">
    <tag k="addr:postcode" v="LD6 5LA"/>
    <tag k="removemelater" v="yes"/>
  </node>
  <node id="-862" lat="52.305757405736024" lon="-3.5152264667735165">
    <tag k="addr:postcode" v="LD6 5LB"/>
    <tag k="removemelater" v="yes"/>
  </node>
  <node id="-863" lat="52.31851675893002" lon="-3.5339433890461147">
    <tag k="addr:postcode" v="LD6 5LD"/>
    <tag k="removemelater" v="yes"/>
  </node>
  <node id="-864" lat="52.33956095166276" lon="-3.550069759585434">
    <tag k="addr:postcode" v="LD6 5LE"/>
    <tag k="removemelater" v="yes"/>
  </node>
  <node id="-865" lat="52.33904458598383" lon="-3.522720196652682">
    <tag k="addr:postcode" v="LD6 5LF"/>
    <tag k="removemelater" v="yes"/>
  </node>
  <node id="-866" lat="52.34460796792579" lon="-3.4933010968958804">
    <tag k="addr:postcode" v="LD6 5LG"/>
    <tag k="removemelater" v="yes"/>
  </node>
  <node id="-867" lat="52.345750797429645" lon="-3.4889500825908253">
    <tag k="addr:postcode" v="LD6 5LH"/>
    <tag k="removemelater" v="yes"/>
  </node>
  <node id="-868" lat="52.35209998668686" lon="-3.4916742665505565">
    <tag k="addr:postcode" v="LD6 5LJ"/>
    <tag k="removemelater" v="yes"/>
  </node>
  <node id="-869" lat="52.35984257911226" lon="-3.4936973201012873">
    <tag k="addr:postcode" v="LD6 5LL"/>
    <tag k="removemelater" v="yes"/>
  </node>
  <node id="-870" lat="52.362469405175254" lon="-3.4935803277062973">
    <tag k="addr:postcode" v="LD6 5LN"/>
    <tag k="removemelater" v="yes"/>
  </node>
  <node id="-871" lat="52.34112602005188" lon="-3.482790892795911">
    <tag k="addr:postcode" v="LD6 5LQ"/>
    <tag k="removemelater" v="yes"/>
  </node>
  <node id="-872" lat="52.37050333052236" lon="-3.5234643314804757">
    <tag k="addr:postcode" v="LD6 5LR"/>
    <tag k="removemelater" v="yes"/>
  </node>
  <node id="-873" lat="52.3041592352348" lon="-3.5087330829655485">
    <tag k="addr:postcode" v="LD6 5LS"/>
    <tag k="removemelater" v="yes"/>
  </node>
  <node id="-874" lat="52.34143315638593" lon="-3.4841076258958084">
    <tag k="addr:postcode" v="LD6 5LU"/>
    <tag k="removemelater" v="yes"/>
  </node>
  <node id="-875" lat="52.366855124906245" lon="-3.4958580084907385">
    <tag k="addr:postcode" v="LD6 5LW"/>
    <tag k="removemelater" v="yes"/>
  </node>
  <node id="-876" lat="52.3590477037197" lon="-3.4768266812444426">
    <tag k="addr:postcode" v="LD6 5LY"/>
    <tag k="removemelater" v="yes"/>
  </node>
  <node id="-877" lat="52.3441285664187" lon="-3.4885432414608153">
    <tag k="addr:postcode" v="LD6 5LZ"/>
    <tag k="removemelater" v="yes"/>
  </node>
  <node id="-878" lat="52.36619478825528" lon="-3.4804725813490864">
    <tag k="addr:postcode" v="LD6 5NA"/>
    <tag k="removemelater" v="yes"/>
  </node>
  <node id="-879" lat="52.379606849978096" lon="-3.4487460041406743">
    <tag k="addr:postcode" v="LD6 5NB"/>
    <tag k="removemelater" v="yes"/>
  </node>
  <node id="-880" lat="52.3627359319238" lon="-3.4313781506878525">
    <tag k="addr:postcode" v="LD6 5ND"/>
    <tag k="removemelater" v="yes"/>
  </node>
  <node id="-881" lat="52.36037445036314" lon="-3.4236800610131595">
    <tag k="addr:postcode" v="LD6 5NE"/>
    <tag k="removemelater" v="yes"/>
  </node>
  <node id="-882" lat="52.37468647309382" lon="-3.4215549276143227">
    <tag k="addr:postcode" v="LD6 5NF"/>
    <tag k="removemelater" v="yes"/>
  </node>
  <node id="-883" lat="52.34387067874898" lon="-3.4660300299139277">
    <tag k="addr:postcode" v="LD6 5NG"/>
    <tag k="removemelater" v="yes"/>
  </node>
  <node id="-884" lat="52.30335020827951" lon="-3.5087202408398377">
    <tag k="addr:postcode" v="LD6 5NN"/>
    <tag k="removemelater" v="yes"/>
  </node>
  <node id="-885" lat="52.305797510616294" lon="-3.5071753650440423">
    <tag k="addr:postcode" v="LD6 5NP"/>
    <tag k="removemelater" v="yes"/>
  </node>
  <node id="-886" lat="52.309327342282124" lon="-3.5046402544097632">
    <tag k="addr:postcode" v="LD6 5NR"/>
    <tag k="removemelater" v="yes"/>
  </node>
  <node id="-887" lat="52.31642185433126" lon="-3.4861313769519753">
    <tag k="addr:postcode" v="LD6 5NS"/>
    <tag k="removemelater" v="yes"/>
  </node>
  <node id="-888" lat="52.31111273168323" lon="-3.4735726737330945">
    <tag k="addr:postcode" v="LD6 5NT"/>
    <tag k="removemelater" v="yes"/>
  </node>
  <node id="-889" lat="52.30228091508598" lon="-3.4945308596429343">
    <tag k="addr:postcode" v="LD6 5NU"/>
    <tag k="removemelater" v="yes"/>
  </node>
  <node id="-890" lat="52.30224788517106" lon="-3.477868819376517">
    <tag k="addr:postcode" v="LD6 5NY"/>
    <tag k="removemelater" v="yes"/>
  </node>
  <node id="-891" lat="52.30483819935398" lon="-3.484247307117998">
    <tag k="addr:postcode" v="LD6 5PA"/>
    <tag k="removemelater" v="yes"/>
  </node>
  <node id="-892" lat="52.30016404323496" lon="-3.466888216284489">
    <tag k="addr:postcode" v="LD6 5PB"/>
    <tag k="removemelater" v="yes"/>
  </node>
  <node id="-893" lat="52.292410600723485" lon="-3.464975062222866">
    <tag k="addr:postcode" v="LD6 5PD"/>
    <tag k="removemelater" v="yes"/>
  </node>
  <node id="-894" lat="52.30404063694462" lon="-3.512381119149393">
    <tag k="addr:postcode" v="LD6 5PL"/>
    <tag k="removemelater" v="yes"/>
  </node>
  <node id="-895" lat="52.30515549548386" lon="-3.507461569584726">
    <tag k="addr:postcode" v="LD6 5PN"/>
    <tag k="removemelater" v="yes"/>
  </node>
  <node id="-896" lat="52.30468756483253" lon="-3.5110097901649726">
    <tag k="addr:postcode" v="LD6 5PP"/>
    <tag k="removemelater" v="yes"/>
  </node>
  <node id="-897" lat="52.305171571675324" lon="-3.5104249133117147">
    <tag k="addr:postcode" v="LD6 5PW"/>
    <tag k="removemelater" v="yes"/>
  </node>
  <node id="-898" lat="52.301186187935485" lon="-3.5085000047536044">
    <tag k="addr:postcode" v="LD6 5WL"/>
    <tag k="removemelater" v="yes"/>
  </node>
  <node id="-899" lat="52.34438576947026" lon="-3.048506430057156">
    <tag k="addr:postcode" v="LD7 1AA"/>
    <tag k="removemelater" v="yes"/>
  </node>
  <node id="-900" lat="52.34517738398121" lon="-3.0514905016689196">
    <tag k="addr:postcode" v="LD7 1ET"/>
    <tag k="removemelater" v="yes"/>
  </node>
  <node id="-901" lat="52.34350965084943" lon="-3.0550180051001914">
    <tag k="addr:postcode" v="LD7 1HD"/>
    <tag k="removemelater" v="yes"/>
  </node>
  <node id="-902" lat="52.3419964954106" lon="-3.039099478249569">
    <tag k="addr:postcode" v="LD7 1HJ"/>
    <tag k="removemelater" v="yes"/>
  </node>
  <node id="-903" lat="52.343120289444585" lon="-3.0512948930560353">
    <tag k="addr:postcode" v="LD7 1HL"/>
    <tag k="removemelater" v="yes"/>
  </node>
  <node id="-904" lat="52.341238199867206" lon="-3.0435293056007597">
    <tag k="addr:postcode" v="LD7 1HP"/>
    <tag k="removemelater" v="yes"/>
  </node>
  <node id="-905" lat="52.34064900789949" lon="-3.0440732094757483">
    <tag k="addr:postcode" v="LD7 1HX"/>
    <tag k="removemelater" v="yes"/>
  </node>
  <node id="-906" lat="52.325825592043905" lon="-3.047906049383127">
    <tag k="addr:postcode" v="LD7 1LN"/>
    <tag k="removemelater" v="yes"/>
  </node>
  <node id="-907" lat="52.343569648414736" lon="-3.032971046014005">
    <tag k="addr:postcode" v="LD7 1LP"/>
    <tag k="removemelater" v="yes"/>
  </node>
  <node id="-908" lat="52.34491150208045" lon="-3.000325172114262">
    <tag k="addr:postcode" v="LD7 1LT"/>
    <tag k="removemelater" v="yes"/>
  </node>
  <node id="-909" lat="52.32653926866763" lon="-2.9944813470906464">
    <tag k="addr:postcode" v="LD7 1LY"/>
    <tag k="removemelater" v="yes"/>
  </node>
  <node id="-910" lat="52.29826121450342" lon="-3.0678878812777217">
    <tag k="addr:postcode" v="LD7 1NJ"/>
    <tag k="removemelater" v="yes"/>
  </node>
  <node id="-911" lat="52.29815291996904" lon="-3.0689264449122935">
    <tag k="addr:postcode" v="LD7 1NN"/>
    <tag k="removemelater" v="yes"/>
  </node>
  <node id="-912" lat="52.29779744970862" lon="-3.069460460496107">
    <tag k="addr:postcode" v="LD7 1NQ"/>
    <tag k="removemelater" v="yes"/>
  </node>
  <node id="-913" lat="52.310024613664865" lon="-3.118952716606757">
    <tag k="addr:postcode" v="LD7 1NS"/>
    <tag k="removemelater" v="yes"/>
  </node>
  <node id="-914" lat="52.30506955690579" lon="-3.1219224297562445">
    <tag k="addr:postcode" v="LD7 1NU"/>
    <tag k="removemelater" v="yes"/>
  </node>
  <node id="-915" lat="52.30415767336707" lon="-3.1429456864870984">
    <tag k="addr:postcode" v="LD7 1NY"/>
    <tag k="removemelater" v="yes"/>
  </node>
  <node id="-916" lat="52.30685280670687" lon="-3.1688736365474766">
    <tag k="addr:postcode" v="LD7 1PA"/>
    <tag k="removemelater" v="yes"/>
  </node>
  <node id="-917" lat="52.31642404769904" lon="-3.065699137284153">
    <tag k="addr:postcode" v="LD7 1PD"/>
    <tag k="removemelater" v="yes"/>
  </node>
  <node id="-918" lat="52.36159837673068" lon="-3.1023099497054476">
    <tag k="addr:postcode" v="LD7 1PF"/>
    <tag k="removemelater" v="yes"/>
  </node>
  <node id="-919" lat="52.34274413628483" lon="-3.0760936520067355">
    <tag k="addr:postcode" v="LD7 1PG"/>
    <tag k="removemelater" v="yes"/>
  </node>
  <node id="-920" lat="52.35439885157544" lon="-3.081677345002381">
    <tag k="addr:postcode" v="LD7 1PH"/>
    <tag k="removemelater" v="yes"/>
  </node>
  <node id="-921" lat="52.35803693492929" lon="-3.101472405323273">
    <tag k="addr:postcode" v="LD7 1PL"/>
    <tag k="removemelater" v="yes"/>
  </node>
  <node id="-922" lat="52.36096455132915" lon="-3.0989312638186113">
    <tag k="addr:postcode" v="LD7 1PN"/>
    <tag k="removemelater" v="yes"/>
  </node>
  <node id="-923" lat="52.36183691512733" lon="-3.1008326547425065">
    <tag k="addr:postcode" v="LD7 1PP"/>
    <tag k="removemelater" v="yes"/>
  </node>
  <node id="-924" lat="52.361848409969014" lon="-3.102492399864596">
    <tag k="addr:postcode" v="LD7 1PR"/>
    <tag k="removemelater" v="yes"/>
  </node>
  <node id="-925" lat="52.36237743170117" lon="-3.1055308176704552">
    <tag k="addr:postcode" v="LD7 1PS"/>
    <tag k="removemelater" v="yes"/>
  </node>
  <node id="-926" lat="52.360289162564115" lon="-3.1048325434987283">
    <tag k="addr:postcode" v="LD7 1PT"/>
    <tag k="removemelater" v="yes"/>
  </node>
  <node id="-927" lat="52.35787590579095" lon="-3.1233478243521473">
    <tag k="addr:postcode" v="LD7 1PU"/>
    <tag k="removemelater" v="yes"/>
  </node>
  <node id="-928" lat="52.3613482113985" lon="-3.0982799462634243">
    <tag k="addr:postcode" v="LD7 1PW"/>
    <tag k="removemelater" v="yes"/>
  </node>
  <node id="-929" lat="52.3606979316134" lon="-3.095693926443528">
    <tag k="addr:postcode" v="LD7 1PZ"/>
    <tag k="removemelater" v="yes"/>
  </node>
  <node id="-930" lat="52.36035872996565" lon="-3.1382279966491358">
    <tag k="addr:postcode" v="LD7 1RA"/>
    <tag k="removemelater" v="yes"/>
  </node>
  <node id="-931" lat="52.36819050676755" lon="-3.109773818383036">
    <tag k="addr:postcode" v="LD7 1RB"/>
    <tag k="removemelater" v="yes"/>
  </node>
  <node id="-932" lat="52.38867352931855" lon="-3.1600576305930077">
    <tag k="addr:postcode" v="LD7 1RL"/>
    <tag k="removemelater" v="yes"/>
  </node>
  <node id="-933" lat="52.360390276123496" lon="-3.09687579819887">
    <tag k="addr:postcode" v="LD7 1RR"/>
    <tag k="removemelater" v="yes"/>
  </node>
  <node id="-934" lat="52.332697582301016" lon="-3.1536757128936728">
    <tag k="addr:postcode" v="LD7 1SN"/>
    <tag k="removemelater" v="yes"/>
  </node>
  <node id="-935" lat="52.33492695013499" lon="-3.1601327510313597">
    <tag k="addr:postcode" v="LD7 1SP"/>
    <tag k="removemelater" v="yes"/>
  </node>
  <node id="-936" lat="52.332826770183274" lon="-3.165243714929727">
    <tag k="addr:postcode" v="LD7 1SR"/>
    <tag k="removemelater" v="yes"/>
  </node>
  <node id="-937" lat="52.33578978454143" lon="-3.157410752132192">
    <tag k="addr:postcode" v="LD7 1SS"/>
    <tag k="removemelater" v="yes"/>
  </node>
  <node id="-938" lat="52.34020209090936" lon="-3.160373595833355">
    <tag k="addr:postcode" v="LD7 1ST"/>
    <tag k="removemelater" v="yes"/>
  </node>
  <node id="-939" lat="52.334319795197985" lon="-3.157871365121201">
    <tag k="addr:postcode" v="LD7 1SW"/>
    <tag k="removemelater" v="yes"/>
  </node>
  <node id="-940" lat="52.35517501114486" lon="-3.16458350499782">
    <tag k="addr:postcode" v="LD7 1SY"/>
    <tag k="removemelater" v="yes"/>
  </node>
  <node id="-941" lat="52.3472583675787" lon="-3.133663356068657">
    <tag k="addr:postcode" v="LD7 1TB"/>
    <tag k="removemelater" v="yes"/>
  </node>
  <node id="-942" lat="52.33779058871131" lon="-3.1346687459855698">
    <tag k="addr:postcode" v="LD7 1TD"/>
    <tag k="removemelater" v="yes"/>
  </node>
  <node id="-943" lat="52.34877936816725" lon="-3.113647791482698">
    <tag k="addr:postcode" v="LD7 1TE"/>
    <tag k="removemelater" v="yes"/>
  </node>
  <node id="-944" lat="52.36377523846203" lon="-3.0983254614503193">
    <tag k="addr:postcode" v="LD7 1TT"/>
    <tag k="removemelater" v="yes"/>
  </node>
  <node id="-945" lat="52.40187938453654" lon="-3.2006936893974793">
    <tag k="addr:postcode" v="LD7 1UH"/>
    <tag k="removemelater" v="yes"/>
  </node>
  <node id="-946" lat="52.36133582402348" lon="-3.093800621305624">
    <tag k="addr:postcode" v="LD7 1UU"/>
    <tag k="removemelater" v="yes"/>
  </node>
  <node id="-947" lat="52.386414407830166" lon="-3.148346286717361">
    <tag k="addr:postcode" v="LD7 1YA"/>
    <tag k="removemelater" v="yes"/>
  </node>
  <node id="-948" lat="52.39211711786908" lon="-3.1618673297241187">
    <tag k="addr:postcode" v="LD7 1YB"/>
    <tag k="removemelater" v="yes"/>
  </node>
  <node id="-949" lat="52.40274779367316" lon="-3.1742146638939968">
    <tag k="addr:postcode" v="LD7 1YD"/>
    <tag k="removemelater" v="yes"/>
  </node>
  <node id="-950" lat="52.40921990038413" lon="-3.184236459491101">
    <tag k="addr:postcode" v="LD7 1YE"/>
    <tag k="removemelater" v="yes"/>
  </node>
  <node id="-951" lat="52.40931537449627" lon="-3.186370713533485">
    <tag k="addr:postcode" v="LD7 1YF"/>
    <tag k="removemelater" v="yes"/>
  </node>
  <node id="-952" lat="52.41115275860487" lon="-3.1878314182239613">
    <tag k="addr:postcode" v="LD7 1YG"/>
    <tag k="removemelater" v="yes"/>
  </node>
  <node id="-953" lat="52.42005968401987" lon="-3.219877656505633">
    <tag k="addr:postcode" v="LD7 1YL"/>
    <tag k="removemelater" v="yes"/>
  </node>
  <node id="-954" lat="52.42163112641669" lon="-3.221803346257404">
    <tag k="addr:postcode" v="LD7 1YN"/>
    <tag k="removemelater" v="yes"/>
  </node>
  <node id="-955" lat="52.42375598610692" lon="-3.2241121583228423">
    <tag k="addr:postcode" v="LD7 1YP"/>
    <tag k="removemelater" v="yes"/>
  </node>
  <node id="-956" lat="52.42241249345916" lon="-3.222751416714512">
    <tag k="addr:postcode" v="LD7 1YW"/>
    <tag k="removemelater" v="yes"/>
  </node>
  <node id="-957" lat="52.2416556673669" lon="-3.3784570058639583">
    <tag k="addr:postcode" v="LD7 9AP"/>
    <tag k="removemelater" v="yes"/>
  </node>
  <node id="-958" lat="52.27367370640751" lon="-3.0062681212771087">
    <tag k="addr:postcode" v="LD8 2AA"/>
    <tag k="removemelater" v="yes"/>
  </node>
  <node id="-959" lat="52.27449306761007" lon="-3.005070195379317">
    <tag k="addr:postcode" v="LD8 2AB"/>
    <tag k="removemelater" v="yes"/>
  </node>
  <node id="-960" lat="52.273651609862455" lon="-3.005696029094478">
    <tag k="addr:postcode" v="LD8 2AD"/>
    <tag k="removemelater" v="yes"/>
  </node>
  <node id="-961" lat="52.27409156140906" lon="-3.00470935861219">
    <tag k="addr:postcode" v="LD8 2AE"/>
    <tag k="removemelater" v="yes"/>
  </node>
  <node id="-962" lat="52.274448237117475" lon="-3.003999259666836">
    <tag k="addr:postcode" v="LD8 2AF"/>
    <tag k="removemelater" v="yes"/>
  </node>
  <node id="-963" lat="52.274898159502904" lon="-3.002895527244552">
    <tag k="addr:postcode" v="LD8 2AG"/>
    <tag k="removemelater" v="yes"/>
  </node>
  <node id="-964" lat="52.27354336387142" lon="-3.0046823034348678">
    <tag k="addr:postcode" v="LD8 2AH"/>
    <tag k="removemelater" v="yes"/>
  </node>
  <node id="-965" lat="52.26782668458179" lon="-2.998163769026254">
    <tag k="addr:postcode" v="LD8 2AJ"/>
    <tag k="removemelater" v="yes"/>
  </node>
  <node id="-966" lat="52.27344286466249" lon="-3.004870560072082">
    <tag k="addr:postcode" v="LD8 2AN"/>
    <tag k="removemelater" v="yes"/>
  </node>
  <node id="-967" lat="52.27282762773586" lon="-3.005325632423611">
    <tag k="addr:postcode" v="LD8 2AP"/>
    <tag k="removemelater" v="yes"/>
  </node>
  <node id="-968" lat="52.27437169802619" lon="-3.0034845546230162">
    <tag k="addr:postcode" v="LD8 2AQ"/>
    <tag k="removemelater" v="yes"/>
  </node>
  <node id="-969" lat="52.27220875668662" lon="-3.0040952023919636">
    <tag k="addr:postcode" v="LD8 2AR"/>
    <tag k="removemelater" v="yes"/>
  </node>
  <node id="-970" lat="52.27174930718908" lon="-3.003146861497275">
    <tag k="addr:postcode" v="LD8 2AS"/>
    <tag k="removemelater" v="yes"/>
  </node>
  <node id="-971" lat="52.27216931053622" lon="-3.0045046705349114">
    <tag k="addr:postcode" v="LD8 2AT"/>
    <tag k="removemelater" v="yes"/>
  </node>
  <node id="-972" lat="52.27266108435286" lon="-3.0058787864027203">
    <tag k="addr:postcode" v="LD8 2AU"/>
    <tag k="removemelater" v="yes"/>
  </node>
  <node id="-973" lat="52.272939864731576" lon="-3.005870443004252">
    <tag k="addr:postcode" v="LD8 2AW"/>
    <tag k="removemelater" v="yes"/>
  </node>
  <node id="-974" lat="52.27020061959457" lon="-3.0002395017679397">
    <tag k="addr:postcode" v="LD8 2AY"/>
    <tag k="removemelater" v="yes"/>
  </node>
  <node id="-975" lat="52.23667298501164" lon="-3.149455517626549">
    <tag k="addr:postcode" v="LD8 2AZ"/>
    <tag k="removemelater" v="yes"/>
  </node>
  <node id="-976" lat="52.27400778606082" lon="-3.0071550680668633">
    <tag k="addr:postcode" v="LD8 2BA"/>
    <tag k="removemelater" v="yes"/>
  </node>
  <node id="-977" lat="52.275199784449725" lon="-3.008647766225676">
    <tag k="addr:postcode" v="LD8 2BB"/>
    <tag k="removemelater" v="yes"/>
  </node>
  <node id="-978" lat="52.27326358383663" lon="-3.006918353998295">
    <tag k="addr:postcode" v="LD8 2BD"/>
    <tag k="removemelater" v="yes"/>
  </node>
  <node id="-979" lat="52.27388893003191" lon="-3.0073868736433624">
    <tag k="addr:postcode" v="LD8 2BE"/>
    <tag k="removemelater" v="yes"/>
  </node>
  <node id="-980" lat="52.27576304390986" lon="-3.0100676188031588">
    <tag k="addr:postcode" v="LD8 2BG"/>
    <tag k="removemelater" v="yes"/>
  </node>
  <node id="-981" lat="52.27541586260186" lon="-3.009663990810943">
    <tag k="addr:postcode" v="LD8 2BH"/>
    <tag k="removemelater" v="yes"/>
  </node>
  <node id="-982" lat="52.27574765803206" lon="-3.010814770430154">
    <tag k="addr:postcode" v="LD8 2BL"/>
    <tag k="removemelater" v="yes"/>
  </node>
  <node id="-983" lat="52.274951993692284" lon="-3.007132506937403">
    <tag k="addr:postcode" v="LD8 2BP"/>
    <tag k="removemelater" v="yes"/>
  </node>
  <node id="-984" lat="52.27514738465428" lon="-3.005304850963572">
    <tag k="addr:postcode" v="LD8 2BS"/>
    <tag k="removemelater" v="yes"/>
  </node>
  <node id="-985" lat="52.27515462625733" lon="-3.005510208531312">
    <tag k="addr:postcode" v="LD8 2BT"/>
    <tag k="removemelater" v="yes"/>
  </node>
  <node id="-986" lat="52.27528121952975" lon="-3.005425133844507">
    <tag k="addr:postcode" v="LD8 2BU"/>
    <tag k="removemelater" v="yes"/>
  </node>
  <node id="-987" lat="52.27635866504979" lon="-3.012953954184721">
    <tag k="addr:postcode" v="LD8 2BW"/>
    <tag k="removemelater" v="yes"/>
  </node>
  <node id="-988" lat="52.27573552642566" lon="-3.006974390092079">
    <tag k="addr:postcode" v="LD8 2BY"/>
    <tag k="removemelater" v="yes"/>
  </node>
  <node id="-989" lat="52.27599143154978" lon="-3.0085924582947574">
    <tag k="addr:postcode" v="LD8 2DA"/>
    <tag k="removemelater" v="yes"/>
  </node>
  <node id="-990" lat="52.275599801371165" lon="-3.008129203525435">
    <tag k="addr:postcode" v="LD8 2DB"/>
    <tag k="removemelater" v="yes"/>
  </node>
  <node id="-991" lat="52.274861058710755" lon="-3.0093582479179277">
    <tag k="addr:postcode" v="LD8 2DD"/>
    <tag k="removemelater" v="yes"/>
  </node>
  <node id="-992" lat="52.27081172205987" lon="-3.00344810603296">
    <tag k="addr:postcode" v="LD8 2DE"/>
    <tag k="removemelater" v="yes"/>
  </node>
  <node id="-993" lat="52.27185147361217" lon="-3.000643061395253">
    <tag k="addr:postcode" v="LD8 2DG"/>
    <tag k="removemelater" v="yes"/>
  </node>
  <node id="-994" lat="52.271789661569336" lon="-3.0058004326853527">
    <tag k="addr:postcode" v="LD8 2DL"/>
    <tag k="removemelater" v="yes"/>
  </node>
  <node id="-995" lat="52.27151811936027" lon="-3.0049589217922157">
    <tag k="addr:postcode" v="LD8 2DN"/>
    <tag k="removemelater" v="yes"/>
  </node>
  <node id="-996" lat="52.27369240700545" lon="-3.0082911019648084">
    <tag k="addr:postcode" v="LD8 2DP"/>
    <tag k="removemelater" v="yes"/>
  </node>
  <node id="-997" lat="52.27314860298275" lon="-3.0066959072522454">
    <tag k="addr:postcode" v="LD8 2DR"/>
    <tag k="removemelater" v="yes"/>
  </node>
  <node id="-998" lat="52.272455570226256" lon="-3.007838010395469">
    <tag k="addr:postcode" v="LD8 2DS"/>
    <tag k="removemelater" v="yes"/>
  </node>
  <node id="-999" lat="52.273015257608954" lon="-3.007572244601276">
    <tag k="addr:postcode" v="LD8 2DT"/>
    <tag k="removemelater" v="yes"/>
  </node>
  <node id="-1000" lat="52.27141911236656" lon="-3.0070817236935485">
    <tag k="addr:postcode" v="LD8 2DU"/>
    <tag k="removemelater" v="yes"/>
  </node>
  <node id="-1001" lat="52.27097790128134" lon="-3.003994106069491">
    <tag k="addr:postcode" v="LD8 2DW"/>
    <tag k="removemelater" v="yes"/>
  </node>
  <node id="-1002" lat="52.29846030980941" lon="-3.0261723592155434">
    <tag k="addr:postcode" v="LD8 2DX"/>
    <tag k="removemelater" v="yes"/>
  </node>
  <node id="-1003" lat="52.273673775321626" lon="-3.0094192069351795">
    <tag k="addr:postcode" v="LD8 2DY"/>
    <tag k="removemelater" v="yes"/>
  </node>
  <node id="-1004" lat="52.273361133867795" lon="-3.0102328444219455">
    <tag k="addr:postcode" v="LD8 2EA"/>
    <tag k="removemelater" v="yes"/>
  </node>
  <node id="-1005" lat="52.27364041597147" lon="-3.0101659148945155">
    <tag k="addr:postcode" v="LD8 2EB"/>
    <tag k="removemelater" v="yes"/>
  </node>
  <node id="-1006" lat="52.2852676811067" lon="-3.046025028574734">
    <tag k="addr:postcode" v="LD8 2ED"/>
    <tag k="removemelater" v="yes"/>
  </node>
  <node id="-1007" lat="52.283539134538195" lon="-3.0513496897560444">
    <tag k="addr:postcode" v="LD8 2EE"/>
    <tag k="removemelater" v="yes"/>
  </node>
  <node id="-1008" lat="52.29010865330978" lon="-3.030231181409303">
    <tag k="addr:postcode" v="LD8 2EF"/>
    <tag k="removemelater" v="yes"/>
  </node>
  <node id="-1009" lat="52.29322087696015" lon="-3.0362271359481685">
    <tag k="addr:postcode" v="LD8 2EG"/>
    <tag k="removemelater" v="yes"/>
  </node>
  <node id="-1010" lat="52.2953617416275" lon="-3.0216577166593077">
    <tag k="addr:postcode" v="LD8 2EH"/>
    <tag k="removemelater" v="yes"/>
  </node>
  <node id="-1011" lat="52.2968184359779" lon="-3.021632591947141">
    <tag k="addr:postcode" v="LD8 2EL"/>
    <tag k="removemelater" v="yes"/>
  </node>
  <node id="-1012" lat="52.29866765879898" lon="-3.0240361399818387">
    <tag k="addr:postcode" v="LD8 2EN"/>
    <tag k="removemelater" v="yes"/>
  </node>
  <node id="-1013" lat="52.30616569768775" lon="-3.0405041809434588">
    <tag k="addr:postcode" v="LD8 2EP"/>
    <tag k="removemelater" v="yes"/>
  </node>
  <node id="-1014" lat="52.29608981230237" lon="-3.0227155924096243">
    <tag k="addr:postcode" v="LD8 2EQ"/>
    <tag k="removemelater" v="yes"/>
  </node>
  <node id="-1015" lat="52.31300848612174" lon="-3.032200539092163">
    <tag k="addr:postcode" v="LD8 2ER"/>
    <tag k="removemelater" v="yes"/>
  </node>
  <node id="-1016" lat="52.27722145598028" lon="-3.01089228317746">
    <tag k="addr:postcode" v="LD8 2ES"/>
    <tag k="removemelater" v="yes"/>
  </node>
  <node id="-1017" lat="52.287772873558836" lon="-3.013404940755147">
    <tag k="addr:postcode" v="LD8 2EU"/>
    <tag k="removemelater" v="yes"/>
  </node>
  <node id="-1018" lat="52.29926137710464" lon="-3.0208822709484564">
    <tag k="addr:postcode" v="LD8 2EY"/>
    <tag k="removemelater" v="yes"/>
  </node>
  <node id="-1019" lat="52.30264551402535" lon="-3.008948851612219">
    <tag k="addr:postcode" v="LD8 2HB"/>
    <tag k="removemelater" v="yes"/>
  </node>
  <node id="-1020" lat="52.27461142294923" lon="-3.0059522640771896">
    <tag k="addr:postcode" v="LD8 2HE"/>
    <tag k="removemelater" v="yes"/>
  </node>
  <node id="-1021" lat="52.271054734660034" lon="-3.001299260770315">
    <tag k="addr:postcode" v="LD8 2HF"/>
    <tag k="removemelater" v="yes"/>
  </node>
  <node id="-1022" lat="52.26735171517639" lon="-3.0022269415865996">
    <tag k="addr:postcode" v="LD8 2LA"/>
    <tag k="removemelater" v="yes"/>
  </node>
  <node id="-1023" lat="52.27045900250971" lon="-2.997328947371812">
    <tag k="addr:postcode" v="LD8 2LB"/>
    <tag k="removemelater" v="yes"/>
  </node>
  <node id="-1024" lat="52.26571978204833" lon="-2.9964019711948957">
    <tag k="addr:postcode" v="LD8 2LD"/>
    <tag k="removemelater" v="yes"/>
  </node>
  <node id="-1025" lat="52.26876970519993" lon="-2.9972177532226354">
    <tag k="addr:postcode" v="LD8 2LF"/>
    <tag k="removemelater" v="yes"/>
  </node>
  <node id="-1026" lat="52.270642605078" lon="-3.010625336308158">
    <tag k="addr:postcode" v="LD8 2NE"/>
    <tag k="removemelater" v="yes"/>
  </node>
  <node id="-1027" lat="52.28288286883703" lon="-3.031983898941622">
    <tag k="addr:postcode" v="LD8 2NF"/>
    <tag k="removemelater" v="yes"/>
  </node>
  <node id="-1028" lat="52.27172415520436" lon="-3.0103128627305615">
    <tag k="addr:postcode" v="LD8 2NJ"/>
    <tag k="removemelater" v="yes"/>
  </node>
  <node id="-1029" lat="52.27521814081358" lon="-3.033549966766253">
    <tag k="addr:postcode" v="LD8 2NL"/>
    <tag k="removemelater" v="yes"/>
  </node>
  <node id="-1030" lat="52.27895425320368" lon="-3.0442199731318382">
    <tag k="addr:postcode" v="LD8 2NP"/>
    <tag k="removemelater" v="yes"/>
  </node>
  <node id="-1031" lat="52.28176763291043" lon="-3.033057400036934">
    <tag k="addr:postcode" v="LD8 2NQ"/>
    <tag k="removemelater" v="yes"/>
  </node>
  <node id="-1032" lat="52.279337045330166" lon="-3.069748778543436">
    <tag k="addr:postcode" v="LD8 2NR"/>
    <tag k="removemelater" v="yes"/>
  </node>
  <node id="-1033" lat="52.28269671234476" lon="-3.074022257856899">
    <tag k="addr:postcode" v="LD8 2NS"/>
    <tag k="removemelater" v="yes"/>
  </node>
  <node id="-1034" lat="52.28842070788493" lon="-3.1160330376482643">
    <tag k="addr:postcode" v="LD8 2NT"/>
    <tag k="removemelater" v="yes"/>
  </node>
  <node id="-1035" lat="52.27636911662873" lon="-3.0618943439291377">
    <tag k="addr:postcode" v="LD8 2NW"/>
    <tag k="removemelater" v="yes"/>
  </node>
  <node id="-1036" lat="52.299532193675425" lon="-3.024906644675819">
    <tag k="addr:postcode" v="LD8 2NX"/>
    <tag k="removemelater" v="yes"/>
  </node>
  <node id="-1037" lat="52.27027942440288" lon="-3.0131377500616083">
    <tag k="addr:postcode" v="LD8 2NY"/>
    <tag k="removemelater" v="yes"/>
  </node>
  <node id="-1038" lat="52.2614805303175" lon="-3.0826817607792667">
    <tag k="addr:postcode" v="LD8 2PA"/>
    <tag k="removemelater" v="yes"/>
  </node>
  <node id="-1039" lat="52.27082699909531" lon="-3.07819050179973">
    <tag k="addr:postcode" v="LD8 2PB"/>
    <tag k="removemelater" v="yes"/>
  </node>
  <node id="-1040" lat="52.26594271742962" lon="-3.1018110572958886">
    <tag k="addr:postcode" v="LD8 2PD"/>
    <tag k="removemelater" v="yes"/>
  </node>
  <node id="-1041" lat="52.25972283722965" lon="-3.108352688255086">
    <tag k="addr:postcode" v="LD8 2PE"/>
    <tag k="removemelater" v="yes"/>
  </node>
  <node id="-1042" lat="52.2692231882858" lon="-3.1172360458797304">
    <tag k="addr:postcode" v="LD8 2PF"/>
    <tag k="removemelater" v="yes"/>
  </node>
  <node id="-1043" lat="52.261233315046184" lon="-3.116932606882908">
    <tag k="addr:postcode" v="LD8 2PG"/>
    <tag k="removemelater" v="yes"/>
  </node>
  <node id="-1044" lat="52.24000578269232" lon="-3.105518025302087">
    <tag k="addr:postcode" v="LD8 2RA"/>
    <tag k="removemelater" v="yes"/>
  </node>
  <node id="-1045" lat="52.23291400795155" lon="-3.1053124969753543">
    <tag k="addr:postcode" v="LD8 2RB"/>
    <tag k="removemelater" v="yes"/>
  </node>
  <node id="-1046" lat="52.22482738472708" lon="-3.1009245210130434">
    <tag k="addr:postcode" v="LD8 2RH"/>
    <tag k="removemelater" v="yes"/>
  </node>
  <node id="-1047" lat="52.27223069811973" lon="-3.002571503034993">
    <tag k="addr:postcode" v="LD8 2RJ"/>
    <tag k="removemelater" v="yes"/>
  </node>
  <node id="-1048" lat="52.22309327028195" lon="-3.0998422059468034">
    <tag k="addr:postcode" v="LD8 2RL"/>
    <tag k="removemelater" v="yes"/>
  </node>
  <node id="-1049" lat="52.29311707542515" lon="-3.0213128009409713">
    <tag k="addr:postcode" v="LD8 2RS"/>
    <tag k="removemelater" v="yes"/>
  </node>
  <node id="-1050" lat="52.27079959636328" lon="-3.0027590353198925">
    <tag k="addr:postcode" v="LD8 2RT"/>
    <tag k="removemelater" v="yes"/>
  </node>
  <node id="-1051" lat="52.271693651947004" lon="-2.9980454755108177">
    <tag k="addr:postcode" v="LD8 2RU"/>
    <tag k="removemelater" v="yes"/>
  </node>
  <node id="-1052" lat="52.25668835946978" lon="-3.0817152887608703">
    <tag k="addr:postcode" v="LD8 2RY"/>
    <tag k="removemelater" v="yes"/>
  </node>
  <node id="-1053" lat="52.254270393005335" lon="-3.0796933628824905">
    <tag k="addr:postcode" v="LD8 2SA"/>
    <tag k="removemelater" v="yes"/>
  </node>
  <node id="-1054" lat="52.254008387002855" lon="-3.080815034171493">
    <tag k="addr:postcode" v="LD8 2SB"/>
    <tag k="removemelater" v="yes"/>
  </node>
  <node id="-1055" lat="52.254636654351025" lon="-3.0819144110136207">
    <tag k="addr:postcode" v="LD8 2SD"/>
    <tag k="removemelater" v="yes"/>
  </node>
  <node id="-1056" lat="52.254961949161775" lon="-3.077805644895908">
    <tag k="addr:postcode" v="LD8 2SF"/>
    <tag k="removemelater" v="yes"/>
  </node>
  <node id="-1057" lat="52.26090332208894" lon="-3.061099854616844">
    <tag k="addr:postcode" v="LD8 2SG"/>
    <tag k="removemelater" v="yes"/>
  </node>
  <node id="-1058" lat="52.25524963251348" lon="-3.0807573132890567">
    <tag k="addr:postcode" v="LD8 2SJ"/>
    <tag k="removemelater" v="yes"/>
  </node>
  <node id="-1059" lat="52.24074577392763" lon="-3.155902291035548">
    <tag k="addr:postcode" v="LD8 2SL"/>
    <tag k="removemelater" v="yes"/>
  </node>
  <node id="-1060" lat="52.24062914543831" lon="-3.1540392824085677">
    <tag k="addr:postcode" v="LD8 2SN"/>
    <tag k="removemelater" v="yes"/>
  </node>
  <node id="-1061" lat="52.23975668830585" lon="-3.1540752249016712">
    <tag k="addr:postcode" v="LD8 2SP"/>
    <tag k="removemelater" v="yes"/>
  </node>
  <node id="-1062" lat="52.255374261569784" lon="-3.0799106286333653">
    <tag k="addr:postcode" v="LD8 2SQ"/>
    <tag k="removemelater" v="yes"/>
  </node>
  <node id="-1063" lat="52.239620678582824" lon="-3.155111501958539">
    <tag k="addr:postcode" v="LD8 2SR"/>
    <tag k="removemelater" v="yes"/>
  </node>
  <node id="-1064" lat="52.239016561112464" lon="-3.1506876800436547">
    <tag k="addr:postcode" v="LD8 2SS"/>
    <tag k="removemelater" v="yes"/>
  </node>
  <node id="-1065" lat="52.24003068139348" lon="-3.1517976691322658">
    <tag k="addr:postcode" v="LD8 2ST"/>
    <tag k="removemelater" v="yes"/>
  </node>
  <node id="-1066" lat="52.24122227184503" lon="-3.1531466409097813">
    <tag k="addr:postcode" v="LD8 2SU"/>
    <tag k="removemelater" v="yes"/>
  </node>
  <node id="-1067" lat="52.23999278925878" lon="-3.1547550343266613">
    <tag k="addr:postcode" v="LD8 2SW"/>
    <tag k="removemelater" v="yes"/>
  </node>
  <node id="-1068" lat="52.23930110493219" lon="-3.1574464111301035">
    <tag k="addr:postcode" v="LD8 2SX"/>
    <tag k="removemelater" v="yes"/>
  </node>
  <node id="-1069" lat="52.240109557434884" lon="-3.1529274012359534">
    <tag k="addr:postcode" v="LD8 2SY"/>
    <tag k="removemelater" v="yes"/>
  </node>
  <node id="-1070" lat="52.25554973637568" lon="-3.0794021307935546">
    <tag k="addr:postcode" v="LD8 2SZ"/>
    <tag k="removemelater" v="yes"/>
  </node>
  <node id="-1071" lat="52.241733923193806" lon="-3.152310448239002">
    <tag k="addr:postcode" v="LD8 2TA"/>
    <tag k="removemelater" v="yes"/>
  </node>
  <node id="-1072" lat="52.24056858522835" lon="-3.1556340673425023">
    <tag k="addr:postcode" v="LD8 2TD"/>
    <tag k="removemelater" v="yes"/>
  </node>
  <node id="-1073" lat="52.239852848786825" lon="-3.157109284102063">
    <tag k="addr:postcode" v="LD8 2TE"/>
    <tag k="removemelater" v="yes"/>
  </node>
  <node id="-1074" lat="52.24013029951047" lon="-3.1554029990499126">
    <tag k="addr:postcode" v="LD8 2TF"/>
    <tag k="removemelater" v="yes"/>
  </node>
  <node id="-1075" lat="52.25416656899004" lon="-3.131097299895007">
    <tag k="addr:postcode" v="LD8 2TG"/>
    <tag k="removemelater" v="yes"/>
  </node>
  <node id="-1076" lat="52.25335735785181" lon="-3.1367168280452615">
    <tag k="addr:postcode" v="LD8 2TH"/>
    <tag k="removemelater" v="yes"/>
  </node>
  <node id="-1077" lat="52.244191064868716" lon="-3.1584671314814554">
    <tag k="addr:postcode" v="LD8 2TL"/>
    <tag k="removemelater" v="yes"/>
  </node>
  <node id="-1078" lat="52.211403626332086" lon="-3.2084589554925045">
    <tag k="addr:postcode" v="LD8 2TR"/>
    <tag k="removemelater" v="yes"/>
  </node>
  <node id="-1079" lat="52.24127452444906" lon="-3.1514783859039333">
    <tag k="addr:postcode" v="LD8 2TU"/>
    <tag k="removemelater" v="yes"/>
  </node>
  <node id="-1080" lat="52.28738006423429" lon="-3.0203891473186713">
    <tag k="addr:postcode" v="LD8 2UA"/>
    <tag k="removemelater" v="yes"/>
  </node>
  <node id="-1081" lat="52.29429433633952" lon="-3.0224102890290254">
    <tag k="addr:postcode" v="LD8 2UB"/>
    <tag k="removemelater" v="yes"/>
  </node>
  <node id="-1082" lat="52.270283386928675" lon="-3.0074223555232957">
    <tag k="addr:postcode" v="LD8 2UF"/>
    <tag k="removemelater" v="yes"/>
  </node>
  <node id="-1083" lat="52.27222587115031" lon="-3.006308603625654">
    <tag k="addr:postcode" v="LD8 2UG"/>
    <tag k="removemelater" v="yes"/>
  </node>
  <node id="-1084" lat="52.26897489001174" lon="-3.0058832557046657">
    <tag k="addr:postcode" v="LD8 2UH"/>
    <tag k="removemelater" v="yes"/>
  </node>
  <node id="-1085" lat="52.2416556673669" lon="-3.3784570058639583">
    <tag k="addr:postcode" v="LD8 2WF"/>
    <tag k="removemelater" v="yes"/>
  </node>
  <node id="-1086" lat="52.269865837619" lon="-3.001550909147595">
    <tag k="addr:postcode" v="LD8 2YT"/>
    <tag k="removemelater" v="yes"/>
  </node>
</osm>
