<?xml version="1.0" encoding="UTF-8"?><osm version="0.6" generator="import_postcodes.py" upload="false">
  <node id="-1" lat="51.879976870705285" lon="-0.42292639780529123">
    <tag k="addr:postcode" v="LU1 1AA"/>
    <tag k="removemelater" v="yes"/>
  </node>
  <node id="-2" lat="51.879976870705285" lon="-0.42292639780529123">
    <tag k="addr:postcode" v="LU1 1JG"/>
    <tag k="removemelater" v="yes"/>
  </node>
  <node id="-3" lat="51.87854285947079" lon="-0.4212622558793103">
    <tag k="addr:postcode" v="LU1 1SD"/>
    <tag k="removemelater" v="yes"/>
  </node>
  <node id="-4" lat="51.88253178558899" lon="-0.419001225975124">
    <tag k="addr:postcode" v="LU1 1SQ"/>
    <tag k="removemelater" v="yes"/>
  </node>
  <node id="-5" lat="51.879976870705285" lon="-0.42292639780529123">
    <tag k="addr:postcode" v="LU1 1WN"/>
    <tag k="removemelater" v="yes"/>
  </node>
  <node id="-6" lat="51.879976870705285" lon="-0.42292639780529123">
    <tag k="addr:postcode" v="LU1 1WP"/>
    <tag k="removemelater" v="yes"/>
  </node>
  <node id="-7" lat="51.87802633073847" lon="-0.4142778701567411">
    <tag k="addr:postcode" v="LU1 2AA"/>
    <tag k="removemelater" v="yes"/>
  </node>
  <node id="-8" lat="51.87934067418856" lon="-0.4163963582600243">
    <tag k="addr:postcode" v="LU1 2AB"/>
    <tag k="removemelater" v="yes"/>
  </node>
  <node id="-9" lat="51.879976870705285" lon="-0.42292639780529123">
    <tag k="addr:postcode" v="LU1 2AG"/>
    <tag k="removemelater" v="yes"/>
  </node>
  <node id="-10" lat="51.878476702105864" lon="-0.41567125219564216">
    <tag k="addr:postcode" v="LU1 2AQ"/>
    <tag k="removemelater" v="yes"/>
  </node>
  <node id="-11" lat="51.879976870705285" lon="-0.42292639780529123">
    <tag k="addr:postcode" v="LU1 2AW"/>
    <tag k="removemelater" v="yes"/>
  </node>
  <node id="-12" lat="51.87873537294719" lon="-0.4148485806831074">
    <tag k="addr:postcode" v="LU1 2AX"/>
    <tag k="removemelater" v="yes"/>
  </node>
  <node id="-13" lat="51.878853588021755" lon="-0.41561441946960037">
    <tag k="addr:postcode" v="LU1 2AZ"/>
    <tag k="removemelater" v="yes"/>
  </node>
  <node id="-14" lat="51.879976870705285" lon="-0.42292639780529123">
    <tag k="addr:postcode" v="LU1 2BB"/>
    <tag k="removemelater" v="yes"/>
  </node>
  <node id="-15" lat="51.879733778201114" lon="-0.4168765155418101">
    <tag k="addr:postcode" v="LU1 2BD"/>
    <tag k="removemelater" v="yes"/>
  </node>
  <node id="-16" lat="51.879976870705285" lon="-0.42292639780529123">
    <tag k="addr:postcode" v="LU1 2BE"/>
    <tag k="removemelater" v="yes"/>
  </node>
  <node id="-17" lat="51.878996582292835" lon="-0.41421467794449884">
    <tag k="addr:postcode" v="LU1 2BG"/>
    <tag k="removemelater" v="yes"/>
  </node>
  <node id="-18" lat="51.87991743095168" lon="-0.4178289503791888">
    <tag k="addr:postcode" v="LU1 2BQ"/>
    <tag k="removemelater" v="yes"/>
  </node>
  <node id="-19" lat="51.879473335881734" lon="-0.41623188430800084">
    <tag k="addr:postcode" v="LU1 2BU"/>
    <tag k="removemelater" v="yes"/>
  </node>
  <node id="-20" lat="51.87687244628629" lon="-0.41606177525842586">
    <tag k="addr:postcode" v="LU1 2EH"/>
    <tag k="removemelater" v="yes"/>
  </node>
  <node id="-21" lat="51.88071730363417" lon="-0.4151275651801917">
    <tag k="addr:postcode" v="LU1 2EP"/>
    <tag k="removemelater" v="yes"/>
  </node>
  <node id="-22" lat="51.880862471753964" lon="-0.41522416237171117">
    <tag k="addr:postcode" v="LU1 2ER"/>
    <tag k="removemelater" v="yes"/>
  </node>
  <node id="-23" lat="51.87876742099699" lon="-0.4152251869203467">
    <tag k="addr:postcode" v="LU1 2HL"/>
    <tag k="removemelater" v="yes"/>
  </node>
  <node id="-24" lat="51.879453728020025" lon="-0.4127748074399715">
    <tag k="addr:postcode" v="LU1 2LJ"/>
    <tag k="removemelater" v="yes"/>
  </node>
  <node id="-25" lat="51.879264230207404" lon="-0.4133916723560254">
    <tag k="addr:postcode" v="LU1 2LL"/>
    <tag k="removemelater" v="yes"/>
  </node>
  <node id="-26" lat="51.87860618964215" lon="-0.4132695550310151">
    <tag k="addr:postcode" v="LU1 2LP"/>
    <tag k="removemelater" v="yes"/>
  </node>
  <node id="-27" lat="51.88123956541749" lon="-0.41718684632520836">
    <tag k="addr:postcode" v="LU1 2NF"/>
    <tag k="removemelater" v="yes"/>
  </node>
  <node id="-28" lat="51.880982242039735" lon="-0.4154378845667221">
    <tag k="addr:postcode" v="LU1 2NL"/>
    <tag k="removemelater" v="yes"/>
  </node>
  <node id="-29" lat="51.88161039511976" lon="-0.416679832296376">
    <tag k="addr:postcode" v="LU1 2NW"/>
    <tag k="removemelater" v="yes"/>
  </node>
  <node id="-30" lat="51.88079741310861" lon="-0.41840826989409613">
    <tag k="addr:postcode" v="LU1 2QG"/>
    <tag k="removemelater" v="yes"/>
  </node>
  <node id="-31" lat="51.88058269026287" lon="-0.41848844906092864">
    <tag k="addr:postcode" v="LU1 2QP"/>
    <tag k="removemelater" v="yes"/>
  </node>
  <node id="-32" lat="51.879107186805285" lon="-0.4184239972901194">
    <tag k="addr:postcode" v="LU1 2QR"/>
    <tag k="removemelater" v="yes"/>
  </node>
  <node id="-33" lat="51.8796348993519" lon="-0.4188849190876376">
    <tag k="addr:postcode" v="LU1 2QT"/>
    <tag k="removemelater" v="yes"/>
  </node>
  <node id="-34" lat="51.8796348993519" lon="-0.4188849190876376">
    <tag k="addr:postcode" v="LU1 2RB"/>
    <tag k="removemelater" v="yes"/>
  </node>
  <node id="-35" lat="51.879976870705285" lon="-0.42292639780529123">
    <tag k="addr:postcode" v="LU1 2SD"/>
    <tag k="removemelater" v="yes"/>
  </node>
  <node id="-36" lat="51.879690794694675" lon="-0.4170233103721442">
    <tag k="addr:postcode" v="LU1 2SQ"/>
    <tag k="removemelater" v="yes"/>
  </node>
  <node id="-37" lat="51.878758994533186" lon="-0.4139324730576875">
    <tag k="addr:postcode" v="LU1 2SZ"/>
    <tag k="removemelater" v="yes"/>
  </node>
  <node id="-38" lat="51.87959649219922" lon="-0.41136051738703766">
    <tag k="addr:postcode" v="LU1 2TA"/>
    <tag k="removemelater" v="yes"/>
  </node>
  <node id="-39" lat="51.87959649219922" lon="-0.41136051738703766">
    <tag k="addr:postcode" v="LU1 2TB"/>
    <tag k="removemelater" v="yes"/>
  </node>
  <node id="-40" lat="51.87948066505353" lon="-0.4121055505630959">
    <tag k="addr:postcode" v="LU1 2TD"/>
    <tag k="removemelater" v="yes"/>
  </node>
  <node id="-41" lat="51.87896899458275" lon="-0.4128354626163459">
    <tag k="addr:postcode" v="LU1 2TE"/>
    <tag k="removemelater" v="yes"/>
  </node>
  <node id="-42" lat="51.87935919496686" lon="-0.4137660677254165">
    <tag k="addr:postcode" v="LU1 2TF"/>
    <tag k="removemelater" v="yes"/>
  </node>
  <node id="-43" lat="51.879798433530915" lon="-0.41500006321555194">
    <tag k="addr:postcode" v="LU1 2TH"/>
    <tag k="removemelater" v="yes"/>
  </node>
  <node id="-44" lat="51.87955050159591" lon="-0.4152848230017484">
    <tag k="addr:postcode" v="LU1 2TJ"/>
    <tag k="removemelater" v="yes"/>
  </node>
  <node id="-45" lat="51.88013293716996" lon="-0.41647022124819144">
    <tag k="addr:postcode" v="LU1 2TL"/>
    <tag k="removemelater" v="yes"/>
  </node>
  <node id="-46" lat="51.880308581512644" lon="-0.4161589471891347">
    <tag k="addr:postcode" v="LU1 2TN"/>
    <tag k="removemelater" v="yes"/>
  </node>
  <node id="-47" lat="51.87959649219922" lon="-0.41136051738703766">
    <tag k="addr:postcode" v="LU1 2TP"/>
    <tag k="removemelater" v="yes"/>
  </node>
  <node id="-48" lat="51.879198023977914" lon="-0.4144836289689572">
    <tag k="addr:postcode" v="LU1 2TQ"/>
    <tag k="removemelater" v="yes"/>
  </node>
  <node id="-49" lat="51.87975173576754" lon="-0.41487094874507713">
    <tag k="addr:postcode" v="LU1 2TU"/>
    <tag k="removemelater" v="yes"/>
  </node>
  <node id="-50" lat="51.879191133698136" lon="-0.4126387715468598">
    <tag k="addr:postcode" v="LU1 2TW"/>
    <tag k="removemelater" v="yes"/>
  </node>
  <node id="-51" lat="51.879216409484286" lon="-0.4158486471410086">
    <tag k="addr:postcode" v="LU1 2TY"/>
    <tag k="removemelater" v="yes"/>
  </node>
  <node id="-52" lat="51.879976870705285" lon="-0.42292639780529123">
    <tag k="addr:postcode" v="LU1 2WZ"/>
    <tag k="removemelater" v="yes"/>
  </node>
  <node id="-53" lat="51.879976870705285" lon="-0.42292639780529123">
    <tag k="addr:postcode" v="LU1 2YD"/>
    <tag k="removemelater" v="yes"/>
  </node>
  <node id="-54" lat="51.879976870705285" lon="-0.42292639780529123">
    <tag k="addr:postcode" v="LU1 2YF"/>
    <tag k="removemelater" v="yes"/>
  </node>
  <node id="-55" lat="51.878311995086534" lon="-0.4154591208978683">
    <tag k="addr:postcode" v="LU1 2YN"/>
    <tag k="removemelater" v="yes"/>
  </node>
  <node id="-56" lat="51.879976870705285" lon="-0.42292639780529123">
    <tag k="addr:postcode" v="LU1 2YW"/>
    <tag k="removemelater" v="yes"/>
  </node>
  <node id="-57" lat="51.87984358007658" lon="-0.41634963084611826">
    <tag k="addr:postcode" v="LU1 2ZS"/>
    <tag k="removemelater" v="yes"/>
  </node>
  <node id="-58" lat="51.87764280620264" lon="-0.41450928055124237">
    <tag k="addr:postcode" v="LU1 3AA"/>
    <tag k="removemelater" v="yes"/>
  </node>
  <node id="-59" lat="51.876685319264254" lon="-0.41085296510383623">
    <tag k="addr:postcode" v="LU1 3BW"/>
    <tag k="removemelater" v="yes"/>
  </node>
  <node id="-60" lat="51.87493525814797" lon="-0.4157666703933751">
    <tag k="addr:postcode" v="LU1 3DD"/>
    <tag k="removemelater" v="yes"/>
  </node>
  <node id="-61" lat="51.873574768860955" lon="-0.4088998508303583">
    <tag k="addr:postcode" v="LU1 3DS"/>
    <tag k="removemelater" v="yes"/>
  </node>
  <node id="-62" lat="51.874168873927836" lon="-0.40828328543882736">
    <tag k="addr:postcode" v="LU1 3DU"/>
    <tag k="removemelater" v="yes"/>
  </node>
  <node id="-63" lat="51.87407751838132" lon="-0.4095067542647549">
    <tag k="addr:postcode" v="LU1 3DX"/>
    <tag k="removemelater" v="yes"/>
  </node>
  <node id="-64" lat="51.87758549395238" lon="-0.4122594832888197">
    <tag k="addr:postcode" v="LU1 3FL"/>
    <tag k="removemelater" v="yes"/>
  </node>
  <node id="-65" lat="51.87650034612578" lon="-0.4084769790782777">
    <tag k="addr:postcode" v="LU1 3FT"/>
    <tag k="removemelater" v="yes"/>
  </node>
  <node id="-66" lat="51.87725983715875" lon="-0.41344770019955834">
    <tag k="addr:postcode" v="LU1 3GB"/>
    <tag k="removemelater" v="yes"/>
  </node>
  <node id="-67" lat="51.876963461190826" lon="-0.4094775615317102">
    <tag k="addr:postcode" v="LU1 3GZ"/>
    <tag k="removemelater" v="yes"/>
  </node>
  <node id="-68" lat="51.87079004124206" lon="-0.4044516021359409">
    <tag k="addr:postcode" v="LU1 3PB"/>
    <tag k="removemelater" v="yes"/>
  </node>
  <node id="-69" lat="51.86693062345976" lon="-0.4109498603941097">
    <tag k="addr:postcode" v="LU1 3PE"/>
    <tag k="removemelater" v="yes"/>
  </node>
  <node id="-70" lat="51.879976870705285" lon="-0.42292639780529123">
    <tag k="addr:postcode" v="LU1 3TR"/>
    <tag k="removemelater" v="yes"/>
  </node>
  <node id="-71" lat="51.879976870705285" lon="-0.42292639780529123">
    <tag k="addr:postcode" v="LU1 3US"/>
    <tag k="removemelater" v="yes"/>
  </node>
  <node id="-72" lat="51.87501201647418" lon="-0.4141224223297874">
    <tag k="addr:postcode" v="LU1 3XG"/>
    <tag k="removemelater" v="yes"/>
  </node>
  <node id="-73" lat="51.879976870705285" lon="-0.42292639780529123">
    <tag k="addr:postcode" v="LU1 3XN"/>
    <tag k="removemelater" v="yes"/>
  </node>
  <node id="-74" lat="51.879976870705285" lon="-0.42292639780529123">
    <tag k="addr:postcode" v="LU1 3YN"/>
    <tag k="removemelater" v="yes"/>
  </node>
  <node id="-75" lat="51.879976870705285" lon="-0.42292639780529123">
    <tag k="addr:postcode" v="LU1 3YQ"/>
    <tag k="removemelater" v="yes"/>
  </node>
  <node id="-76" lat="51.879976870705285" lon="-0.42292639780529123">
    <tag k="addr:postcode" v="LU1 3YX"/>
    <tag k="removemelater" v="yes"/>
  </node>
  <node id="-77" lat="51.853487717416996" lon="-0.4350765717193723">
    <tag k="addr:postcode" v="LU1 4BU"/>
    <tag k="removemelater" v="yes"/>
  </node>
  <node id="-78" lat="51.85487748299871" lon="-0.43613191638951976">
    <tag k="addr:postcode" v="LU1 4BZ"/>
    <tag k="removemelater" v="yes"/>
  </node>
  <node id="-79" lat="51.879976870705285" lon="-0.42292639780529123">
    <tag k="addr:postcode" v="LU1 4QQ"/>
    <tag k="removemelater" v="yes"/>
  </node>
  <node id="-80" lat="51.876245036330516" lon="-0.42022412754556315">
    <tag k="addr:postcode" v="LU1 5BP"/>
    <tag k="removemelater" v="yes"/>
  </node>
  <node id="-81" lat="51.87922101058575" lon="-0.42154359707687067">
    <tag k="addr:postcode" v="LU1 5FW"/>
    <tag k="removemelater" v="yes"/>
  </node>
  <node id="-82" lat="51.879976870705285" lon="-0.42292639780529123">
    <tag k="addr:postcode" v="LU1 5TJ"/>
    <tag k="removemelater" v="yes"/>
  </node>
  <node id="-83" lat="51.879976870705285" lon="-0.42292639780529123">
    <tag k="addr:postcode" v="LU1 5ZF"/>
    <tag k="removemelater" v="yes"/>
  </node>
  <node id="-84" lat="51.879976870705285" lon="-0.42292639780529123">
    <tag k="addr:postcode" v="LU1 9AB"/>
    <tag k="removemelater" v="yes"/>
  </node>
  <node id="-85" lat="51.879976870705285" lon="-0.42292639780529123">
    <tag k="addr:postcode" v="LU1 9DT"/>
    <tag k="removemelater" v="yes"/>
  </node>
  <node id="-86" lat="51.879976870705285" lon="-0.42292639780529123">
    <tag k="addr:postcode" v="LU1 9ET"/>
    <tag k="removemelater" v="yes"/>
  </node>
  <node id="-87" lat="51.879976870705285" lon="-0.42292639780529123">
    <tag k="addr:postcode" v="LU1 9GF"/>
    <tag k="removemelater" v="yes"/>
  </node>
  <node id="-88" lat="51.879976870705285" lon="-0.42292639780529123">
    <tag k="addr:postcode" v="LU1 9GY"/>
    <tag k="removemelater" v="yes"/>
  </node>
  <node id="-89" lat="51.879976870705285" lon="-0.42292639780529123">
    <tag k="addr:postcode" v="LU1 9JD"/>
    <tag k="removemelater" v="yes"/>
  </node>
  <node id="-90" lat="51.879976870705285" lon="-0.42292639780529123">
    <tag k="addr:postcode" v="LU1 9JE"/>
    <tag k="removemelater" v="yes"/>
  </node>
  <node id="-91" lat="51.879976870705285" lon="-0.42292639780529123">
    <tag k="addr:postcode" v="LU1 9JW"/>
    <tag k="removemelater" v="yes"/>
  </node>
  <node id="-92" lat="51.879976870705285" lon="-0.42292639780529123">
    <tag k="addr:postcode" v="LU1 9JZ"/>
    <tag k="removemelater" v="yes"/>
  </node>
  <node id="-93" lat="51.879976870705285" lon="-0.42292639780529123">
    <tag k="addr:postcode" v="LU1 9LD"/>
    <tag k="removemelater" v="yes"/>
  </node>
  <node id="-94" lat="51.879976870705285" lon="-0.42292639780529123">
    <tag k="addr:postcode" v="LU1 9LF"/>
    <tag k="removemelater" v="yes"/>
  </node>
  <node id="-95" lat="51.879976870705285" lon="-0.42292639780529123">
    <tag k="addr:postcode" v="LU1 9LS"/>
    <tag k="removemelater" v="yes"/>
  </node>
  <node id="-96" lat="51.879976870705285" lon="-0.42292639780529123">
    <tag k="addr:postcode" v="LU1 9LZ"/>
    <tag k="removemelater" v="yes"/>
  </node>
  <node id="-97" lat="51.879976870705285" lon="-0.42292639780529123">
    <tag k="addr:postcode" v="LU1 9NB"/>
    <tag k="removemelater" v="yes"/>
  </node>
  <node id="-98" lat="51.879976870705285" lon="-0.42292639780529123">
    <tag k="addr:postcode" v="LU1 9ND"/>
    <tag k="removemelater" v="yes"/>
  </node>
  <node id="-99" lat="51.879976870705285" lon="-0.42292639780529123">
    <tag k="addr:postcode" v="LU1 9NE"/>
    <tag k="removemelater" v="yes"/>
  </node>
  <node id="-100" lat="51.879976870705285" lon="-0.42292639780529123">
    <tag k="addr:postcode" v="LU1 9NQ"/>
    <tag k="removemelater" v="yes"/>
  </node>
  <node id="-101" lat="51.879976870705285" lon="-0.42292639780529123">
    <tag k="addr:postcode" v="LU1 9NW"/>
    <tag k="removemelater" v="yes"/>
  </node>
  <node id="-102" lat="51.879976870705285" lon="-0.42292639780529123">
    <tag k="addr:postcode" v="LU1 9PB"/>
    <tag k="removemelater" v="yes"/>
  </node>
  <node id="-103" lat="51.879976870705285" lon="-0.42292639780529123">
    <tag k="addr:postcode" v="LU1 9PP"/>
    <tag k="removemelater" v="yes"/>
  </node>
  <node id="-104" lat="51.879976870705285" lon="-0.42292639780529123">
    <tag k="addr:postcode" v="LU1 9PQ"/>
    <tag k="removemelater" v="yes"/>
  </node>
  <node id="-105" lat="51.879976870705285" lon="-0.42292639780529123">
    <tag k="addr:postcode" v="LU1 9PR"/>
    <tag k="removemelater" v="yes"/>
  </node>
  <node id="-106" lat="51.879976870705285" lon="-0.42292639780529123">
    <tag k="addr:postcode" v="LU1 9PS"/>
    <tag k="removemelater" v="yes"/>
  </node>
  <node id="-107" lat="51.879976870705285" lon="-0.42292639780529123">
    <tag k="addr:postcode" v="LU1 9PX"/>
    <tag k="removemelater" v="yes"/>
  </node>
  <node id="-108" lat="51.879976870705285" lon="-0.42292639780529123">
    <tag k="addr:postcode" v="LU1 9PZ"/>
    <tag k="removemelater" v="yes"/>
  </node>
  <node id="-109" lat="51.879976870705285" lon="-0.42292639780529123">
    <tag k="addr:postcode" v="LU1 9QD"/>
    <tag k="removemelater" v="yes"/>
  </node>
  <node id="-110" lat="51.879976870705285" lon="-0.42292639780529123">
    <tag k="addr:postcode" v="LU1 9QR"/>
    <tag k="removemelater" v="yes"/>
  </node>
  <node id="-111" lat="51.879976870705285" lon="-0.42292639780529123">
    <tag k="addr:postcode" v="LU1 9QZ"/>
    <tag k="removemelater" v="yes"/>
  </node>
  <node id="-112" lat="51.879976870705285" lon="-0.42292639780529123">
    <tag k="addr:postcode" v="LU1 9RB"/>
    <tag k="removemelater" v="yes"/>
  </node>
  <node id="-113" lat="51.879976870705285" lon="-0.42292639780529123">
    <tag k="addr:postcode" v="LU1 9RG"/>
    <tag k="removemelater" v="yes"/>
  </node>
  <node id="-114" lat="51.879976870705285" lon="-0.42292639780529123">
    <tag k="addr:postcode" v="LU1 9RH"/>
    <tag k="removemelater" v="yes"/>
  </node>
  <node id="-115" lat="51.879976870705285" lon="-0.42292639780529123">
    <tag k="addr:postcode" v="LU1 9RJ"/>
    <tag k="removemelater" v="yes"/>
  </node>
  <node id="-116" lat="51.879976870705285" lon="-0.42292639780529123">
    <tag k="addr:postcode" v="LU1 9RL"/>
    <tag k="removemelater" v="yes"/>
  </node>
  <node id="-117" lat="51.879976870705285" lon="-0.42292639780529123">
    <tag k="addr:postcode" v="LU1 9RN"/>
    <tag k="removemelater" v="yes"/>
  </node>
  <node id="-118" lat="51.879976870705285" lon="-0.42292639780529123">
    <tag k="addr:postcode" v="LU1 9RP"/>
    <tag k="removemelater" v="yes"/>
  </node>
  <node id="-119" lat="51.879976870705285" lon="-0.42292639780529123">
    <tag k="addr:postcode" v="LU1 9RQ"/>
    <tag k="removemelater" v="yes"/>
  </node>
  <node id="-120" lat="51.879976870705285" lon="-0.42292639780529123">
    <tag k="addr:postcode" v="LU1 9RR"/>
    <tag k="removemelater" v="yes"/>
  </node>
  <node id="-121" lat="51.87983341355709" lon="-0.41826775612724876">
    <tag k="addr:postcode" v="LU1 9SA"/>
    <tag k="removemelater" v="yes"/>
  </node>
  <node id="-122" lat="51.879976870705285" lon="-0.42292639780529123">
    <tag k="addr:postcode" v="LU1 9WW"/>
    <tag k="removemelater" v="yes"/>
  </node>
  <node id="-123" lat="51.879976870705285" lon="-0.42292639780529123">
    <tag k="addr:postcode" v="LU1 9XW"/>
    <tag k="removemelater" v="yes"/>
  </node>
  <node id="-124" lat="51.884279582260874" lon="-0.41257577408857465">
    <tag k="addr:postcode" v="LU2 0BW"/>
    <tag k="removemelater" v="yes"/>
  </node>
  <node id="-125" lat="51.879976870705285" lon="-0.42292639780529123">
    <tag k="addr:postcode" v="LU2 0FA"/>
    <tag k="removemelater" v="yes"/>
  </node>
  <node id="-126" lat="51.87363258459486" lon="-0.39594010870832697">
    <tag k="addr:postcode" v="LU2 0FP"/>
    <tag k="removemelater" v="yes"/>
  </node>
  <node id="-127" lat="51.882843184372994" lon="-0.41341096624971807">
    <tag k="addr:postcode" v="LU2 0HS"/>
    <tag k="removemelater" v="yes"/>
  </node>
  <node id="-128" lat="51.873543330178485" lon="-0.3940112528152207">
    <tag k="addr:postcode" v="LU2 0LA"/>
    <tag k="removemelater" v="yes"/>
  </node>
  <node id="-129" lat="51.879976870705285" lon="-0.42292639780529123">
    <tag k="addr:postcode" v="LU2 0WU"/>
    <tag k="removemelater" v="yes"/>
  </node>
  <node id="-130" lat="51.88393617928106" lon="-0.41845793939446163">
    <tag k="addr:postcode" v="LU2 7NR"/>
    <tag k="removemelater" v="yes"/>
  </node>
  <node id="-131" lat="51.88653785549622" lon="-0.41668106202803334">
    <tag k="addr:postcode" v="LU2 7QZ"/>
    <tag k="removemelater" v="yes"/>
  </node>
  <node id="-132" lat="51.879976870705285" lon="-0.42292639780529123">
    <tag k="addr:postcode" v="LU2 8WZ"/>
    <tag k="removemelater" v="yes"/>
  </node>
  <node id="-133" lat="51.88785174542443" lon="-0.37000435833426737">
    <tag k="addr:postcode" v="LU2 9JA"/>
    <tag k="removemelater" v="yes"/>
  </node>
  <node id="-134" lat="51.879813033279774" lon="-0.37715261224934366">
    <tag k="addr:postcode" v="LU2 9LU"/>
    <tag k="removemelater" v="yes"/>
  </node>
  <node id="-135" lat="51.88037101796243" lon="-0.3765368398183927">
    <tag k="addr:postcode" v="LU2 9NJ"/>
    <tag k="removemelater" v="yes"/>
  </node>
  <node id="-136" lat="51.879976870705285" lon="-0.42292639780529123">
    <tag k="addr:postcode" v="LU2 9XT"/>
    <tag k="removemelater" v="yes"/>
  </node>
  <node id="-137" lat="51.879976870705285" lon="-0.42292639780529123">
    <tag k="addr:postcode" v="LU2 9XY"/>
    <tag k="removemelater" v="yes"/>
  </node>
  <node id="-138" lat="51.879976870705285" lon="-0.42292639780529123">
    <tag k="addr:postcode" v="LU2 9YE"/>
    <tag k="removemelater" v="yes"/>
  </node>
  <node id="-139" lat="51.879976870705285" lon="-0.42292639780529123">
    <tag k="addr:postcode" v="LU2 9YH"/>
    <tag k="removemelater" v="yes"/>
  </node>
  <node id="-140" lat="51.879976870705285" lon="-0.42292639780529123">
    <tag k="addr:postcode" v="LU3 1SQ"/>
    <tag k="removemelater" v="yes"/>
  </node>
  <node id="-141" lat="51.879976870705285" lon="-0.42292639780529123">
    <tag k="addr:postcode" v="LU3 1WP"/>
    <tag k="removemelater" v="yes"/>
  </node>
  <node id="-142" lat="51.879976870705285" lon="-0.42292639780529123">
    <tag k="addr:postcode" v="LU3 1XX"/>
    <tag k="removemelater" v="yes"/>
  </node>
  <node id="-143" lat="51.879976870705285" lon="-0.42292639780529123">
    <tag k="addr:postcode" v="LU3 1YX"/>
    <tag k="removemelater" v="yes"/>
  </node>
  <node id="-144" lat="51.91335792857478" lon="-0.430626206055283">
    <tag k="addr:postcode" v="LU3 2DQ"/>
    <tag k="removemelater" v="yes"/>
  </node>
  <node id="-145" lat="51.879976870705285" lon="-0.42292639780529123">
    <tag k="addr:postcode" v="LU3 2XR"/>
    <tag k="removemelater" v="yes"/>
  </node>
  <node id="-146" lat="51.879976870705285" lon="-0.42292639780529123">
    <tag k="addr:postcode" v="LU3 2YE"/>
    <tag k="removemelater" v="yes"/>
  </node>
  <node id="-147" lat="51.879976870705285" lon="-0.42292639780529123">
    <tag k="addr:postcode" v="LU3 2YT"/>
    <tag k="removemelater" v="yes"/>
  </node>
  <node id="-148" lat="51.918208793534966" lon="-0.4526900980026068">
    <tag k="addr:postcode" v="LU3 3FH"/>
    <tag k="removemelater" v="yes"/>
  </node>
  <node id="-149" lat="51.91182038828966" lon="-0.4578383356260341">
    <tag k="addr:postcode" v="LU3 3LJ"/>
    <tag k="removemelater" v="yes"/>
  </node>
  <node id="-150" lat="51.913371390844176" lon="-0.4581777634774875">
    <tag k="addr:postcode" v="LU3 3LL"/>
    <tag k="removemelater" v="yes"/>
  </node>
  <node id="-151" lat="51.91264952954805" lon="-0.4579844008236969">
    <tag k="addr:postcode" v="LU3 3LP"/>
    <tag k="removemelater" v="yes"/>
  </node>
  <node id="-152" lat="51.91859445387525" lon="-0.4546689566452605">
    <tag k="addr:postcode" v="LU3 3QB"/>
    <tag k="removemelater" v="yes"/>
  </node>
  <node id="-153" lat="51.879976870705285" lon="-0.42292639780529123">
    <tag k="addr:postcode" v="LU3 3WD"/>
    <tag k="removemelater" v="yes"/>
  </node>
  <node id="-154" lat="51.879976870705285" lon="-0.42292639780529123">
    <tag k="addr:postcode" v="LU3 9AD"/>
    <tag k="removemelater" v="yes"/>
  </node>
  <node id="-155" lat="51.879976870705285" lon="-0.42292639780529123">
    <tag k="addr:postcode" v="LU3 9BB"/>
    <tag k="removemelater" v="yes"/>
  </node>
  <node id="-156" lat="51.879976870705285" lon="-0.42292639780529123">
    <tag k="addr:postcode" v="LU3 9BJ"/>
    <tag k="removemelater" v="yes"/>
  </node>
  <node id="-157" lat="51.879976870705285" lon="-0.42292639780529123">
    <tag k="addr:postcode" v="LU3 9BQ"/>
    <tag k="removemelater" v="yes"/>
  </node>
  <node id="-158" lat="51.879976870705285" lon="-0.42292639780529123">
    <tag k="addr:postcode" v="LU3 9BY"/>
    <tag k="removemelater" v="yes"/>
  </node>
  <node id="-159" lat="51.879976870705285" lon="-0.42292639780529123">
    <tag k="addr:postcode" v="LU3 9BZ"/>
    <tag k="removemelater" v="yes"/>
  </node>
  <node id="-160" lat="51.879976870705285" lon="-0.42292639780529123">
    <tag k="addr:postcode" v="LU3 9DS"/>
    <tag k="removemelater" v="yes"/>
  </node>
  <node id="-161" lat="51.879976870705285" lon="-0.42292639780529123">
    <tag k="addr:postcode" v="LU3 9DW"/>
    <tag k="removemelater" v="yes"/>
  </node>
  <node id="-162" lat="51.879976870705285" lon="-0.42292639780529123">
    <tag k="addr:postcode" v="LU3 9DX"/>
    <tag k="removemelater" v="yes"/>
  </node>
  <node id="-163" lat="51.879976870705285" lon="-0.42292639780529123">
    <tag k="addr:postcode" v="LU3 9EG"/>
    <tag k="removemelater" v="yes"/>
  </node>
  <node id="-164" lat="51.879976870705285" lon="-0.42292639780529123">
    <tag k="addr:postcode" v="LU3 9EH"/>
    <tag k="removemelater" v="yes"/>
  </node>
  <node id="-165" lat="51.879976870705285" lon="-0.42292639780529123">
    <tag k="addr:postcode" v="LU3 9EL"/>
    <tag k="removemelater" v="yes"/>
  </node>
  <node id="-166" lat="51.879976870705285" lon="-0.42292639780529123">
    <tag k="addr:postcode" v="LU3 9EN"/>
    <tag k="removemelater" v="yes"/>
  </node>
  <node id="-167" lat="51.879976870705285" lon="-0.42292639780529123">
    <tag k="addr:postcode" v="LU3 9ER"/>
    <tag k="removemelater" v="yes"/>
  </node>
  <node id="-168" lat="51.879976870705285" lon="-0.42292639780529123">
    <tag k="addr:postcode" v="LU3 9EX"/>
    <tag k="removemelater" v="yes"/>
  </node>
  <node id="-169" lat="51.879976870705285" lon="-0.42292639780529123">
    <tag k="addr:postcode" v="LU3 9EZ"/>
    <tag k="removemelater" v="yes"/>
  </node>
  <node id="-170" lat="51.879976870705285" lon="-0.42292639780529123">
    <tag k="addr:postcode" v="LU3 9FB"/>
    <tag k="removemelater" v="yes"/>
  </node>
  <node id="-171" lat="51.879976870705285" lon="-0.42292639780529123">
    <tag k="addr:postcode" v="LU3 9FG"/>
    <tag k="removemelater" v="yes"/>
  </node>
  <node id="-172" lat="51.879976870705285" lon="-0.42292639780529123">
    <tag k="addr:postcode" v="LU3 9FL"/>
    <tag k="removemelater" v="yes"/>
  </node>
  <node id="-173" lat="51.879976870705285" lon="-0.42292639780529123">
    <tag k="addr:postcode" v="LU3 9FS"/>
    <tag k="removemelater" v="yes"/>
  </node>
  <node id="-174" lat="51.879976870705285" lon="-0.42292639780529123">
    <tag k="addr:postcode" v="LU3 9FT"/>
    <tag k="removemelater" v="yes"/>
  </node>
  <node id="-175" lat="51.879976870705285" lon="-0.42292639780529123">
    <tag k="addr:postcode" v="LU3 9FU"/>
    <tag k="removemelater" v="yes"/>
  </node>
  <node id="-176" lat="51.879976870705285" lon="-0.42292639780529123">
    <tag k="addr:postcode" v="LU3 9FW"/>
    <tag k="removemelater" v="yes"/>
  </node>
  <node id="-177" lat="51.879976870705285" lon="-0.42292639780529123">
    <tag k="addr:postcode" v="LU3 9FX"/>
    <tag k="removemelater" v="yes"/>
  </node>
  <node id="-178" lat="51.896861947597" lon="-0.4914152554518626">
    <tag k="addr:postcode" v="LU4 0NE"/>
    <tag k="removemelater" v="yes"/>
  </node>
  <node id="-179" lat="51.879976870705285" lon="-0.42292639780529123">
    <tag k="addr:postcode" v="LU4 0YE"/>
    <tag k="removemelater" v="yes"/>
  </node>
  <node id="-180" lat="51.88401431201507" lon="-0.43236029337443205">
    <tag k="addr:postcode" v="LU4 8AW"/>
    <tag k="removemelater" v="yes"/>
  </node>
  <node id="-181" lat="51.886172524327726" lon="-0.4303526447263871">
    <tag k="addr:postcode" v="LU4 8BN"/>
    <tag k="removemelater" v="yes"/>
  </node>
  <node id="-182" lat="51.879976870705285" lon="-0.42292639780529123">
    <tag k="addr:postcode" v="LU4 8YR"/>
    <tag k="removemelater" v="yes"/>
  </node>
  <node id="-183" lat="51.90525808336391" lon="-0.45864455773759955">
    <tag k="addr:postcode" v="LU4 9BA"/>
    <tag k="removemelater" v="yes"/>
  </node>
  <node id="-184" lat="51.879976870705285" lon="-0.42292639780529123">
    <tag k="addr:postcode" v="LU4 9DE"/>
    <tag k="removemelater" v="yes"/>
  </node>
  <node id="-185" lat="51.879976870705285" lon="-0.42292639780529123">
    <tag k="addr:postcode" v="LU4 9PR"/>
    <tag k="removemelater" v="yes"/>
  </node>
  <node id="-186" lat="51.879976870705285" lon="-0.42292639780529123">
    <tag k="addr:postcode" v="LU4 9WE"/>
    <tag k="removemelater" v="yes"/>
  </node>
  <node id="-187" lat="51.879976870705285" lon="-0.42292639780529123">
    <tag k="addr:postcode" v="LU4 9WS"/>
    <tag k="removemelater" v="yes"/>
  </node>
  <node id="-188" lat="51.879976870705285" lon="-0.42292639780529123">
    <tag k="addr:postcode" v="LU4 9WZ"/>
    <tag k="removemelater" v="yes"/>
  </node>
  <node id="-189" lat="51.879976870705285" lon="-0.42292639780529123">
    <tag k="addr:postcode" v="LU4 9XF"/>
    <tag k="removemelater" v="yes"/>
  </node>
  <node id="-190" lat="51.879976870705285" lon="-0.42292639780529123">
    <tag k="addr:postcode" v="LU4 9ZP"/>
    <tag k="removemelater" v="yes"/>
  </node>
  <node id="-191" lat="51.88775297471561" lon="-0.5239934975307308">
    <tag k="addr:postcode" v="LU5 4SA"/>
    <tag k="removemelater" v="yes"/>
  </node>
  <node id="-192" lat="51.887648626928836" lon="-0.5107156677191016">
    <tag k="addr:postcode" v="LU5 4UR"/>
    <tag k="removemelater" v="yes"/>
  </node>
  <node id="-193" lat="51.89060401832055" lon="-0.5140474990146018">
    <tag k="addr:postcode" v="LU5 4XZ"/>
    <tag k="removemelater" v="yes"/>
  </node>
  <node id="-194" lat="51.903447355105854" lon="-0.5221709210505793">
    <tag k="addr:postcode" v="LU5 5QH"/>
    <tag k="removemelater" v="yes"/>
  </node>
  <node id="-195" lat="51.88775297471561" lon="-0.5239934975307308">
    <tag k="addr:postcode" v="LU5 5YB"/>
    <tag k="removemelater" v="yes"/>
  </node>
  <node id="-196" lat="51.88775297471561" lon="-0.5239934975307308">
    <tag k="addr:postcode" v="LU6 1JH"/>
    <tag k="removemelater" v="yes"/>
  </node>
  <node id="-197" lat="51.88539095767841" lon="-0.5263666310292537">
    <tag k="addr:postcode" v="LU6 1NY"/>
    <tag k="removemelater" v="yes"/>
  </node>
  <node id="-198" lat="51.88775297471561" lon="-0.5239934975307308">
    <tag k="addr:postcode" v="LU6 2AB"/>
    <tag k="removemelater" v="yes"/>
  </node>
  <node id="-199" lat="51.88775297471561" lon="-0.5239934975307308">
    <tag k="addr:postcode" v="LU6 2FF"/>
    <tag k="removemelater" v="yes"/>
  </node>
  <node id="-200" lat="51.867937603307716" lon="-0.5886516434864094">
    <tag k="addr:postcode" v="LU6 2HT"/>
    <tag k="removemelater" v="yes"/>
  </node>
  <node id="-201" lat="51.836549159472476" lon="-0.5214010411754579">
    <tag k="addr:postcode" v="LU6 2QL"/>
    <tag k="removemelater" v="yes"/>
  </node>
  <node id="-202" lat="51.88775297471561" lon="-0.5239934975307308">
    <tag k="addr:postcode" v="LU6 2QR"/>
    <tag k="removemelater" v="yes"/>
  </node>
  <node id="-203" lat="51.88775297471561" lon="-0.5239934975307308">
    <tag k="addr:postcode" v="LU6 2ZT"/>
    <tag k="removemelater" v="yes"/>
  </node>
  <node id="-204" lat="51.88775297471561" lon="-0.5239934975307308">
    <tag k="addr:postcode" v="LU6 2ZZ"/>
    <tag k="removemelater" v="yes"/>
  </node>
  <node id="-205" lat="51.88368358328097" lon="-0.5250130895374662">
    <tag k="addr:postcode" v="LU6 3AG"/>
    <tag k="removemelater" v="yes"/>
  </node>
  <node id="-206" lat="51.88775297471561" lon="-0.5239934975307308">
    <tag k="addr:postcode" v="LU6 3QJ"/>
    <tag k="removemelater" v="yes"/>
  </node>
  <node id="-207" lat="51.885396536576984" lon="-0.5210774669384958">
    <tag k="addr:postcode" v="LU6 3SN"/>
    <tag k="removemelater" v="yes"/>
  </node>
  <node id="-208" lat="51.88775297471561" lon="-0.5239934975307308">
    <tag k="addr:postcode" v="LU6 3TP"/>
    <tag k="removemelater" v="yes"/>
  </node>
  <node id="-209" lat="51.88775297471561" lon="-0.5239934975307308">
    <tag k="addr:postcode" v="LU6 9AG"/>
    <tag k="removemelater" v="yes"/>
  </node>
  <node id="-210" lat="51.88775297471561" lon="-0.5239934975307308">
    <tag k="addr:postcode" v="LU6 9AH"/>
    <tag k="removemelater" v="yes"/>
  </node>
  <node id="-211" lat="51.88775297471561" lon="-0.5239934975307308">
    <tag k="addr:postcode" v="LU6 9BS"/>
    <tag k="removemelater" v="yes"/>
  </node>
  <node id="-212" lat="51.88775297471561" lon="-0.5239934975307308">
    <tag k="addr:postcode" v="LU6 9BT"/>
    <tag k="removemelater" v="yes"/>
  </node>
  <node id="-213" lat="51.88775297471561" lon="-0.5239934975307308">
    <tag k="addr:postcode" v="LU6 9BW"/>
    <tag k="removemelater" v="yes"/>
  </node>
  <node id="-214" lat="51.88775297471561" lon="-0.5239934975307308">
    <tag k="addr:postcode" v="LU6 9BX"/>
    <tag k="removemelater" v="yes"/>
  </node>
  <node id="-215" lat="51.88775297471561" lon="-0.5239934975307308">
    <tag k="addr:postcode" v="LU6 9BY"/>
    <tag k="removemelater" v="yes"/>
  </node>
  <node id="-216" lat="51.88775297471561" lon="-0.5239934975307308">
    <tag k="addr:postcode" v="LU6 9BZ"/>
    <tag k="removemelater" v="yes"/>
  </node>
  <node id="-217" lat="51.88775297471561" lon="-0.5239934975307308">
    <tag k="addr:postcode" v="LU6 9DA"/>
    <tag k="removemelater" v="yes"/>
  </node>
  <node id="-218" lat="51.88775297471561" lon="-0.5239934975307308">
    <tag k="addr:postcode" v="LU6 9DE"/>
    <tag k="removemelater" v="yes"/>
  </node>
  <node id="-219" lat="51.88775297471561" lon="-0.5239934975307308">
    <tag k="addr:postcode" v="LU6 9DG"/>
    <tag k="removemelater" v="yes"/>
  </node>
  <node id="-220" lat="51.88775297471561" lon="-0.5239934975307308">
    <tag k="addr:postcode" v="LU6 9EF"/>
    <tag k="removemelater" v="yes"/>
  </node>
  <node id="-221" lat="51.88775297471561" lon="-0.5239934975307308">
    <tag k="addr:postcode" v="LU6 9EJ"/>
    <tag k="removemelater" v="yes"/>
  </node>
  <node id="-222" lat="51.88775297471561" lon="-0.5239934975307308">
    <tag k="addr:postcode" v="LU6 9ET"/>
    <tag k="removemelater" v="yes"/>
  </node>
  <node id="-223" lat="51.88775297471561" lon="-0.5239934975307308">
    <tag k="addr:postcode" v="LU6 9FQ"/>
    <tag k="removemelater" v="yes"/>
  </node>
  <node id="-224" lat="51.88775297471561" lon="-0.5239934975307308">
    <tag k="addr:postcode" v="LU6 9FT"/>
    <tag k="removemelater" v="yes"/>
  </node>
  <node id="-225" lat="51.88775297471561" lon="-0.5239934975307308">
    <tag k="addr:postcode" v="LU6 9GH"/>
    <tag k="removemelater" v="yes"/>
  </node>
  <node id="-226" lat="51.88775297471561" lon="-0.5239934975307308">
    <tag k="addr:postcode" v="LU6 9GJ"/>
    <tag k="removemelater" v="yes"/>
  </node>
  <node id="-227" lat="51.88775297471561" lon="-0.5239934975307308">
    <tag k="addr:postcode" v="LU6 9GL"/>
    <tag k="removemelater" v="yes"/>
  </node>
  <node id="-228" lat="51.88775297471561" lon="-0.5239934975307308">
    <tag k="addr:postcode" v="LU6 9GN"/>
    <tag k="removemelater" v="yes"/>
  </node>
  <node id="-229" lat="51.88775297471561" lon="-0.5239934975307308">
    <tag k="addr:postcode" v="LU6 9GP"/>
    <tag k="removemelater" v="yes"/>
  </node>
  <node id="-230" lat="51.88775297471561" lon="-0.5239934975307308">
    <tag k="addr:postcode" v="LU6 9GX"/>
    <tag k="removemelater" v="yes"/>
  </node>
  <node id="-231" lat="51.88775297471561" lon="-0.5239934975307308">
    <tag k="addr:postcode" v="LU6 9GY"/>
    <tag k="removemelater" v="yes"/>
  </node>
  <node id="-232" lat="51.88775297471561" lon="-0.5239934975307308">
    <tag k="addr:postcode" v="LU6 9GZ"/>
    <tag k="removemelater" v="yes"/>
  </node>
  <node id="-233" lat="51.88775297471561" lon="-0.5239934975307308">
    <tag k="addr:postcode" v="LU6 9HA"/>
    <tag k="removemelater" v="yes"/>
  </node>
  <node id="-234" lat="51.88775297471561" lon="-0.5239934975307308">
    <tag k="addr:postcode" v="LU6 9HG"/>
    <tag k="removemelater" v="yes"/>
  </node>
  <node id="-235" lat="51.88775297471561" lon="-0.5239934975307308">
    <tag k="addr:postcode" v="LU6 9HP"/>
    <tag k="removemelater" v="yes"/>
  </node>
  <node id="-236" lat="51.88775297471561" lon="-0.5239934975307308">
    <tag k="addr:postcode" v="LU6 9HR"/>
    <tag k="removemelater" v="yes"/>
  </node>
  <node id="-237" lat="51.88775297471561" lon="-0.5239934975307308">
    <tag k="addr:postcode" v="LU6 9HS"/>
    <tag k="removemelater" v="yes"/>
  </node>
  <node id="-238" lat="51.88775297471561" lon="-0.5239934975307308">
    <tag k="addr:postcode" v="LU6 9HU"/>
    <tag k="removemelater" v="yes"/>
  </node>
  <node id="-239" lat="51.88775297471561" lon="-0.5239934975307308">
    <tag k="addr:postcode" v="LU6 9JA"/>
    <tag k="removemelater" v="yes"/>
  </node>
  <node id="-240" lat="51.88775297471561" lon="-0.5239934975307308">
    <tag k="addr:postcode" v="LU6 9JH"/>
    <tag k="removemelater" v="yes"/>
  </node>
  <node id="-241" lat="51.88775297471561" lon="-0.5239934975307308">
    <tag k="addr:postcode" v="LU6 9JL"/>
    <tag k="removemelater" v="yes"/>
  </node>
  <node id="-242" lat="51.88775297471561" lon="-0.5239934975307308">
    <tag k="addr:postcode" v="LU6 9LA"/>
    <tag k="removemelater" v="yes"/>
  </node>
  <node id="-243" lat="51.88775297471561" lon="-0.5239934975307308">
    <tag k="addr:postcode" v="LU6 9LB"/>
    <tag k="removemelater" v="yes"/>
  </node>
  <node id="-244" lat="51.88775297471561" lon="-0.5239934975307308">
    <tag k="addr:postcode" v="LU6 9LY"/>
    <tag k="removemelater" v="yes"/>
  </node>
  <node id="-245" lat="51.88775297471561" lon="-0.5239934975307308">
    <tag k="addr:postcode" v="LU6 9NA"/>
    <tag k="removemelater" v="yes"/>
  </node>
  <node id="-246" lat="51.88775297471561" lon="-0.5239934975307308">
    <tag k="addr:postcode" v="LU6 9NB"/>
    <tag k="removemelater" v="yes"/>
  </node>
  <node id="-247" lat="51.88775297471561" lon="-0.5239934975307308">
    <tag k="addr:postcode" v="LU6 9NG"/>
    <tag k="removemelater" v="yes"/>
  </node>
  <node id="-248" lat="51.88775297471561" lon="-0.5239934975307308">
    <tag k="addr:postcode" v="LU6 9NH"/>
    <tag k="removemelater" v="yes"/>
  </node>
  <node id="-249" lat="51.88775297471561" lon="-0.5239934975307308">
    <tag k="addr:postcode" v="LU6 9NJ"/>
    <tag k="removemelater" v="yes"/>
  </node>
  <node id="-250" lat="51.88775297471561" lon="-0.5239934975307308">
    <tag k="addr:postcode" v="LU6 9NL"/>
    <tag k="removemelater" v="yes"/>
  </node>
  <node id="-251" lat="51.88775297471561" lon="-0.5239934975307308">
    <tag k="addr:postcode" v="LU6 9NN"/>
    <tag k="removemelater" v="yes"/>
  </node>
  <node id="-252" lat="51.88775297471561" lon="-0.5239934975307308">
    <tag k="addr:postcode" v="LU6 9NT"/>
    <tag k="removemelater" v="yes"/>
  </node>
  <node id="-253" lat="51.88775297471561" lon="-0.5239934975307308">
    <tag k="addr:postcode" v="LU6 9PT"/>
    <tag k="removemelater" v="yes"/>
  </node>
  <node id="-254" lat="51.88775297471561" lon="-0.5239934975307308">
    <tag k="addr:postcode" v="LU6 9PU"/>
    <tag k="removemelater" v="yes"/>
  </node>
  <node id="-255" lat="51.88775297471561" lon="-0.5239934975307308">
    <tag k="addr:postcode" v="LU6 9PW"/>
    <tag k="removemelater" v="yes"/>
  </node>
  <node id="-256" lat="51.88775297471561" lon="-0.5239934975307308">
    <tag k="addr:postcode" v="LU6 9QF"/>
    <tag k="removemelater" v="yes"/>
  </node>
  <node id="-257" lat="51.88775297471561" lon="-0.5239934975307308">
    <tag k="addr:postcode" v="LU6 9QG"/>
    <tag k="removemelater" v="yes"/>
  </node>
  <node id="-258" lat="51.88775297471561" lon="-0.5239934975307308">
    <tag k="addr:postcode" v="LU6 9QT"/>
    <tag k="removemelater" v="yes"/>
  </node>
  <node id="-259" lat="51.88775297471561" lon="-0.5239934975307308">
    <tag k="addr:postcode" v="LU6 9RL"/>
    <tag k="removemelater" v="yes"/>
  </node>
  <node id="-260" lat="51.88775297471561" lon="-0.5239934975307308">
    <tag k="addr:postcode" v="LU6 9RN"/>
    <tag k="removemelater" v="yes"/>
  </node>
  <node id="-261" lat="51.88775297471561" lon="-0.5239934975307308">
    <tag k="addr:postcode" v="LU6 9RP"/>
    <tag k="removemelater" v="yes"/>
  </node>
  <node id="-262" lat="51.88775297471561" lon="-0.5239934975307308">
    <tag k="addr:postcode" v="LU6 9RY"/>
    <tag k="removemelater" v="yes"/>
  </node>
  <node id="-263" lat="51.88775297471561" lon="-0.5239934975307308">
    <tag k="addr:postcode" v="LU6 9SN"/>
    <tag k="removemelater" v="yes"/>
  </node>
  <node id="-264" lat="51.88775297471561" lon="-0.5239934975307308">
    <tag k="addr:postcode" v="LU6 9TG"/>
    <tag k="removemelater" v="yes"/>
  </node>
  <node id="-265" lat="51.88775297471561" lon="-0.5239934975307308">
    <tag k="addr:postcode" v="LU6 9TH"/>
    <tag k="removemelater" v="yes"/>
  </node>
  <node id="-266" lat="51.88775297471561" lon="-0.5239934975307308">
    <tag k="addr:postcode" v="LU6 9TS"/>
    <tag k="removemelater" v="yes"/>
  </node>
  <node id="-267" lat="51.88775297471561" lon="-0.5239934975307308">
    <tag k="addr:postcode" v="LU6 9TT"/>
    <tag k="removemelater" v="yes"/>
  </node>
  <node id="-268" lat="51.88775297471561" lon="-0.5239934975307308">
    <tag k="addr:postcode" v="LU6 9TU"/>
    <tag k="removemelater" v="yes"/>
  </node>
  <node id="-269" lat="51.88775297471561" lon="-0.5239934975307308">
    <tag k="addr:postcode" v="LU6 9TW"/>
    <tag k="removemelater" v="yes"/>
  </node>
  <node id="-270" lat="51.88775297471561" lon="-0.5239934975307308">
    <tag k="addr:postcode" v="LU6 9TX"/>
    <tag k="removemelater" v="yes"/>
  </node>
  <node id="-271" lat="51.88775297471561" lon="-0.5239934975307308">
    <tag k="addr:postcode" v="LU6 9TY"/>
    <tag k="removemelater" v="yes"/>
  </node>
  <node id="-272" lat="51.88775297471561" lon="-0.5239934975307308">
    <tag k="addr:postcode" v="LU6 9TZ"/>
    <tag k="removemelater" v="yes"/>
  </node>
  <node id="-273" lat="51.88775297471561" lon="-0.5239934975307308">
    <tag k="addr:postcode" v="LU6 9UA"/>
    <tag k="removemelater" v="yes"/>
  </node>
  <node id="-274" lat="51.957708750784676" lon="-0.6689780584943953">
    <tag k="addr:postcode" v="LU7 0BB"/>
    <tag k="removemelater" v="yes"/>
  </node>
  <node id="-275" lat="51.93346460197944" lon="-0.6766482116843849">
    <tag k="addr:postcode" v="LU7 0DU"/>
    <tag k="removemelater" v="yes"/>
  </node>
  <node id="-276" lat="51.897251603975754" lon="-0.7151803086004556">
    <tag k="addr:postcode" v="LU7 0NN"/>
    <tag k="removemelater" v="yes"/>
  </node>
  <node id="-277" lat="51.90141976284015" lon="-0.6992763223568967">
    <tag k="addr:postcode" v="LU7 0PP"/>
    <tag k="removemelater" v="yes"/>
  </node>
  <node id="-278" lat="51.89559359130821" lon="-0.705824622641112">
    <tag k="addr:postcode" v="LU7 0PT"/>
    <tag k="removemelater" v="yes"/>
  </node>
  <node id="-279" lat="51.87075447426953" lon="-0.6827018230139458">
    <tag k="addr:postcode" v="LU7 0QE"/>
    <tag k="removemelater" v="yes"/>
  </node>
  <node id="-280" lat="51.86938329445934" lon="-0.6831049997211068">
    <tag k="addr:postcode" v="LU7 0QF"/>
    <tag k="removemelater" v="yes"/>
  </node>
  <node id="-281" lat="51.86913849962864" lon="-0.6869466673228541">
    <tag k="addr:postcode" v="LU7 0QG"/>
    <tag k="removemelater" v="yes"/>
  </node>
  <node id="-282" lat="51.868235637947365" lon="-0.6906476291284809">
    <tag k="addr:postcode" v="LU7 0QH"/>
    <tag k="removemelater" v="yes"/>
  </node>
  <node id="-283" lat="51.8668698016018" lon="-0.7061698081688331">
    <tag k="addr:postcode" v="LU7 0QJ"/>
    <tag k="removemelater" v="yes"/>
  </node>
  <node id="-284" lat="51.86871152044235" lon="-0.7101257342049471">
    <tag k="addr:postcode" v="LU7 0QL"/>
    <tag k="removemelater" v="yes"/>
  </node>
  <node id="-285" lat="51.86981749110958" lon="-0.6889749070933435">
    <tag k="addr:postcode" v="LU7 0QQ"/>
    <tag k="removemelater" v="yes"/>
  </node>
  <node id="-286" lat="51.87178331770622" lon="-0.6814370929175801">
    <tag k="addr:postcode" v="LU7 0TZ"/>
    <tag k="removemelater" v="yes"/>
  </node>
  <node id="-287" lat="51.861718438714036" lon="-0.693218482472361">
    <tag k="addr:postcode" v="LU7 0UA"/>
    <tag k="removemelater" v="yes"/>
  </node>
  <node id="-288" lat="51.86743617114255" lon="-0.6810558601221399">
    <tag k="addr:postcode" v="LU7 0UE"/>
    <tag k="removemelater" v="yes"/>
  </node>
  <node id="-289" lat="51.91481277686969" lon="-0.7469711151041887">
    <tag k="addr:postcode" v="LU7 0UJ"/>
    <tag k="removemelater" v="yes"/>
  </node>
  <node id="-290" lat="51.908011242235425" lon="-0.6569133907078007">
    <tag k="addr:postcode" v="LU7 0WH"/>
    <tag k="removemelater" v="yes"/>
  </node>
  <node id="-291" lat="51.908011242235425" lon="-0.6569133907078007">
    <tag k="addr:postcode" v="LU7 0WW"/>
    <tag k="removemelater" v="yes"/>
  </node>
  <node id="-292" lat="51.908011242235425" lon="-0.6569133907078007">
    <tag k="addr:postcode" v="LU7 0XF"/>
    <tag k="removemelater" v="yes"/>
  </node>
  <node id="-293" lat="51.908011242235425" lon="-0.6569133907078007">
    <tag k="addr:postcode" v="LU7 0ZL"/>
    <tag k="removemelater" v="yes"/>
  </node>
  <node id="-294" lat="51.915260804689396" lon="-0.6642431671764778">
    <tag k="addr:postcode" v="LU7 1AA"/>
    <tag k="removemelater" v="yes"/>
  </node>
  <node id="-295" lat="51.915268554522314" lon="-0.6649262986672598">
    <tag k="addr:postcode" v="LU7 1AE"/>
    <tag k="removemelater" v="yes"/>
  </node>
  <node id="-296" lat="51.91619410408325" lon="-0.6656694637957077">
    <tag k="addr:postcode" v="LU7 1AH"/>
    <tag k="removemelater" v="yes"/>
  </node>
  <node id="-297" lat="51.91629372449385" lon="-0.6649395141202338">
    <tag k="addr:postcode" v="LU7 1AN"/>
    <tag k="removemelater" v="yes"/>
  </node>
  <node id="-298" lat="51.918581626276044" lon="-0.6660930721619938">
    <tag k="addr:postcode" v="LU7 1AP"/>
    <tag k="removemelater" v="yes"/>
  </node>
  <node id="-299" lat="51.91718536682269" lon="-0.6666578960471992">
    <tag k="addr:postcode" v="LU7 1AQ"/>
    <tag k="removemelater" v="yes"/>
  </node>
  <node id="-300" lat="51.919122755225686" lon="-0.66465203251232">
    <tag k="addr:postcode" v="LU7 1AR"/>
    <tag k="removemelater" v="yes"/>
  </node>
  <node id="-301" lat="51.918784743055085" lon="-0.6641822158121343">
    <tag k="addr:postcode" v="LU7 1BB"/>
    <tag k="removemelater" v="yes"/>
  </node>
  <node id="-302" lat="51.918729240881895" lon="-0.6632532565784371">
    <tag k="addr:postcode" v="LU7 1BD"/>
    <tag k="removemelater" v="yes"/>
  </node>
  <node id="-303" lat="51.91860132891866" lon="-0.6622828293985349">
    <tag k="addr:postcode" v="LU7 1BE"/>
    <tag k="removemelater" v="yes"/>
  </node>
  <node id="-304" lat="51.91624838057115" lon="-0.6601572236938088">
    <tag k="addr:postcode" v="LU7 1BJ"/>
    <tag k="removemelater" v="yes"/>
  </node>
  <node id="-305" lat="51.9197568630823" lon="-0.6618995011456638">
    <tag k="addr:postcode" v="LU7 1BL"/>
    <tag k="removemelater" v="yes"/>
  </node>
  <node id="-306" lat="51.919001276363595" lon="-0.6626635450888566">
    <tag k="addr:postcode" v="LU7 1BW"/>
    <tag k="removemelater" v="yes"/>
  </node>
  <node id="-307" lat="51.9176009770588" lon="-0.6620799124997881">
    <tag k="addr:postcode" v="LU7 1DA"/>
    <tag k="removemelater" v="yes"/>
  </node>
  <node id="-308" lat="51.91729077516993" lon="-0.6648517819142766">
    <tag k="addr:postcode" v="LU7 1DD"/>
    <tag k="removemelater" v="yes"/>
  </node>
  <node id="-309" lat="51.91585432317677" lon="-0.6610849597006796">
    <tag k="addr:postcode" v="LU7 1DG"/>
    <tag k="removemelater" v="yes"/>
  </node>
  <node id="-310" lat="51.916754439646475" lon="-0.6635445419909678">
    <tag k="addr:postcode" v="LU7 1DH"/>
    <tag k="removemelater" v="yes"/>
  </node>
  <node id="-311" lat="51.91740052432622" lon="-0.6658081859998638">
    <tag k="addr:postcode" v="LU7 1DL"/>
    <tag k="removemelater" v="yes"/>
  </node>
  <node id="-312" lat="51.91605870776954" lon="-0.6648301652668915">
    <tag k="addr:postcode" v="LU7 1DP"/>
    <tag k="removemelater" v="yes"/>
  </node>
  <node id="-313" lat="51.916138201699745" lon="-0.663911794623395">
    <tag k="addr:postcode" v="LU7 1DT"/>
    <tag k="removemelater" v="yes"/>
  </node>
  <node id="-314" lat="51.91636595917167" lon="-0.6633815960306064">
    <tag k="addr:postcode" v="LU7 1DX"/>
    <tag k="removemelater" v="yes"/>
  </node>
  <node id="-315" lat="51.91563650221574" lon="-0.6640720823267874">
    <tag k="addr:postcode" v="LU7 1DY"/>
    <tag k="removemelater" v="yes"/>
  </node>
  <node id="-316" lat="51.916315400896636" lon="-0.6660584467945982">
    <tag k="addr:postcode" v="LU7 1EB"/>
    <tag k="removemelater" v="yes"/>
  </node>
  <node id="-317" lat="51.919327028196456" lon="-0.6683975280833947">
    <tag k="addr:postcode" v="LU7 1ED"/>
    <tag k="removemelater" v="yes"/>
  </node>
  <node id="-318" lat="51.91725832674694" lon="-0.6612031415140573">
    <tag k="addr:postcode" v="LU7 1EF"/>
    <tag k="removemelater" v="yes"/>
  </node>
  <node id="-319" lat="51.91695861086457" lon="-0.6656904226484087">
    <tag k="addr:postcode" v="LU7 1EP"/>
    <tag k="removemelater" v="yes"/>
  </node>
  <node id="-320" lat="51.91870848897604" lon="-0.660636543165031">
    <tag k="addr:postcode" v="LU7 1EQ"/>
    <tag k="removemelater" v="yes"/>
  </node>
  <node id="-321" lat="51.918716311034224" lon="-0.6684592174572455">
    <tag k="addr:postcode" v="LU7 1ER"/>
    <tag k="removemelater" v="yes"/>
  </node>
  <node id="-322" lat="51.915711622586045" lon="-0.6651457944003814">
    <tag k="addr:postcode" v="LU7 1EX"/>
    <tag k="removemelater" v="yes"/>
  </node>
  <node id="-323" lat="51.9169812001324" lon="-0.6660968774513242">
    <tag k="addr:postcode" v="LU7 1FA"/>
    <tag k="removemelater" v="yes"/>
  </node>
  <node id="-324" lat="51.91999420990433" lon="-0.6598421445924407">
    <tag k="addr:postcode" v="LU7 1FF"/>
    <tag k="removemelater" v="yes"/>
  </node>
  <node id="-325" lat="51.919633343245785" lon="-0.6692463855063158">
    <tag k="addr:postcode" v="LU7 1FG"/>
    <tag k="removemelater" v="yes"/>
  </node>
  <node id="-326" lat="51.916598264927224" lon="-0.6600886494537844">
    <tag k="addr:postcode" v="LU7 1FH"/>
    <tag k="removemelater" v="yes"/>
  </node>
  <node id="-327" lat="51.91617621614453" lon="-0.6648848395533776">
    <tag k="addr:postcode" v="LU7 1FS"/>
    <tag k="removemelater" v="yes"/>
  </node>
  <node id="-328" lat="51.91626114032719" lon="-0.6708000687868172">
    <tag k="addr:postcode" v="LU7 1FZ"/>
    <tag k="removemelater" v="yes"/>
  </node>
  <node id="-329" lat="51.9174013723616" lon="-0.6603410093646878">
    <tag k="addr:postcode" v="LU7 1GA"/>
    <tag k="removemelater" v="yes"/>
  </node>
  <node id="-330" lat="51.9169410797565" lon="-0.6586098896894174">
    <tag k="addr:postcode" v="LU7 1GR"/>
    <tag k="removemelater" v="yes"/>
  </node>
  <node id="-331" lat="51.91774158194543" lon="-0.6578444737518782">
    <tag k="addr:postcode" v="LU7 1HD"/>
    <tag k="removemelater" v="yes"/>
  </node>
  <node id="-332" lat="51.916540143626015" lon="-0.6605120401278989">
    <tag k="addr:postcode" v="LU7 1HF"/>
    <tag k="removemelater" v="yes"/>
  </node>
  <node id="-333" lat="51.91690750869006" lon="-0.6603993275430866">
    <tag k="addr:postcode" v="LU7 1HG"/>
    <tag k="removemelater" v="yes"/>
  </node>
  <node id="-334" lat="51.91749907559928" lon="-0.6641912888457698">
    <tag k="addr:postcode" v="LU7 1HH"/>
    <tag k="removemelater" v="yes"/>
  </node>
  <node id="-335" lat="51.91835920675398" lon="-0.6591783346416625">
    <tag k="addr:postcode" v="LU7 1JA"/>
    <tag k="removemelater" v="yes"/>
  </node>
  <node id="-336" lat="51.91792490186203" lon="-0.6597292689977199">
    <tag k="addr:postcode" v="LU7 1JF"/>
    <tag k="removemelater" v="yes"/>
  </node>
  <node id="-337" lat="51.916269988877104" lon="-0.6684007204224226">
    <tag k="addr:postcode" v="LU7 1LD"/>
    <tag k="removemelater" v="yes"/>
  </node>
  <node id="-338" lat="51.91669468883971" lon="-0.6677920147855138">
    <tag k="addr:postcode" v="LU7 1LE"/>
    <tag k="removemelater" v="yes"/>
  </node>
  <node id="-339" lat="51.91501321954285" lon="-0.6590744419553944">
    <tag k="addr:postcode" v="LU7 1RX"/>
    <tag k="removemelater" v="yes"/>
  </node>
  <node id="-340" lat="51.9148590928006" lon="-0.6589627170267366">
    <tag k="addr:postcode" v="LU7 1ST"/>
    <tag k="removemelater" v="yes"/>
  </node>
  <node id="-341" lat="51.91808603832098" lon="-0.6652062466173412">
    <tag k="addr:postcode" v="LU7 1YU"/>
    <tag k="removemelater" v="yes"/>
  </node>
  <node id="-342" lat="51.91417107073348" lon="-0.6704401415096554">
    <tag k="addr:postcode" v="LU7 2AJ"/>
    <tag k="removemelater" v="yes"/>
  </node>
  <node id="-343" lat="51.91711778941025" lon="-0.6758056793872258">
    <tag k="addr:postcode" v="LU7 2AQ"/>
    <tag k="removemelater" v="yes"/>
  </node>
  <node id="-344" lat="51.908011242235425" lon="-0.6569133907078007">
    <tag k="addr:postcode" v="LU7 2EP"/>
    <tag k="removemelater" v="yes"/>
  </node>
  <node id="-345" lat="51.91607736680594" lon="-0.6728410750224999">
    <tag k="addr:postcode" v="LU7 2FF"/>
    <tag k="removemelater" v="yes"/>
  </node>
  <node id="-346" lat="51.91515586385266" lon="-0.6764449724222998">
    <tag k="addr:postcode" v="LU7 2JU"/>
    <tag k="removemelater" v="yes"/>
  </node>
  <node id="-347" lat="51.915281856245265" lon="-0.6700729244936393">
    <tag k="addr:postcode" v="LU7 2LA"/>
    <tag k="removemelater" v="yes"/>
  </node>
  <node id="-348" lat="51.91028282519948" lon="-0.6772715084642278">
    <tag k="addr:postcode" v="LU7 2LD"/>
    <tag k="removemelater" v="yes"/>
  </node>
  <node id="-349" lat="51.9103341352059" lon="-0.6778369828338011">
    <tag k="addr:postcode" v="LU7 2LE"/>
    <tag k="removemelater" v="yes"/>
  </node>
  <node id="-350" lat="51.91549374892453" lon="-0.6721167578984969">
    <tag k="addr:postcode" v="LU7 2LG"/>
    <tag k="removemelater" v="yes"/>
  </node>
  <node id="-351" lat="51.91275843540753" lon="-0.68475893749729">
    <tag k="addr:postcode" v="LU7 2LQ"/>
    <tag k="removemelater" v="yes"/>
  </node>
  <node id="-352" lat="51.91019536119669" lon="-0.673494210636674">
    <tag k="addr:postcode" v="LU7 2LT"/>
    <tag k="removemelater" v="yes"/>
  </node>
  <node id="-353" lat="51.914333667680445" lon="-0.676091123651258">
    <tag k="addr:postcode" v="LU7 2NP"/>
    <tag k="removemelater" v="yes"/>
  </node>
  <node id="-354" lat="51.91043954883316" lon="-0.6752170422701746">
    <tag k="addr:postcode" v="LU7 2PD"/>
    <tag k="removemelater" v="yes"/>
  </node>
  <node id="-355" lat="51.90999258413131" lon="-0.6762478451560123">
    <tag k="addr:postcode" v="LU7 2PE"/>
    <tag k="removemelater" v="yes"/>
  </node>
  <node id="-356" lat="51.909818861457026" lon="-0.6767908521648569">
    <tag k="addr:postcode" v="LU7 2PF"/>
    <tag k="removemelater" v="yes"/>
  </node>
  <node id="-357" lat="51.91693589835156" lon="-0.6764217154408888">
    <tag k="addr:postcode" v="LU7 2PX"/>
    <tag k="removemelater" v="yes"/>
  </node>
  <node id="-358" lat="51.91689944475953" lon="-0.6779785795466974">
    <tag k="addr:postcode" v="LU7 2QE"/>
    <tag k="removemelater" v="yes"/>
  </node>
  <node id="-359" lat="51.91861912136276" lon="-0.6838025012240738">
    <tag k="addr:postcode" v="LU7 2QN"/>
    <tag k="removemelater" v="yes"/>
  </node>
  <node id="-360" lat="51.91677056229405" lon="-0.6713230096272818">
    <tag k="addr:postcode" v="LU7 2RD"/>
    <tag k="removemelater" v="yes"/>
  </node>
  <node id="-361" lat="51.91713053805368" lon="-0.6761397287493246">
    <tag k="addr:postcode" v="LU7 2RG"/>
    <tag k="removemelater" v="yes"/>
  </node>
  <node id="-362" lat="51.91653050014417" lon="-0.6715627354030035">
    <tag k="addr:postcode" v="LU7 2RP"/>
    <tag k="removemelater" v="yes"/>
  </node>
  <node id="-363" lat="51.908011242235425" lon="-0.6569133907078007">
    <tag k="addr:postcode" v="LU7 2RS"/>
    <tag k="removemelater" v="yes"/>
  </node>
  <node id="-364" lat="51.91702217064187" lon="-0.6744998780770233">
    <tag k="addr:postcode" v="LU7 2SN"/>
    <tag k="removemelater" v="yes"/>
  </node>
  <node id="-365" lat="51.92695302897633" lon="-0.6732911365112358">
    <tag k="addr:postcode" v="LU7 2TA"/>
    <tag k="removemelater" v="yes"/>
  </node>
  <node id="-366" lat="51.922111587432724" lon="-0.6873648981642805">
    <tag k="addr:postcode" v="LU7 2TL"/>
    <tag k="removemelater" v="yes"/>
  </node>
  <node id="-367" lat="51.91671384257998" lon="-0.6710775027167811">
    <tag k="addr:postcode" v="LU7 2US"/>
    <tag k="removemelater" v="yes"/>
  </node>
  <node id="-368" lat="51.919374374817984" lon="-0.6765826658550382">
    <tag k="addr:postcode" v="LU7 2UY"/>
    <tag k="removemelater" v="yes"/>
  </node>
  <node id="-369" lat="51.908011242235425" lon="-0.6569133907078007">
    <tag k="addr:postcode" v="LU7 2WF"/>
    <tag k="removemelater" v="yes"/>
  </node>
  <node id="-370" lat="51.908011242235425" lon="-0.6569133907078007">
    <tag k="addr:postcode" v="LU7 2YF"/>
    <tag k="removemelater" v="yes"/>
  </node>
  <node id="-371" lat="51.908011242235425" lon="-0.6569133907078007">
    <tag k="addr:postcode" v="LU7 2ZJ"/>
    <tag k="removemelater" v="yes"/>
  </node>
  <node id="-372" lat="51.908011242235425" lon="-0.6569133907078007">
    <tag k="addr:postcode" v="LU7 2ZS"/>
    <tag k="removemelater" v="yes"/>
  </node>
  <node id="-373" lat="51.93694978644584" lon="-0.6580714854559983">
    <tag k="addr:postcode" v="LU7 3BR"/>
    <tag k="removemelater" v="yes"/>
  </node>
  <node id="-374" lat="51.937928460233984" lon="-0.6547983197874435">
    <tag k="addr:postcode" v="LU7 3BT"/>
    <tag k="removemelater" v="yes"/>
  </node>
  <node id="-375" lat="51.920993914121475" lon="-0.6442820840212115">
    <tag k="addr:postcode" v="LU7 3DP"/>
    <tag k="removemelater" v="yes"/>
  </node>
  <node id="-376" lat="51.91829398892062" lon="-0.6542510159835458">
    <tag k="addr:postcode" v="LU7 3FF"/>
    <tag k="removemelater" v="yes"/>
  </node>
  <node id="-377" lat="51.92598756700025" lon="-0.6469239176814372">
    <tag k="addr:postcode" v="LU7 3FU"/>
    <tag k="removemelater" v="yes"/>
  </node>
  <node id="-378" lat="51.908011242235425" lon="-0.6569133907078007">
    <tag k="addr:postcode" v="LU7 3GS"/>
    <tag k="removemelater" v="yes"/>
  </node>
  <node id="-379" lat="51.91926454592621" lon="-0.6549926661848754">
    <tag k="addr:postcode" v="LU7 3HH"/>
    <tag k="removemelater" v="yes"/>
  </node>
  <node id="-380" lat="51.92179063488109" lon="-0.6525904993080194">
    <tag k="addr:postcode" v="LU7 3HQ"/>
    <tag k="removemelater" v="yes"/>
  </node>
  <node id="-381" lat="51.93417454134706" lon="-0.6662562381970742">
    <tag k="addr:postcode" v="LU7 3HU"/>
    <tag k="removemelater" v="yes"/>
  </node>
  <node id="-382" lat="51.93772879782681" lon="-0.6672855074022922">
    <tag k="addr:postcode" v="LU7 3JF"/>
    <tag k="removemelater" v="yes"/>
  </node>
  <node id="-383" lat="51.920260987447776" lon="-0.6415413234161221">
    <tag k="addr:postcode" v="LU7 3NJ"/>
    <tag k="removemelater" v="yes"/>
  </node>
  <node id="-384" lat="51.920014011548" lon="-0.6419559304283606">
    <tag k="addr:postcode" v="LU7 3NL"/>
    <tag k="removemelater" v="yes"/>
  </node>
  <node id="-385" lat="51.92089989405964" lon="-0.6423654439867827">
    <tag k="addr:postcode" v="LU7 3NN"/>
    <tag k="removemelater" v="yes"/>
  </node>
  <node id="-386" lat="51.92063556910205" lon="-0.640497580104234">
    <tag k="addr:postcode" v="LU7 3NW"/>
    <tag k="removemelater" v="yes"/>
  </node>
  <node id="-387" lat="51.91592944992402" lon="-0.6464265724285523">
    <tag k="addr:postcode" v="LU7 3PF"/>
    <tag k="removemelater" v="yes"/>
  </node>
  <node id="-388" lat="51.92152706936861" lon="-0.6445132322051477">
    <tag k="addr:postcode" v="LU7 3TT"/>
    <tag k="removemelater" v="yes"/>
  </node>
  <node id="-389" lat="51.92219558591043" lon="-0.6393307317308708">
    <tag k="addr:postcode" v="LU7 3UD"/>
    <tag k="removemelater" v="yes"/>
  </node>
  <node id="-390" lat="51.92269246129888" lon="-0.6395338398705217">
    <tag k="addr:postcode" v="LU7 3UE"/>
    <tag k="removemelater" v="yes"/>
  </node>
  <node id="-391" lat="51.92398322978305" lon="-0.637633384433459">
    <tag k="addr:postcode" v="LU7 3UL"/>
    <tag k="removemelater" v="yes"/>
  </node>
  <node id="-392" lat="51.92323032791689" lon="-0.6401719798129512">
    <tag k="addr:postcode" v="LU7 3UU"/>
    <tag k="removemelater" v="yes"/>
  </node>
  <node id="-393" lat="51.921779554235194" lon="-0.6360132494024323">
    <tag k="addr:postcode" v="LU7 3UZ"/>
    <tag k="removemelater" v="yes"/>
  </node>
  <node id="-394" lat="51.92110705351627" lon="-0.6369497468249558">
    <tag k="addr:postcode" v="LU7 3XA"/>
    <tag k="removemelater" v="yes"/>
  </node>
  <node id="-395" lat="51.92177430231612" lon="-0.6378892939502965">
    <tag k="addr:postcode" v="LU7 3XB"/>
    <tag k="removemelater" v="yes"/>
  </node>
  <node id="-396" lat="51.92062666245051" lon="-0.6381712294982743">
    <tag k="addr:postcode" v="LU7 3XD"/>
    <tag k="removemelater" v="yes"/>
  </node>
  <node id="-397" lat="51.92201450423746" lon="-0.6431170792651996">
    <tag k="addr:postcode" v="LU7 3XE"/>
    <tag k="removemelater" v="yes"/>
  </node>
  <node id="-398" lat="51.92211130107364" lon="-0.642154398962587">
    <tag k="addr:postcode" v="LU7 3XF"/>
    <tag k="removemelater" v="yes"/>
  </node>
  <node id="-399" lat="51.91948175368051" lon="-0.6449238121807042">
    <tag k="addr:postcode" v="LU7 3XG"/>
    <tag k="removemelater" v="yes"/>
  </node>
  <node id="-400" lat="51.92105390665765" lon="-0.6393507059535032">
    <tag k="addr:postcode" v="LU7 3XH"/>
    <tag k="removemelater" v="yes"/>
  </node>
  <node id="-401" lat="51.92122921982981" lon="-0.6397380282182245">
    <tag k="addr:postcode" v="LU7 3XJ"/>
    <tag k="removemelater" v="yes"/>
  </node>
  <node id="-402" lat="51.92006281363752" lon="-0.6446300359414407">
    <tag k="addr:postcode" v="LU7 3XQ"/>
    <tag k="removemelater" v="yes"/>
  </node>
  <node id="-403" lat="51.92143646351654" lon="-0.6436725466140104">
    <tag k="addr:postcode" v="LU7 3XR"/>
    <tag k="removemelater" v="yes"/>
  </node>
  <node id="-404" lat="51.92287788276894" lon="-0.6431346748471569">
    <tag k="addr:postcode" v="LU7 3XW"/>
    <tag k="removemelater" v="yes"/>
  </node>
  <node id="-405" lat="51.92064214361411" lon="-0.6434056563131301">
    <tag k="addr:postcode" v="LU7 3XZ"/>
    <tag k="removemelater" v="yes"/>
  </node>
  <node id="-406" lat="51.924069167761694" lon="-0.6411791492674042">
    <tag k="addr:postcode" v="LU7 3YN"/>
    <tag k="removemelater" v="yes"/>
  </node>
  <node id="-407" lat="51.92425877314081" lon="-0.6396900846009987">
    <tag k="addr:postcode" v="LU7 3YW"/>
    <tag k="removemelater" v="yes"/>
  </node>
  <node id="-408" lat="51.90874583012337" lon="-0.655888391326512">
    <tag k="addr:postcode" v="LU7 4AD"/>
    <tag k="removemelater" v="yes"/>
  </node>
  <node id="-409" lat="51.90745040165274" lon="-0.6534702906792437">
    <tag k="addr:postcode" v="LU7 4AJ"/>
    <tag k="removemelater" v="yes"/>
  </node>
  <node id="-410" lat="51.908011242235425" lon="-0.6569133907078007">
    <tag k="addr:postcode" v="LU7 4AZ"/>
    <tag k="removemelater" v="yes"/>
  </node>
  <node id="-411" lat="51.90920197822095" lon="-0.6580408855023475">
    <tag k="addr:postcode" v="LU7 4DD"/>
    <tag k="removemelater" v="yes"/>
  </node>
  <node id="-412" lat="51.90938391328396" lon="-0.6605941004030239">
    <tag k="addr:postcode" v="LU7 4EA"/>
    <tag k="removemelater" v="yes"/>
  </node>
  <node id="-413" lat="51.907441866521886" lon="-0.6613932582881245">
    <tag k="addr:postcode" v="LU7 4FF"/>
    <tag k="removemelater" v="yes"/>
  </node>
  <node id="-414" lat="51.90715439260161" lon="-0.6558922838775414">
    <tag k="addr:postcode" v="LU7 4FY"/>
    <tag k="removemelater" v="yes"/>
  </node>
  <node id="-415" lat="51.90932245750958" lon="-0.6544174084678884">
    <tag k="addr:postcode" v="LU7 4GB"/>
    <tag k="removemelater" v="yes"/>
  </node>
  <node id="-416" lat="51.91602857726862" lon="-0.6363183725289215">
    <tag k="addr:postcode" v="LU7 4GP"/>
    <tag k="removemelater" v="yes"/>
  </node>
  <node id="-417" lat="51.91465657733491" lon="-0.634309871444006">
    <tag k="addr:postcode" v="LU7 4QE"/>
    <tag k="removemelater" v="yes"/>
  </node>
  <node id="-418" lat="51.91182036868839" lon="-0.6308775799691658">
    <tag k="addr:postcode" v="LU7 4QG"/>
    <tag k="removemelater" v="yes"/>
  </node>
  <node id="-419" lat="51.91204665347833" lon="-0.6333277237927339">
    <tag k="addr:postcode" v="LU7 4QH"/>
    <tag k="removemelater" v="yes"/>
  </node>
  <node id="-420" lat="51.91204665347833" lon="-0.6333277237927339">
    <tag k="addr:postcode" v="LU7 4QQ"/>
    <tag k="removemelater" v="yes"/>
  </node>
  <node id="-421" lat="51.91480748062407" lon="-0.6591678070005454">
    <tag k="addr:postcode" v="LU7 4RN"/>
    <tag k="removemelater" v="yes"/>
  </node>
  <node id="-422" lat="51.906263660869996" lon="-0.6621551167540907">
    <tag k="addr:postcode" v="LU7 4RU"/>
    <tag k="removemelater" v="yes"/>
  </node>
  <node id="-423" lat="51.91208133478793" lon="-0.6316692681971836">
    <tag k="addr:postcode" v="LU7 4RW"/>
    <tag k="removemelater" v="yes"/>
  </node>
  <node id="-424" lat="51.90962762845352" lon="-0.6622586961046086">
    <tag k="addr:postcode" v="LU7 4SD"/>
    <tag k="removemelater" v="yes"/>
  </node>
  <node id="-425" lat="51.9116586181478" lon="-0.6582148174168473">
    <tag k="addr:postcode" v="LU7 4SE"/>
    <tag k="removemelater" v="yes"/>
  </node>
  <node id="-426" lat="51.90977940176386" lon="-0.6605823356890295">
    <tag k="addr:postcode" v="LU7 4SF"/>
    <tag k="removemelater" v="yes"/>
  </node>
  <node id="-427" lat="51.91177985266916" lon="-0.6570190483316136">
    <tag k="addr:postcode" v="LU7 4SH"/>
    <tag k="removemelater" v="yes"/>
  </node>
  <node id="-428" lat="51.90912522446846" lon="-0.6584066137654456">
    <tag k="addr:postcode" v="LU7 4SL"/>
    <tag k="removemelater" v="yes"/>
  </node>
  <node id="-429" lat="51.90912837595668" lon="-0.6610523682367146">
    <tag k="addr:postcode" v="LU7 4SP"/>
    <tag k="removemelater" v="yes"/>
  </node>
  <node id="-430" lat="51.90882751728057" lon="-0.6598983122280039">
    <tag k="addr:postcode" v="LU7 4SQ"/>
    <tag k="removemelater" v="yes"/>
  </node>
  <node id="-431" lat="51.91008224878604" lon="-0.6595411331644893">
    <tag k="addr:postcode" v="LU7 4SW"/>
    <tag k="removemelater" v="yes"/>
  </node>
  <node id="-432" lat="51.90944577922587" lon="-0.6612900710789508">
    <tag k="addr:postcode" v="LU7 4SZ"/>
    <tag k="removemelater" v="yes"/>
  </node>
  <node id="-433" lat="51.90739637911288" lon="-0.6637205408968185">
    <tag k="addr:postcode" v="LU7 4TB"/>
    <tag k="removemelater" v="yes"/>
  </node>
  <node id="-434" lat="51.90780406955201" lon="-0.6631996405551791">
    <tag k="addr:postcode" v="LU7 4TD"/>
    <tag k="removemelater" v="yes"/>
  </node>
  <node id="-435" lat="51.90473457240878" lon="-0.6628982801627927">
    <tag k="addr:postcode" v="LU7 4TE"/>
    <tag k="removemelater" v="yes"/>
  </node>
  <node id="-436" lat="51.90849155323373" lon="-0.6627721828591854">
    <tag k="addr:postcode" v="LU7 4TL"/>
    <tag k="removemelater" v="yes"/>
  </node>
  <node id="-437" lat="51.90673234429678" lon="-0.6520090022529531">
    <tag k="addr:postcode" v="LU7 4TN"/>
    <tag k="removemelater" v="yes"/>
  </node>
  <node id="-438" lat="51.906263660869996" lon="-0.6621551167540907">
    <tag k="addr:postcode" v="LU7 4TS"/>
    <tag k="removemelater" v="yes"/>
  </node>
  <node id="-439" lat="51.91034224501315" lon="-0.6563204896351">
    <tag k="addr:postcode" v="LU7 4TU"/>
    <tag k="removemelater" v="yes"/>
  </node>
  <node id="-440" lat="51.91568348644322" lon="-0.6360234911148402">
    <tag k="addr:postcode" v="LU7 4TX"/>
    <tag k="removemelater" v="yes"/>
  </node>
  <node id="-441" lat="51.90890932554689" lon="-0.6544588295453746">
    <tag k="addr:postcode" v="LU7 4TZ"/>
    <tag k="removemelater" v="yes"/>
  </node>
  <node id="-442" lat="51.915269971660734" lon="-0.6344802781190291">
    <tag k="addr:postcode" v="LU7 4UH"/>
    <tag k="removemelater" v="yes"/>
  </node>
  <node id="-443" lat="51.908011242235425" lon="-0.6569133907078007">
    <tag k="addr:postcode" v="LU7 4WE"/>
    <tag k="removemelater" v="yes"/>
  </node>
  <node id="-444" lat="51.90621810944751" lon="-0.6557894000208816">
    <tag k="addr:postcode" v="LU7 4WG"/>
    <tag k="removemelater" v="yes"/>
  </node>
  <node id="-445" lat="51.908011242235425" lon="-0.6569133907078007">
    <tag k="addr:postcode" v="LU7 4WW"/>
    <tag k="removemelater" v="yes"/>
  </node>
  <node id="-446" lat="51.908011242235425" lon="-0.6569133907078007">
    <tag k="addr:postcode" v="LU7 4XS"/>
    <tag k="removemelater" v="yes"/>
  </node>
  <node id="-447" lat="51.908011242235425" lon="-0.6569133907078007">
    <tag k="addr:postcode" v="LU7 4XZ"/>
    <tag k="removemelater" v="yes"/>
  </node>
  <node id="-448" lat="51.90850211950374" lon="-0.6565934629318463">
    <tag k="addr:postcode" v="LU7 4YJ"/>
    <tag k="removemelater" v="yes"/>
  </node>
  <node id="-449" lat="51.90838606511177" lon="-0.6574546315479217">
    <tag k="addr:postcode" v="LU7 4YP"/>
    <tag k="removemelater" v="yes"/>
  </node>
  <node id="-450" lat="51.908011242235425" lon="-0.6569133907078007">
    <tag k="addr:postcode" v="LU7 4ZW"/>
    <tag k="removemelater" v="yes"/>
  </node>
  <node id="-451" lat="51.908011242235425" lon="-0.6569133907078007">
    <tag k="addr:postcode" v="LU7 6AD"/>
    <tag k="removemelater" v="yes"/>
  </node>
  <node id="-452" lat="51.908011242235425" lon="-0.6569133907078007">
    <tag k="addr:postcode" v="LU7 6AG"/>
    <tag k="removemelater" v="yes"/>
  </node>
  <node id="-453" lat="51.908011242235425" lon="-0.6569133907078007">
    <tag k="addr:postcode" v="LU7 6AX"/>
    <tag k="removemelater" v="yes"/>
  </node>
  <node id="-454" lat="51.908011242235425" lon="-0.6569133907078007">
    <tag k="addr:postcode" v="LU7 6BA"/>
    <tag k="removemelater" v="yes"/>
  </node>
  <node id="-455" lat="51.908011242235425" lon="-0.6569133907078007">
    <tag k="addr:postcode" v="LU7 6BL"/>
    <tag k="removemelater" v="yes"/>
  </node>
  <node id="-456" lat="51.908011242235425" lon="-0.6569133907078007">
    <tag k="addr:postcode" v="LU7 6BN"/>
    <tag k="removemelater" v="yes"/>
  </node>
  <node id="-457" lat="51.908011242235425" lon="-0.6569133907078007">
    <tag k="addr:postcode" v="LU7 6BU"/>
    <tag k="removemelater" v="yes"/>
  </node>
  <node id="-458" lat="51.908011242235425" lon="-0.6569133907078007">
    <tag k="addr:postcode" v="LU7 6BX"/>
    <tag k="removemelater" v="yes"/>
  </node>
  <node id="-459" lat="51.908011242235425" lon="-0.6569133907078007">
    <tag k="addr:postcode" v="LU7 6DF"/>
    <tag k="removemelater" v="yes"/>
  </node>
  <node id="-460" lat="51.908011242235425" lon="-0.6569133907078007">
    <tag k="addr:postcode" v="LU7 6DH"/>
    <tag k="removemelater" v="yes"/>
  </node>
  <node id="-461" lat="51.908011242235425" lon="-0.6569133907078007">
    <tag k="addr:postcode" v="LU7 6DJ"/>
    <tag k="removemelater" v="yes"/>
  </node>
  <node id="-462" lat="51.908011242235425" lon="-0.6569133907078007">
    <tag k="addr:postcode" v="LU7 6DL"/>
    <tag k="removemelater" v="yes"/>
  </node>
  <node id="-463" lat="51.908011242235425" lon="-0.6569133907078007">
    <tag k="addr:postcode" v="LU7 6DN"/>
    <tag k="removemelater" v="yes"/>
  </node>
  <node id="-464" lat="51.908011242235425" lon="-0.6569133907078007">
    <tag k="addr:postcode" v="LU7 6DT"/>
    <tag k="removemelater" v="yes"/>
  </node>
  <node id="-465" lat="51.908011242235425" lon="-0.6569133907078007">
    <tag k="addr:postcode" v="LU7 6DX"/>
    <tag k="removemelater" v="yes"/>
  </node>
  <node id="-466" lat="51.908011242235425" lon="-0.6569133907078007">
    <tag k="addr:postcode" v="LU7 6DY"/>
    <tag k="removemelater" v="yes"/>
  </node>
  <node id="-467" lat="51.908011242235425" lon="-0.6569133907078007">
    <tag k="addr:postcode" v="LU7 6DZ"/>
    <tag k="removemelater" v="yes"/>
  </node>
  <node id="-468" lat="51.908011242235425" lon="-0.6569133907078007">
    <tag k="addr:postcode" v="LU7 6EH"/>
    <tag k="removemelater" v="yes"/>
  </node>
  <node id="-469" lat="51.908011242235425" lon="-0.6569133907078007">
    <tag k="addr:postcode" v="LU7 6EJ"/>
    <tag k="removemelater" v="yes"/>
  </node>
  <node id="-470" lat="51.908011242235425" lon="-0.6569133907078007">
    <tag k="addr:postcode" v="LU7 6ER"/>
    <tag k="removemelater" v="yes"/>
  </node>
  <node id="-471" lat="51.908011242235425" lon="-0.6569133907078007">
    <tag k="addr:postcode" v="LU7 6EU"/>
    <tag k="removemelater" v="yes"/>
  </node>
  <node id="-472" lat="51.908011242235425" lon="-0.6569133907078007">
    <tag k="addr:postcode" v="LU7 6EW"/>
    <tag k="removemelater" v="yes"/>
  </node>
  <node id="-473" lat="51.908011242235425" lon="-0.6569133907078007">
    <tag k="addr:postcode" v="LU7 6FA"/>
    <tag k="removemelater" v="yes"/>
  </node>
  <node id="-474" lat="51.908011242235425" lon="-0.6569133907078007">
    <tag k="addr:postcode" v="LU7 6FF"/>
    <tag k="removemelater" v="yes"/>
  </node>
  <node id="-475" lat="51.908011242235425" lon="-0.6569133907078007">
    <tag k="addr:postcode" v="LU7 6FH"/>
    <tag k="removemelater" v="yes"/>
  </node>
  <node id="-476" lat="51.908011242235425" lon="-0.6569133907078007">
    <tag k="addr:postcode" v="LU7 6FL"/>
    <tag k="removemelater" v="yes"/>
  </node>
  <node id="-477" lat="51.908011242235425" lon="-0.6569133907078007">
    <tag k="addr:postcode" v="LU7 6FN"/>
    <tag k="removemelater" v="yes"/>
  </node>
  <node id="-478" lat="51.908011242235425" lon="-0.6569133907078007">
    <tag k="addr:postcode" v="LU7 6FP"/>
    <tag k="removemelater" v="yes"/>
  </node>
  <node id="-479" lat="51.908011242235425" lon="-0.6569133907078007">
    <tag k="addr:postcode" v="LU7 6FR"/>
    <tag k="removemelater" v="yes"/>
  </node>
  <node id="-480" lat="51.908011242235425" lon="-0.6569133907078007">
    <tag k="addr:postcode" v="LU7 6FT"/>
    <tag k="removemelater" v="yes"/>
  </node>
  <node id="-481" lat="51.908011242235425" lon="-0.6569133907078007">
    <tag k="addr:postcode" v="LU7 6FU"/>
    <tag k="removemelater" v="yes"/>
  </node>
  <node id="-482" lat="51.908011242235425" lon="-0.6569133907078007">
    <tag k="addr:postcode" v="LU7 6FW"/>
    <tag k="removemelater" v="yes"/>
  </node>
  <node id="-483" lat="51.83322297332425" lon="-0.6407220446883165">
    <tag k="addr:postcode" v="LU7 9AT"/>
    <tag k="removemelater" v="yes"/>
  </node>
  <node id="-484" lat="51.897441480447924" lon="-0.6400495258445806">
    <tag k="addr:postcode" v="LU7 9BN"/>
    <tag k="removemelater" v="yes"/>
  </node>
  <node id="-485" lat="51.82627519175234" lon="-0.6401766009212707">
    <tag k="addr:postcode" v="LU7 9FE"/>
    <tag k="removemelater" v="yes"/>
  </node>
  <node id="-486" lat="51.82622816584129" lon="-0.6392202945839923">
    <tag k="addr:postcode" v="LU7 9FG"/>
    <tag k="removemelater" v="yes"/>
  </node>
  <node id="-487" lat="51.824899301348644" lon="-0.6456159383189205">
    <tag k="addr:postcode" v="LU7 9GJ"/>
    <tag k="removemelater" v="yes"/>
  </node>
  <node id="-488" lat="51.82786657509103" lon="-0.648748491231784">
    <tag k="addr:postcode" v="LU7 9GT"/>
    <tag k="removemelater" v="yes"/>
  </node>
  <node id="-489" lat="51.824806040376735" lon="-0.64454495958887">
    <tag k="addr:postcode" v="LU7 9GW"/>
    <tag k="removemelater" v="yes"/>
  </node>
  <node id="-490" lat="51.825836826680245" lon="-0.6434837550996146">
    <tag k="addr:postcode" v="LU7 9GX"/>
    <tag k="removemelater" v="yes"/>
  </node>
  <node id="-491" lat="51.82454266791629" lon="-0.641200961985362">
    <tag k="addr:postcode" v="LU7 9GY"/>
    <tag k="removemelater" v="yes"/>
  </node>
  <node id="-492" lat="51.90224116249066" lon="-0.6508352401626454">
    <tag k="addr:postcode" v="LU7 9HH"/>
    <tag k="removemelater" v="yes"/>
  </node>
  <node id="-493" lat="51.92945649606786" lon="-0.5833338932624443">
    <tag k="addr:postcode" v="LU7 9LS"/>
    <tag k="removemelater" v="yes"/>
  </node>
  <node id="-494" lat="51.92095016483787" lon="-0.63504956404961">
    <tag k="addr:postcode" v="LU7 9NU"/>
    <tag k="removemelater" v="yes"/>
  </node>
  <node id="-495" lat="51.90270418209777" lon="-0.655152967578087">
    <tag k="addr:postcode" v="LU7 9RP"/>
    <tag k="removemelater" v="yes"/>
  </node>
  <node id="-496" lat="51.90338583667109" lon="-0.6534319260669338">
    <tag k="addr:postcode" v="LU7 9RY"/>
    <tag k="removemelater" v="yes"/>
  </node>
  <node id="-497" lat="51.90322235236425" lon="-0.6548613156042878">
    <tag k="addr:postcode" v="LU7 9RZ"/>
    <tag k="removemelater" v="yes"/>
  </node>
  <node id="-498" lat="51.90238213244352" lon="-0.6537235738395328">
    <tag k="addr:postcode" v="LU7 9SF"/>
    <tag k="removemelater" v="yes"/>
  </node>
  <node id="-499" lat="51.90219917330307" lon="-0.6550226932860588">
    <tag k="addr:postcode" v="LU7 9SH"/>
    <tag k="removemelater" v="yes"/>
  </node>
  <node id="-500" lat="51.90428202079725" lon="-0.651602656671834">
    <tag k="addr:postcode" v="LU7 9SP"/>
    <tag k="removemelater" v="yes"/>
  </node>
  <node id="-501" lat="51.90405747512964" lon="-0.6508389716590446">
    <tag k="addr:postcode" v="LU7 9SS"/>
    <tag k="removemelater" v="yes"/>
  </node>
  <node id="-502" lat="51.908011242235425" lon="-0.6569133907078007">
    <tag k="addr:postcode" v="LU7 9WB"/>
    <tag k="removemelater" v="yes"/>
  </node>
  <node id="-503" lat="51.908011242235425" lon="-0.6569133907078007">
    <tag k="addr:postcode" v="LU7 9XH"/>
    <tag k="removemelater" v="yes"/>
  </node>
  <node id="-504" lat="51.908011242235425" lon="-0.6569133907078007">
    <tag k="addr:postcode" v="LU7 9XT"/>
    <tag k="removemelater" v="yes"/>
  </node>
  <node id="-505" lat="51.908011242235425" lon="-0.6569133907078007">
    <tag k="addr:postcode" v="LU7 9XY"/>
    <tag k="removemelater" v="yes"/>
  </node>
  <node id="-506" lat="51.908011242235425" lon="-0.6569133907078007">
    <tag k="addr:postcode" v="LU7 9ZQ"/>
    <tag k="removemelater" v="yes"/>
  </node>
</osm>
