<?xml version="1.0" encoding="UTF-8"?><osm version="0.6" generator="import_postcodes.py" upload="false">
  <node id="-1" lat="51.89608418416313" lon="-0.20300127638944793">
    <tag k="addr:postcode" v="SG1 1AA"/>
    <tag k="removemelater" v="yes"/>
  </node>
  <node id="-2" lat="51.897732458636945" lon="-0.20435991053546743">
    <tag k="addr:postcode" v="SG1 1AU"/>
    <tag k="removemelater" v="yes"/>
  </node>
  <node id="-3" lat="51.89782488051457" lon="-0.20393471842604702">
    <tag k="addr:postcode" v="SG1 1AW"/>
    <tag k="removemelater" v="yes"/>
  </node>
  <node id="-4" lat="51.90339878517967" lon="-0.20445375734208282">
    <tag k="addr:postcode" v="SG1 1AX"/>
    <tag k="removemelater" v="yes"/>
  </node>
  <node id="-5" lat="51.90374671740572" lon="-0.20250650912562715">
    <tag k="addr:postcode" v="SG1 1EH"/>
    <tag k="removemelater" v="yes"/>
  </node>
  <node id="-6" lat="51.89608418416313" lon="-0.20300127638944793">
    <tag k="addr:postcode" v="SG1 1FT"/>
    <tag k="removemelater" v="yes"/>
  </node>
  <node id="-7" lat="51.89608418416313" lon="-0.20300127638944793">
    <tag k="addr:postcode" v="SG1 1FY"/>
    <tag k="removemelater" v="yes"/>
  </node>
  <node id="-8" lat="51.90556084642874" lon="-0.2047164297164963">
    <tag k="addr:postcode" v="SG1 1FZ"/>
    <tag k="removemelater" v="yes"/>
  </node>
  <node id="-9" lat="51.89608418416313" lon="-0.20300127638944793">
    <tag k="addr:postcode" v="SG1 1WL"/>
    <tag k="removemelater" v="yes"/>
  </node>
  <node id="-10" lat="51.902715048579495" lon="-0.2038414242602862">
    <tag k="addr:postcode" v="SG1 1XE"/>
    <tag k="removemelater" v="yes"/>
  </node>
  <node id="-11" lat="51.90163782646847" lon="-0.20690787209116243">
    <tag k="addr:postcode" v="SG1 1XT"/>
    <tag k="removemelater" v="yes"/>
  </node>
  <node id="-12" lat="51.89608418416313" lon="-0.20300127638944793">
    <tag k="addr:postcode" v="SG1 2AY"/>
    <tag k="removemelater" v="yes"/>
  </node>
  <node id="-13" lat="51.89735478230123" lon="-0.2055377347170574">
    <tag k="addr:postcode" v="SG1 2BB"/>
    <tag k="removemelater" v="yes"/>
  </node>
  <node id="-14" lat="51.89608418416313" lon="-0.20300127638944793">
    <tag k="addr:postcode" v="SG1 2BG"/>
    <tag k="removemelater" v="yes"/>
  </node>
  <node id="-15" lat="51.888665361721884" lon="-0.20473585695207017">
    <tag k="addr:postcode" v="SG1 2FP"/>
    <tag k="removemelater" v="yes"/>
  </node>
  <node id="-16" lat="51.89608418416313" lon="-0.20300127638944793">
    <tag k="addr:postcode" v="SG1 2GH"/>
    <tag k="removemelater" v="yes"/>
  </node>
  <node id="-17" lat="51.89608418416313" lon="-0.20300127638944793">
    <tag k="addr:postcode" v="SG1 2GP"/>
    <tag k="removemelater" v="yes"/>
  </node>
  <node id="-18" lat="51.89735478230123" lon="-0.2055377347170574">
    <tag k="addr:postcode" v="SG1 2LX"/>
    <tag k="removemelater" v="yes"/>
  </node>
  <node id="-19" lat="51.89700112858984" lon="-0.20357513840822053">
    <tag k="addr:postcode" v="SG1 2NG"/>
    <tag k="removemelater" v="yes"/>
  </node>
  <node id="-20" lat="51.89608418416313" lon="-0.20300127638944793">
    <tag k="addr:postcode" v="SG1 2NY"/>
    <tag k="removemelater" v="yes"/>
  </node>
  <node id="-21" lat="51.89608418416313" lon="-0.20300127638944793">
    <tag k="addr:postcode" v="SG1 2SD"/>
    <tag k="removemelater" v="yes"/>
  </node>
  <node id="-22" lat="51.89700112858984" lon="-0.20357513840822053">
    <tag k="addr:postcode" v="SG1 2TP"/>
    <tag k="removemelater" v="yes"/>
  </node>
  <node id="-23" lat="51.89608418416313" lon="-0.20300127638944793">
    <tag k="addr:postcode" v="SG1 2UH"/>
    <tag k="removemelater" v="yes"/>
  </node>
  <node id="-24" lat="51.89608418416313" lon="-0.20300127638944793">
    <tag k="addr:postcode" v="SG1 2WD"/>
    <tag k="removemelater" v="yes"/>
  </node>
  <node id="-25" lat="51.89608418416313" lon="-0.20300127638944793">
    <tag k="addr:postcode" v="SG1 2WH"/>
    <tag k="removemelater" v="yes"/>
  </node>
  <node id="-26" lat="51.89608418416313" lon="-0.20300127638944793">
    <tag k="addr:postcode" v="SG1 2ZR"/>
    <tag k="removemelater" v="yes"/>
  </node>
  <node id="-27" lat="51.911358888938686" lon="-0.20755295009983055">
    <tag k="addr:postcode" v="SG1 3AL"/>
    <tag k="removemelater" v="yes"/>
  </node>
  <node id="-28" lat="51.91112656960931" lon="-0.20764943492337964">
    <tag k="addr:postcode" v="SG1 3AW"/>
    <tag k="removemelater" v="yes"/>
  </node>
  <node id="-29" lat="51.908707583066274" lon="-0.20704790863091696">
    <tag k="addr:postcode" v="SG1 3DB"/>
    <tag k="removemelater" v="yes"/>
  </node>
  <node id="-30" lat="51.89608418416313" lon="-0.20300127638944793">
    <tag k="addr:postcode" v="SG1 3DR"/>
    <tag k="removemelater" v="yes"/>
  </node>
  <node id="-31" lat="51.9113995657254" lon="-0.20845275511228112">
    <tag k="addr:postcode" v="SG1 3EA"/>
    <tag k="removemelater" v="yes"/>
  </node>
  <node id="-32" lat="51.90697107640805" lon="-0.2075677322901353">
    <tag k="addr:postcode" v="SG1 3FG"/>
    <tag k="removemelater" v="yes"/>
  </node>
  <node id="-33" lat="51.89608418416313" lon="-0.20300127638944793">
    <tag k="addr:postcode" v="SG1 3PQ"/>
    <tag k="removemelater" v="yes"/>
  </node>
  <node id="-34" lat="51.89608418416313" lon="-0.20300127638944793">
    <tag k="addr:postcode" v="SG1 3WY"/>
    <tag k="removemelater" v="yes"/>
  </node>
  <node id="-35" lat="51.89608418416313" lon="-0.20300127638944793">
    <tag k="addr:postcode" v="SG1 3ZN"/>
    <tag k="removemelater" v="yes"/>
  </node>
  <node id="-36" lat="51.89608418416313" lon="-0.20300127638944793">
    <tag k="addr:postcode" v="SG1 4WL"/>
    <tag k="removemelater" v="yes"/>
  </node>
  <node id="-37" lat="51.89608418416313" lon="-0.20300127638944793">
    <tag k="addr:postcode" v="SG1 4WY"/>
    <tag k="removemelater" v="yes"/>
  </node>
  <node id="-38" lat="51.89608418416313" lon="-0.20300127638944793">
    <tag k="addr:postcode" v="SG1 4XT"/>
    <tag k="removemelater" v="yes"/>
  </node>
  <node id="-39" lat="51.89608418416313" lon="-0.20300127638944793">
    <tag k="addr:postcode" v="SG1 4ZX"/>
    <tag k="removemelater" v="yes"/>
  </node>
  <node id="-40" lat="51.89608418416313" lon="-0.20300127638944793">
    <tag k="addr:postcode" v="SG1 5HS"/>
    <tag k="removemelater" v="yes"/>
  </node>
  <node id="-41" lat="51.89608418416313" lon="-0.20300127638944793">
    <tag k="addr:postcode" v="SG1 9AQ"/>
    <tag k="removemelater" v="yes"/>
  </node>
  <node id="-42" lat="51.89608418416313" lon="-0.20300127638944793">
    <tag k="addr:postcode" v="SG1 9BB"/>
    <tag k="removemelater" v="yes"/>
  </node>
  <node id="-43" lat="51.89608418416313" lon="-0.20300127638944793">
    <tag k="addr:postcode" v="SG1 9BE"/>
    <tag k="removemelater" v="yes"/>
  </node>
  <node id="-44" lat="51.89608418416313" lon="-0.20300127638944793">
    <tag k="addr:postcode" v="SG1 9BP"/>
    <tag k="removemelater" v="yes"/>
  </node>
  <node id="-45" lat="51.89608418416313" lon="-0.20300127638944793">
    <tag k="addr:postcode" v="SG1 9BU"/>
    <tag k="removemelater" v="yes"/>
  </node>
  <node id="-46" lat="51.89608418416313" lon="-0.20300127638944793">
    <tag k="addr:postcode" v="SG1 9EG"/>
    <tag k="removemelater" v="yes"/>
  </node>
  <node id="-47" lat="51.89608418416313" lon="-0.20300127638944793">
    <tag k="addr:postcode" v="SG1 9ET"/>
    <tag k="removemelater" v="yes"/>
  </node>
  <node id="-48" lat="51.89608418416313" lon="-0.20300127638944793">
    <tag k="addr:postcode" v="SG1 9EX"/>
    <tag k="removemelater" v="yes"/>
  </node>
  <node id="-49" lat="51.89608418416313" lon="-0.20300127638944793">
    <tag k="addr:postcode" v="SG1 9FA"/>
    <tag k="removemelater" v="yes"/>
  </node>
  <node id="-50" lat="51.89608418416313" lon="-0.20300127638944793">
    <tag k="addr:postcode" v="SG1 9FN"/>
    <tag k="removemelater" v="yes"/>
  </node>
  <node id="-51" lat="51.89608418416313" lon="-0.20300127638944793">
    <tag k="addr:postcode" v="SG1 9FZ"/>
    <tag k="removemelater" v="yes"/>
  </node>
  <node id="-52" lat="51.89608418416313" lon="-0.20300127638944793">
    <tag k="addr:postcode" v="SG1 9GA"/>
    <tag k="removemelater" v="yes"/>
  </node>
  <node id="-53" lat="51.89608418416313" lon="-0.20300127638944793">
    <tag k="addr:postcode" v="SG1 9GB"/>
    <tag k="removemelater" v="yes"/>
  </node>
  <node id="-54" lat="51.89608418416313" lon="-0.20300127638944793">
    <tag k="addr:postcode" v="SG1 9GF"/>
    <tag k="removemelater" v="yes"/>
  </node>
  <node id="-55" lat="51.89608418416313" lon="-0.20300127638944793">
    <tag k="addr:postcode" v="SG1 9GQ"/>
    <tag k="removemelater" v="yes"/>
  </node>
  <node id="-56" lat="51.89608418416313" lon="-0.20300127638944793">
    <tag k="addr:postcode" v="SG1 9GU"/>
    <tag k="removemelater" v="yes"/>
  </node>
  <node id="-57" lat="51.89608418416313" lon="-0.20300127638944793">
    <tag k="addr:postcode" v="SG1 9HD"/>
    <tag k="removemelater" v="yes"/>
  </node>
  <node id="-58" lat="51.89608418416313" lon="-0.20300127638944793">
    <tag k="addr:postcode" v="SG1 9HE"/>
    <tag k="removemelater" v="yes"/>
  </node>
  <node id="-59" lat="51.89608418416313" lon="-0.20300127638944793">
    <tag k="addr:postcode" v="SG1 9HP"/>
    <tag k="removemelater" v="yes"/>
  </node>
  <node id="-60" lat="51.89608418416313" lon="-0.20300127638944793">
    <tag k="addr:postcode" v="SG1 9HQ"/>
    <tag k="removemelater" v="yes"/>
  </node>
  <node id="-61" lat="51.89608418416313" lon="-0.20300127638944793">
    <tag k="addr:postcode" v="SG1 9HZ"/>
    <tag k="removemelater" v="yes"/>
  </node>
  <node id="-62" lat="51.89608418416313" lon="-0.20300127638944793">
    <tag k="addr:postcode" v="SG1 9JB"/>
    <tag k="removemelater" v="yes"/>
  </node>
  <node id="-63" lat="51.89608418416313" lon="-0.20300127638944793">
    <tag k="addr:postcode" v="SG1 9JF"/>
    <tag k="removemelater" v="yes"/>
  </node>
  <node id="-64" lat="51.89608418416313" lon="-0.20300127638944793">
    <tag k="addr:postcode" v="SG1 9JG"/>
    <tag k="removemelater" v="yes"/>
  </node>
  <node id="-65" lat="51.89608418416313" lon="-0.20300127638944793">
    <tag k="addr:postcode" v="SG1 9JR"/>
    <tag k="removemelater" v="yes"/>
  </node>
  <node id="-66" lat="51.89608418416313" lon="-0.20300127638944793">
    <tag k="addr:postcode" v="SG1 9JT"/>
    <tag k="removemelater" v="yes"/>
  </node>
  <node id="-67" lat="51.89608418416313" lon="-0.20300127638944793">
    <tag k="addr:postcode" v="SG1 9JZ"/>
    <tag k="removemelater" v="yes"/>
  </node>
  <node id="-68" lat="51.89608418416313" lon="-0.20300127638944793">
    <tag k="addr:postcode" v="SG1 9LA"/>
    <tag k="removemelater" v="yes"/>
  </node>
  <node id="-69" lat="51.89608418416313" lon="-0.20300127638944793">
    <tag k="addr:postcode" v="SG1 9LG"/>
    <tag k="removemelater" v="yes"/>
  </node>
  <node id="-70" lat="51.89608418416313" lon="-0.20300127638944793">
    <tag k="addr:postcode" v="SG1 9LJ"/>
    <tag k="removemelater" v="yes"/>
  </node>
  <node id="-71" lat="51.89608418416313" lon="-0.20300127638944793">
    <tag k="addr:postcode" v="SG1 9LL"/>
    <tag k="removemelater" v="yes"/>
  </node>
  <node id="-72" lat="51.89608418416313" lon="-0.20300127638944793">
    <tag k="addr:postcode" v="SG1 9LN"/>
    <tag k="removemelater" v="yes"/>
  </node>
  <node id="-73" lat="51.89608418416313" lon="-0.20300127638944793">
    <tag k="addr:postcode" v="SG1 9LP"/>
    <tag k="removemelater" v="yes"/>
  </node>
  <node id="-74" lat="51.89608418416313" lon="-0.20300127638944793">
    <tag k="addr:postcode" v="SG1 9NB"/>
    <tag k="removemelater" v="yes"/>
  </node>
  <node id="-75" lat="51.89608418416313" lon="-0.20300127638944793">
    <tag k="addr:postcode" v="SG1 9ND"/>
    <tag k="removemelater" v="yes"/>
  </node>
  <node id="-76" lat="51.89608418416313" lon="-0.20300127638944793">
    <tag k="addr:postcode" v="SG1 9NE"/>
    <tag k="removemelater" v="yes"/>
  </node>
  <node id="-77" lat="51.89608418416313" lon="-0.20300127638944793">
    <tag k="addr:postcode" v="SG1 9NF"/>
    <tag k="removemelater" v="yes"/>
  </node>
  <node id="-78" lat="51.89608418416313" lon="-0.20300127638944793">
    <tag k="addr:postcode" v="SG1 9NG"/>
    <tag k="removemelater" v="yes"/>
  </node>
  <node id="-79" lat="51.89608418416313" lon="-0.20300127638944793">
    <tag k="addr:postcode" v="SG1 9NL"/>
    <tag k="removemelater" v="yes"/>
  </node>
  <node id="-80" lat="51.89608418416313" lon="-0.20300127638944793">
    <tag k="addr:postcode" v="SG1 9NP"/>
    <tag k="removemelater" v="yes"/>
  </node>
  <node id="-81" lat="51.89608418416313" lon="-0.20300127638944793">
    <tag k="addr:postcode" v="SG1 9NT"/>
    <tag k="removemelater" v="yes"/>
  </node>
  <node id="-82" lat="51.89608418416313" lon="-0.20300127638944793">
    <tag k="addr:postcode" v="SG1 9NU"/>
    <tag k="removemelater" v="yes"/>
  </node>
  <node id="-83" lat="51.89608418416313" lon="-0.20300127638944793">
    <tag k="addr:postcode" v="SG1 9NW"/>
    <tag k="removemelater" v="yes"/>
  </node>
  <node id="-84" lat="51.89608418416313" lon="-0.20300127638944793">
    <tag k="addr:postcode" v="SG1 9NX"/>
    <tag k="removemelater" v="yes"/>
  </node>
  <node id="-85" lat="51.89608418416313" lon="-0.20300127638944793">
    <tag k="addr:postcode" v="SG1 9NY"/>
    <tag k="removemelater" v="yes"/>
  </node>
  <node id="-86" lat="51.850661559361896" lon="0.06252709061346809">
    <tag k="addr:postcode" v="SG10 6AA"/>
    <tag k="removemelater" v="yes"/>
  </node>
  <node id="-87" lat="51.83169528505019" lon="0.09112373166281355">
    <tag k="addr:postcode" v="SG10 6BW"/>
    <tag k="removemelater" v="yes"/>
  </node>
  <node id="-88" lat="51.83029786663473" lon="0.08930285419783189">
    <tag k="addr:postcode" v="SG10 6EW"/>
    <tag k="removemelater" v="yes"/>
  </node>
  <node id="-89" lat="51.86668636888194" lon="0.07374738092754347">
    <tag k="addr:postcode" v="SG10 6FA"/>
    <tag k="removemelater" v="yes"/>
  </node>
  <node id="-90" lat="51.8560230329365" lon="0.11256767510717904">
    <tag k="addr:postcode" v="SG10 6FB"/>
    <tag k="removemelater" v="yes"/>
  </node>
  <node id="-91" lat="51.85178128036228" lon="0.1089131135167802">
    <tag k="addr:postcode" v="SG10 6FF"/>
    <tag k="removemelater" v="yes"/>
  </node>
  <node id="-92" lat="51.805799251799016" lon="-0.02281232485217258">
    <tag k="addr:postcode" v="SG10 6HA"/>
    <tag k="removemelater" v="yes"/>
  </node>
  <node id="-93" lat="51.8659336439098" lon="0.07308818104641715">
    <tag k="addr:postcode" v="SG10 6HL"/>
    <tag k="removemelater" v="yes"/>
  </node>
  <node id="-94" lat="51.85774257259896" lon="0.07609532230449195">
    <tag k="addr:postcode" v="SG10 6HW"/>
    <tag k="removemelater" v="yes"/>
  </node>
  <node id="-95" lat="51.805799251799016" lon="-0.02281232485217258">
    <tag k="addr:postcode" v="SG10 6JU"/>
    <tag k="removemelater" v="yes"/>
  </node>
  <node id="-96" lat="51.805799251799016" lon="-0.02281232485217258">
    <tag k="addr:postcode" v="SG10 6LA"/>
    <tag k="removemelater" v="yes"/>
  </node>
  <node id="-97" lat="51.805799251799016" lon="-0.02281232485217258">
    <tag k="addr:postcode" v="SG11 1BF"/>
    <tag k="removemelater" v="yes"/>
  </node>
  <node id="-98" lat="51.877707787399395" lon="-0.03072979589713592">
    <tag k="addr:postcode" v="SG11 1HB"/>
    <tag k="removemelater" v="yes"/>
  </node>
  <node id="-99" lat="51.86730188198554" lon="0.04009126835608757">
    <tag k="addr:postcode" v="SG11 1NT"/>
    <tag k="removemelater" v="yes"/>
  </node>
  <node id="-100" lat="51.894466460541324" lon="-0.0017720528568121138">
    <tag k="addr:postcode" v="SG11 1TW"/>
    <tag k="removemelater" v="yes"/>
  </node>
  <node id="-101" lat="51.805799251799016" lon="-0.02281232485217258">
    <tag k="addr:postcode" v="SG11 1WA"/>
    <tag k="removemelater" v="yes"/>
  </node>
  <node id="-102" lat="51.88497750050061" lon="0.10960938952313486">
    <tag k="addr:postcode" v="SG11 2AP"/>
    <tag k="removemelater" v="yes"/>
  </node>
  <node id="-103" lat="51.87044228140585" lon="0.0805297147149345">
    <tag k="addr:postcode" v="SG11 2AS"/>
    <tag k="removemelater" v="yes"/>
  </node>
  <node id="-104" lat="51.884625919519415" lon="0.10915699269029087">
    <tag k="addr:postcode" v="SG11 2AU"/>
    <tag k="removemelater" v="yes"/>
  </node>
  <node id="-105" lat="51.88475635297962" lon="0.10689623930136483">
    <tag k="addr:postcode" v="SG11 2BB"/>
    <tag k="removemelater" v="yes"/>
  </node>
  <node id="-106" lat="51.805799251799016" lon="-0.02281232485217258">
    <tag k="addr:postcode" v="SG11 2BD"/>
    <tag k="removemelater" v="yes"/>
  </node>
  <node id="-107" lat="51.88449985952955" lon="0.10816297813676679">
    <tag k="addr:postcode" v="SG11 2EB"/>
    <tag k="removemelater" v="yes"/>
  </node>
  <node id="-108" lat="51.805799251799016" lon="-0.02281232485217258">
    <tag k="addr:postcode" v="SG11 2WN"/>
    <tag k="removemelater" v="yes"/>
  </node>
  <node id="-109" lat="51.805799251799016" lon="-0.02281232485217258">
    <tag k="addr:postcode" v="SG11 2XJ"/>
    <tag k="removemelater" v="yes"/>
  </node>
  <node id="-110" lat="51.805799251799016" lon="-0.02281232485217258">
    <tag k="addr:postcode" v="SG11 2ZG"/>
    <tag k="removemelater" v="yes"/>
  </node>
  <node id="-111" lat="51.805799251799016" lon="-0.02281232485217258">
    <tag k="addr:postcode" v="SG11 2ZJ"/>
    <tag k="removemelater" v="yes"/>
  </node>
  <node id="-112" lat="51.831460884790694" lon="-0.06266059047583164">
    <tag k="addr:postcode" v="SG12 0EZ"/>
    <tag k="removemelater" v="yes"/>
  </node>
  <node id="-113" lat="51.805799251799016" lon="-0.02281232485217258">
    <tag k="addr:postcode" v="SG12 0FR"/>
    <tag k="removemelater" v="yes"/>
  </node>
  <node id="-114" lat="51.805799251799016" lon="-0.02281232485217258">
    <tag k="addr:postcode" v="SG12 0FU"/>
    <tag k="removemelater" v="yes"/>
  </node>
  <node id="-115" lat="51.85332445872588" lon="-0.056886293842011784">
    <tag k="addr:postcode" v="SG12 0JB"/>
    <tag k="removemelater" v="yes"/>
  </node>
  <node id="-116" lat="51.805799251799016" lon="-0.02281232485217258">
    <tag k="addr:postcode" v="SG12 0NN"/>
    <tag k="removemelater" v="yes"/>
  </node>
  <node id="-117" lat="51.805799251799016" lon="-0.02281232485217258">
    <tag k="addr:postcode" v="SG12 0WR"/>
    <tag k="removemelater" v="yes"/>
  </node>
  <node id="-118" lat="51.805799251799016" lon="-0.02281232485217258">
    <tag k="addr:postcode" v="SG12 0WX"/>
    <tag k="removemelater" v="yes"/>
  </node>
  <node id="-119" lat="51.805799251799016" lon="-0.02281232485217258">
    <tag k="addr:postcode" v="SG12 0YH"/>
    <tag k="removemelater" v="yes"/>
  </node>
  <node id="-120" lat="51.805799251799016" lon="-0.02281232485217258">
    <tag k="addr:postcode" v="SG12 0YX"/>
    <tag k="removemelater" v="yes"/>
  </node>
  <node id="-121" lat="51.805799251799016" lon="-0.02281232485217258">
    <tag k="addr:postcode" v="SG12 0ZN"/>
    <tag k="removemelater" v="yes"/>
  </node>
  <node id="-122" lat="51.805799251799016" lon="-0.02281232485217258">
    <tag k="addr:postcode" v="SG12 4BU"/>
    <tag k="removemelater" v="yes"/>
  </node>
  <node id="-123" lat="51.805799251799016" lon="-0.02281232485217258">
    <tag k="addr:postcode" v="SG12 4DL"/>
    <tag k="removemelater" v="yes"/>
  </node>
  <node id="-124" lat="51.805799251799016" lon="-0.02281232485217258">
    <tag k="addr:postcode" v="SG12 4DN"/>
    <tag k="removemelater" v="yes"/>
  </node>
  <node id="-125" lat="51.805799251799016" lon="-0.02281232485217258">
    <tag k="addr:postcode" v="SG12 4DS"/>
    <tag k="removemelater" v="yes"/>
  </node>
  <node id="-126" lat="51.805799251799016" lon="-0.02281232485217258">
    <tag k="addr:postcode" v="SG12 4DY"/>
    <tag k="removemelater" v="yes"/>
  </node>
  <node id="-127" lat="51.805799251799016" lon="-0.02281232485217258">
    <tag k="addr:postcode" v="SG12 4DZ"/>
    <tag k="removemelater" v="yes"/>
  </node>
  <node id="-128" lat="51.805799251799016" lon="-0.02281232485217258">
    <tag k="addr:postcode" v="SG12 4ER"/>
    <tag k="removemelater" v="yes"/>
  </node>
  <node id="-129" lat="51.805799251799016" lon="-0.02281232485217258">
    <tag k="addr:postcode" v="SG12 4ET"/>
    <tag k="removemelater" v="yes"/>
  </node>
  <node id="-130" lat="51.805799251799016" lon="-0.02281232485217258">
    <tag k="addr:postcode" v="SG12 4EZ"/>
    <tag k="removemelater" v="yes"/>
  </node>
  <node id="-131" lat="51.805799251799016" lon="-0.02281232485217258">
    <tag k="addr:postcode" v="SG12 4FD"/>
    <tag k="removemelater" v="yes"/>
  </node>
  <node id="-132" lat="51.805799251799016" lon="-0.02281232485217258">
    <tag k="addr:postcode" v="SG12 4FH"/>
    <tag k="removemelater" v="yes"/>
  </node>
  <node id="-133" lat="51.805799251799016" lon="-0.02281232485217258">
    <tag k="addr:postcode" v="SG12 4FJ"/>
    <tag k="removemelater" v="yes"/>
  </node>
  <node id="-134" lat="51.805799251799016" lon="-0.02281232485217258">
    <tag k="addr:postcode" v="SG12 4FL"/>
    <tag k="removemelater" v="yes"/>
  </node>
  <node id="-135" lat="51.805799251799016" lon="-0.02281232485217258">
    <tag k="addr:postcode" v="SG12 4FN"/>
    <tag k="removemelater" v="yes"/>
  </node>
  <node id="-136" lat="51.805799251799016" lon="-0.02281232485217258">
    <tag k="addr:postcode" v="SG12 4FR"/>
    <tag k="removemelater" v="yes"/>
  </node>
  <node id="-137" lat="51.805799251799016" lon="-0.02281232485217258">
    <tag k="addr:postcode" v="SG12 4FS"/>
    <tag k="removemelater" v="yes"/>
  </node>
  <node id="-138" lat="51.805799251799016" lon="-0.02281232485217258">
    <tag k="addr:postcode" v="SG12 4FT"/>
    <tag k="removemelater" v="yes"/>
  </node>
  <node id="-139" lat="51.81048046413163" lon="-0.026335732783783396">
    <tag k="addr:postcode" v="SG12 7EA"/>
    <tag k="removemelater" v="yes"/>
  </node>
  <node id="-140" lat="51.8140111467745" lon="-0.013327292761153962">
    <tag k="addr:postcode" v="SG12 7FA"/>
    <tag k="removemelater" v="yes"/>
  </node>
  <node id="-141" lat="51.805799251799016" lon="-0.02281232485217258">
    <tag k="addr:postcode" v="SG12 7HF"/>
    <tag k="removemelater" v="yes"/>
  </node>
  <node id="-142" lat="51.82183067527143" lon="0.022756465204879596">
    <tag k="addr:postcode" v="SG12 7RH"/>
    <tag k="removemelater" v="yes"/>
  </node>
  <node id="-143" lat="51.805799251799016" lon="-0.02281232485217258">
    <tag k="addr:postcode" v="SG12 7SY"/>
    <tag k="removemelater" v="yes"/>
  </node>
  <node id="-144" lat="51.805799251799016" lon="-0.02281232485217258">
    <tag k="addr:postcode" v="SG12 7UG"/>
    <tag k="removemelater" v="yes"/>
  </node>
  <node id="-145" lat="51.805799251799016" lon="-0.02281232485217258">
    <tag k="addr:postcode" v="SG12 7WD"/>
    <tag k="removemelater" v="yes"/>
  </node>
  <node id="-146" lat="51.805799251799016" lon="-0.02281232485217258">
    <tag k="addr:postcode" v="SG12 7ZN"/>
    <tag k="removemelater" v="yes"/>
  </node>
  <node id="-147" lat="51.805799251799016" lon="-0.02281232485217258">
    <tag k="addr:postcode" v="SG12 8DF"/>
    <tag k="removemelater" v="yes"/>
  </node>
  <node id="-148" lat="51.77379376157103" lon="0.011751033093599567">
    <tag k="addr:postcode" v="SG12 8JS"/>
    <tag k="removemelater" v="yes"/>
  </node>
  <node id="-149" lat="51.781327454702364" lon="0.04314023025268366">
    <tag k="addr:postcode" v="SG12 8LD"/>
    <tag k="removemelater" v="yes"/>
  </node>
  <node id="-150" lat="51.79899678682324" lon="0.04058867901286644">
    <tag k="addr:postcode" v="SG12 8PS"/>
    <tag k="removemelater" v="yes"/>
  </node>
  <node id="-151" lat="51.79402496560443" lon="0.04001617284960322">
    <tag k="addr:postcode" v="SG12 8PT"/>
    <tag k="removemelater" v="yes"/>
  </node>
  <node id="-152" lat="51.82390579191732" lon="0.05914244267586194">
    <tag k="addr:postcode" v="SG12 8RA"/>
    <tag k="removemelater" v="yes"/>
  </node>
  <node id="-153" lat="51.821559702432104" lon="0.053434333116470376">
    <tag k="addr:postcode" v="SG12 8RQ"/>
    <tag k="removemelater" v="yes"/>
  </node>
  <node id="-154" lat="51.805799251799016" lon="-0.02281232485217258">
    <tag k="addr:postcode" v="SG12 8UJ"/>
    <tag k="removemelater" v="yes"/>
  </node>
  <node id="-155" lat="51.78745000798483" lon="0.008777220712114772">
    <tag k="addr:postcode" v="SG12 8UU"/>
    <tag k="removemelater" v="yes"/>
  </node>
  <node id="-156" lat="51.805799251799016" lon="-0.02281232485217258">
    <tag k="addr:postcode" v="SG12 8WD"/>
    <tag k="removemelater" v="yes"/>
  </node>
  <node id="-157" lat="51.805799251799016" lon="-0.02281232485217258">
    <tag k="addr:postcode" v="SG12 8WT"/>
    <tag k="removemelater" v="yes"/>
  </node>
  <node id="-158" lat="51.805799251799016" lon="-0.02281232485217258">
    <tag k="addr:postcode" v="SG12 8WU"/>
    <tag k="removemelater" v="yes"/>
  </node>
  <node id="-159" lat="51.805799251799016" lon="-0.02281232485217258">
    <tag k="addr:postcode" v="SG12 8WX"/>
    <tag k="removemelater" v="yes"/>
  </node>
  <node id="-160" lat="51.805799251799016" lon="-0.02281232485217258">
    <tag k="addr:postcode" v="SG12 8XZ"/>
    <tag k="removemelater" v="yes"/>
  </node>
  <node id="-161" lat="51.805799251799016" lon="-0.02281232485217258">
    <tag k="addr:postcode" v="SG12 8ZG"/>
    <tag k="removemelater" v="yes"/>
  </node>
  <node id="-162" lat="51.805799251799016" lon="-0.02281232485217258">
    <tag k="addr:postcode" v="SG12 8ZJ"/>
    <tag k="removemelater" v="yes"/>
  </node>
  <node id="-163" lat="51.81068817196703" lon="-0.0301420012643949">
    <tag k="addr:postcode" v="SG12 9BY"/>
    <tag k="removemelater" v="yes"/>
  </node>
  <node id="-164" lat="51.80298477574992" lon="-0.03085495310433794">
    <tag k="addr:postcode" v="SG12 9NX"/>
    <tag k="removemelater" v="yes"/>
  </node>
  <node id="-165" lat="51.800351432420584" lon="-0.03362387205902509">
    <tag k="addr:postcode" v="SG12 9PB"/>
    <tag k="removemelater" v="yes"/>
  </node>
  <node id="-166" lat="51.79371499935313" lon="-0.01968655078324971">
    <tag k="addr:postcode" v="SG12 9RP"/>
    <tag k="removemelater" v="yes"/>
  </node>
  <node id="-167" lat="51.79107581502195" lon="-0.027980570363284368">
    <tag k="addr:postcode" v="SG12 9RR"/>
    <tag k="removemelater" v="yes"/>
  </node>
  <node id="-168" lat="51.7865688127927" lon="-0.020913016314842724">
    <tag k="addr:postcode" v="SG12 9RT"/>
    <tag k="removemelater" v="yes"/>
  </node>
  <node id="-169" lat="51.808484950279535" lon="-0.0274528579713299">
    <tag k="addr:postcode" v="SG12 9UN"/>
    <tag k="removemelater" v="yes"/>
  </node>
  <node id="-170" lat="51.805799251799016" lon="-0.02281232485217258">
    <tag k="addr:postcode" v="SG12 9UW"/>
    <tag k="removemelater" v="yes"/>
  </node>
  <node id="-171" lat="51.805799251799016" lon="-0.02281232485217258">
    <tag k="addr:postcode" v="SG12 9WA"/>
    <tag k="removemelater" v="yes"/>
  </node>
  <node id="-172" lat="51.805799251799016" lon="-0.02281232485217258">
    <tag k="addr:postcode" v="SG12 9WD"/>
    <tag k="removemelater" v="yes"/>
  </node>
  <node id="-173" lat="51.805799251799016" lon="-0.02281232485217258">
    <tag k="addr:postcode" v="SG12 9WH"/>
    <tag k="removemelater" v="yes"/>
  </node>
  <node id="-174" lat="51.805799251799016" lon="-0.02281232485217258">
    <tag k="addr:postcode" v="SG12 9WR"/>
    <tag k="removemelater" v="yes"/>
  </node>
  <node id="-175" lat="51.805799251799016" lon="-0.02281232485217258">
    <tag k="addr:postcode" v="SG12 9WT"/>
    <tag k="removemelater" v="yes"/>
  </node>
  <node id="-176" lat="51.805799251799016" lon="-0.02281232485217258">
    <tag k="addr:postcode" v="SG12 9WZ"/>
    <tag k="removemelater" v="yes"/>
  </node>
  <node id="-177" lat="51.80311297414975" lon="-0.0487914960056837">
    <tag k="addr:postcode" v="SG13 7AD"/>
    <tag k="removemelater" v="yes"/>
  </node>
  <node id="-178" lat="51.80237579900816" lon="-0.06348715497207165">
    <tag k="addr:postcode" v="SG13 7BL"/>
    <tag k="removemelater" v="yes"/>
  </node>
  <node id="-179" lat="51.79573368607181" lon="-0.072980587736951">
    <tag k="addr:postcode" v="SG13 7GQ"/>
    <tag k="removemelater" v="yes"/>
  </node>
  <node id="-180" lat="51.80287319378105" lon="-0.06967373115142111">
    <tag k="addr:postcode" v="SG13 7JY"/>
    <tag k="removemelater" v="yes"/>
  </node>
  <node id="-181" lat="51.77784601337518" lon="-0.012901265761080095">
    <tag k="addr:postcode" v="SG13 7PG"/>
    <tag k="removemelater" v="yes"/>
  </node>
  <node id="-182" lat="51.79573368607181" lon="-0.072980587736951">
    <tag k="addr:postcode" v="SG13 7UF"/>
    <tag k="removemelater" v="yes"/>
  </node>
  <node id="-183" lat="51.79573368607181" lon="-0.072980587736951">
    <tag k="addr:postcode" v="SG13 7UG"/>
    <tag k="removemelater" v="yes"/>
  </node>
  <node id="-184" lat="51.79573368607181" lon="-0.072980587736951">
    <tag k="addr:postcode" v="SG13 7WQ"/>
    <tag k="removemelater" v="yes"/>
  </node>
  <node id="-185" lat="51.79573368607181" lon="-0.072980587736951">
    <tag k="addr:postcode" v="SG13 7XA"/>
    <tag k="removemelater" v="yes"/>
  </node>
  <node id="-186" lat="51.79573368607181" lon="-0.072980587736951">
    <tag k="addr:postcode" v="SG13 7XH"/>
    <tag k="removemelater" v="yes"/>
  </node>
  <node id="-187" lat="51.79485459523969" lon="-0.05944433766764245">
    <tag k="addr:postcode" v="SG13 7YH"/>
    <tag k="removemelater" v="yes"/>
  </node>
  <node id="-188" lat="51.79573368607181" lon="-0.072980587736951">
    <tag k="addr:postcode" v="SG13 7YR"/>
    <tag k="removemelater" v="yes"/>
  </node>
  <node id="-189" lat="51.79573368607181" lon="-0.072980587736951">
    <tag k="addr:postcode" v="SG13 7ZG"/>
    <tag k="removemelater" v="yes"/>
  </node>
  <node id="-190" lat="51.79573368607181" lon="-0.072980587736951">
    <tag k="addr:postcode" v="SG13 7ZX"/>
    <tag k="removemelater" v="yes"/>
  </node>
  <node id="-191" lat="51.79573368607181" lon="-0.072980587736951">
    <tag k="addr:postcode" v="SG13 8AB"/>
    <tag k="removemelater" v="yes"/>
  </node>
  <node id="-192" lat="51.79094519613596" lon="-0.08149353399864562">
    <tag k="addr:postcode" v="SG13 8DE"/>
    <tag k="removemelater" v="yes"/>
  </node>
  <node id="-193" lat="51.79094519613596" lon="-0.08149353399864562">
    <tag k="addr:postcode" v="SG13 8DF"/>
    <tag k="removemelater" v="yes"/>
  </node>
  <node id="-194" lat="51.79138834550295" lon="-0.08109770936449302">
    <tag k="addr:postcode" v="SG13 8DG"/>
    <tag k="removemelater" v="yes"/>
  </node>
  <node id="-195" lat="51.79094519613596" lon="-0.08149353399864562">
    <tag k="addr:postcode" v="SG13 8DN"/>
    <tag k="removemelater" v="yes"/>
  </node>
  <node id="-196" lat="51.79094519613596" lon="-0.08149353399864562">
    <tag k="addr:postcode" v="SG13 8DP"/>
    <tag k="removemelater" v="yes"/>
  </node>
  <node id="-197" lat="51.79094519613596" lon="-0.08149353399864562">
    <tag k="addr:postcode" v="SG13 8DQ"/>
    <tag k="removemelater" v="yes"/>
  </node>
  <node id="-198" lat="51.79138834550295" lon="-0.08109770936449302">
    <tag k="addr:postcode" v="SG13 8EP"/>
    <tag k="removemelater" v="yes"/>
  </node>
  <node id="-199" lat="51.79573368607181" lon="-0.072980587736951">
    <tag k="addr:postcode" v="SG13 8JZ"/>
    <tag k="removemelater" v="yes"/>
  </node>
  <node id="-200" lat="51.75566822856948" lon="-0.12492082404009464">
    <tag k="addr:postcode" v="SG13 8LR"/>
    <tag k="removemelater" v="yes"/>
  </node>
  <node id="-201" lat="51.79573368607181" lon="-0.072980587736951">
    <tag k="addr:postcode" v="SG13 8QY"/>
    <tag k="removemelater" v="yes"/>
  </node>
  <node id="-202" lat="51.726896147312665" lon="-0.11723544492815442">
    <tag k="addr:postcode" v="SG13 8RG"/>
    <tag k="removemelater" v="yes"/>
  </node>
  <node id="-203" lat="51.79573368607181" lon="-0.072980587736951">
    <tag k="addr:postcode" v="SG13 8RX"/>
    <tag k="removemelater" v="yes"/>
  </node>
  <node id="-204" lat="51.79094519613596" lon="-0.08149353399864562">
    <tag k="addr:postcode" v="SG13 8TB"/>
    <tag k="removemelater" v="yes"/>
  </node>
  <node id="-205" lat="51.79573368607181" lon="-0.072980587736951">
    <tag k="addr:postcode" v="SG13 8TJ"/>
    <tag k="removemelater" v="yes"/>
  </node>
  <node id="-206" lat="51.79138834550295" lon="-0.08109770936449302">
    <tag k="addr:postcode" v="SG13 8TN"/>
    <tag k="removemelater" v="yes"/>
  </node>
  <node id="-207" lat="51.79573368607181" lon="-0.072980587736951">
    <tag k="addr:postcode" v="SG13 8UF"/>
    <tag k="removemelater" v="yes"/>
  </node>
  <node id="-208" lat="51.79573368607181" lon="-0.072980587736951">
    <tag k="addr:postcode" v="SG13 8WE"/>
    <tag k="removemelater" v="yes"/>
  </node>
  <node id="-209" lat="51.79573368607181" lon="-0.072980587736951">
    <tag k="addr:postcode" v="SG13 8XE"/>
    <tag k="removemelater" v="yes"/>
  </node>
  <node id="-210" lat="51.79138834550295" lon="-0.08109770936449302">
    <tag k="addr:postcode" v="SG13 8YP"/>
    <tag k="removemelater" v="yes"/>
  </node>
  <node id="-211" lat="51.79573368607181" lon="-0.072980587736951">
    <tag k="addr:postcode" v="SG13 9AX"/>
    <tag k="removemelater" v="yes"/>
  </node>
  <node id="-212" lat="51.79573368607181" lon="-0.072980587736951">
    <tag k="addr:postcode" v="SG13 9AZ"/>
    <tag k="removemelater" v="yes"/>
  </node>
  <node id="-213" lat="51.79573368607181" lon="-0.072980587736951">
    <tag k="addr:postcode" v="SG13 9BA"/>
    <tag k="removemelater" v="yes"/>
  </node>
  <node id="-214" lat="51.79573368607181" lon="-0.072980587736951">
    <tag k="addr:postcode" v="SG13 9BB"/>
    <tag k="removemelater" v="yes"/>
  </node>
  <node id="-215" lat="51.79573368607181" lon="-0.072980587736951">
    <tag k="addr:postcode" v="SG13 9BD"/>
    <tag k="removemelater" v="yes"/>
  </node>
  <node id="-216" lat="51.79573368607181" lon="-0.072980587736951">
    <tag k="addr:postcode" v="SG13 9BE"/>
    <tag k="removemelater" v="yes"/>
  </node>
  <node id="-217" lat="51.79573368607181" lon="-0.072980587736951">
    <tag k="addr:postcode" v="SG13 9BG"/>
    <tag k="removemelater" v="yes"/>
  </node>
  <node id="-218" lat="51.79573368607181" lon="-0.072980587736951">
    <tag k="addr:postcode" v="SG13 9DA"/>
    <tag k="removemelater" v="yes"/>
  </node>
  <node id="-219" lat="51.79573368607181" lon="-0.072980587736951">
    <tag k="addr:postcode" v="SG13 9DG"/>
    <tag k="removemelater" v="yes"/>
  </node>
  <node id="-220" lat="51.79573368607181" lon="-0.072980587736951">
    <tag k="addr:postcode" v="SG13 9DH"/>
    <tag k="removemelater" v="yes"/>
  </node>
  <node id="-221" lat="51.79573368607181" lon="-0.072980587736951">
    <tag k="addr:postcode" v="SG13 9DR"/>
    <tag k="removemelater" v="yes"/>
  </node>
  <node id="-222" lat="51.79573368607181" lon="-0.072980587736951">
    <tag k="addr:postcode" v="SG13 9EX"/>
    <tag k="removemelater" v="yes"/>
  </node>
  <node id="-223" lat="51.79573368607181" lon="-0.072980587736951">
    <tag k="addr:postcode" v="SG13 9FG"/>
    <tag k="removemelater" v="yes"/>
  </node>
  <node id="-224" lat="51.79573368607181" lon="-0.072980587736951">
    <tag k="addr:postcode" v="SG13 9FY"/>
    <tag k="removemelater" v="yes"/>
  </node>
  <node id="-225" lat="51.79573368607181" lon="-0.072980587736951">
    <tag k="addr:postcode" v="SG13 9GN"/>
    <tag k="removemelater" v="yes"/>
  </node>
  <node id="-226" lat="51.79573368607181" lon="-0.072980587736951">
    <tag k="addr:postcode" v="SG13 9HA"/>
    <tag k="removemelater" v="yes"/>
  </node>
  <node id="-227" lat="51.79573368607181" lon="-0.072980587736951">
    <tag k="addr:postcode" v="SG13 9HG"/>
    <tag k="removemelater" v="yes"/>
  </node>
  <node id="-228" lat="51.79573368607181" lon="-0.072980587736951">
    <tag k="addr:postcode" v="SG13 9HN"/>
    <tag k="removemelater" v="yes"/>
  </node>
  <node id="-229" lat="51.79573368607181" lon="-0.072980587736951">
    <tag k="addr:postcode" v="SG13 9HT"/>
    <tag k="removemelater" v="yes"/>
  </node>
  <node id="-230" lat="51.79573368607181" lon="-0.072980587736951">
    <tag k="addr:postcode" v="SG13 9JH"/>
    <tag k="removemelater" v="yes"/>
  </node>
  <node id="-231" lat="51.79573368607181" lon="-0.072980587736951">
    <tag k="addr:postcode" v="SG13 9JL"/>
    <tag k="removemelater" v="yes"/>
  </node>
  <node id="-232" lat="51.79573368607181" lon="-0.072980587736951">
    <tag k="addr:postcode" v="SG13 9JP"/>
    <tag k="removemelater" v="yes"/>
  </node>
  <node id="-233" lat="51.79573368607181" lon="-0.072980587736951">
    <tag k="addr:postcode" v="SG13 9JQ"/>
    <tag k="removemelater" v="yes"/>
  </node>
  <node id="-234" lat="51.79573368607181" lon="-0.072980587736951">
    <tag k="addr:postcode" v="SG13 9JS"/>
    <tag k="removemelater" v="yes"/>
  </node>
  <node id="-235" lat="51.79573368607181" lon="-0.072980587736951">
    <tag k="addr:postcode" v="SG13 9JU"/>
    <tag k="removemelater" v="yes"/>
  </node>
  <node id="-236" lat="51.79573368607181" lon="-0.072980587736951">
    <tag k="addr:postcode" v="SG13 9JW"/>
    <tag k="removemelater" v="yes"/>
  </node>
  <node id="-237" lat="51.79573368607181" lon="-0.072980587736951">
    <tag k="addr:postcode" v="SG13 9JX"/>
    <tag k="removemelater" v="yes"/>
  </node>
  <node id="-238" lat="51.79573368607181" lon="-0.072980587736951">
    <tag k="addr:postcode" v="SG13 9JY"/>
    <tag k="removemelater" v="yes"/>
  </node>
  <node id="-239" lat="51.79573368607181" lon="-0.072980587736951">
    <tag k="addr:postcode" v="SG14 1AQ"/>
    <tag k="removemelater" v="yes"/>
  </node>
  <node id="-240" lat="51.796198544280585" lon="-0.07610775960393235">
    <tag k="addr:postcode" v="SG14 1DL"/>
    <tag k="removemelater" v="yes"/>
  </node>
  <node id="-241" lat="51.79573368607181" lon="-0.072980587736951">
    <tag k="addr:postcode" v="SG14 1PE"/>
    <tag k="removemelater" v="yes"/>
  </node>
  <node id="-242" lat="51.800051446628366" lon="-0.07746661036411212">
    <tag k="addr:postcode" v="SG14 1QR"/>
    <tag k="removemelater" v="yes"/>
  </node>
  <node id="-243" lat="51.79573368607181" lon="-0.072980587736951">
    <tag k="addr:postcode" v="SG14 1TB"/>
    <tag k="removemelater" v="yes"/>
  </node>
  <node id="-244" lat="51.79573368607181" lon="-0.072980587736951">
    <tag k="addr:postcode" v="SG14 1UD"/>
    <tag k="removemelater" v="yes"/>
  </node>
  <node id="-245" lat="51.79573368607181" lon="-0.072980587736951">
    <tag k="addr:postcode" v="SG14 1UY"/>
    <tag k="removemelater" v="yes"/>
  </node>
  <node id="-246" lat="51.79573368607181" lon="-0.072980587736951">
    <tag k="addr:postcode" v="SG14 2DD"/>
    <tag k="removemelater" v="yes"/>
  </node>
  <node id="-247" lat="51.79937611688998" lon="-0.10175927738603811">
    <tag k="addr:postcode" v="SG14 2DQ"/>
    <tag k="removemelater" v="yes"/>
  </node>
  <node id="-248" lat="51.802200515601996" lon="-0.1045994814312669">
    <tag k="addr:postcode" v="SG14 2EP"/>
    <tag k="removemelater" v="yes"/>
  </node>
  <node id="-249" lat="51.80072611259958" lon="-0.10573458983776228">
    <tag k="addr:postcode" v="SG14 2EU"/>
    <tag k="removemelater" v="yes"/>
  </node>
  <node id="-250" lat="51.79573368607181" lon="-0.072980587736951">
    <tag k="addr:postcode" v="SG14 2FT"/>
    <tag k="removemelater" v="yes"/>
  </node>
  <node id="-251" lat="51.79573368607181" lon="-0.072980587736951">
    <tag k="addr:postcode" v="SG14 2PF"/>
    <tag k="removemelater" v="yes"/>
  </node>
  <node id="-252" lat="51.79573368607181" lon="-0.072980587736951">
    <tag k="addr:postcode" v="SG14 2ZX"/>
    <tag k="removemelater" v="yes"/>
  </node>
  <node id="-253" lat="51.79573368607181" lon="-0.072980587736951">
    <tag k="addr:postcode" v="SG14 3HY"/>
    <tag k="removemelater" v="yes"/>
  </node>
  <node id="-254" lat="51.79573368607181" lon="-0.072980587736951">
    <tag k="addr:postcode" v="SG14 3PZ"/>
    <tag k="removemelater" v="yes"/>
  </node>
  <node id="-255" lat="51.79573368607181" lon="-0.072980587736951">
    <tag k="addr:postcode" v="SG14 3WU"/>
    <tag k="removemelater" v="yes"/>
  </node>
  <node id="-256" lat="51.79573368607181" lon="-0.072980587736951">
    <tag k="addr:postcode" v="SG14 3WY"/>
    <tag k="removemelater" v="yes"/>
  </node>
  <node id="-257" lat="51.98144390341271" lon="-0.20950365695820028">
    <tag k="addr:postcode" v="SG15 6GB"/>
    <tag k="removemelater" v="yes"/>
  </node>
  <node id="-258" lat="51.98144390341271" lon="-0.20950365695820028">
    <tag k="addr:postcode" v="SG15 6WZ"/>
    <tag k="removemelater" v="yes"/>
  </node>
  <node id="-259" lat="51.98144390341271" lon="-0.20950365695820028">
    <tag k="addr:postcode" v="SG15 6XW"/>
    <tag k="removemelater" v="yes"/>
  </node>
  <node id="-260" lat="52.00663463309263" lon="-0.2884579820638184">
    <tag k="addr:postcode" v="SG16 6EJ"/>
    <tag k="removemelater" v="yes"/>
  </node>
  <node id="-261" lat="52.00825767344905" lon="-0.30244186061264217">
    <tag k="addr:postcode" v="SG16 6QD"/>
    <tag k="removemelater" v="yes"/>
  </node>
  <node id="-262" lat="52.00825767344905" lon="-0.30244186061264217">
    <tag k="addr:postcode" v="SG16 6XN"/>
    <tag k="removemelater" v="yes"/>
  </node>
  <node id="-263" lat="52.03560567377528" lon="-0.3605392318217259">
    <tag k="addr:postcode" v="SG17 5TQ"/>
    <tag k="removemelater" v="yes"/>
  </node>
  <node id="-264" lat="52.03560567377528" lon="-0.3605392318217259">
    <tag k="addr:postcode" v="SG17 9SA"/>
    <tag k="removemelater" v="yes"/>
  </node>
  <node id="-265" lat="52.03560567377528" lon="-0.3605392318217259">
    <tag k="addr:postcode" v="SG17 9SB"/>
    <tag k="removemelater" v="yes"/>
  </node>
  <node id="-266" lat="52.03560567377528" lon="-0.3605392318217259">
    <tag k="addr:postcode" v="SG17 9SD"/>
    <tag k="removemelater" v="yes"/>
  </node>
  <node id="-267" lat="52.03560567377528" lon="-0.3605392318217259">
    <tag k="addr:postcode" v="SG17 9SE"/>
    <tag k="removemelater" v="yes"/>
  </node>
  <node id="-268" lat="52.03560567377528" lon="-0.3605392318217259">
    <tag k="addr:postcode" v="SG17 9SF"/>
    <tag k="removemelater" v="yes"/>
  </node>
  <node id="-269" lat="52.03560567377528" lon="-0.3605392318217259">
    <tag k="addr:postcode" v="SG17 9SG"/>
    <tag k="removemelater" v="yes"/>
  </node>
  <node id="-270" lat="52.03560567377528" lon="-0.3605392318217259">
    <tag k="addr:postcode" v="SG17 9SH"/>
    <tag k="removemelater" v="yes"/>
  </node>
  <node id="-271" lat="52.03560567377528" lon="-0.3605392318217259">
    <tag k="addr:postcode" v="SG17 9SJ"/>
    <tag k="removemelater" v="yes"/>
  </node>
  <node id="-272" lat="52.03560567377528" lon="-0.3605392318217259">
    <tag k="addr:postcode" v="SG17 9SL"/>
    <tag k="removemelater" v="yes"/>
  </node>
  <node id="-273" lat="52.03560567377528" lon="-0.3605392318217259">
    <tag k="addr:postcode" v="SG17 9SN"/>
    <tag k="removemelater" v="yes"/>
  </node>
  <node id="-274" lat="52.03560567377528" lon="-0.3605392318217259">
    <tag k="addr:postcode" v="SG17 9SP"/>
    <tag k="removemelater" v="yes"/>
  </node>
  <node id="-275" lat="52.03560567377528" lon="-0.3605392318217259">
    <tag k="addr:postcode" v="SG17 9SQ"/>
    <tag k="removemelater" v="yes"/>
  </node>
  <node id="-276" lat="52.03560567377528" lon="-0.3605392318217259">
    <tag k="addr:postcode" v="SG17 9SR"/>
    <tag k="removemelater" v="yes"/>
  </node>
  <node id="-277" lat="52.03560567377528" lon="-0.3605392318217259">
    <tag k="addr:postcode" v="SG17 9SS"/>
    <tag k="removemelater" v="yes"/>
  </node>
  <node id="-278" lat="52.03560567377528" lon="-0.3605392318217259">
    <tag k="addr:postcode" v="SG17 9ST"/>
    <tag k="removemelater" v="yes"/>
  </node>
  <node id="-279" lat="52.03560567377528" lon="-0.3605392318217259">
    <tag k="addr:postcode" v="SG17 9SU"/>
    <tag k="removemelater" v="yes"/>
  </node>
  <node id="-280" lat="52.03560567377528" lon="-0.3605392318217259">
    <tag k="addr:postcode" v="SG17 9SW"/>
    <tag k="removemelater" v="yes"/>
  </node>
  <node id="-281" lat="52.03560567377528" lon="-0.3605392318217259">
    <tag k="addr:postcode" v="SG17 9SX"/>
    <tag k="removemelater" v="yes"/>
  </node>
  <node id="-282" lat="52.03560567377528" lon="-0.3605392318217259">
    <tag k="addr:postcode" v="SG17 9SY"/>
    <tag k="removemelater" v="yes"/>
  </node>
  <node id="-283" lat="52.03560567377528" lon="-0.3605392318217259">
    <tag k="addr:postcode" v="SG17 9SZ"/>
    <tag k="removemelater" v="yes"/>
  </node>
  <node id="-284" lat="52.03560567377528" lon="-0.3605392318217259">
    <tag k="addr:postcode" v="SG17 9TA"/>
    <tag k="removemelater" v="yes"/>
  </node>
  <node id="-285" lat="52.03560567377528" lon="-0.3605392318217259">
    <tag k="addr:postcode" v="SG17 9TB"/>
    <tag k="removemelater" v="yes"/>
  </node>
  <node id="-286" lat="52.03560567377528" lon="-0.3605392318217259">
    <tag k="addr:postcode" v="SG17 9TD"/>
    <tag k="removemelater" v="yes"/>
  </node>
  <node id="-287" lat="52.03560567377528" lon="-0.3605392318217259">
    <tag k="addr:postcode" v="SG17 9TE"/>
    <tag k="removemelater" v="yes"/>
  </node>
  <node id="-288" lat="52.03560567377528" lon="-0.3605392318217259">
    <tag k="addr:postcode" v="SG17 9TF"/>
    <tag k="removemelater" v="yes"/>
  </node>
  <node id="-289" lat="52.03560567377528" lon="-0.3605392318217259">
    <tag k="addr:postcode" v="SG17 9TG"/>
    <tag k="removemelater" v="yes"/>
  </node>
  <node id="-290" lat="52.03560567377528" lon="-0.3605392318217259">
    <tag k="addr:postcode" v="SG17 9TH"/>
    <tag k="removemelater" v="yes"/>
  </node>
  <node id="-291" lat="52.03560567377528" lon="-0.3605392318217259">
    <tag k="addr:postcode" v="SG17 9TJ"/>
    <tag k="removemelater" v="yes"/>
  </node>
  <node id="-292" lat="52.03560567377528" lon="-0.3605392318217259">
    <tag k="addr:postcode" v="SG17 9TL"/>
    <tag k="removemelater" v="yes"/>
  </node>
  <node id="-293" lat="52.03560567377528" lon="-0.3605392318217259">
    <tag k="addr:postcode" v="SG17 9TN"/>
    <tag k="removemelater" v="yes"/>
  </node>
  <node id="-294" lat="52.03560567377528" lon="-0.3605392318217259">
    <tag k="addr:postcode" v="SG17 9TP"/>
    <tag k="removemelater" v="yes"/>
  </node>
  <node id="-295" lat="52.03560567377528" lon="-0.3605392318217259">
    <tag k="addr:postcode" v="SG17 9TQ"/>
    <tag k="removemelater" v="yes"/>
  </node>
  <node id="-296" lat="52.03560567377528" lon="-0.3605392318217259">
    <tag k="addr:postcode" v="SG17 9TR"/>
    <tag k="removemelater" v="yes"/>
  </node>
  <node id="-297" lat="52.03560567377528" lon="-0.3605392318217259">
    <tag k="addr:postcode" v="SG17 9TS"/>
    <tag k="removemelater" v="yes"/>
  </node>
  <node id="-298" lat="52.03560567377528" lon="-0.3605392318217259">
    <tag k="addr:postcode" v="SG17 9TT"/>
    <tag k="removemelater" v="yes"/>
  </node>
  <node id="-299" lat="52.03560567377528" lon="-0.3605392318217259">
    <tag k="addr:postcode" v="SG17 9TU"/>
    <tag k="removemelater" v="yes"/>
  </node>
  <node id="-300" lat="52.03560567377528" lon="-0.3605392318217259">
    <tag k="addr:postcode" v="SG17 9TW"/>
    <tag k="removemelater" v="yes"/>
  </node>
  <node id="-301" lat="52.03560567377528" lon="-0.3605392318217259">
    <tag k="addr:postcode" v="SG17 9TX"/>
    <tag k="removemelater" v="yes"/>
  </node>
  <node id="-302" lat="52.03560567377528" lon="-0.3605392318217259">
    <tag k="addr:postcode" v="SG17 9TY"/>
    <tag k="removemelater" v="yes"/>
  </node>
  <node id="-303" lat="52.03560567377528" lon="-0.3605392318217259">
    <tag k="addr:postcode" v="SG17 9TZ"/>
    <tag k="removemelater" v="yes"/>
  </node>
  <node id="-304" lat="52.03560567377528" lon="-0.3605392318217259">
    <tag k="addr:postcode" v="SG17 9UA"/>
    <tag k="removemelater" v="yes"/>
  </node>
  <node id="-305" lat="52.03560567377528" lon="-0.3605392318217259">
    <tag k="addr:postcode" v="SG17 9UB"/>
    <tag k="removemelater" v="yes"/>
  </node>
  <node id="-306" lat="52.03560567377528" lon="-0.3605392318217259">
    <tag k="addr:postcode" v="SG17 9UD"/>
    <tag k="removemelater" v="yes"/>
  </node>
  <node id="-307" lat="52.03560567377528" lon="-0.3605392318217259">
    <tag k="addr:postcode" v="SG17 9UE"/>
    <tag k="removemelater" v="yes"/>
  </node>
  <node id="-308" lat="52.03560567377528" lon="-0.3605392318217259">
    <tag k="addr:postcode" v="SG17 9UF"/>
    <tag k="removemelater" v="yes"/>
  </node>
  <node id="-309" lat="52.03560567377528" lon="-0.3605392318217259">
    <tag k="addr:postcode" v="SG17 9UG"/>
    <tag k="removemelater" v="yes"/>
  </node>
  <node id="-310" lat="52.03560567377528" lon="-0.3605392318217259">
    <tag k="addr:postcode" v="SG17 9UH"/>
    <tag k="removemelater" v="yes"/>
  </node>
  <node id="-311" lat="52.03560567377528" lon="-0.3605392318217259">
    <tag k="addr:postcode" v="SG17 9UJ"/>
    <tag k="removemelater" v="yes"/>
  </node>
  <node id="-312" lat="52.03560567377528" lon="-0.3605392318217259">
    <tag k="addr:postcode" v="SG17 9UL"/>
    <tag k="removemelater" v="yes"/>
  </node>
  <node id="-313" lat="52.03560567377528" lon="-0.3605392318217259">
    <tag k="addr:postcode" v="SG17 9UN"/>
    <tag k="removemelater" v="yes"/>
  </node>
  <node id="-314" lat="52.03560567377528" lon="-0.3605392318217259">
    <tag k="addr:postcode" v="SG17 9UP"/>
    <tag k="removemelater" v="yes"/>
  </node>
  <node id="-315" lat="52.03560567377528" lon="-0.3605392318217259">
    <tag k="addr:postcode" v="SG17 9UQ"/>
    <tag k="removemelater" v="yes"/>
  </node>
  <node id="-316" lat="52.03560567377528" lon="-0.3605392318217259">
    <tag k="addr:postcode" v="SG17 9UR"/>
    <tag k="removemelater" v="yes"/>
  </node>
  <node id="-317" lat="52.08591969354138" lon="-0.26245254301830934">
    <tag k="addr:postcode" v="SG18 0AZ"/>
    <tag k="removemelater" v="yes"/>
  </node>
  <node id="-318" lat="52.098055423015815" lon="-0.26530971366713435">
    <tag k="addr:postcode" v="SG18 0FG"/>
    <tag k="removemelater" v="yes"/>
  </node>
  <node id="-319" lat="52.08591969354138" lon="-0.26245254301830934">
    <tag k="addr:postcode" v="SG18 0WZ"/>
    <tag k="removemelater" v="yes"/>
  </node>
  <node id="-320" lat="52.08591969354138" lon="-0.26245254301830934">
    <tag k="addr:postcode" v="SG18 1AL"/>
    <tag k="removemelater" v="yes"/>
  </node>
  <node id="-321" lat="52.08591969354138" lon="-0.26245254301830934">
    <tag k="addr:postcode" v="SG18 1AP"/>
    <tag k="removemelater" v="yes"/>
  </node>
  <node id="-322" lat="52.08591969354138" lon="-0.26245254301830934">
    <tag k="addr:postcode" v="SG18 1AS"/>
    <tag k="removemelater" v="yes"/>
  </node>
  <node id="-323" lat="52.08591969354138" lon="-0.26245254301830934">
    <tag k="addr:postcode" v="SG18 1AT"/>
    <tag k="removemelater" v="yes"/>
  </node>
  <node id="-324" lat="52.08591969354138" lon="-0.26245254301830934">
    <tag k="addr:postcode" v="SG18 1AX"/>
    <tag k="removemelater" v="yes"/>
  </node>
  <node id="-325" lat="52.08591969354138" lon="-0.26245254301830934">
    <tag k="addr:postcode" v="SG18 1AY"/>
    <tag k="removemelater" v="yes"/>
  </node>
  <node id="-326" lat="52.08591969354138" lon="-0.26245254301830934">
    <tag k="addr:postcode" v="SG18 1BA"/>
    <tag k="removemelater" v="yes"/>
  </node>
  <node id="-327" lat="52.08591969354138" lon="-0.26245254301830934">
    <tag k="addr:postcode" v="SG18 1BB"/>
    <tag k="removemelater" v="yes"/>
  </node>
  <node id="-328" lat="52.08591969354138" lon="-0.26245254301830934">
    <tag k="addr:postcode" v="SG18 1BD"/>
    <tag k="removemelater" v="yes"/>
  </node>
  <node id="-329" lat="52.08591969354138" lon="-0.26245254301830934">
    <tag k="addr:postcode" v="SG18 8AA"/>
    <tag k="removemelater" v="yes"/>
  </node>
  <node id="-330" lat="52.0866947953806" lon="-0.2644074836520769">
    <tag k="addr:postcode" v="SG18 8AQ"/>
    <tag k="removemelater" v="yes"/>
  </node>
  <node id="-331" lat="52.08591969354138" lon="-0.26245254301830934">
    <tag k="addr:postcode" v="SG18 8EQ"/>
    <tag k="removemelater" v="yes"/>
  </node>
  <node id="-332" lat="52.088964655318385" lon="-0.24343152650899902">
    <tag k="addr:postcode" v="SG18 8FY"/>
    <tag k="removemelater" v="yes"/>
  </node>
  <node id="-333" lat="52.08903348962164" lon="-0.2450344649500055">
    <tag k="addr:postcode" v="SG18 8GB"/>
    <tag k="removemelater" v="yes"/>
  </node>
  <node id="-334" lat="52.09069596166898" lon="-0.24496923193278988">
    <tag k="addr:postcode" v="SG18 8GR"/>
    <tag k="removemelater" v="yes"/>
  </node>
  <node id="-335" lat="52.08951811163722" lon="-0.2431616432325773">
    <tag k="addr:postcode" v="SG18 8HS"/>
    <tag k="removemelater" v="yes"/>
  </node>
  <node id="-336" lat="52.08591969354138" lon="-0.26245254301830934">
    <tag k="addr:postcode" v="SG18 8TE"/>
    <tag k="removemelater" v="yes"/>
  </node>
  <node id="-337" lat="52.08591969354138" lon="-0.26245254301830934">
    <tag k="addr:postcode" v="SG18 8TF"/>
    <tag k="removemelater" v="yes"/>
  </node>
  <node id="-338" lat="52.086586562014915" lon="-0.2649955192967208">
    <tag k="addr:postcode" v="SG18 8UU"/>
    <tag k="removemelater" v="yes"/>
  </node>
  <node id="-339" lat="52.08591969354138" lon="-0.26245254301830934">
    <tag k="addr:postcode" v="SG18 8WR"/>
    <tag k="removemelater" v="yes"/>
  </node>
  <node id="-340" lat="52.08591969354138" lon="-0.26245254301830934">
    <tag k="addr:postcode" v="SG18 8XF"/>
    <tag k="removemelater" v="yes"/>
  </node>
  <node id="-341" lat="52.08591969354138" lon="-0.26245254301830934">
    <tag k="addr:postcode" v="SG18 8XU"/>
    <tag k="removemelater" v="yes"/>
  </node>
  <node id="-342" lat="52.085577257059725" lon="-0.32513901382313737">
    <tag k="addr:postcode" v="SG18 9DX"/>
    <tag k="removemelater" v="yes"/>
  </node>
  <node id="-343" lat="52.085577257059725" lon="-0.32513901382313737">
    <tag k="addr:postcode" v="SG18 9EA"/>
    <tag k="removemelater" v="yes"/>
  </node>
  <node id="-344" lat="52.0629982632121" lon="-0.32694662164035077">
    <tag k="addr:postcode" v="SG18 9LD"/>
    <tag k="removemelater" v="yes"/>
  </node>
  <node id="-345" lat="52.06480133316386" lon="-0.33172268077696815">
    <tag k="addr:postcode" v="SG18 9LJ"/>
    <tag k="removemelater" v="yes"/>
  </node>
  <node id="-346" lat="52.0577937073343" lon="-0.2752862664308726">
    <tag k="addr:postcode" v="SG18 9LZ"/>
    <tag k="removemelater" v="yes"/>
  </node>
  <node id="-347" lat="52.04720613484376" lon="-0.262131692778242">
    <tag k="addr:postcode" v="SG18 9PJ"/>
    <tag k="removemelater" v="yes"/>
  </node>
  <node id="-348" lat="52.07165947009969" lon="-0.23165001270691316">
    <tag k="addr:postcode" v="SG18 9SX"/>
    <tag k="removemelater" v="yes"/>
  </node>
  <node id="-349" lat="52.12857961248477" lon="-0.2885517173902048">
    <tag k="addr:postcode" v="SG19 1AA"/>
    <tag k="removemelater" v="yes"/>
  </node>
  <node id="-350" lat="52.129381017211436" lon="-0.2892515011178252">
    <tag k="addr:postcode" v="SG19 1EH"/>
    <tag k="removemelater" v="yes"/>
  </node>
  <node id="-351" lat="52.12857961248477" lon="-0.2885517173902048">
    <tag k="addr:postcode" v="SG19 1WZ"/>
    <tag k="removemelater" v="yes"/>
  </node>
  <node id="-352" lat="52.12857961248477" lon="-0.2885517173902048">
    <tag k="addr:postcode" v="SG19 1XZ"/>
    <tag k="removemelater" v="yes"/>
  </node>
  <node id="-353" lat="52.12857961248477" lon="-0.2885517173902048">
    <tag k="addr:postcode" v="SG19 1YL"/>
    <tag k="removemelater" v="yes"/>
  </node>
  <node id="-354" lat="52.12857961248477" lon="-0.2885517173902048">
    <tag k="addr:postcode" v="SG19 1ZW"/>
    <tag k="removemelater" v="yes"/>
  </node>
  <node id="-355" lat="52.17171984274204" lon="-0.30156417752018927">
    <tag k="addr:postcode" v="SG19 2AS"/>
    <tag k="removemelater" v="yes"/>
  </node>
  <node id="-356" lat="52.12857961248477" lon="-0.2885517173902048">
    <tag k="addr:postcode" v="SG19 2UG"/>
    <tag k="removemelater" v="yes"/>
  </node>
  <node id="-357" lat="52.12857961248477" lon="-0.2885517173902048">
    <tag k="addr:postcode" v="SG19 2WJ"/>
    <tag k="removemelater" v="yes"/>
  </node>
  <node id="-358" lat="52.12857961248477" lon="-0.2885517173902048">
    <tag k="addr:postcode" v="SG19 2YU"/>
    <tag k="removemelater" v="yes"/>
  </node>
  <node id="-359" lat="52.12857961248477" lon="-0.2885517173902048">
    <tag k="addr:postcode" v="SG19 2ZT"/>
    <tag k="removemelater" v="yes"/>
  </node>
  <node id="-360" lat="52.12857961248477" lon="-0.2885517173902048">
    <tag k="addr:postcode" v="SG19 3ZQ"/>
    <tag k="removemelater" v="yes"/>
  </node>
  <node id="-361" lat="52.12857961248477" lon="-0.2885517173902048">
    <tag k="addr:postcode" v="SG19 9AL"/>
    <tag k="removemelater" v="yes"/>
  </node>
  <node id="-362" lat="52.12857961248477" lon="-0.2885517173902048">
    <tag k="addr:postcode" v="SG19 9AS"/>
    <tag k="removemelater" v="yes"/>
  </node>
  <node id="-363" lat="52.12857961248477" lon="-0.2885517173902048">
    <tag k="addr:postcode" v="SG19 9AT"/>
    <tag k="removemelater" v="yes"/>
  </node>
  <node id="-364" lat="52.12857961248477" lon="-0.2885517173902048">
    <tag k="addr:postcode" v="SG19 9AU"/>
    <tag k="removemelater" v="yes"/>
  </node>
  <node id="-365" lat="52.12857961248477" lon="-0.2885517173902048">
    <tag k="addr:postcode" v="SG19 9AY"/>
    <tag k="removemelater" v="yes"/>
  </node>
  <node id="-366" lat="52.12857961248477" lon="-0.2885517173902048">
    <tag k="addr:postcode" v="SG19 9BA"/>
    <tag k="removemelater" v="yes"/>
  </node>
  <node id="-367" lat="52.12857961248477" lon="-0.2885517173902048">
    <tag k="addr:postcode" v="SG19 9BG"/>
    <tag k="removemelater" v="yes"/>
  </node>
  <node id="-368" lat="52.12857961248477" lon="-0.2885517173902048">
    <tag k="addr:postcode" v="SG19 9BL"/>
    <tag k="removemelater" v="yes"/>
  </node>
  <node id="-369" lat="52.12857961248477" lon="-0.2885517173902048">
    <tag k="addr:postcode" v="SG19 9BN"/>
    <tag k="removemelater" v="yes"/>
  </node>
  <node id="-370" lat="52.12857961248477" lon="-0.2885517173902048">
    <tag k="addr:postcode" v="SG19 9BP"/>
    <tag k="removemelater" v="yes"/>
  </node>
  <node id="-371" lat="51.89608418416313" lon="-0.20300127638944793">
    <tag k="addr:postcode" v="SG2 0RH"/>
    <tag k="removemelater" v="yes"/>
  </node>
  <node id="-372" lat="51.93077527333361" lon="-0.08167354316907023">
    <tag k="addr:postcode" v="SG2 7AR"/>
    <tag k="removemelater" v="yes"/>
  </node>
  <node id="-373" lat="51.88819731158563" lon="-0.100474872307215">
    <tag k="addr:postcode" v="SG2 7BZ"/>
    <tag k="removemelater" v="yes"/>
  </node>
  <node id="-374" lat="51.882386637617984" lon="-0.14830526309368725">
    <tag k="addr:postcode" v="SG2 7EG"/>
    <tag k="removemelater" v="yes"/>
  </node>
  <node id="-375" lat="51.89608418416313" lon="-0.20300127638944793">
    <tag k="addr:postcode" v="SG2 7JT"/>
    <tag k="removemelater" v="yes"/>
  </node>
  <node id="-376" lat="51.89802368830562" lon="-0.1267175639662401">
    <tag k="addr:postcode" v="SG2 7LL"/>
    <tag k="removemelater" v="yes"/>
  </node>
  <node id="-377" lat="51.90419828509915" lon="-0.175755274394556">
    <tag k="addr:postcode" v="SG2 8BL"/>
    <tag k="removemelater" v="yes"/>
  </node>
  <node id="-378" lat="51.89608418416313" lon="-0.20300127638944793">
    <tag k="addr:postcode" v="SG2 8WY"/>
    <tag k="removemelater" v="yes"/>
  </node>
  <node id="-379" lat="51.89608418416313" lon="-0.20300127638944793">
    <tag k="addr:postcode" v="SG2 9QE"/>
    <tag k="removemelater" v="yes"/>
  </node>
  <node id="-380" lat="51.89519851965936" lon="-0.15908601793846375">
    <tag k="addr:postcode" v="SG2 9RZ"/>
    <tag k="removemelater" v="yes"/>
  </node>
  <node id="-381" lat="51.89608418416313" lon="-0.20300127638944793">
    <tag k="addr:postcode" v="SG2 9WF"/>
    <tag k="removemelater" v="yes"/>
  </node>
  <node id="-382" lat="51.86573705470936" lon="-0.18255512862361717">
    <tag k="addr:postcode" v="SG3 6EP"/>
    <tag k="removemelater" v="yes"/>
  </node>
  <node id="-383" lat="51.86573705470936" lon="-0.18255512862361717">
    <tag k="addr:postcode" v="SG3 6UE"/>
    <tag k="removemelater" v="yes"/>
  </node>
  <node id="-384" lat="51.86573705470936" lon="-0.18255512862361717">
    <tag k="addr:postcode" v="SG3 6US"/>
    <tag k="removemelater" v="yes"/>
  </node>
  <node id="-385" lat="51.86573705470936" lon="-0.18255512862361717">
    <tag k="addr:postcode" v="SG3 6UT"/>
    <tag k="removemelater" v="yes"/>
  </node>
  <node id="-386" lat="51.86573705470936" lon="-0.18255512862361717">
    <tag k="addr:postcode" v="SG3 6UZ"/>
    <tag k="removemelater" v="yes"/>
  </node>
  <node id="-387" lat="51.86573705470936" lon="-0.18255512862361717">
    <tag k="addr:postcode" v="SG3 6WP"/>
    <tag k="removemelater" v="yes"/>
  </node>
  <node id="-388" lat="51.85214580796598" lon="-0.18343671652886576">
    <tag k="addr:postcode" v="SG3 6XA"/>
    <tag k="removemelater" v="yes"/>
  </node>
  <node id="-389" lat="51.86573705470936" lon="-0.18255512862361717">
    <tag k="addr:postcode" v="SG3 6XF"/>
    <tag k="removemelater" v="yes"/>
  </node>
  <node id="-390" lat="51.86573705470936" lon="-0.18255512862361717">
    <tag k="addr:postcode" v="SG3 6XN"/>
    <tag k="removemelater" v="yes"/>
  </node>
  <node id="-391" lat="51.86573705470936" lon="-0.18255512862361717">
    <tag k="addr:postcode" v="SG3 6XQ"/>
    <tag k="removemelater" v="yes"/>
  </node>
  <node id="-392" lat="51.86573705470936" lon="-0.18255512862361717">
    <tag k="addr:postcode" v="SG3 6XZ"/>
    <tag k="removemelater" v="yes"/>
  </node>
  <node id="-393" lat="51.86573705470936" lon="-0.18255512862361717">
    <tag k="addr:postcode" v="SG3 6YZ"/>
    <tag k="removemelater" v="yes"/>
  </node>
  <node id="-394" lat="51.86573705470936" lon="-0.18255512862361717">
    <tag k="addr:postcode" v="SG3 6ZG"/>
    <tag k="removemelater" v="yes"/>
  </node>
  <node id="-395" lat="51.957507504805214" lon="-0.2586457147989509">
    <tag k="addr:postcode" v="SG4 0AT"/>
    <tag k="removemelater" v="yes"/>
  </node>
  <node id="-396" lat="51.89608418416313" lon="-0.20300127638944793">
    <tag k="addr:postcode" v="SG4 0TB"/>
    <tag k="removemelater" v="yes"/>
  </node>
  <node id="-397" lat="51.89608418416313" lon="-0.20300127638944793">
    <tag k="addr:postcode" v="SG4 0WW"/>
    <tag k="removemelater" v="yes"/>
  </node>
  <node id="-398" lat="51.89608418416313" lon="-0.20300127638944793">
    <tag k="addr:postcode" v="SG4 0XZ"/>
    <tag k="removemelater" v="yes"/>
  </node>
  <node id="-399" lat="51.9517055445113" lon="-0.17016065914842918">
    <tag k="addr:postcode" v="SG4 7BZ"/>
    <tag k="removemelater" v="yes"/>
  </node>
  <node id="-400" lat="51.946366539879214" lon="-0.20711787915692956">
    <tag k="addr:postcode" v="SG4 7EH"/>
    <tag k="removemelater" v="yes"/>
  </node>
  <node id="-401" lat="51.89608418416313" lon="-0.20300127638944793">
    <tag k="addr:postcode" v="SG4 8FS"/>
    <tag k="removemelater" v="yes"/>
  </node>
  <node id="-402" lat="51.89608418416313" lon="-0.20300127638944793">
    <tag k="addr:postcode" v="SG4 8RF"/>
    <tag k="removemelater" v="yes"/>
  </node>
  <node id="-403" lat="51.89608418416313" lon="-0.20300127638944793">
    <tag k="addr:postcode" v="SG4 8RL"/>
    <tag k="removemelater" v="yes"/>
  </node>
  <node id="-404" lat="51.89608418416313" lon="-0.20300127638944793">
    <tag k="addr:postcode" v="SG4 8WJ"/>
    <tag k="removemelater" v="yes"/>
  </node>
  <node id="-405" lat="51.94254312703821" lon="-0.26459390801797467">
    <tag k="addr:postcode" v="SG4 9HX"/>
    <tag k="removemelater" v="yes"/>
  </node>
  <node id="-406" lat="51.943770693660134" lon="-0.26613242162399614">
    <tag k="addr:postcode" v="SG4 9LW"/>
    <tag k="removemelater" v="yes"/>
  </node>
  <node id="-407" lat="51.89608418416313" lon="-0.20300127638944793">
    <tag k="addr:postcode" v="SG4 9PE"/>
    <tag k="removemelater" v="yes"/>
  </node>
  <node id="-408" lat="51.950569108278025" lon="-0.26923164582337916">
    <tag k="addr:postcode" v="SG4 9RG"/>
    <tag k="removemelater" v="yes"/>
  </node>
  <node id="-409" lat="51.94666589253799" lon="-0.2697893228691334">
    <tag k="addr:postcode" v="SG4 9RY"/>
    <tag k="removemelater" v="yes"/>
  </node>
  <node id="-410" lat="51.95130858034863" lon="-0.26937779668744927">
    <tag k="addr:postcode" v="SG4 9ST"/>
    <tag k="removemelater" v="yes"/>
  </node>
  <node id="-411" lat="51.94728191888107" lon="-0.2750038297078076">
    <tag k="addr:postcode" v="SG4 9TW"/>
    <tag k="removemelater" v="yes"/>
  </node>
  <node id="-412" lat="51.94728213196241" lon="-0.27501837212374763">
    <tag k="addr:postcode" v="SG4 9TY"/>
    <tag k="removemelater" v="yes"/>
  </node>
  <node id="-413" lat="51.89608418416313" lon="-0.20300127638944793">
    <tag k="addr:postcode" v="SG4 9WQ"/>
    <tag k="removemelater" v="yes"/>
  </node>
  <node id="-414" lat="51.89608418416313" lon="-0.20300127638944793">
    <tag k="addr:postcode" v="SG4 9ZT"/>
    <tag k="removemelater" v="yes"/>
  </node>
  <node id="-415" lat="51.94692598943599" lon="-0.2764870842986343">
    <tag k="addr:postcode" v="SG5 1AD"/>
    <tag k="removemelater" v="yes"/>
  </node>
  <node id="-416" lat="51.9481799900689" lon="-0.28169187536312523">
    <tag k="addr:postcode" v="SG5 1EW"/>
    <tag k="removemelater" v="yes"/>
  </node>
  <node id="-417" lat="51.95037465027796" lon="-0.2798908997239025">
    <tag k="addr:postcode" v="SG5 1HD"/>
    <tag k="removemelater" v="yes"/>
  </node>
  <node id="-418" lat="51.94850606460018" lon="-0.27754693392082985">
    <tag k="addr:postcode" v="SG5 1HP"/>
    <tag k="removemelater" v="yes"/>
  </node>
  <node id="-419" lat="51.95467927811857" lon="-0.2741960295631824">
    <tag k="addr:postcode" v="SG5 1JX"/>
    <tag k="removemelater" v="yes"/>
  </node>
  <node id="-420" lat="51.95103095096336" lon="-0.27680990811501544">
    <tag k="addr:postcode" v="SG5 1LE"/>
    <tag k="removemelater" v="yes"/>
  </node>
  <node id="-421" lat="51.95283519169463" lon="-0.2759840160875348">
    <tag k="addr:postcode" v="SG5 1LL"/>
    <tag k="removemelater" v="yes"/>
  </node>
  <node id="-422" lat="51.950617820390484" lon="-0.2762291265385299">
    <tag k="addr:postcode" v="SG5 1ND"/>
    <tag k="removemelater" v="yes"/>
  </node>
  <node id="-423" lat="51.949303747231056" lon="-0.2743005454204505">
    <tag k="addr:postcode" v="SG5 1PJ"/>
    <tag k="removemelater" v="yes"/>
  </node>
  <node id="-424" lat="51.95163199853354" lon="-0.273032450824517">
    <tag k="addr:postcode" v="SG5 1PU"/>
    <tag k="removemelater" v="yes"/>
  </node>
  <node id="-425" lat="51.953741218895495" lon="-0.27461041751276255">
    <tag k="addr:postcode" v="SG5 1QS"/>
    <tag k="removemelater" v="yes"/>
  </node>
  <node id="-426" lat="51.95427018656551" lon="-0.27389157461838326">
    <tag k="addr:postcode" v="SG5 1SD"/>
    <tag k="removemelater" v="yes"/>
  </node>
  <node id="-427" lat="51.959427899285586" lon="-0.27364980590564386">
    <tag k="addr:postcode" v="SG5 1TD"/>
    <tag k="removemelater" v="yes"/>
  </node>
  <node id="-428" lat="51.95715071542742" lon="-0.2808686351742865">
    <tag k="addr:postcode" v="SG5 1UE"/>
    <tag k="removemelater" v="yes"/>
  </node>
  <node id="-429" lat="51.95899919328535" lon="-0.2843055267693913">
    <tag k="addr:postcode" v="SG5 1UL"/>
    <tag k="removemelater" v="yes"/>
  </node>
  <node id="-430" lat="51.89608418416313" lon="-0.20300127638944793">
    <tag k="addr:postcode" v="SG5 1ZP"/>
    <tag k="removemelater" v="yes"/>
  </node>
  <node id="-431" lat="51.89608418416313" lon="-0.20300127638944793">
    <tag k="addr:postcode" v="SG5 2DD"/>
    <tag k="removemelater" v="yes"/>
  </node>
  <node id="-432" lat="51.89608418416313" lon="-0.20300127638944793">
    <tag k="addr:postcode" v="SG5 2EH"/>
    <tag k="removemelater" v="yes"/>
  </node>
  <node id="-433" lat="51.89608418416313" lon="-0.20300127638944793">
    <tag k="addr:postcode" v="SG5 2GS"/>
    <tag k="removemelater" v="yes"/>
  </node>
  <node id="-434" lat="51.89608418416313" lon="-0.20300127638944793">
    <tag k="addr:postcode" v="SG5 2GU"/>
    <tag k="removemelater" v="yes"/>
  </node>
  <node id="-435" lat="51.95090693307691" lon="-0.29733262075648875">
    <tag k="addr:postcode" v="SG5 2HR"/>
    <tag k="removemelater" v="yes"/>
  </node>
  <node id="-436" lat="51.89608418416313" lon="-0.20300127638944793">
    <tag k="addr:postcode" v="SG5 2WZ"/>
    <tag k="removemelater" v="yes"/>
  </node>
  <node id="-437" lat="51.930152409582355" lon="-0.3419422518886119">
    <tag k="addr:postcode" v="SG5 3BB"/>
    <tag k="removemelater" v="yes"/>
  </node>
  <node id="-438" lat="51.930152409582355" lon="-0.3419422518886119">
    <tag k="addr:postcode" v="SG5 3FE"/>
    <tag k="removemelater" v="yes"/>
  </node>
  <node id="-439" lat="51.930152409582355" lon="-0.3419422518886119">
    <tag k="addr:postcode" v="SG5 3GD"/>
    <tag k="removemelater" v="yes"/>
  </node>
  <node id="-440" lat="51.979708701287514" lon="-0.28997951370385655">
    <tag k="addr:postcode" v="SG5 3RS"/>
    <tag k="removemelater" v="yes"/>
  </node>
  <node id="-441" lat="51.930152409582355" lon="-0.3419422518886119">
    <tag k="addr:postcode" v="SG5 3WY"/>
    <tag k="removemelater" v="yes"/>
  </node>
  <node id="-442" lat="51.99870766413315" lon="-0.2501570451685766">
    <tag k="addr:postcode" v="SG5 4BF"/>
    <tag k="removemelater" v="yes"/>
  </node>
  <node id="-443" lat="51.99831448240191" lon="-0.2521389471314299">
    <tag k="addr:postcode" v="SG5 4BP"/>
    <tag k="removemelater" v="yes"/>
  </node>
  <node id="-444" lat="51.99767942400795" lon="-0.24691956823780029">
    <tag k="addr:postcode" v="SG5 4FA"/>
    <tag k="removemelater" v="yes"/>
  </node>
  <node id="-445" lat="51.99738114409473" lon="-0.24802373731866625">
    <tag k="addr:postcode" v="SG5 4FB"/>
    <tag k="removemelater" v="yes"/>
  </node>
  <node id="-446" lat="51.99918634301159" lon="-0.24908952097587295">
    <tag k="addr:postcode" v="SG5 4FD"/>
    <tag k="removemelater" v="yes"/>
  </node>
  <node id="-447" lat="51.99698267484771" lon="-0.24541727635632316">
    <tag k="addr:postcode" v="SG5 4FE"/>
    <tag k="removemelater" v="yes"/>
  </node>
  <node id="-448" lat="51.99678704434806" lon="-0.2461678267741968">
    <tag k="addr:postcode" v="SG5 4FF"/>
    <tag k="removemelater" v="yes"/>
  </node>
  <node id="-449" lat="51.99853324019829" lon="-0.24628895482059357">
    <tag k="addr:postcode" v="SG5 4FG"/>
    <tag k="removemelater" v="yes"/>
  </node>
  <node id="-450" lat="51.99801365753053" lon="-0.24702304791095153">
    <tag k="addr:postcode" v="SG5 4FN"/>
    <tag k="removemelater" v="yes"/>
  </node>
  <node id="-451" lat="52.00225712446296" lon="-0.24758568609065928">
    <tag k="addr:postcode" v="SG5 4FX"/>
    <tag k="removemelater" v="yes"/>
  </node>
  <node id="-452" lat="52.00218036173715" lon="-0.24786548472812672">
    <tag k="addr:postcode" v="SG5 4FY"/>
    <tag k="removemelater" v="yes"/>
  </node>
  <node id="-453" lat="52.00218036173715" lon="-0.24786548472812672">
    <tag k="addr:postcode" v="SG5 4FZ"/>
    <tag k="removemelater" v="yes"/>
  </node>
  <node id="-454" lat="51.99879685449326" lon="-0.2513189547123124">
    <tag k="addr:postcode" v="SG5 4GA"/>
    <tag k="removemelater" v="yes"/>
  </node>
  <node id="-455" lat="51.99951710197983" lon="-0.24654185544366372">
    <tag k="addr:postcode" v="SG5 4GG"/>
    <tag k="removemelater" v="yes"/>
  </node>
  <node id="-456" lat="51.99832612113039" lon="-0.24989514649180689">
    <tag k="addr:postcode" v="SG5 4GQ"/>
    <tag k="removemelater" v="yes"/>
  </node>
  <node id="-457" lat="51.998825911972745" lon="-0.24843348612170355">
    <tag k="addr:postcode" v="SG5 4GW"/>
    <tag k="removemelater" v="yes"/>
  </node>
  <node id="-458" lat="51.99868612915975" lon="-0.24931298095619672">
    <tag k="addr:postcode" v="SG5 4GX"/>
    <tag k="removemelater" v="yes"/>
  </node>
  <node id="-459" lat="51.99762344345879" lon="-0.24980601462049343">
    <tag k="addr:postcode" v="SG5 4HF"/>
    <tag k="removemelater" v="yes"/>
  </node>
  <node id="-460" lat="51.89608418416313" lon="-0.20300127638944793">
    <tag k="addr:postcode" v="SG5 9AD"/>
    <tag k="removemelater" v="yes"/>
  </node>
  <node id="-461" lat="51.89608418416313" lon="-0.20300127638944793">
    <tag k="addr:postcode" v="SG5 9AR"/>
    <tag k="removemelater" v="yes"/>
  </node>
  <node id="-462" lat="51.89608418416313" lon="-0.20300127638944793">
    <tag k="addr:postcode" v="SG5 9AX"/>
    <tag k="removemelater" v="yes"/>
  </node>
  <node id="-463" lat="51.89608418416313" lon="-0.20300127638944793">
    <tag k="addr:postcode" v="SG5 9BJ"/>
    <tag k="removemelater" v="yes"/>
  </node>
  <node id="-464" lat="51.89608418416313" lon="-0.20300127638944793">
    <tag k="addr:postcode" v="SG5 9BR"/>
    <tag k="removemelater" v="yes"/>
  </node>
  <node id="-465" lat="51.89608418416313" lon="-0.20300127638944793">
    <tag k="addr:postcode" v="SG5 9DA"/>
    <tag k="removemelater" v="yes"/>
  </node>
  <node id="-466" lat="51.89608418416313" lon="-0.20300127638944793">
    <tag k="addr:postcode" v="SG5 9DD"/>
    <tag k="removemelater" v="yes"/>
  </node>
  <node id="-467" lat="51.89608418416313" lon="-0.20300127638944793">
    <tag k="addr:postcode" v="SG5 9DE"/>
    <tag k="removemelater" v="yes"/>
  </node>
  <node id="-468" lat="51.89608418416313" lon="-0.20300127638944793">
    <tag k="addr:postcode" v="SG5 9DF"/>
    <tag k="removemelater" v="yes"/>
  </node>
  <node id="-469" lat="51.89608418416313" lon="-0.20300127638944793">
    <tag k="addr:postcode" v="SG5 9DG"/>
    <tag k="removemelater" v="yes"/>
  </node>
  <node id="-470" lat="51.89608418416313" lon="-0.20300127638944793">
    <tag k="addr:postcode" v="SG5 9DT"/>
    <tag k="removemelater" v="yes"/>
  </node>
  <node id="-471" lat="51.89608418416313" lon="-0.20300127638944793">
    <tag k="addr:postcode" v="SG5 9EG"/>
    <tag k="removemelater" v="yes"/>
  </node>
  <node id="-472" lat="51.89608418416313" lon="-0.20300127638944793">
    <tag k="addr:postcode" v="SG5 9EH"/>
    <tag k="removemelater" v="yes"/>
  </node>
  <node id="-473" lat="51.89608418416313" lon="-0.20300127638944793">
    <tag k="addr:postcode" v="SG5 9EJ"/>
    <tag k="removemelater" v="yes"/>
  </node>
  <node id="-474" lat="51.89608418416313" lon="-0.20300127638944793">
    <tag k="addr:postcode" v="SG5 9EN"/>
    <tag k="removemelater" v="yes"/>
  </node>
  <node id="-475" lat="51.89608418416313" lon="-0.20300127638944793">
    <tag k="addr:postcode" v="SG5 9EP"/>
    <tag k="removemelater" v="yes"/>
  </node>
  <node id="-476" lat="51.89608418416313" lon="-0.20300127638944793">
    <tag k="addr:postcode" v="SG5 9ET"/>
    <tag k="removemelater" v="yes"/>
  </node>
  <node id="-477" lat="51.89608418416313" lon="-0.20300127638944793">
    <tag k="addr:postcode" v="SG5 9EU"/>
    <tag k="removemelater" v="yes"/>
  </node>
  <node id="-478" lat="51.89608418416313" lon="-0.20300127638944793">
    <tag k="addr:postcode" v="SG5 9EZ"/>
    <tag k="removemelater" v="yes"/>
  </node>
  <node id="-479" lat="51.89608418416313" lon="-0.20300127638944793">
    <tag k="addr:postcode" v="SG5 9FB"/>
    <tag k="removemelater" v="yes"/>
  </node>
  <node id="-480" lat="51.89608418416313" lon="-0.20300127638944793">
    <tag k="addr:postcode" v="SG5 9FD"/>
    <tag k="removemelater" v="yes"/>
  </node>
  <node id="-481" lat="51.89608418416313" lon="-0.20300127638944793">
    <tag k="addr:postcode" v="SG5 9FE"/>
    <tag k="removemelater" v="yes"/>
  </node>
  <node id="-482" lat="51.89608418416313" lon="-0.20300127638944793">
    <tag k="addr:postcode" v="SG5 9FF"/>
    <tag k="removemelater" v="yes"/>
  </node>
  <node id="-483" lat="51.89608418416313" lon="-0.20300127638944793">
    <tag k="addr:postcode" v="SG5 9FH"/>
    <tag k="removemelater" v="yes"/>
  </node>
  <node id="-484" lat="51.98283448563202" lon="-0.22414148872593936">
    <tag k="addr:postcode" v="SG6 1BH"/>
    <tag k="removemelater" v="yes"/>
  </node>
  <node id="-485" lat="51.988960113839724" lon="-0.21181086758879716">
    <tag k="addr:postcode" v="SG6 1DG"/>
    <tag k="removemelater" v="yes"/>
  </node>
  <node id="-486" lat="51.989886955235995" lon="-0.21126418670401673">
    <tag k="addr:postcode" v="SG6 1EB"/>
    <tag k="removemelater" v="yes"/>
  </node>
  <node id="-487" lat="51.98316412908918" lon="-0.2239391403320027">
    <tag k="addr:postcode" v="SG6 1FG"/>
    <tag k="removemelater" v="yes"/>
  </node>
  <node id="-488" lat="51.98723926400407" lon="-0.2068549497671585">
    <tag k="addr:postcode" v="SG6 1HB"/>
    <tag k="removemelater" v="yes"/>
  </node>
  <node id="-489" lat="51.98481168308127" lon="-0.21574788792108296">
    <tag k="addr:postcode" v="SG6 1HE"/>
    <tag k="removemelater" v="yes"/>
  </node>
  <node id="-490" lat="51.98144390341271" lon="-0.20950365695820028">
    <tag k="addr:postcode" v="SG6 1HQ"/>
    <tag k="removemelater" v="yes"/>
  </node>
  <node id="-491" lat="51.98304235989596" lon="-0.2146969041810993">
    <tag k="addr:postcode" v="SG6 1LB"/>
    <tag k="removemelater" v="yes"/>
  </node>
  <node id="-492" lat="51.98094544639239" lon="-0.21694995922183027">
    <tag k="addr:postcode" v="SG6 1LJ"/>
    <tag k="removemelater" v="yes"/>
  </node>
  <node id="-493" lat="51.986328338715225" lon="-0.204313616274001">
    <tag k="addr:postcode" v="SG6 1LU"/>
    <tag k="removemelater" v="yes"/>
  </node>
  <node id="-494" lat="51.984909501905605" lon="-0.20502569776783033">
    <tag k="addr:postcode" v="SG6 1NR"/>
    <tag k="removemelater" v="yes"/>
  </node>
  <node id="-495" lat="51.986328338715225" lon="-0.204313616274001">
    <tag k="addr:postcode" v="SG6 1NW"/>
    <tag k="removemelater" v="yes"/>
  </node>
  <node id="-496" lat="51.97680191430218" lon="-0.21527988420077596">
    <tag k="addr:postcode" v="SG6 1QX"/>
    <tag k="removemelater" v="yes"/>
  </node>
  <node id="-497" lat="51.97510982837387" lon="-0.22170972208694334">
    <tag k="addr:postcode" v="SG6 1RS"/>
    <tag k="removemelater" v="yes"/>
  </node>
  <node id="-498" lat="51.980927434104025" lon="-0.21220358933400515">
    <tag k="addr:postcode" v="SG6 1UG"/>
    <tag k="removemelater" v="yes"/>
  </node>
  <node id="-499" lat="51.98272048558194" lon="-0.2024046401719902">
    <tag k="addr:postcode" v="SG6 1UP"/>
    <tag k="removemelater" v="yes"/>
  </node>
  <node id="-500" lat="51.96139149113728" lon="-0.21478583484389338">
    <tag k="addr:postcode" v="SG6 2AS"/>
    <tag k="removemelater" v="yes"/>
  </node>
  <node id="-501" lat="51.96993180026321" lon="-0.21406793473198835">
    <tag k="addr:postcode" v="SG6 2AZ"/>
    <tag k="removemelater" v="yes"/>
  </node>
  <node id="-502" lat="51.97034364979565" lon="-0.21217355484192857">
    <tag k="addr:postcode" v="SG6 2LU"/>
    <tag k="removemelater" v="yes"/>
  </node>
  <node id="-503" lat="51.97034364979565" lon="-0.21217355484192857">
    <tag k="addr:postcode" v="SG6 2LX"/>
    <tag k="removemelater" v="yes"/>
  </node>
  <node id="-504" lat="51.95006594306385" lon="-0.23413816140598415">
    <tag k="addr:postcode" v="SG6 2UB"/>
    <tag k="removemelater" v="yes"/>
  </node>
  <node id="-505" lat="51.98144390341271" lon="-0.20950365695820028">
    <tag k="addr:postcode" v="SG6 2XB"/>
    <tag k="removemelater" v="yes"/>
  </node>
  <node id="-506" lat="51.98144390341271" lon="-0.20950365695820028">
    <tag k="addr:postcode" v="SG6 2YY"/>
    <tag k="removemelater" v="yes"/>
  </node>
  <node id="-507" lat="51.97931049172599" lon="-0.22896951851978015">
    <tag k="addr:postcode" v="SG6 3AL"/>
    <tag k="removemelater" v="yes"/>
  </node>
  <node id="-508" lat="51.979269511713866" lon="-0.22863623069518357">
    <tag k="addr:postcode" v="SG6 3AQ"/>
    <tag k="removemelater" v="yes"/>
  </node>
  <node id="-509" lat="51.98076653324771" lon="-0.2253445143879488">
    <tag k="addr:postcode" v="SG6 3BE"/>
    <tag k="removemelater" v="yes"/>
  </node>
  <node id="-510" lat="51.97999785977766" lon="-0.22803960893682157">
    <tag k="addr:postcode" v="SG6 3BH"/>
    <tag k="removemelater" v="yes"/>
  </node>
  <node id="-511" lat="51.978621195417105" lon="-0.2267834562492876">
    <tag k="addr:postcode" v="SG6 3DY"/>
    <tag k="removemelater" v="yes"/>
  </node>
  <node id="-512" lat="51.9784434261048" lon="-0.22453355434338373">
    <tag k="addr:postcode" v="SG6 3EG"/>
    <tag k="removemelater" v="yes"/>
  </node>
  <node id="-513" lat="51.97964257663927" lon="-0.22713627505309783">
    <tag k="addr:postcode" v="SG6 3ET"/>
    <tag k="removemelater" v="yes"/>
  </node>
  <node id="-514" lat="51.98144390341271" lon="-0.20950365695820028">
    <tag k="addr:postcode" v="SG6 3GF"/>
    <tag k="removemelater" v="yes"/>
  </node>
  <node id="-515" lat="51.976933926859424" lon="-0.2281896254072522">
    <tag k="addr:postcode" v="SG6 3HL"/>
    <tag k="removemelater" v="yes"/>
  </node>
  <node id="-516" lat="51.976731836576974" lon="-0.2285033632375583">
    <tag k="addr:postcode" v="SG6 3HN"/>
    <tag k="removemelater" v="yes"/>
  </node>
  <node id="-517" lat="51.977163423342354" lon="-0.22670997400069212">
    <tag k="addr:postcode" v="SG6 3HR"/>
    <tag k="removemelater" v="yes"/>
  </node>
  <node id="-518" lat="51.9768131685037" lon="-0.2273353349284152">
    <tag k="addr:postcode" v="SG6 3HW"/>
    <tag k="removemelater" v="yes"/>
  </node>
  <node id="-519" lat="51.97932690134201" lon="-0.23006095107304927">
    <tag k="addr:postcode" v="SG6 3RZ"/>
    <tag k="removemelater" v="yes"/>
  </node>
  <node id="-520" lat="51.97932690134201" lon="-0.23006095107304927">
    <tag k="addr:postcode" v="SG6 3SA"/>
    <tag k="removemelater" v="yes"/>
  </node>
  <node id="-521" lat="51.97601398738443" lon="-0.22979839818673414">
    <tag k="addr:postcode" v="SG6 3TT"/>
    <tag k="removemelater" v="yes"/>
  </node>
  <node id="-522" lat="51.98144390341271" lon="-0.20950365695820028">
    <tag k="addr:postcode" v="SG6 3WX"/>
    <tag k="removemelater" v="yes"/>
  </node>
  <node id="-523" lat="51.97912418410246" lon="-0.22913703735437674">
    <tag k="addr:postcode" v="SG6 3XU"/>
    <tag k="removemelater" v="yes"/>
  </node>
  <node id="-524" lat="51.98144390341271" lon="-0.20950365695820028">
    <tag k="addr:postcode" v="SG6 3XZ"/>
    <tag k="removemelater" v="yes"/>
  </node>
  <node id="-525" lat="51.98144390341271" lon="-0.20950365695820028">
    <tag k="addr:postcode" v="SG6 3ZJ"/>
    <tag k="removemelater" v="yes"/>
  </node>
  <node id="-526" lat="51.977811758520204" lon="-0.22557776885562766">
    <tag k="addr:postcode" v="SG6 3ZU"/>
    <tag k="removemelater" v="yes"/>
  </node>
  <node id="-527" lat="51.98144390341271" lon="-0.20950365695820028">
    <tag k="addr:postcode" v="SG6 4BX"/>
    <tag k="removemelater" v="yes"/>
  </node>
  <node id="-528" lat="51.991367866486186" lon="-0.22654210676421566">
    <tag k="addr:postcode" v="SG6 4NB"/>
    <tag k="removemelater" v="yes"/>
  </node>
  <node id="-529" lat="51.98116297682264" lon="-0.2301778793340664">
    <tag k="addr:postcode" v="SG6 4TR"/>
    <tag k="removemelater" v="yes"/>
  </node>
  <node id="-530" lat="51.98450157786712" lon="-0.22438136614595366">
    <tag k="addr:postcode" v="SG6 4UF"/>
    <tag k="removemelater" v="yes"/>
  </node>
  <node id="-531" lat="51.98144390341271" lon="-0.20950365695820028">
    <tag k="addr:postcode" v="SG6 9AS"/>
    <tag k="removemelater" v="yes"/>
  </node>
  <node id="-532" lat="51.98144390341271" lon="-0.20950365695820028">
    <tag k="addr:postcode" v="SG6 9BL"/>
    <tag k="removemelater" v="yes"/>
  </node>
  <node id="-533" lat="51.98144390341271" lon="-0.20950365695820028">
    <tag k="addr:postcode" v="SG6 9BN"/>
    <tag k="removemelater" v="yes"/>
  </node>
  <node id="-534" lat="51.98144390341271" lon="-0.20950365695820028">
    <tag k="addr:postcode" v="SG6 9DE"/>
    <tag k="removemelater" v="yes"/>
  </node>
  <node id="-535" lat="51.98144390341271" lon="-0.20950365695820028">
    <tag k="addr:postcode" v="SG6 9DN"/>
    <tag k="removemelater" v="yes"/>
  </node>
  <node id="-536" lat="51.98144390341271" lon="-0.20950365695820028">
    <tag k="addr:postcode" v="SG6 9DT"/>
    <tag k="removemelater" v="yes"/>
  </node>
  <node id="-537" lat="51.98144390341271" lon="-0.20950365695820028">
    <tag k="addr:postcode" v="SG6 9DZ"/>
    <tag k="removemelater" v="yes"/>
  </node>
  <node id="-538" lat="51.98144390341271" lon="-0.20950365695820028">
    <tag k="addr:postcode" v="SG6 9EA"/>
    <tag k="removemelater" v="yes"/>
  </node>
  <node id="-539" lat="51.98144390341271" lon="-0.20950365695820028">
    <tag k="addr:postcode" v="SG6 9ED"/>
    <tag k="removemelater" v="yes"/>
  </node>
  <node id="-540" lat="51.98144390341271" lon="-0.20950365695820028">
    <tag k="addr:postcode" v="SG6 9EQ"/>
    <tag k="removemelater" v="yes"/>
  </node>
  <node id="-541" lat="51.98144390341271" lon="-0.20950365695820028">
    <tag k="addr:postcode" v="SG6 9EU"/>
    <tag k="removemelater" v="yes"/>
  </node>
  <node id="-542" lat="51.98144390341271" lon="-0.20950365695820028">
    <tag k="addr:postcode" v="SG6 9FH"/>
    <tag k="removemelater" v="yes"/>
  </node>
  <node id="-543" lat="51.98144390341271" lon="-0.20950365695820028">
    <tag k="addr:postcode" v="SG6 9FT"/>
    <tag k="removemelater" v="yes"/>
  </node>
  <node id="-544" lat="51.98144390341271" lon="-0.20950365695820028">
    <tag k="addr:postcode" v="SG6 9FX"/>
    <tag k="removemelater" v="yes"/>
  </node>
  <node id="-545" lat="51.98144390341271" lon="-0.20950365695820028">
    <tag k="addr:postcode" v="SG6 9GB"/>
    <tag k="removemelater" v="yes"/>
  </node>
  <node id="-546" lat="51.98144390341271" lon="-0.20950365695820028">
    <tag k="addr:postcode" v="SG6 9GG"/>
    <tag k="removemelater" v="yes"/>
  </node>
  <node id="-547" lat="51.98144390341271" lon="-0.20950365695820028">
    <tag k="addr:postcode" v="SG6 9GN"/>
    <tag k="removemelater" v="yes"/>
  </node>
  <node id="-548" lat="51.98144390341271" lon="-0.20950365695820028">
    <tag k="addr:postcode" v="SG6 9GP"/>
    <tag k="removemelater" v="yes"/>
  </node>
  <node id="-549" lat="51.98144390341271" lon="-0.20950365695820028">
    <tag k="addr:postcode" v="SG6 9GQ"/>
    <tag k="removemelater" v="yes"/>
  </node>
  <node id="-550" lat="51.98144390341271" lon="-0.20950365695820028">
    <tag k="addr:postcode" v="SG6 9GR"/>
    <tag k="removemelater" v="yes"/>
  </node>
  <node id="-551" lat="51.98144390341271" lon="-0.20950365695820028">
    <tag k="addr:postcode" v="SG6 9GS"/>
    <tag k="removemelater" v="yes"/>
  </node>
  <node id="-552" lat="51.98144390341271" lon="-0.20950365695820028">
    <tag k="addr:postcode" v="SG6 9GT"/>
    <tag k="removemelater" v="yes"/>
  </node>
  <node id="-553" lat="51.97777625141596" lon="-0.22560829298247112">
    <tag k="addr:postcode" v="SG6 9SB"/>
    <tag k="removemelater" v="yes"/>
  </node>
  <node id="-554" lat="51.97777625141596" lon="-0.22560829298247112">
    <tag k="addr:postcode" v="SG6 9SD"/>
    <tag k="removemelater" v="yes"/>
  </node>
  <node id="-555" lat="51.97777625141596" lon="-0.22560829298247112">
    <tag k="addr:postcode" v="SG6 9SE"/>
    <tag k="removemelater" v="yes"/>
  </node>
  <node id="-556" lat="51.97777625141596" lon="-0.22560829298247112">
    <tag k="addr:postcode" v="SG6 9SF"/>
    <tag k="removemelater" v="yes"/>
  </node>
  <node id="-557" lat="51.97777625141596" lon="-0.22560829298247112">
    <tag k="addr:postcode" v="SG6 9SG"/>
    <tag k="removemelater" v="yes"/>
  </node>
  <node id="-558" lat="51.97777625141596" lon="-0.22560829298247112">
    <tag k="addr:postcode" v="SG6 9SH"/>
    <tag k="removemelater" v="yes"/>
  </node>
  <node id="-559" lat="51.97777625141596" lon="-0.22560829298247112">
    <tag k="addr:postcode" v="SG6 9SJ"/>
    <tag k="removemelater" v="yes"/>
  </node>
  <node id="-560" lat="51.97777625141596" lon="-0.22560829298247112">
    <tag k="addr:postcode" v="SG6 9SL"/>
    <tag k="removemelater" v="yes"/>
  </node>
  <node id="-561" lat="51.97777625141596" lon="-0.22560829298247112">
    <tag k="addr:postcode" v="SG6 9SN"/>
    <tag k="removemelater" v="yes"/>
  </node>
  <node id="-562" lat="51.97777625141596" lon="-0.22560829298247112">
    <tag k="addr:postcode" v="SG6 9SP"/>
    <tag k="removemelater" v="yes"/>
  </node>
  <node id="-563" lat="51.97777625141596" lon="-0.22560829298247112">
    <tag k="addr:postcode" v="SG6 9SQ"/>
    <tag k="removemelater" v="yes"/>
  </node>
  <node id="-564" lat="51.97777625141596" lon="-0.22560829298247112">
    <tag k="addr:postcode" v="SG6 9SR"/>
    <tag k="removemelater" v="yes"/>
  </node>
  <node id="-565" lat="51.97777625141596" lon="-0.22560829298247112">
    <tag k="addr:postcode" v="SG6 9SS"/>
    <tag k="removemelater" v="yes"/>
  </node>
  <node id="-566" lat="51.97777625141596" lon="-0.22560829298247112">
    <tag k="addr:postcode" v="SG6 9ST"/>
    <tag k="removemelater" v="yes"/>
  </node>
  <node id="-567" lat="51.97777625141596" lon="-0.22560829298247112">
    <tag k="addr:postcode" v="SG6 9SU"/>
    <tag k="removemelater" v="yes"/>
  </node>
  <node id="-568" lat="51.97777625141596" lon="-0.22560829298247112">
    <tag k="addr:postcode" v="SG6 9SW"/>
    <tag k="removemelater" v="yes"/>
  </node>
  <node id="-569" lat="51.97777625141596" lon="-0.22560829298247112">
    <tag k="addr:postcode" v="SG6 9SX"/>
    <tag k="removemelater" v="yes"/>
  </node>
  <node id="-570" lat="51.97777625141596" lon="-0.22560829298247112">
    <tag k="addr:postcode" v="SG6 9SY"/>
    <tag k="removemelater" v="yes"/>
  </node>
  <node id="-571" lat="51.97777625141596" lon="-0.22560829298247112">
    <tag k="addr:postcode" v="SG6 9SZ"/>
    <tag k="removemelater" v="yes"/>
  </node>
  <node id="-572" lat="51.97777625141596" lon="-0.22560829298247112">
    <tag k="addr:postcode" v="SG6 9TA"/>
    <tag k="removemelater" v="yes"/>
  </node>
  <node id="-573" lat="51.97777625141596" lon="-0.22560829298247112">
    <tag k="addr:postcode" v="SG6 9TB"/>
    <tag k="removemelater" v="yes"/>
  </node>
  <node id="-574" lat="51.97777625141596" lon="-0.22560829298247112">
    <tag k="addr:postcode" v="SG6 9TD"/>
    <tag k="removemelater" v="yes"/>
  </node>
  <node id="-575" lat="51.97777625141596" lon="-0.22560829298247112">
    <tag k="addr:postcode" v="SG6 9TE"/>
    <tag k="removemelater" v="yes"/>
  </node>
  <node id="-576" lat="51.97777625141596" lon="-0.22560829298247112">
    <tag k="addr:postcode" v="SG6 9TF"/>
    <tag k="removemelater" v="yes"/>
  </node>
  <node id="-577" lat="51.97777625141596" lon="-0.22560829298247112">
    <tag k="addr:postcode" v="SG6 9TG"/>
    <tag k="removemelater" v="yes"/>
  </node>
  <node id="-578" lat="51.97777625141596" lon="-0.22560829298247112">
    <tag k="addr:postcode" v="SG6 9TH"/>
    <tag k="removemelater" v="yes"/>
  </node>
  <node id="-579" lat="51.97777625141596" lon="-0.22560829298247112">
    <tag k="addr:postcode" v="SG6 9TJ"/>
    <tag k="removemelater" v="yes"/>
  </node>
  <node id="-580" lat="51.97777625141596" lon="-0.22560829298247112">
    <tag k="addr:postcode" v="SG6 9TL"/>
    <tag k="removemelater" v="yes"/>
  </node>
  <node id="-581" lat="51.97777625141596" lon="-0.22560829298247112">
    <tag k="addr:postcode" v="SG6 9TN"/>
    <tag k="removemelater" v="yes"/>
  </node>
  <node id="-582" lat="51.97777625141596" lon="-0.22560829298247112">
    <tag k="addr:postcode" v="SG6 9TP"/>
    <tag k="removemelater" v="yes"/>
  </node>
  <node id="-583" lat="51.97777625141596" lon="-0.22560829298247112">
    <tag k="addr:postcode" v="SG6 9TQ"/>
    <tag k="removemelater" v="yes"/>
  </node>
  <node id="-584" lat="51.97777625141596" lon="-0.22560829298247112">
    <tag k="addr:postcode" v="SG6 9TR"/>
    <tag k="removemelater" v="yes"/>
  </node>
  <node id="-585" lat="51.97777625141596" lon="-0.22560829298247112">
    <tag k="addr:postcode" v="SG6 9TS"/>
    <tag k="removemelater" v="yes"/>
  </node>
  <node id="-586" lat="51.97777625141596" lon="-0.22560829298247112">
    <tag k="addr:postcode" v="SG6 9TT"/>
    <tag k="removemelater" v="yes"/>
  </node>
  <node id="-587" lat="51.97777625141596" lon="-0.22560829298247112">
    <tag k="addr:postcode" v="SG6 9TU"/>
    <tag k="removemelater" v="yes"/>
  </node>
  <node id="-588" lat="51.97777625141596" lon="-0.22560829298247112">
    <tag k="addr:postcode" v="SG6 9TW"/>
    <tag k="removemelater" v="yes"/>
  </node>
  <node id="-589" lat="51.97777625141596" lon="-0.22560829298247112">
    <tag k="addr:postcode" v="SG6 9TX"/>
    <tag k="removemelater" v="yes"/>
  </node>
  <node id="-590" lat="51.97777625141596" lon="-0.22560829298247112">
    <tag k="addr:postcode" v="SG6 9TY"/>
    <tag k="removemelater" v="yes"/>
  </node>
  <node id="-591" lat="51.97777625141596" lon="-0.22560829298247112">
    <tag k="addr:postcode" v="SG6 9TZ"/>
    <tag k="removemelater" v="yes"/>
  </node>
  <node id="-592" lat="51.97777625141596" lon="-0.22560829298247112">
    <tag k="addr:postcode" v="SG6 9UA"/>
    <tag k="removemelater" v="yes"/>
  </node>
  <node id="-593" lat="51.992833894948845" lon="-0.18524927123849572">
    <tag k="addr:postcode" v="SG7 5DE"/>
    <tag k="removemelater" v="yes"/>
  </node>
  <node id="-594" lat="52.0483580392261" lon="-0.17013783750142403">
    <tag k="addr:postcode" v="SG7 5JB"/>
    <tag k="removemelater" v="yes"/>
  </node>
  <node id="-595" lat="52.049376334592054" lon="-0.16970246964736332">
    <tag k="addr:postcode" v="SG7 5JE"/>
    <tag k="removemelater" v="yes"/>
  </node>
  <node id="-596" lat="52.04368208198789" lon="-0.14539340739442952">
    <tag k="addr:postcode" v="SG7 5LW"/>
    <tag k="removemelater" v="yes"/>
  </node>
  <node id="-597" lat="51.98144390341271" lon="-0.20950365695820028">
    <tag k="addr:postcode" v="SG7 5NG"/>
    <tag k="removemelater" v="yes"/>
  </node>
  <node id="-598" lat="51.98144390341271" lon="-0.20950365695820028">
    <tag k="addr:postcode" v="SG7 5SH"/>
    <tag k="removemelater" v="yes"/>
  </node>
  <node id="-599" lat="51.98144390341271" lon="-0.20950365695820028">
    <tag k="addr:postcode" v="SG7 5SS"/>
    <tag k="removemelater" v="yes"/>
  </node>
  <node id="-600" lat="51.98144390341271" lon="-0.20950365695820028">
    <tag k="addr:postcode" v="SG7 5ST"/>
    <tag k="removemelater" v="yes"/>
  </node>
  <node id="-601" lat="51.98144390341271" lon="-0.20950365695820028">
    <tag k="addr:postcode" v="SG7 6PW"/>
    <tag k="removemelater" v="yes"/>
  </node>
  <node id="-602" lat="51.99073781400552" lon="-0.18693615186180185">
    <tag k="addr:postcode" v="SG7 6QQ"/>
    <tag k="removemelater" v="yes"/>
  </node>
  <node id="-603" lat="51.98144390341271" lon="-0.20950365695820028">
    <tag k="addr:postcode" v="SG7 6WB"/>
    <tag k="removemelater" v="yes"/>
  </node>
  <node id="-604" lat="51.98144390341271" lon="-0.20950365695820028">
    <tag k="addr:postcode" v="SG7 6XE"/>
    <tag k="removemelater" v="yes"/>
  </node>
  <node id="-605" lat="51.98144390341271" lon="-0.20950365695820028">
    <tag k="addr:postcode" v="SG7 6ZP"/>
    <tag k="removemelater" v="yes"/>
  </node>
  <node id="-606" lat="52.128676341239824" lon="-0.0788532249818517">
    <tag k="addr:postcode" v="SG8 0DL"/>
    <tag k="removemelater" v="yes"/>
  </node>
  <node id="-607" lat="52.13020072403728" lon="-0.08412049085682753">
    <tag k="addr:postcode" v="SG8 0DX"/>
    <tag k="removemelater" v="yes"/>
  </node>
  <node id="-608" lat="52.09074808904268" lon="-0.1461719997855749">
    <tag k="addr:postcode" v="SG8 0LE"/>
    <tag k="removemelater" v="yes"/>
  </node>
  <node id="-609" lat="52.057936157743235" lon="-0.03242553172576769">
    <tag k="addr:postcode" v="SG8 0WX"/>
    <tag k="removemelater" v="yes"/>
  </node>
  <node id="-610" lat="52.057936157743235" lon="-0.03242553172576769">
    <tag k="addr:postcode" v="SG8 1AS"/>
    <tag k="removemelater" v="yes"/>
  </node>
  <node id="-611" lat="52.057936157743235" lon="-0.03242553172576769">
    <tag k="addr:postcode" v="SG8 1AZ"/>
    <tag k="removemelater" v="yes"/>
  </node>
  <node id="-612" lat="52.057936157743235" lon="-0.03242553172576769">
    <tag k="addr:postcode" v="SG8 1BQ"/>
    <tag k="removemelater" v="yes"/>
  </node>
  <node id="-613" lat="52.057936157743235" lon="-0.03242553172576769">
    <tag k="addr:postcode" v="SG8 1DZ"/>
    <tag k="removemelater" v="yes"/>
  </node>
  <node id="-614" lat="52.057936157743235" lon="-0.03242553172576769">
    <tag k="addr:postcode" v="SG8 1ED"/>
    <tag k="removemelater" v="yes"/>
  </node>
  <node id="-615" lat="52.057936157743235" lon="-0.03242553172576769">
    <tag k="addr:postcode" v="SG8 1EF"/>
    <tag k="removemelater" v="yes"/>
  </node>
  <node id="-616" lat="52.057936157743235" lon="-0.03242553172576769">
    <tag k="addr:postcode" v="SG8 1EG"/>
    <tag k="removemelater" v="yes"/>
  </node>
  <node id="-617" lat="52.057936157743235" lon="-0.03242553172576769">
    <tag k="addr:postcode" v="SG8 1EH"/>
    <tag k="removemelater" v="yes"/>
  </node>
  <node id="-618" lat="52.057936157743235" lon="-0.03242553172576769">
    <tag k="addr:postcode" v="SG8 1EL"/>
    <tag k="removemelater" v="yes"/>
  </node>
  <node id="-619" lat="52.057936157743235" lon="-0.03242553172576769">
    <tag k="addr:postcode" v="SG8 1EP"/>
    <tag k="removemelater" v="yes"/>
  </node>
  <node id="-620" lat="52.057936157743235" lon="-0.03242553172576769">
    <tag k="addr:postcode" v="SG8 1EQ"/>
    <tag k="removemelater" v="yes"/>
  </node>
  <node id="-621" lat="52.057936157743235" lon="-0.03242553172576769">
    <tag k="addr:postcode" v="SG8 1ER"/>
    <tag k="removemelater" v="yes"/>
  </node>
  <node id="-622" lat="52.057936157743235" lon="-0.03242553172576769">
    <tag k="addr:postcode" v="SG8 1ES"/>
    <tag k="removemelater" v="yes"/>
  </node>
  <node id="-623" lat="52.057936157743235" lon="-0.03242553172576769">
    <tag k="addr:postcode" v="SG8 1ET"/>
    <tag k="removemelater" v="yes"/>
  </node>
  <node id="-624" lat="52.057936157743235" lon="-0.03242553172576769">
    <tag k="addr:postcode" v="SG8 1EU"/>
    <tag k="removemelater" v="yes"/>
  </node>
  <node id="-625" lat="52.057936157743235" lon="-0.03242553172576769">
    <tag k="addr:postcode" v="SG8 1EW"/>
    <tag k="removemelater" v="yes"/>
  </node>
  <node id="-626" lat="52.057936157743235" lon="-0.03242553172576769">
    <tag k="addr:postcode" v="SG8 1EX"/>
    <tag k="removemelater" v="yes"/>
  </node>
  <node id="-627" lat="52.057936157743235" lon="-0.03242553172576769">
    <tag k="addr:postcode" v="SG8 5DZ"/>
    <tag k="removemelater" v="yes"/>
  </node>
  <node id="-628" lat="52.057936157743235" lon="-0.03242553172576769">
    <tag k="addr:postcode" v="SG8 5YY"/>
    <tag k="removemelater" v="yes"/>
  </node>
  <node id="-629" lat="52.057936157743235" lon="-0.03242553172576769">
    <tag k="addr:postcode" v="SG8 5ZS"/>
    <tag k="removemelater" v="yes"/>
  </node>
  <node id="-630" lat="52.09054104805808" lon="0.008072125102474424">
    <tag k="addr:postcode" v="SG8 6FR"/>
    <tag k="removemelater" v="yes"/>
  </node>
  <node id="-631" lat="52.057936157743235" lon="-0.03242553172576769">
    <tag k="addr:postcode" v="SG8 7GR"/>
    <tag k="removemelater" v="yes"/>
  </node>
  <node id="-632" lat="52.057936157743235" lon="-0.03242553172576769">
    <tag k="addr:postcode" v="SG8 7WX"/>
    <tag k="removemelater" v="yes"/>
  </node>
  <node id="-633" lat="52.057936157743235" lon="-0.03242553172576769">
    <tag k="addr:postcode" v="SG8 8AT"/>
    <tag k="removemelater" v="yes"/>
  </node>
  <node id="-634" lat="52.057936157743235" lon="-0.03242553172576769">
    <tag k="addr:postcode" v="SG8 8LG"/>
    <tag k="removemelater" v="yes"/>
  </node>
  <node id="-635" lat="52.047503929264664" lon="-0.022660707779193736">
    <tag k="addr:postcode" v="SG8 9LD"/>
    <tag k="removemelater" v="yes"/>
  </node>
  <node id="-636" lat="52.057936157743235" lon="-0.03242553172576769">
    <tag k="addr:postcode" v="SG8 9WY"/>
    <tag k="removemelater" v="yes"/>
  </node>
  <node id="-637" lat="52.057936157743235" lon="-0.03242553172576769">
    <tag k="addr:postcode" v="SG8 9XD"/>
    <tag k="removemelater" v="yes"/>
  </node>
  <node id="-638" lat="52.057936157743235" lon="-0.03242553172576769">
    <tag k="addr:postcode" v="SG8 9ZN"/>
    <tag k="removemelater" v="yes"/>
  </node>
  <node id="-639" lat="51.805799251799016" lon="-0.02281232485217258">
    <tag k="addr:postcode" v="SG9 0TP"/>
    <tag k="removemelater" v="yes"/>
  </node>
  <node id="-640" lat="51.805799251799016" lon="-0.02281232485217258">
    <tag k="addr:postcode" v="SG9 0ZN"/>
    <tag k="removemelater" v="yes"/>
  </node>
  <node id="-641" lat="51.805799251799016" lon="-0.02281232485217258">
    <tag k="addr:postcode" v="SG9 0ZU"/>
    <tag k="removemelater" v="yes"/>
  </node>
  <node id="-642" lat="51.91262636951969" lon="-0.006825497216150461">
    <tag k="addr:postcode" v="SG9 9LY"/>
    <tag k="removemelater" v="yes"/>
  </node>
  <node id="-643" lat="51.92369402895898" lon="-0.05075088169372299">
    <tag k="addr:postcode" v="SG9 9NH"/>
    <tag k="removemelater" v="yes"/>
  </node>
  <node id="-644" lat="51.805799251799016" lon="-0.02281232485217258">
    <tag k="addr:postcode" v="SG9 9WN"/>
    <tag k="removemelater" v="yes"/>
  </node>
  <node id="-645" lat="51.805799251799016" lon="-0.02281232485217258">
    <tag k="addr:postcode" v="SG9 9WY"/>
    <tag k="removemelater" v="yes"/>
  </node>
  <node id="-646" lat="51.805799251799016" lon="-0.02281232485217258">
    <tag k="addr:postcode" v="SG9 9XN"/>
    <tag k="removemelater" v="yes"/>
  </node>
</osm>
