<?xml version="1.0" encoding="UTF-8"?><osm version="0.6" generator="import_postcodes.py" upload="false">
  <node id="-1" lat="54.905920242835755" lon="-1.3819054875217052">
    <tag k="addr:postcode" v="SR1 1AF"/>
    <tag k="removemelater" v="yes"/>
  </node>
  <node id="-2" lat="54.90591071437798" lon="-1.3800341067559327">
    <tag k="addr:postcode" v="SR1 1AG"/>
    <tag k="removemelater" v="yes"/>
  </node>
  <node id="-3" lat="54.90720044707556" lon="-1.379187679288012">
    <tag k="addr:postcode" v="SR1 1BA"/>
    <tag k="removemelater" v="yes"/>
  </node>
  <node id="-4" lat="54.907323846088126" lon="-1.382242715313958">
    <tag k="addr:postcode" v="SR1 1BB"/>
    <tag k="removemelater" v="yes"/>
  </node>
  <node id="-5" lat="54.907008559083415" lon="-1.3785667713959708">
    <tag k="addr:postcode" v="SR1 1BH"/>
    <tag k="removemelater" v="yes"/>
  </node>
  <node id="-6" lat="54.906794813268455" lon="-1.3789443758321196">
    <tag k="addr:postcode" v="SR1 1BL"/>
    <tag k="removemelater" v="yes"/>
  </node>
  <node id="-7" lat="54.90722144324426" lon="-1.3797800257716444">
    <tag k="addr:postcode" v="SR1 1BN"/>
    <tag k="removemelater" v="yes"/>
  </node>
  <node id="-8" lat="54.90722144324426" lon="-1.3797800257716444">
    <tag k="addr:postcode" v="SR1 1BW"/>
    <tag k="removemelater" v="yes"/>
  </node>
  <node id="-9" lat="54.9054828117718" lon="-1.378948966483415">
    <tag k="addr:postcode" v="SR1 1DH"/>
    <tag k="removemelater" v="yes"/>
  </node>
  <node id="-10" lat="54.907177454652604" lon="-1.378205450435455">
    <tag k="addr:postcode" v="SR1 1EA"/>
    <tag k="removemelater" v="yes"/>
  </node>
  <node id="-11" lat="54.91837562054634" lon="-1.4202488024432807">
    <tag k="addr:postcode" v="SR1 1EB"/>
    <tag k="removemelater" v="yes"/>
  </node>
  <node id="-12" lat="54.90695540919927" lon="-1.3769611540463693">
    <tag k="addr:postcode" v="SR1 1ES"/>
    <tag k="removemelater" v="yes"/>
  </node>
  <node id="-13" lat="54.91837562054634" lon="-1.4202488024432807">
    <tag k="addr:postcode" v="SR1 1ET"/>
    <tag k="removemelater" v="yes"/>
  </node>
  <node id="-14" lat="54.90717517439411" lon="-1.3760063722573999">
    <tag k="addr:postcode" v="SR1 1HA"/>
    <tag k="removemelater" v="yes"/>
  </node>
  <node id="-15" lat="54.90562285168151" lon="-1.3799761442692002">
    <tag k="addr:postcode" v="SR1 1HT"/>
    <tag k="removemelater" v="yes"/>
  </node>
  <node id="-16" lat="54.906046296041644" lon="-1.3801879854132562">
    <tag k="addr:postcode" v="SR1 1HZ"/>
    <tag k="removemelater" v="yes"/>
  </node>
  <node id="-17" lat="54.90471353888536" lon="-1.379647008259886">
    <tag k="addr:postcode" v="SR1 1JE"/>
    <tag k="removemelater" v="yes"/>
  </node>
  <node id="-18" lat="54.90506501816286" lon="-1.3798443511261838">
    <tag k="addr:postcode" v="SR1 1JG"/>
    <tag k="removemelater" v="yes"/>
  </node>
  <node id="-19" lat="54.905352880944235" lon="-1.3799023119010656">
    <tag k="addr:postcode" v="SR1 1JQ"/>
    <tag k="removemelater" v="yes"/>
  </node>
  <node id="-20" lat="54.906034128503066" lon="-1.3795643280749401">
    <tag k="addr:postcode" v="SR1 1NA"/>
    <tag k="removemelater" v="yes"/>
  </node>
  <node id="-21" lat="54.90645757354691" lon="-1.3797761670180757">
    <tag k="addr:postcode" v="SR1 1NL"/>
    <tag k="removemelater" v="yes"/>
  </node>
  <node id="-22" lat="54.90426103837451" lon="-1.3772678629012414">
    <tag k="addr:postcode" v="SR1 1PB"/>
    <tag k="removemelater" v="yes"/>
  </node>
  <node id="-23" lat="54.904666515929016" lon="-1.37747994569915">
    <tag k="addr:postcode" v="SR1 1PE"/>
    <tag k="removemelater" v="yes"/>
  </node>
  <node id="-24" lat="54.90472154823494" lon="-1.3776974353924696">
    <tag k="addr:postcode" v="SR1 1PF"/>
    <tag k="removemelater" v="yes"/>
  </node>
  <node id="-25" lat="54.90462238550339" lon="-1.377636581877691">
    <tag k="addr:postcode" v="SR1 1PG"/>
    <tag k="removemelater" v="yes"/>
  </node>
  <node id="-26" lat="54.904253035859924" lon="-1.379217413550517">
    <tag k="addr:postcode" v="SR1 1PL"/>
    <tag k="removemelater" v="yes"/>
  </node>
  <node id="-27" lat="54.904253035859924" lon="-1.379217413550517">
    <tag k="addr:postcode" v="SR1 1PS"/>
    <tag k="removemelater" v="yes"/>
  </node>
  <node id="-28" lat="54.904204521774915" lon="-1.378516366703081">
    <tag k="addr:postcode" v="SR1 1PT"/>
    <tag k="removemelater" v="yes"/>
  </node>
  <node id="-29" lat="54.91837562054634" lon="-1.4202488024432807">
    <tag k="addr:postcode" v="SR1 1PU"/>
    <tag k="removemelater" v="yes"/>
  </node>
  <node id="-30" lat="54.90457985067734" lon="-1.378105104000811">
    <tag k="addr:postcode" v="SR1 1PW"/>
    <tag k="removemelater" v="yes"/>
  </node>
  <node id="-31" lat="54.90406647703401" lon="-1.3814036305991966">
    <tag k="addr:postcode" v="SR1 1QB"/>
    <tag k="removemelater" v="yes"/>
  </node>
  <node id="-32" lat="54.90638274221724" lon="-1.3809626310040677">
    <tag k="addr:postcode" v="SR1 1QD"/>
    <tag k="removemelater" v="yes"/>
  </node>
  <node id="-33" lat="54.906282548584635" lon="-1.3806990322207806">
    <tag k="addr:postcode" v="SR1 1QH"/>
    <tag k="removemelater" v="yes"/>
  </node>
  <node id="-34" lat="54.90586840873107" lon="-1.3805494258526327">
    <tag k="addr:postcode" v="SR1 1QN"/>
    <tag k="removemelater" v="yes"/>
  </node>
  <node id="-35" lat="54.90694884563972" lon="-1.3809539488457925">
    <tag k="addr:postcode" v="SR1 1QT"/>
    <tag k="removemelater" v="yes"/>
  </node>
  <node id="-36" lat="54.90508569315833" lon="-1.3803742885646817">
    <tag k="addr:postcode" v="SR1 1QU"/>
    <tag k="removemelater" v="yes"/>
  </node>
  <node id="-37" lat="54.9055092957666" lon="-1.3806173204782413">
    <tag k="addr:postcode" v="SR1 1QX"/>
    <tag k="removemelater" v="yes"/>
  </node>
  <node id="-38" lat="54.90532902418289" lon="-1.380510915820393">
    <tag k="addr:postcode" v="SR1 1QZ"/>
    <tag k="removemelater" v="yes"/>
  </node>
  <node id="-39" lat="54.90492402877457" lon="-1.3803923658194552">
    <tag k="addr:postcode" v="SR1 1RB"/>
    <tag k="removemelater" v="yes"/>
  </node>
  <node id="-40" lat="54.905080202545264" lon="-1.381060585179454">
    <tag k="addr:postcode" v="SR1 1RE"/>
    <tag k="removemelater" v="yes"/>
  </node>
  <node id="-41" lat="54.90596160189143" lon="-1.3812030308366214">
    <tag k="addr:postcode" v="SR1 1RH"/>
    <tag k="removemelater" v="yes"/>
  </node>
  <node id="-42" lat="54.905677230564805" lon="-1.3818312288688213">
    <tag k="addr:postcode" v="SR1 1RR"/>
    <tag k="removemelater" v="yes"/>
  </node>
  <node id="-43" lat="54.90602846848599" lon="-1.3819818107795936">
    <tag k="addr:postcode" v="SR1 1RS"/>
    <tag k="removemelater" v="yes"/>
  </node>
  <node id="-44" lat="54.904822392621725" lon="-1.3816103854238184">
    <tag k="addr:postcode" v="SR1 1RU"/>
    <tag k="removemelater" v="yes"/>
  </node>
  <node id="-45" lat="54.90601551651163" lon="-1.3812022043116245">
    <tag k="addr:postcode" v="SR1 1RZ"/>
    <tag k="removemelater" v="yes"/>
  </node>
  <node id="-46" lat="54.90546077901921" lon="-1.3816785848844373">
    <tag k="addr:postcode" v="SR1 1SA"/>
    <tag k="removemelater" v="yes"/>
  </node>
  <node id="-47" lat="54.906091448157966" lon="-1.3819964426225333">
    <tag k="addr:postcode" v="SR1 1SB"/>
    <tag k="removemelater" v="yes"/>
  </node>
  <node id="-48" lat="54.906856110561044" lon="-1.382156295494287">
    <tag k="addr:postcode" v="SR1 1SE"/>
    <tag k="removemelater" v="yes"/>
  </node>
  <node id="-49" lat="54.906907012138454" lon="-1.3815628516220309">
    <tag k="addr:postcode" v="SR1 1SJ"/>
    <tag k="removemelater" v="yes"/>
  </node>
  <node id="-50" lat="54.905659655461605" lon="-1.3819094778108971">
    <tag k="addr:postcode" v="SR1 1ST"/>
    <tag k="removemelater" v="yes"/>
  </node>
  <node id="-51" lat="54.90772662045527" lon="-1.3819246155497775">
    <tag k="addr:postcode" v="SR1 1TA"/>
    <tag k="removemelater" v="yes"/>
  </node>
  <node id="-52" lat="54.908122549203775" lon="-1.3820277308468485">
    <tag k="addr:postcode" v="SR1 1TE"/>
    <tag k="removemelater" v="yes"/>
  </node>
  <node id="-53" lat="54.90788248904751" lon="-1.3790056236334713">
    <tag k="addr:postcode" v="SR1 1TP"/>
    <tag k="removemelater" v="yes"/>
  </node>
  <node id="-54" lat="54.90782823760023" lon="-1.3824689472941973">
    <tag k="addr:postcode" v="SR1 1TQ"/>
    <tag k="removemelater" v="yes"/>
  </node>
  <node id="-55" lat="54.90790388401003" lon="-1.3796759580481213">
    <tag k="addr:postcode" v="SR1 1TR"/>
    <tag k="removemelater" v="yes"/>
  </node>
  <node id="-56" lat="54.908598481030666" lon="-1.3784331117918418">
    <tag k="addr:postcode" v="SR1 1TW"/>
    <tag k="removemelater" v="yes"/>
  </node>
  <node id="-57" lat="54.90768663134879" lon="-1.3811297940953182">
    <tag k="addr:postcode" v="SR1 1TX"/>
    <tag k="removemelater" v="yes"/>
  </node>
  <node id="-58" lat="54.90738127401413" lon="-1.381165669352373">
    <tag k="addr:postcode" v="SR1 1TZ"/>
    <tag k="removemelater" v="yes"/>
  </node>
  <node id="-59" lat="54.907492925040174" lon="-1.3801501741247166">
    <tag k="addr:postcode" v="SR1 1UA"/>
    <tag k="removemelater" v="yes"/>
  </node>
  <node id="-60" lat="54.907558682910015" lon="-1.3789482188206064">
    <tag k="addr:postcode" v="SR1 1UB"/>
    <tag k="removemelater" v="yes"/>
  </node>
  <node id="-61" lat="54.9074029083549" lon="-1.3801203632588528">
    <tag k="addr:postcode" v="SR1 1UE"/>
    <tag k="removemelater" v="yes"/>
  </node>
  <node id="-62" lat="54.907645990241086" lon="-1.3784477800977815">
    <tag k="addr:postcode" v="SR1 1UG"/>
    <tag k="removemelater" v="yes"/>
  </node>
  <node id="-63" lat="54.90788248904751" lon="-1.3790056236334713">
    <tag k="addr:postcode" v="SR1 1UL"/>
    <tag k="removemelater" v="yes"/>
  </node>
  <node id="-64" lat="54.908054388192916" lon="-1.3774744838839317">
    <tag k="addr:postcode" v="SR1 1UN"/>
    <tag k="removemelater" v="yes"/>
  </node>
  <node id="-65" lat="54.90793309833854" lon="-1.376602931518118">
    <tag k="addr:postcode" v="SR1 1UP"/>
    <tag k="removemelater" v="yes"/>
  </node>
  <node id="-66" lat="54.90816752764422" lon="-1.3767552799641065">
    <tag k="addr:postcode" v="SR1 1UW"/>
    <tag k="removemelater" v="yes"/>
  </node>
  <node id="-67" lat="54.908526958002376" lon="-1.3767497296705904">
    <tag k="addr:postcode" v="SR1 1UZ"/>
    <tag k="removemelater" v="yes"/>
  </node>
  <node id="-68" lat="54.91837562054634" lon="-1.4202488024432807">
    <tag k="addr:postcode" v="SR1 1WL"/>
    <tag k="removemelater" v="yes"/>
  </node>
  <node id="-69" lat="54.91837562054634" lon="-1.4202488024432807">
    <tag k="addr:postcode" v="SR1 1WP"/>
    <tag k="removemelater" v="yes"/>
  </node>
  <node id="-70" lat="54.91837562054634" lon="-1.4202488024432807">
    <tag k="addr:postcode" v="SR1 1WQ"/>
    <tag k="removemelater" v="yes"/>
  </node>
  <node id="-71" lat="54.91837562054634" lon="-1.4202488024432807">
    <tag k="addr:postcode" v="SR1 1WT"/>
    <tag k="removemelater" v="yes"/>
  </node>
  <node id="-72" lat="54.91837562054634" lon="-1.4202488024432807">
    <tag k="addr:postcode" v="SR1 1WW"/>
    <tag k="removemelater" v="yes"/>
  </node>
  <node id="-73" lat="54.908118486110595" lon="-1.3777074489322563">
    <tag k="addr:postcode" v="SR1 1XB"/>
    <tag k="removemelater" v="yes"/>
  </node>
  <node id="-74" lat="54.90897294526478" lon="-1.3813752232833396">
    <tag k="addr:postcode" v="SR1 1XD"/>
    <tag k="removemelater" v="yes"/>
  </node>
  <node id="-75" lat="54.9089730246185" lon="-1.3813908193061017">
    <tag k="addr:postcode" v="SR1 1XH"/>
    <tag k="removemelater" v="yes"/>
  </node>
  <node id="-76" lat="54.909672463693504" lon="-1.3775743057831245">
    <tag k="addr:postcode" v="SR1 1XS"/>
    <tag k="removemelater" v="yes"/>
  </node>
  <node id="-77" lat="54.91837562054634" lon="-1.4202488024432807">
    <tag k="addr:postcode" v="SR1 1YA"/>
    <tag k="removemelater" v="yes"/>
  </node>
  <node id="-78" lat="54.91837562054634" lon="-1.4202488024432807">
    <tag k="addr:postcode" v="SR1 1YB"/>
    <tag k="removemelater" v="yes"/>
  </node>
  <node id="-79" lat="54.91837562054634" lon="-1.4202488024432807">
    <tag k="addr:postcode" v="SR1 1YL"/>
    <tag k="removemelater" v="yes"/>
  </node>
  <node id="-80" lat="54.91837562054634" lon="-1.4202488024432807">
    <tag k="addr:postcode" v="SR1 1YN"/>
    <tag k="removemelater" v="yes"/>
  </node>
  <node id="-81" lat="54.91837562054634" lon="-1.4202488024432807">
    <tag k="addr:postcode" v="SR1 1YS"/>
    <tag k="removemelater" v="yes"/>
  </node>
  <node id="-82" lat="54.903588179193726" lon="-1.373987663308896">
    <tag k="addr:postcode" v="SR1 2AH"/>
    <tag k="removemelater" v="yes"/>
  </node>
  <node id="-83" lat="54.90780146894102" lon="-1.3685102279903845">
    <tag k="addr:postcode" v="SR1 2BJ"/>
    <tag k="removemelater" v="yes"/>
  </node>
  <node id="-84" lat="54.91492848708367" lon="-1.3617688822615615">
    <tag k="addr:postcode" v="SR1 2BU"/>
    <tag k="removemelater" v="yes"/>
  </node>
  <node id="-85" lat="54.90800771677307" lon="-1.366697762987094">
    <tag k="addr:postcode" v="SR1 2BW"/>
    <tag k="removemelater" v="yes"/>
  </node>
  <node id="-86" lat="54.90234607510802" lon="-1.3581003380583303">
    <tag k="addr:postcode" v="SR1 2ES"/>
    <tag k="removemelater" v="yes"/>
  </node>
  <node id="-87" lat="54.903340573925284" lon="-1.37651790406679">
    <tag k="addr:postcode" v="SR1 2QY"/>
    <tag k="removemelater" v="yes"/>
  </node>
  <node id="-88" lat="54.90379162115056" lon="-1.3768540329082466">
    <tag k="addr:postcode" v="SR1 2RB"/>
    <tag k="removemelater" v="yes"/>
  </node>
  <node id="-89" lat="54.90315530978388" lon="-1.377191350199049">
    <tag k="addr:postcode" v="SR1 2RD"/>
    <tag k="removemelater" v="yes"/>
  </node>
  <node id="-90" lat="54.9096157763536" lon="-1.375282348629396">
    <tag k="addr:postcode" v="SR1 2RE"/>
    <tag k="removemelater" v="yes"/>
  </node>
  <node id="-91" lat="54.91837562054634" lon="-1.4202488024432807">
    <tag k="addr:postcode" v="SR1 2YG"/>
    <tag k="removemelater" v="yes"/>
  </node>
  <node id="-92" lat="54.91837562054634" lon="-1.4202488024432807">
    <tag k="addr:postcode" v="SR1 2YJ"/>
    <tag k="removemelater" v="yes"/>
  </node>
  <node id="-93" lat="54.91837562054634" lon="-1.4202488024432807">
    <tag k="addr:postcode" v="SR1 2YN"/>
    <tag k="removemelater" v="yes"/>
  </node>
  <node id="-94" lat="54.90736058148647" lon="-1.382398119216838">
    <tag k="addr:postcode" v="SR1 3BN"/>
    <tag k="removemelater" v="yes"/>
  </node>
  <node id="-95" lat="54.90682547289606" lon="-1.3832017237724785">
    <tag k="addr:postcode" v="SR1 3BT"/>
    <tag k="removemelater" v="yes"/>
  </node>
  <node id="-96" lat="54.907578219901204" lon="-1.3827847064861492">
    <tag k="addr:postcode" v="SR1 3BY"/>
    <tag k="removemelater" v="yes"/>
  </node>
  <node id="-97" lat="54.90767456304391" lon="-1.3840621654809429">
    <tag k="addr:postcode" v="SR1 3DD"/>
    <tag k="removemelater" v="yes"/>
  </node>
  <node id="-98" lat="54.90725884637624" lon="-1.3836006121576419">
    <tag k="addr:postcode" v="SR1 3DE"/>
    <tag k="removemelater" v="yes"/>
  </node>
  <node id="-99" lat="54.906336314785804" lon="-1.3842073564877142">
    <tag k="addr:postcode" v="SR1 3DG"/>
    <tag k="removemelater" v="yes"/>
  </node>
  <node id="-100" lat="54.90714700859702" lon="-1.3845849015039424">
    <tag k="addr:postcode" v="SR1 3DH"/>
    <tag k="removemelater" v="yes"/>
  </node>
  <node id="-101" lat="54.90736653291191" lon="-1.38534578848387">
    <tag k="addr:postcode" v="SR1 3DP"/>
    <tag k="removemelater" v="yes"/>
  </node>
  <node id="-102" lat="54.9064326429041" lon="-1.3854847796929552">
    <tag k="addr:postcode" v="SR1 3DR"/>
    <tag k="removemelater" v="yes"/>
  </node>
  <node id="-103" lat="54.90746285240463" lon="-1.384845228843912">
    <tag k="addr:postcode" v="SR1 3DW"/>
    <tag k="removemelater" v="yes"/>
  </node>
  <node id="-104" lat="54.90636067786511" lon="-1.3854702790876894">
    <tag k="addr:postcode" v="SR1 3DX"/>
    <tag k="removemelater" v="yes"/>
  </node>
  <node id="-105" lat="54.90636067786511" lon="-1.3854702790876894">
    <tag k="addr:postcode" v="SR1 3DY"/>
    <tag k="removemelater" v="yes"/>
  </node>
  <node id="-106" lat="54.90604152228768" lon="-1.3863329236542303">
    <tag k="addr:postcode" v="SR1 3EB"/>
    <tag k="removemelater" v="yes"/>
  </node>
  <node id="-107" lat="54.90580521457061" lon="-1.3858062519110488">
    <tag k="addr:postcode" v="SR1 3EG"/>
    <tag k="removemelater" v="yes"/>
  </node>
  <node id="-108" lat="54.90580521457061" lon="-1.3858062519110488">
    <tag k="addr:postcode" v="SR1 3EQ"/>
    <tag k="removemelater" v="yes"/>
  </node>
  <node id="-109" lat="54.90655709463695" lon="-1.386995726111926">
    <tag k="addr:postcode" v="SR1 3ES"/>
    <tag k="removemelater" v="yes"/>
  </node>
  <node id="-110" lat="54.90631742153171" lon="-1.3893699892629747">
    <tag k="addr:postcode" v="SR1 3EX"/>
    <tag k="removemelater" v="yes"/>
  </node>
  <node id="-111" lat="54.905355328221596" lon="-1.3821480753907713">
    <tag k="addr:postcode" v="SR1 3HP"/>
    <tag k="removemelater" v="yes"/>
  </node>
  <node id="-112" lat="54.9051612055132" lon="-1.3828528561011542">
    <tag k="addr:postcode" v="SR1 3HS"/>
    <tag k="removemelater" v="yes"/>
  </node>
  <node id="-113" lat="54.90470890726313" lon="-1.3822671387389365">
    <tag k="addr:postcode" v="SR1 3HT"/>
    <tag k="removemelater" v="yes"/>
  </node>
  <node id="-114" lat="54.90618479192277" lon="-1.3826812445143588">
    <tag k="addr:postcode" v="SR1 3HW"/>
    <tag k="removemelater" v="yes"/>
  </node>
  <node id="-115" lat="54.90444661523302" lon="-1.3837059374644205">
    <tag k="addr:postcode" v="SR1 3JE"/>
    <tag k="removemelater" v="yes"/>
  </node>
  <node id="-116" lat="54.90438349136499" lon="-1.3854379974449649">
    <tag k="addr:postcode" v="SR1 3JG"/>
    <tag k="removemelater" v="yes"/>
  </node>
  <node id="-117" lat="54.904771051663346" lon="-1.3838881314831892">
    <tag k="addr:postcode" v="SR1 3JH"/>
    <tag k="removemelater" v="yes"/>
  </node>
  <node id="-118" lat="54.90475410730788" lon="-1.3840911329767103">
    <tag k="addr:postcode" v="SR1 3JJ"/>
    <tag k="removemelater" v="yes"/>
  </node>
  <node id="-119" lat="54.905014852829886" lon="-1.3841183459123365">
    <tag k="addr:postcode" v="SR1 3JP"/>
    <tag k="removemelater" v="yes"/>
  </node>
  <node id="-120" lat="54.90462382050593" lon="-1.3849820674935374">
    <tag k="addr:postcode" v="SR1 3JQ"/>
    <tag k="removemelater" v="yes"/>
  </node>
  <node id="-121" lat="54.90464510358459" lon="-1.3856367568366241">
    <tag k="addr:postcode" v="SR1 3JT"/>
    <tag k="removemelater" v="yes"/>
  </node>
  <node id="-122" lat="54.904628628934354" lon="-1.3859333231238424">
    <tag k="addr:postcode" v="SR1 3JU"/>
    <tag k="removemelater" v="yes"/>
  </node>
  <node id="-123" lat="54.905652141194714" lon="-1.3857461972677427">
    <tag k="addr:postcode" v="SR1 3LB"/>
    <tag k="removemelater" v="yes"/>
  </node>
  <node id="-124" lat="54.90630627538109" lon="-1.3835995627490452">
    <tag k="addr:postcode" v="SR1 3LD"/>
    <tag k="removemelater" v="yes"/>
  </node>
  <node id="-125" lat="54.90606555649693" lon="-1.3839775454498378">
    <tag k="addr:postcode" v="SR1 3LE"/>
    <tag k="removemelater" v="yes"/>
  </node>
  <node id="-126" lat="54.90568625696933" lon="-1.3836090308840343">
    <tag k="addr:postcode" v="SR1 3LF"/>
    <tag k="removemelater" v="yes"/>
  </node>
  <node id="-127" lat="54.906348989592296" lon="-1.383162216224513">
    <tag k="addr:postcode" v="SR1 3LG"/>
    <tag k="removemelater" v="yes"/>
  </node>
  <node id="-128" lat="54.905765389021916" lon="-1.3832647105662552">
    <tag k="addr:postcode" v="SR1 3LH"/>
    <tag k="removemelater" v="yes"/>
  </node>
  <node id="-129" lat="54.905765389021916" lon="-1.3832647105662552">
    <tag k="addr:postcode" v="SR1 3LJ"/>
    <tag k="removemelater" v="yes"/>
  </node>
  <node id="-130" lat="54.90380105333115" lon="-1.387552221217574">
    <tag k="addr:postcode" v="SR1 3NA"/>
    <tag k="removemelater" v="yes"/>
  </node>
  <node id="-131" lat="54.90381485855744" lon="-1.3867254640818938">
    <tag k="addr:postcode" v="SR1 3NE"/>
    <tag k="removemelater" v="yes"/>
  </node>
  <node id="-132" lat="54.90325488374583" lon="-1.3879503829226207">
    <tag k="addr:postcode" v="SR1 3NG"/>
    <tag k="removemelater" v="yes"/>
  </node>
  <node id="-133" lat="54.90286661027566" lon="-1.3875819927098838">
    <tag k="addr:postcode" v="SR1 3NH"/>
    <tag k="removemelater" v="yes"/>
  </node>
  <node id="-134" lat="54.90292421474987" lon="-1.388314078862214">
    <tag k="addr:postcode" v="SR1 3NQ"/>
    <tag k="removemelater" v="yes"/>
  </node>
  <node id="-135" lat="54.9030988264122" lon="-1.3872977605572163">
    <tag k="addr:postcode" v="SR1 3NR"/>
    <tag k="removemelater" v="yes"/>
  </node>
  <node id="-136" lat="54.90360724145857" lon="-1.3865414762929527">
    <tag k="addr:postcode" v="SR1 3NT"/>
    <tag k="removemelater" v="yes"/>
  </node>
  <node id="-137" lat="54.90345346006281" lon="-1.3863410769276485">
    <tag k="addr:postcode" v="SR1 3NU"/>
    <tag k="removemelater" v="yes"/>
  </node>
  <node id="-138" lat="54.902987851842575" lon="-1.386675648076986">
    <tag k="addr:postcode" v="SR1 3NW"/>
    <tag k="removemelater" v="yes"/>
  </node>
  <node id="-139" lat="54.903545290331266" lon="-1.384951713805874">
    <tag k="addr:postcode" v="SR1 3NX"/>
    <tag k="removemelater" v="yes"/>
  </node>
  <node id="-140" lat="54.903037751823334" lon="-1.3858795480159416">
    <tag k="addr:postcode" v="SR1 3PE"/>
    <tag k="removemelater" v="yes"/>
  </node>
  <node id="-141" lat="54.905546523319074" lon="-1.389755952885109">
    <tag k="addr:postcode" v="SR1 3PY"/>
    <tag k="removemelater" v="yes"/>
  </node>
  <node id="-142" lat="54.90404979091925" lon="-1.3887648831092843">
    <tag k="addr:postcode" v="SR1 3PZ"/>
    <tag k="removemelater" v="yes"/>
  </node>
  <node id="-143" lat="54.90701032991598" lon="-1.393149449062725">
    <tag k="addr:postcode" v="SR1 3QJ"/>
    <tag k="removemelater" v="yes"/>
  </node>
  <node id="-144" lat="54.904456278515504" lon="-1.3909732869274665">
    <tag k="addr:postcode" v="SR1 3SD"/>
    <tag k="removemelater" v="yes"/>
  </node>
  <node id="-145" lat="54.91837562054634" lon="-1.4202488024432807">
    <tag k="addr:postcode" v="SR1 3WX"/>
    <tag k="removemelater" v="yes"/>
  </node>
  <node id="-146" lat="54.878705511060474" lon="-1.36036181901053">
    <tag k="addr:postcode" v="SR2 0FF"/>
    <tag k="removemelater" v="yes"/>
  </node>
  <node id="-147" lat="54.86632984246849" lon="-1.3687219942642965">
    <tag k="addr:postcode" v="SR2 0LW"/>
    <tag k="removemelater" v="yes"/>
  </node>
  <node id="-148" lat="54.863933543487455" lon="-1.3693202884431503">
    <tag k="addr:postcode" v="SR2 0NB"/>
    <tag k="removemelater" v="yes"/>
  </node>
  <node id="-149" lat="54.86620952725993" lon="-1.3594689108830273">
    <tag k="addr:postcode" v="SR2 0PZ"/>
    <tag k="removemelater" v="yes"/>
  </node>
  <node id="-150" lat="54.87206922493209" lon="-1.3716087016753162">
    <tag k="addr:postcode" v="SR2 0RT"/>
    <tag k="removemelater" v="yes"/>
  </node>
  <node id="-151" lat="54.871560632466604" lon="-1.368842870578027">
    <tag k="addr:postcode" v="SR2 0RY"/>
    <tag k="removemelater" v="yes"/>
  </node>
  <node id="-152" lat="54.87849485199761" lon="-1.361315868590742">
    <tag k="addr:postcode" v="SR2 0SP"/>
    <tag k="removemelater" v="yes"/>
  </node>
  <node id="-153" lat="54.87500578041242" lon="-1.388830245087943">
    <tag k="addr:postcode" v="SR2 0SX"/>
    <tag k="removemelater" v="yes"/>
  </node>
  <node id="-154" lat="54.91837562054634" lon="-1.4202488024432807">
    <tag k="addr:postcode" v="SR2 0WU"/>
    <tag k="removemelater" v="yes"/>
  </node>
  <node id="-155" lat="54.90142974834183" lon="-1.387775326955533">
    <tag k="addr:postcode" v="SR2 7AW"/>
    <tag k="removemelater" v="yes"/>
  </node>
  <node id="-156" lat="54.90201364986239" lon="-1.3824019484887906">
    <tag k="addr:postcode" v="SR2 7AY"/>
    <tag k="removemelater" v="yes"/>
  </node>
  <node id="-157" lat="54.91837562054634" lon="-1.4202488024432807">
    <tag k="addr:postcode" v="SR2 7DN"/>
    <tag k="removemelater" v="yes"/>
  </node>
  <node id="-158" lat="54.89540777264158" lon="-1.380476026735148">
    <tag k="addr:postcode" v="SR2 7EF"/>
    <tag k="removemelater" v="yes"/>
  </node>
  <node id="-159" lat="54.89522090120075" lon="-1.384376874566815">
    <tag k="addr:postcode" v="SR2 7HL"/>
    <tag k="removemelater" v="yes"/>
  </node>
  <node id="-160" lat="54.89568051853825" lon="-1.3846349330652608">
    <tag k="addr:postcode" v="SR2 7HQ"/>
    <tag k="removemelater" v="yes"/>
  </node>
  <node id="-161" lat="54.89544459835358" lon="-1.3841863600808526">
    <tag k="addr:postcode" v="SR2 7HX"/>
    <tag k="removemelater" v="yes"/>
  </node>
  <node id="-162" lat="54.89560734103667" lon="-1.3826090789571963">
    <tag k="addr:postcode" v="SR2 7JA"/>
    <tag k="removemelater" v="yes"/>
  </node>
  <node id="-163" lat="54.89989391639356" lon="-1.3915255158519786">
    <tag k="addr:postcode" v="SR2 7JN"/>
    <tag k="removemelater" v="yes"/>
  </node>
  <node id="-164" lat="54.89837281831888" lon="-1.3910494589595863">
    <tag k="addr:postcode" v="SR2 7LA"/>
    <tag k="removemelater" v="yes"/>
  </node>
  <node id="-165" lat="54.89696296453891" lon="-1.3930509798483144">
    <tag k="addr:postcode" v="SR2 7NA"/>
    <tag k="removemelater" v="yes"/>
  </node>
  <node id="-166" lat="54.89495989901986" lon="-1.3878578292336687">
    <tag k="addr:postcode" v="SR2 7NL"/>
    <tag k="removemelater" v="yes"/>
  </node>
  <node id="-167" lat="54.902565332254675" lon="-1.3974268511784136">
    <tag k="addr:postcode" v="SR2 7PN"/>
    <tag k="removemelater" v="yes"/>
  </node>
  <node id="-168" lat="54.90321300551788" lon="-1.3975575386460828">
    <tag k="addr:postcode" v="SR2 7PS"/>
    <tag k="removemelater" v="yes"/>
  </node>
  <node id="-169" lat="54.9031842776455" lon="-1.3917878216878021">
    <tag k="addr:postcode" v="SR2 7PT"/>
    <tag k="removemelater" v="yes"/>
  </node>
  <node id="-170" lat="54.89498627551211" lon="-1.3967291766623664">
    <tag k="addr:postcode" v="SR2 7QN"/>
    <tag k="removemelater" v="yes"/>
  </node>
  <node id="-171" lat="54.89667355344118" lon="-1.3890948412010564">
    <tag k="addr:postcode" v="SR2 7RN"/>
    <tag k="removemelater" v="yes"/>
  </node>
  <node id="-172" lat="54.89614041260462" lon="-1.3885104008186364">
    <tag k="addr:postcode" v="SR2 7RX"/>
    <tag k="removemelater" v="yes"/>
  </node>
  <node id="-173" lat="54.90201364986239" lon="-1.3824019484887906">
    <tag k="addr:postcode" v="SR2 7SN"/>
    <tag k="removemelater" v="yes"/>
  </node>
  <node id="-174" lat="54.89003048060901" lon="-1.3763024637622592">
    <tag k="addr:postcode" v="SR2 7TF"/>
    <tag k="removemelater" v="yes"/>
  </node>
  <node id="-175" lat="54.91837562054634" lon="-1.4202488024432807">
    <tag k="addr:postcode" v="SR2 7WX"/>
    <tag k="removemelater" v="yes"/>
  </node>
  <node id="-176" lat="54.91837562054634" lon="-1.4202488024432807">
    <tag k="addr:postcode" v="SR2 7WY"/>
    <tag k="removemelater" v="yes"/>
  </node>
  <node id="-177" lat="54.91837562054634" lon="-1.4202488024432807">
    <tag k="addr:postcode" v="SR2 7YJ"/>
    <tag k="removemelater" v="yes"/>
  </node>
  <node id="-178" lat="54.91837562054634" lon="-1.4202488024432807">
    <tag k="addr:postcode" v="SR2 7YW"/>
    <tag k="removemelater" v="yes"/>
  </node>
  <node id="-179" lat="54.91837562054634" lon="-1.4202488024432807">
    <tag k="addr:postcode" v="SR2 7ZS"/>
    <tag k="removemelater" v="yes"/>
  </node>
  <node id="-180" lat="54.899942274057366" lon="-1.3727499147616085">
    <tag k="addr:postcode" v="SR2 8AD"/>
    <tag k="removemelater" v="yes"/>
  </node>
  <node id="-181" lat="54.89904063119927" lon="-1.3652478977221343">
    <tag k="addr:postcode" v="SR2 8AL"/>
    <tag k="removemelater" v="yes"/>
  </node>
  <node id="-182" lat="54.89821792432281" lon="-1.3782030979531177">
    <tag k="addr:postcode" v="SR2 8AT"/>
    <tag k="removemelater" v="yes"/>
  </node>
  <node id="-183" lat="54.903343094902986" lon="-1.3648527501763612">
    <tag k="addr:postcode" v="SR2 8AU"/>
    <tag k="removemelater" v="yes"/>
  </node>
  <node id="-184" lat="54.89938705494312" lon="-1.3713863088447353">
    <tag k="addr:postcode" v="SR2 8BD"/>
    <tag k="removemelater" v="yes"/>
  </node>
  <node id="-185" lat="54.902338035623345" lon="-1.3668490888734661">
    <tag k="addr:postcode" v="SR2 8BH"/>
    <tag k="removemelater" v="yes"/>
  </node>
  <node id="-186" lat="54.90177704558788" lon="-1.3678403389444802">
    <tag k="addr:postcode" v="SR2 8BL"/>
    <tag k="removemelater" v="yes"/>
  </node>
  <node id="-187" lat="54.89626036757249" lon="-1.3645899488985618">
    <tag k="addr:postcode" v="SR2 8DH"/>
    <tag k="removemelater" v="yes"/>
  </node>
  <node id="-188" lat="54.900259734544115" lon="-1.376814984649559">
    <tag k="addr:postcode" v="SR2 8EA"/>
    <tag k="removemelater" v="yes"/>
  </node>
  <node id="-189" lat="54.8883886416971" lon="-1.3663974353446386">
    <tag k="addr:postcode" v="SR2 8PX"/>
    <tag k="removemelater" v="yes"/>
  </node>
  <node id="-190" lat="54.894196901332805" lon="-1.3652460800271085">
    <tag k="addr:postcode" v="SR2 8QR"/>
    <tag k="removemelater" v="yes"/>
  </node>
  <node id="-191" lat="54.89498797708178" lon="-1.3722187923817897">
    <tag k="addr:postcode" v="SR2 8RN"/>
    <tag k="removemelater" v="yes"/>
  </node>
  <node id="-192" lat="54.90154704585595" lon="-1.3668147112269091">
    <tag k="addr:postcode" v="SR2 8SZ"/>
    <tag k="removemelater" v="yes"/>
  </node>
  <node id="-193" lat="54.91837562054634" lon="-1.4202488024432807">
    <tag k="addr:postcode" v="SR2 8WU"/>
    <tag k="removemelater" v="yes"/>
  </node>
  <node id="-194" lat="54.88103057872084" lon="-1.3789508246119617">
    <tag k="addr:postcode" v="SR2 9DJ"/>
    <tag k="removemelater" v="yes"/>
  </node>
  <node id="-195" lat="54.889066346361936" lon="-1.381072164734109">
    <tag k="addr:postcode" v="SR2 9HP"/>
    <tag k="removemelater" v="yes"/>
  </node>
  <node id="-196" lat="54.889280973392616" lon="-1.3808662106050782">
    <tag k="addr:postcode" v="SR2 9HX"/>
    <tag k="removemelater" v="yes"/>
  </node>
  <node id="-197" lat="54.8786805963971" lon="-1.3710850744171172">
    <tag k="addr:postcode" v="SR2 9TE"/>
    <tag k="removemelater" v="yes"/>
  </node>
  <node id="-198" lat="54.879975972884985" lon="-1.3783280075930109">
    <tag k="addr:postcode" v="SR2 9TP"/>
    <tag k="removemelater" v="yes"/>
  </node>
  <node id="-199" lat="54.879935584127004" lon="-1.3722189058808651">
    <tag k="addr:postcode" v="SR2 9TQ"/>
    <tag k="removemelater" v="yes"/>
  </node>
  <node id="-200" lat="54.880415418777595" lon="-1.3711671736092392">
    <tag k="addr:postcode" v="SR2 9TS"/>
    <tag k="removemelater" v="yes"/>
  </node>
  <node id="-201" lat="54.881387686097064" lon="-1.373240643931429">
    <tag k="addr:postcode" v="SR2 9TT"/>
    <tag k="removemelater" v="yes"/>
  </node>
  <node id="-202" lat="54.8794805357567" lon="-1.3745950261765465">
    <tag k="addr:postcode" v="SR2 9TW"/>
    <tag k="removemelater" v="yes"/>
  </node>
  <node id="-203" lat="54.88060342451589" lon="-1.3762609635384568">
    <tag k="addr:postcode" v="SR2 9UA"/>
    <tag k="removemelater" v="yes"/>
  </node>
  <node id="-204" lat="54.88470547215543" lon="-1.4076383274296174">
    <tag k="addr:postcode" v="SR3 1PD"/>
    <tag k="removemelater" v="yes"/>
  </node>
  <node id="-205" lat="54.8849733921735" lon="-1.4203385662243073">
    <tag k="addr:postcode" v="SR3 1RG"/>
    <tag k="removemelater" v="yes"/>
  </node>
  <node id="-206" lat="54.884208701437075" lon="-1.420162486889609">
    <tag k="addr:postcode" v="SR3 1RH"/>
    <tag k="removemelater" v="yes"/>
  </node>
  <node id="-207" lat="54.88134716542506" lon="-1.423133822079951">
    <tag k="addr:postcode" v="SR3 1TJ"/>
    <tag k="removemelater" v="yes"/>
  </node>
  <node id="-208" lat="54.88294524512713" lon="-1.4228148480961134">
    <tag k="addr:postcode" v="SR3 1TQ"/>
    <tag k="removemelater" v="yes"/>
  </node>
  <node id="-209" lat="54.91837562054634" lon="-1.4202488024432807">
    <tag k="addr:postcode" v="SR3 1WZ"/>
    <tag k="removemelater" v="yes"/>
  </node>
  <node id="-210" lat="54.91837562054634" lon="-1.4202488024432807">
    <tag k="addr:postcode" v="SR3 1ZZ"/>
    <tag k="removemelater" v="yes"/>
  </node>
  <node id="-211" lat="54.86607201016636" lon="-1.4067272701269593">
    <tag k="addr:postcode" v="SR3 2LE"/>
    <tag k="removemelater" v="yes"/>
  </node>
  <node id="-212" lat="54.86734984324961" lon="-1.4144990855791295">
    <tag k="addr:postcode" v="SR3 2ND"/>
    <tag k="removemelater" v="yes"/>
  </node>
  <node id="-213" lat="54.86628240042135" lon="-1.4167737507834666">
    <tag k="addr:postcode" v="SR3 2NE"/>
    <tag k="removemelater" v="yes"/>
  </node>
  <node id="-214" lat="54.86161392044281" lon="-1.4177135139133725">
    <tag k="addr:postcode" v="SR3 2NQ"/>
    <tag k="removemelater" v="yes"/>
  </node>
  <node id="-215" lat="54.869950623423954" lon="-1.422782272258028">
    <tag k="addr:postcode" v="SR3 2PE"/>
    <tag k="removemelater" v="yes"/>
  </node>
  <node id="-216" lat="54.847943616028104" lon="-1.4229873132880528">
    <tag k="addr:postcode" v="SR3 2PR"/>
    <tag k="removemelater" v="yes"/>
  </node>
  <node id="-217" lat="54.86706416434751" lon="-1.4281054526112855">
    <tag k="addr:postcode" v="SR3 2QN"/>
    <tag k="removemelater" v="yes"/>
  </node>
  <node id="-218" lat="54.864392801169444" lon="-1.425697184394903">
    <tag k="addr:postcode" v="SR3 2RE"/>
    <tag k="removemelater" v="yes"/>
  </node>
  <node id="-219" lat="54.86336708238493" lon="-1.425431322064163">
    <tag k="addr:postcode" v="SR3 2RF"/>
    <tag k="removemelater" v="yes"/>
  </node>
  <node id="-220" lat="54.864769415721526" lon="-1.4198492847188011">
    <tag k="addr:postcode" v="SR3 2RT"/>
    <tag k="removemelater" v="yes"/>
  </node>
  <node id="-221" lat="54.86426955049931" lon="-1.4205575552243261">
    <tag k="addr:postcode" v="SR3 2RU"/>
    <tag k="removemelater" v="yes"/>
  </node>
  <node id="-222" lat="54.86522316958579" lon="-1.4207775916944485">
    <tag k="addr:postcode" v="SR3 2RX"/>
    <tag k="removemelater" v="yes"/>
  </node>
  <node id="-223" lat="54.8660374641131" lon="-1.4219344712267445">
    <tag k="addr:postcode" v="SR3 2SW"/>
    <tag k="removemelater" v="yes"/>
  </node>
  <node id="-224" lat="54.875360439568205" lon="-1.420881650995537">
    <tag k="addr:postcode" v="SR3 3AG"/>
    <tag k="removemelater" v="yes"/>
  </node>
  <node id="-225" lat="54.875301619122595" lon="-1.419853936922849">
    <tag k="addr:postcode" v="SR3 3AL"/>
    <tag k="removemelater" v="yes"/>
  </node>
  <node id="-226" lat="54.875301619122595" lon="-1.419853936922849">
    <tag k="addr:postcode" v="SR3 3AN"/>
    <tag k="removemelater" v="yes"/>
  </node>
  <node id="-227" lat="54.87533775697087" lon="-1.4180144811024762">
    <tag k="addr:postcode" v="SR3 3AP"/>
    <tag k="removemelater" v="yes"/>
  </node>
  <node id="-228" lat="54.875360439568205" lon="-1.420881650995537">
    <tag k="addr:postcode" v="SR3 3AQ"/>
    <tag k="removemelater" v="yes"/>
  </node>
  <node id="-229" lat="54.87559539942601" lon="-1.4192730999207543">
    <tag k="addr:postcode" v="SR3 3AR"/>
    <tag k="removemelater" v="yes"/>
  </node>
  <node id="-230" lat="54.87559539942601" lon="-1.4192730999207543">
    <tag k="addr:postcode" v="SR3 3AS"/>
    <tag k="removemelater" v="yes"/>
  </node>
  <node id="-231" lat="54.87615028903826" lon="-1.41879759005282">
    <tag k="addr:postcode" v="SR3 3AT"/>
    <tag k="removemelater" v="yes"/>
  </node>
  <node id="-232" lat="54.87615028903826" lon="-1.41879759005282">
    <tag k="addr:postcode" v="SR3 3AU"/>
    <tag k="removemelater" v="yes"/>
  </node>
  <node id="-233" lat="54.87533775697087" lon="-1.4180144811024762">
    <tag k="addr:postcode" v="SR3 3AW"/>
    <tag k="removemelater" v="yes"/>
  </node>
  <node id="-234" lat="54.87644398960391" lon="-1.4182011495903928">
    <tag k="addr:postcode" v="SR3 3AX"/>
    <tag k="removemelater" v="yes"/>
  </node>
  <node id="-235" lat="54.87644398960391" lon="-1.4182011495903928">
    <tag k="addr:postcode" v="SR3 3AY"/>
    <tag k="removemelater" v="yes"/>
  </node>
  <node id="-236" lat="54.87687963506561" lon="-1.4190987961869903">
    <tag k="addr:postcode" v="SR3 3AZ"/>
    <tag k="removemelater" v="yes"/>
  </node>
  <node id="-237" lat="54.87687963506561" lon="-1.4190987961869903">
    <tag k="addr:postcode" v="SR3 3BA"/>
    <tag k="removemelater" v="yes"/>
  </node>
  <node id="-238" lat="54.8782007076085" lon="-1.4191109751437574">
    <tag k="addr:postcode" v="SR3 3BD"/>
    <tag k="removemelater" v="yes"/>
  </node>
  <node id="-239" lat="54.859622018757754" lon="-1.429737371803848">
    <tag k="addr:postcode" v="SR3 3BE"/>
    <tag k="removemelater" v="yes"/>
  </node>
  <node id="-240" lat="54.86435846587418" lon="-1.4375696061305656">
    <tag k="addr:postcode" v="SR3 3BF"/>
    <tag k="removemelater" v="yes"/>
  </node>
  <node id="-241" lat="54.88115413235264" lon="-1.4241185246502506">
    <tag k="addr:postcode" v="SR3 3BG"/>
    <tag k="removemelater" v="yes"/>
  </node>
  <node id="-242" lat="54.8779737215947" lon="-1.4242885334701476">
    <tag k="addr:postcode" v="SR3 3DE"/>
    <tag k="removemelater" v="yes"/>
  </node>
  <node id="-243" lat="54.87503657655898" lon="-1.4208083715685382">
    <tag k="addr:postcode" v="SR3 3DT"/>
    <tag k="removemelater" v="yes"/>
  </node>
  <node id="-244" lat="54.874152718293814" lon="-1.4277246399733752">
    <tag k="addr:postcode" v="SR3 3DZ"/>
    <tag k="removemelater" v="yes"/>
  </node>
  <node id="-245" lat="54.8742389793929" lon="-1.426959813240034">
    <tag k="addr:postcode" v="SR3 3EA"/>
    <tag k="removemelater" v="yes"/>
  </node>
  <node id="-246" lat="54.87104398717026" lon="-1.429763222447921">
    <tag k="addr:postcode" v="SR3 3EL"/>
    <tag k="removemelater" v="yes"/>
  </node>
  <node id="-247" lat="54.871389314521544" lon="-1.4286675628674808">
    <tag k="addr:postcode" v="SR3 3EP"/>
    <tag k="removemelater" v="yes"/>
  </node>
  <node id="-248" lat="54.8708310164913" lon="-1.428426135150613">
    <tag k="addr:postcode" v="SR3 3ER"/>
    <tag k="removemelater" v="yes"/>
  </node>
  <node id="-249" lat="54.8704639133593" lon="-1.4287118082016026">
    <tag k="addr:postcode" v="SR3 3ES"/>
    <tag k="removemelater" v="yes"/>
  </node>
  <node id="-250" lat="54.8699362340865" lon="-1.4311656588632193">
    <tag k="addr:postcode" v="SR3 3ET"/>
    <tag k="removemelater" v="yes"/>
  </node>
  <node id="-251" lat="54.87499468568599" lon="-1.4252348495283198">
    <tag k="addr:postcode" v="SR3 3HP"/>
    <tag k="removemelater" v="yes"/>
  </node>
  <node id="-252" lat="54.87173468308151" lon="-1.4410977612506">
    <tag k="addr:postcode" v="SR3 3LS"/>
    <tag k="removemelater" v="yes"/>
  </node>
  <node id="-253" lat="54.873541367984686" lon="-1.4392339239813394">
    <tag k="addr:postcode" v="SR3 3LT"/>
    <tag k="removemelater" v="yes"/>
  </node>
  <node id="-254" lat="54.87529919537947" lon="-1.4365290536607596">
    <tag k="addr:postcode" v="SR3 3LU"/>
    <tag k="removemelater" v="yes"/>
  </node>
  <node id="-255" lat="54.87470687468952" lon="-1.4386411457000923">
    <tag k="addr:postcode" v="SR3 3NQ"/>
    <tag k="removemelater" v="yes"/>
  </node>
  <node id="-256" lat="54.873510380609645" lon="-1.4403096146134817">
    <tag k="addr:postcode" v="SR3 3NR"/>
    <tag k="removemelater" v="yes"/>
  </node>
  <node id="-257" lat="54.87240107375252" lon="-1.441400207363351">
    <tag k="addr:postcode" v="SR3 3NS"/>
    <tag k="removemelater" v="yes"/>
  </node>
  <node id="-258" lat="54.87151636834505" lon="-1.4405242195289136">
    <tag k="addr:postcode" v="SR3 3PE"/>
    <tag k="removemelater" v="yes"/>
  </node>
  <node id="-259" lat="54.87370280863874" lon="-1.4372214042427551">
    <tag k="addr:postcode" v="SR3 3PG"/>
    <tag k="removemelater" v="yes"/>
  </node>
  <node id="-260" lat="54.87374624023675" lon="-1.4349611800074271">
    <tag k="addr:postcode" v="SR3 3PH"/>
    <tag k="removemelater" v="yes"/>
  </node>
  <node id="-261" lat="54.87305293534908" lon="-1.4366071209866655">
    <tag k="addr:postcode" v="SR3 3PJ"/>
    <tag k="removemelater" v="yes"/>
  </node>
  <node id="-262" lat="54.872449106928116" lon="-1.438173846211299">
    <tag k="addr:postcode" v="SR3 3PL"/>
    <tag k="removemelater" v="yes"/>
  </node>
  <node id="-263" lat="54.870877076732924" lon="-1.4402525840139562">
    <tag k="addr:postcode" v="SR3 3PN"/>
    <tag k="removemelater" v="yes"/>
  </node>
  <node id="-264" lat="54.870635604944574" lon="-1.4405052460732013">
    <tag k="addr:postcode" v="SR3 3PP"/>
    <tag k="removemelater" v="yes"/>
  </node>
  <node id="-265" lat="54.87225623862459" lon="-1.4392205885694154">
    <tag k="addr:postcode" v="SR3 3PQ"/>
    <tag k="removemelater" v="yes"/>
  </node>
  <node id="-266" lat="54.870397219543065" lon="-1.4375323288206512">
    <tag k="addr:postcode" v="SR3 3PR"/>
    <tag k="removemelater" v="yes"/>
  </node>
  <node id="-267" lat="54.87105140696677" lon="-1.4390814793111988">
    <tag k="addr:postcode" v="SR3 3PS"/>
    <tag k="removemelater" v="yes"/>
  </node>
  <node id="-268" lat="54.86962356538258" lon="-1.437356110536801">
    <tag k="addr:postcode" v="SR3 3PT"/>
    <tag k="removemelater" v="yes"/>
  </node>
  <node id="-269" lat="54.870620809981" lon="-1.4353632670738905">
    <tag k="addr:postcode" v="SR3 3PU"/>
    <tag k="removemelater" v="yes"/>
  </node>
  <node id="-270" lat="54.871028114358054" lon="-1.4398765116294518">
    <tag k="addr:postcode" v="SR3 3PW"/>
    <tag k="removemelater" v="yes"/>
  </node>
  <node id="-271" lat="54.87014694454783" lon="-1.4358840990147457">
    <tag k="addr:postcode" v="SR3 3PX"/>
    <tag k="removemelater" v="yes"/>
  </node>
  <node id="-272" lat="54.87092182959457" lon="-1.4363251765409688">
    <tag k="addr:postcode" v="SR3 3PY"/>
    <tag k="removemelater" v="yes"/>
  </node>
  <node id="-273" lat="54.87203694964598" lon="-1.4364966198825802">
    <tag k="addr:postcode" v="SR3 3PZ"/>
    <tag k="removemelater" v="yes"/>
  </node>
  <node id="-274" lat="54.872773216157356" lon="-1.4363616888988935">
    <tag k="addr:postcode" v="SR3 3QA"/>
    <tag k="removemelater" v="yes"/>
  </node>
  <node id="-275" lat="54.87161498612798" lon="-1.4346481543335285">
    <tag k="addr:postcode" v="SR3 3QB"/>
    <tag k="removemelater" v="yes"/>
  </node>
  <node id="-276" lat="54.87167164631314" lon="-1.4333072423640976">
    <tag k="addr:postcode" v="SR3 3QD"/>
    <tag k="removemelater" v="yes"/>
  </node>
  <node id="-277" lat="54.872808951677264" lon="-1.4343821214098325">
    <tag k="addr:postcode" v="SR3 3QE"/>
    <tag k="removemelater" v="yes"/>
  </node>
  <node id="-278" lat="54.87257031780464" lon="-1.4352425331735497">
    <tag k="addr:postcode" v="SR3 3QF"/>
    <tag k="removemelater" v="yes"/>
  </node>
  <node id="-279" lat="54.872760248370916" lon="-1.4335724763983355">
    <tag k="addr:postcode" v="SR3 3QG"/>
    <tag k="removemelater" v="yes"/>
  </node>
  <node id="-280" lat="54.871000898270914" lon="-1.4340022777553314">
    <tag k="addr:postcode" v="SR3 3QJ"/>
    <tag k="removemelater" v="yes"/>
  </node>
  <node id="-281" lat="54.870653985617786" lon="-1.432838456225306">
    <tag k="addr:postcode" v="SR3 3QL"/>
    <tag k="removemelater" v="yes"/>
  </node>
  <node id="-282" lat="54.87074037950577" lon="-1.4340215082730294">
    <tag k="addr:postcode" v="SR3 3QN"/>
    <tag k="removemelater" v="yes"/>
  </node>
  <node id="-283" lat="54.86974902541901" lon="-1.4334121077614306">
    <tag k="addr:postcode" v="SR3 3QP"/>
    <tag k="removemelater" v="yes"/>
  </node>
  <node id="-284" lat="54.87253545550227" lon="-1.4335444605809124">
    <tag k="addr:postcode" v="SR3 3QQ"/>
    <tag k="removemelater" v="yes"/>
  </node>
  <node id="-285" lat="54.8699834579953" lon="-1.4335802251025214">
    <tag k="addr:postcode" v="SR3 3QW"/>
    <tag k="removemelater" v="yes"/>
  </node>
  <node id="-286" lat="54.86670765647961" lon="-1.444236694090555">
    <tag k="addr:postcode" v="SR3 3RA"/>
    <tag k="removemelater" v="yes"/>
  </node>
  <node id="-287" lat="54.86883018578361" lon="-1.4426493441843444">
    <tag k="addr:postcode" v="SR3 3RH"/>
    <tag k="removemelater" v="yes"/>
  </node>
  <node id="-288" lat="54.870133716285395" lon="-1.4427560276648528">
    <tag k="addr:postcode" v="SR3 3RJ"/>
    <tag k="removemelater" v="yes"/>
  </node>
  <node id="-289" lat="54.86980358681025" lon="-1.4393636903843061">
    <tag k="addr:postcode" v="SR3 3RR"/>
    <tag k="removemelater" v="yes"/>
  </node>
  <node id="-290" lat="54.86859234818064" lon="-1.4378379119666032">
    <tag k="addr:postcode" v="SR3 3RT"/>
    <tag k="removemelater" v="yes"/>
  </node>
  <node id="-291" lat="54.86751826288795" lon="-1.436824491067326">
    <tag k="addr:postcode" v="SR3 3RU"/>
    <tag k="removemelater" v="yes"/>
  </node>
  <node id="-292" lat="54.86893731549033" lon="-1.4366489032079655">
    <tag k="addr:postcode" v="SR3 3SA"/>
    <tag k="removemelater" v="yes"/>
  </node>
  <node id="-293" lat="54.86924896870628" lon="-1.4379690167037433">
    <tag k="addr:postcode" v="SR3 3SF"/>
    <tag k="removemelater" v="yes"/>
  </node>
  <node id="-294" lat="54.86778923392159" lon="-1.435184681061975">
    <tag k="addr:postcode" v="SR3 3SG"/>
    <tag k="removemelater" v="yes"/>
  </node>
  <node id="-295" lat="54.86806467034002" lon="-1.436442925218931">
    <tag k="addr:postcode" v="SR3 3SH"/>
    <tag k="removemelater" v="yes"/>
  </node>
  <node id="-296" lat="54.86835259329005" lon="-1.4345847123472402">
    <tag k="addr:postcode" v="SR3 3SJ"/>
    <tag k="removemelater" v="yes"/>
  </node>
  <node id="-297" lat="54.86839316979459" lon="-1.4336492536177108">
    <tag k="addr:postcode" v="SR3 3SL"/>
    <tag k="removemelater" v="yes"/>
  </node>
  <node id="-298" lat="54.86905783671336" lon="-1.4335776138861076">
    <tag k="addr:postcode" v="SR3 3SN"/>
    <tag k="removemelater" v="yes"/>
  </node>
  <node id="-299" lat="54.867076593559915" lon="-1.4346025596933045">
    <tag k="addr:postcode" v="SR3 3SQ"/>
    <tag k="removemelater" v="yes"/>
  </node>
  <node id="-300" lat="54.867174758857466" lon="-1.446162321298646">
    <tag k="addr:postcode" v="SR3 3SY"/>
    <tag k="removemelater" v="yes"/>
  </node>
  <node id="-301" lat="54.86920962350727" lon="-1.447022605120903">
    <tag k="addr:postcode" v="SR3 3TB"/>
    <tag k="removemelater" v="yes"/>
  </node>
  <node id="-302" lat="54.86259357716972" lon="-1.4291034474246478">
    <tag k="addr:postcode" v="SR3 3UY"/>
    <tag k="removemelater" v="yes"/>
  </node>
  <node id="-303" lat="54.91837562054634" lon="-1.4202488024432807">
    <tag k="addr:postcode" v="SR3 3WJ"/>
    <tag k="removemelater" v="yes"/>
  </node>
  <node id="-304" lat="54.91837562054634" lon="-1.4202488024432807">
    <tag k="addr:postcode" v="SR3 3WS"/>
    <tag k="removemelater" v="yes"/>
  </node>
  <node id="-305" lat="54.91837562054634" lon="-1.4202488024432807">
    <tag k="addr:postcode" v="SR3 3WT"/>
    <tag k="removemelater" v="yes"/>
  </node>
  <node id="-306" lat="54.91837562054634" lon="-1.4202488024432807">
    <tag k="addr:postcode" v="SR3 3WU"/>
    <tag k="removemelater" v="yes"/>
  </node>
  <node id="-307" lat="54.8636623182507" lon="-1.4386075500659747">
    <tag k="addr:postcode" v="SR3 3XD"/>
    <tag k="removemelater" v="yes"/>
  </node>
  <node id="-308" lat="54.86458973916828" lon="-1.43899975324623">
    <tag k="addr:postcode" v="SR3 3XE"/>
    <tag k="removemelater" v="yes"/>
  </node>
  <node id="-309" lat="54.86435846587418" lon="-1.4375696061305656">
    <tag k="addr:postcode" v="SR3 3XG"/>
    <tag k="removemelater" v="yes"/>
  </node>
  <node id="-310" lat="54.86404848453809" lon="-1.4346760677478678">
    <tag k="addr:postcode" v="SR3 3XL"/>
    <tag k="removemelater" v="yes"/>
  </node>
  <node id="-311" lat="54.862412012913666" lon="-1.4325490178967897">
    <tag k="addr:postcode" v="SR3 3XN"/>
    <tag k="removemelater" v="yes"/>
  </node>
  <node id="-312" lat="54.863567951351115" lon="-1.4337635870803391">
    <tag k="addr:postcode" v="SR3 3XP"/>
    <tag k="removemelater" v="yes"/>
  </node>
  <node id="-313" lat="54.863548578135415" lon="-1.441226509951316">
    <tag k="addr:postcode" v="SR3 3XR"/>
    <tag k="removemelater" v="yes"/>
  </node>
  <node id="-314" lat="54.91837562054634" lon="-1.4202488024432807">
    <tag k="addr:postcode" v="SR3 3XT"/>
    <tag k="removemelater" v="yes"/>
  </node>
  <node id="-315" lat="54.86282561933428" lon="-1.4384010565946226">
    <tag k="addr:postcode" v="SR3 3XW"/>
    <tag k="removemelater" v="yes"/>
  </node>
  <node id="-316" lat="54.91837562054634" lon="-1.4202488024432807">
    <tag k="addr:postcode" v="SR3 3YF"/>
    <tag k="removemelater" v="yes"/>
  </node>
  <node id="-317" lat="54.91837562054634" lon="-1.4202488024432807">
    <tag k="addr:postcode" v="SR3 3YL"/>
    <tag k="removemelater" v="yes"/>
  </node>
  <node id="-318" lat="54.91837562054634" lon="-1.4202488024432807">
    <tag k="addr:postcode" v="SR3 3YT"/>
    <tag k="removemelater" v="yes"/>
  </node>
  <node id="-319" lat="54.91837562054634" lon="-1.4202488024432807">
    <tag k="addr:postcode" v="SR3 3ZX"/>
    <tag k="removemelater" v="yes"/>
  </node>
  <node id="-320" lat="54.91837562054634" lon="-1.4202488024432807">
    <tag k="addr:postcode" v="SR3 3ZZ"/>
    <tag k="removemelater" v="yes"/>
  </node>
  <node id="-321" lat="54.888914653688445" lon="-1.417662978170152">
    <tag k="addr:postcode" v="SR3 4AU"/>
    <tag k="removemelater" v="yes"/>
  </node>
  <node id="-322" lat="54.888222892133264" lon="-1.4177041297111246">
    <tag k="addr:postcode" v="SR3 4BX"/>
    <tag k="removemelater" v="yes"/>
  </node>
  <node id="-323" lat="54.885011995438994" lon="-1.422785319410348">
    <tag k="addr:postcode" v="SR3 4BY"/>
    <tag k="removemelater" v="yes"/>
  </node>
  <node id="-324" lat="54.888766341897224" lon="-1.431898229425705">
    <tag k="addr:postcode" v="SR3 4DE"/>
    <tag k="removemelater" v="yes"/>
  </node>
  <node id="-325" lat="54.888185840908605" lon="-1.4288353291929103">
    <tag k="addr:postcode" v="SR3 4EN"/>
    <tag k="removemelater" v="yes"/>
  </node>
  <node id="-326" lat="54.888767678292396" lon="-1.4264419253905092">
    <tag k="addr:postcode" v="SR3 4ES"/>
    <tag k="removemelater" v="yes"/>
  </node>
  <node id="-327" lat="54.88785192891455" lon="-1.4247245455034432">
    <tag k="addr:postcode" v="SR3 4HA"/>
    <tag k="removemelater" v="yes"/>
  </node>
  <node id="-328" lat="54.88751334150448" lon="-1.4253373349048637">
    <tag k="addr:postcode" v="SR3 4HB"/>
    <tag k="removemelater" v="yes"/>
  </node>
  <node id="-329" lat="54.88817999029914" lon="-1.4256864013557324">
    <tag k="addr:postcode" v="SR3 4HD"/>
    <tag k="removemelater" v="yes"/>
  </node>
  <node id="-330" lat="54.88884263832738" lon="-1.4232917982709057">
    <tag k="addr:postcode" v="SR3 4HE"/>
    <tag k="removemelater" v="yes"/>
  </node>
  <node id="-331" lat="54.88397987255963" lon="-1.4345374827229198">
    <tag k="addr:postcode" v="SR3 4HS"/>
    <tag k="removemelater" v="yes"/>
  </node>
  <node id="-332" lat="54.88530495327144" lon="-1.4258208039825153">
    <tag k="addr:postcode" v="SR3 4HU"/>
    <tag k="removemelater" v="yes"/>
  </node>
  <node id="-333" lat="54.885422485547856" lon="-1.427876762240691">
    <tag k="addr:postcode" v="SR3 4HY"/>
    <tag k="removemelater" v="yes"/>
  </node>
  <node id="-334" lat="54.88221696027922" lon="-1.430353705830232">
    <tag k="addr:postcode" v="SR3 4JT"/>
    <tag k="removemelater" v="yes"/>
  </node>
  <node id="-335" lat="54.879180775853534" lon="-1.4383452077216117">
    <tag k="addr:postcode" v="SR3 4NH"/>
    <tag k="removemelater" v="yes"/>
  </node>
  <node id="-336" lat="54.87876484001641" lon="-1.4397381001012879">
    <tag k="addr:postcode" v="SR3 4NJ"/>
    <tag k="removemelater" v="yes"/>
  </node>
  <node id="-337" lat="54.87923469201357" lon="-1.4402926704353463">
    <tag k="addr:postcode" v="SR3 4NL"/>
    <tag k="removemelater" v="yes"/>
  </node>
  <node id="-338" lat="54.87776711710934" lon="-1.4396895928987266">
    <tag k="addr:postcode" v="SR3 4NN"/>
    <tag k="removemelater" v="yes"/>
  </node>
  <node id="-339" lat="54.87789478328473" lon="-1.4381448898020741">
    <tag k="addr:postcode" v="SR3 4NQ"/>
    <tag k="removemelater" v="yes"/>
  </node>
  <node id="-340" lat="54.880432047843534" lon="-1.4388109852953272">
    <tag k="addr:postcode" v="SR3 4NU"/>
    <tag k="removemelater" v="yes"/>
  </node>
  <node id="-341" lat="54.88040111237859" lon="-1.441850713520113">
    <tag k="addr:postcode" v="SR3 4PN"/>
    <tag k="removemelater" v="yes"/>
  </node>
  <node id="-342" lat="54.880542094129325" lon="-1.4412409042195446">
    <tag k="addr:postcode" v="SR3 4PP"/>
    <tag k="removemelater" v="yes"/>
  </node>
  <node id="-343" lat="54.88001854621426" lon="-1.4407338063172022">
    <tag k="addr:postcode" v="SR3 4PW"/>
    <tag k="removemelater" v="yes"/>
  </node>
  <node id="-344" lat="54.91837562054634" lon="-1.4202488024432807">
    <tag k="addr:postcode" v="SR3 4YR"/>
    <tag k="removemelater" v="yes"/>
  </node>
  <node id="-345" lat="54.905461928059474" lon="-1.4258928303780323">
    <tag k="addr:postcode" v="SR4 0FA"/>
    <tag k="removemelater" v="yes"/>
  </node>
  <node id="-346" lat="54.90545294221564" lon="-1.4258929581770539">
    <tag k="addr:postcode" v="SR4 0FB"/>
    <tag k="removemelater" v="yes"/>
  </node>
  <node id="-347" lat="54.90547084026341" lon="-1.4258771077837196">
    <tag k="addr:postcode" v="SR4 0FD"/>
    <tag k="removemelater" v="yes"/>
  </node>
  <node id="-348" lat="54.90134211035176" lon="-1.4443682115501462">
    <tag k="addr:postcode" v="SR4 0JL"/>
    <tag k="removemelater" v="yes"/>
  </node>
  <node id="-349" lat="54.90422366527045" lon="-1.449615372122056">
    <tag k="addr:postcode" v="SR4 0LS"/>
    <tag k="removemelater" v="yes"/>
  </node>
  <node id="-350" lat="54.904303055296644" lon="-1.4492867869752557">
    <tag k="addr:postcode" v="SR4 0PA"/>
    <tag k="removemelater" v="yes"/>
  </node>
  <node id="-351" lat="54.90584712991368" lon="-1.4529151778197729">
    <tag k="addr:postcode" v="SR4 0PP"/>
    <tag k="removemelater" v="yes"/>
  </node>
  <node id="-352" lat="54.90608848537138" lon="-1.452631177751319">
    <tag k="addr:postcode" v="SR4 0PR"/>
    <tag k="removemelater" v="yes"/>
  </node>
  <node id="-353" lat="54.90561033718434" lon="-1.452216572715355">
    <tag k="addr:postcode" v="SR4 0PT"/>
    <tag k="removemelater" v="yes"/>
  </node>
  <node id="-354" lat="54.90548291828025" lon="-1.4518595978247932">
    <tag k="addr:postcode" v="SR4 0PU"/>
    <tag k="removemelater" v="yes"/>
  </node>
  <node id="-355" lat="54.90564143676074" lon="-1.4531363078749253">
    <tag k="addr:postcode" v="SR4 0PW"/>
    <tag k="removemelater" v="yes"/>
  </node>
  <node id="-356" lat="54.9056599628313" lon="-1.4512645498662635">
    <tag k="addr:postcode" v="SR4 0PX"/>
    <tag k="removemelater" v="yes"/>
  </node>
  <node id="-357" lat="54.90536349908225" lon="-1.4512841755904184">
    <tag k="addr:postcode" v="SR4 0PY"/>
    <tag k="removemelater" v="yes"/>
  </node>
  <node id="-358" lat="54.90516901764739" lon="-1.4500079714452203">
    <tag k="addr:postcode" v="SR4 0PZ"/>
    <tag k="removemelater" v="yes"/>
  </node>
  <node id="-359" lat="54.905964990091626" lon="-1.4511512313607284">
    <tag k="addr:postcode" v="SR4 0QF"/>
    <tag k="removemelater" v="yes"/>
  </node>
  <node id="-360" lat="54.91026109959214" lon="-1.418415658604525">
    <tag k="addr:postcode" v="SR4 6AD"/>
    <tag k="removemelater" v="yes"/>
  </node>
  <node id="-361" lat="54.911866388532125" lon="-1.3938251492557885">
    <tag k="addr:postcode" v="SR4 6BU"/>
    <tag k="removemelater" v="yes"/>
  </node>
  <node id="-362" lat="54.91390093286601" lon="-1.399987441483353">
    <tag k="addr:postcode" v="SR4 6DD"/>
    <tag k="removemelater" v="yes"/>
  </node>
  <node id="-363" lat="54.91370140928383" lon="-1.4014411197017296">
    <tag k="addr:postcode" v="SR4 6DJ"/>
    <tag k="removemelater" v="yes"/>
  </node>
  <node id="-364" lat="54.908782786720764" lon="-1.3935751166876145">
    <tag k="addr:postcode" v="SR4 6DW"/>
    <tag k="removemelater" v="yes"/>
  </node>
  <node id="-365" lat="54.90926053573819" lon="-1.4291454281052325">
    <tag k="addr:postcode" v="SR4 6SJ"/>
    <tag k="removemelater" v="yes"/>
  </node>
  <node id="-366" lat="54.91137900998948" lon="-1.4210512312848673">
    <tag k="addr:postcode" v="SR4 6SN"/>
    <tag k="removemelater" v="yes"/>
  </node>
  <node id="-367" lat="54.910379162436705" lon="-1.4243411001219348">
    <tag k="addr:postcode" v="SR4 6SS"/>
    <tag k="removemelater" v="yes"/>
  </node>
  <node id="-368" lat="54.91032937379948" lon="-1.4271182046113688">
    <tag k="addr:postcode" v="SR4 6ST"/>
    <tag k="removemelater" v="yes"/>
  </node>
  <node id="-369" lat="54.91037133448549" lon="-1.4208005247605222">
    <tag k="addr:postcode" v="SR4 6SU"/>
    <tag k="removemelater" v="yes"/>
  </node>
  <node id="-370" lat="54.914487069403975" lon="-1.4151568895743323">
    <tag k="addr:postcode" v="SR4 6TQ"/>
    <tag k="removemelater" v="yes"/>
  </node>
  <node id="-371" lat="54.913518812817735" lon="-1.4193826421172915">
    <tag k="addr:postcode" v="SR4 6TY"/>
    <tag k="removemelater" v="yes"/>
  </node>
  <node id="-372" lat="54.91069506470373" lon="-1.4077872526856863">
    <tag k="addr:postcode" v="SR4 6UA"/>
    <tag k="removemelater" v="yes"/>
  </node>
  <node id="-373" lat="54.91285325300995" lon="-1.408083154544575">
    <tag k="addr:postcode" v="SR4 6WE"/>
    <tag k="removemelater" v="yes"/>
  </node>
  <node id="-374" lat="54.898803137234324" lon="-1.4164912124734845">
    <tag k="addr:postcode" v="SR4 7RS"/>
    <tag k="removemelater" v="yes"/>
  </node>
  <node id="-375" lat="54.91837562054634" lon="-1.4202488024432807">
    <tag k="addr:postcode" v="SR4 7WY"/>
    <tag k="removemelater" v="yes"/>
  </node>
  <node id="-376" lat="54.90417427862522" lon="-1.4103313896757603">
    <tag k="addr:postcode" v="SR4 7XF"/>
    <tag k="removemelater" v="yes"/>
  </node>
  <node id="-377" lat="54.91837562054634" lon="-1.4202488024432807">
    <tag k="addr:postcode" v="SR4 7XX"/>
    <tag k="removemelater" v="yes"/>
  </node>
  <node id="-378" lat="54.90152635370959" lon="-1.4298161867473682">
    <tag k="addr:postcode" v="SR4 8AB"/>
    <tag k="removemelater" v="yes"/>
  </node>
  <node id="-379" lat="54.90098807975759" lon="-1.4300109179142064">
    <tag k="addr:postcode" v="SR4 8AH"/>
    <tag k="removemelater" v="yes"/>
  </node>
  <node id="-380" lat="54.89279927781196" lon="-1.4372671469811262">
    <tag k="addr:postcode" v="SR4 8HB"/>
    <tag k="removemelater" v="yes"/>
  </node>
  <node id="-381" lat="54.890717221851204" lon="-1.437872990882397">
    <tag k="addr:postcode" v="SR4 8JJ"/>
    <tag k="removemelater" v="yes"/>
  </node>
  <node id="-382" lat="54.88791908729122" lon="-1.4410453300008046">
    <tag k="addr:postcode" v="SR4 8JU"/>
    <tag k="removemelater" v="yes"/>
  </node>
  <node id="-383" lat="54.894165831810625" lon="-1.4316039940746499">
    <tag k="addr:postcode" v="SR4 8NR"/>
    <tag k="removemelater" v="yes"/>
  </node>
  <node id="-384" lat="54.89464098919393" lon="-1.4313634314453154">
    <tag k="addr:postcode" v="SR4 8NS"/>
    <tag k="removemelater" v="yes"/>
  </node>
  <node id="-385" lat="54.89441795254612" lon="-1.429791823705809">
    <tag k="addr:postcode" v="SR4 8NW"/>
    <tag k="removemelater" v="yes"/>
  </node>
  <node id="-386" lat="54.894032316295345" lon="-1.4338042629823906">
    <tag k="addr:postcode" v="SR4 8NX"/>
    <tag k="removemelater" v="yes"/>
  </node>
  <node id="-387" lat="54.89361932915219" lon="-1.4338880093539896">
    <tag k="addr:postcode" v="SR4 8PA"/>
    <tag k="removemelater" v="yes"/>
  </node>
  <node id="-388" lat="54.896212611855915" lon="-1.4369389207290966">
    <tag k="addr:postcode" v="SR4 8PG"/>
    <tag k="removemelater" v="yes"/>
  </node>
  <node id="-389" lat="54.895614096303504" lon="-1.4299932221629583">
    <tag k="addr:postcode" v="SR4 8PL"/>
    <tag k="removemelater" v="yes"/>
  </node>
  <node id="-390" lat="54.893426726929306" lon="-1.4292133541596679">
    <tag k="addr:postcode" v="SR4 8RN"/>
    <tag k="removemelater" v="yes"/>
  </node>
  <node id="-391" lat="54.89802792927252" lon="-1.4467371666962887">
    <tag k="addr:postcode" v="SR4 9AJ"/>
    <tag k="removemelater" v="yes"/>
  </node>
  <node id="-392" lat="54.89626854166336" lon="-1.4491468889992696">
    <tag k="addr:postcode" v="SR4 9AQ"/>
    <tag k="removemelater" v="yes"/>
  </node>
  <node id="-393" lat="54.89796826320338" lon="-1.4395964234416605">
    <tag k="addr:postcode" v="SR4 9AR"/>
    <tag k="removemelater" v="yes"/>
  </node>
  <node id="-394" lat="54.89675416340056" lon="-1.4393949785204723">
    <tag k="addr:postcode" v="SR4 9AS"/>
    <tag k="removemelater" v="yes"/>
  </node>
  <node id="-395" lat="54.895660306468464" lon="-1.4418892981935545">
    <tag k="addr:postcode" v="SR4 9BB"/>
    <tag k="removemelater" v="yes"/>
  </node>
  <node id="-396" lat="54.89548495128858" lon="-1.4428428318163442">
    <tag k="addr:postcode" v="SR4 9BD"/>
    <tag k="removemelater" v="yes"/>
  </node>
  <node id="-397" lat="54.897154468566335" lon="-1.448323987912348">
    <tag k="addr:postcode" v="SR4 9BY"/>
    <tag k="removemelater" v="yes"/>
  </node>
  <node id="-398" lat="54.89345452967531" lon="-1.4528491987924281">
    <tag k="addr:postcode" v="SR4 9EN"/>
    <tag k="removemelater" v="yes"/>
  </node>
  <node id="-399" lat="54.89152253897293" lon="-1.4548709467889511">
    <tag k="addr:postcode" v="SR4 9EW"/>
    <tag k="removemelater" v="yes"/>
  </node>
  <node id="-400" lat="54.89573580544999" lon="-1.44071884973886">
    <tag k="addr:postcode" v="SR4 9JB"/>
    <tag k="removemelater" v="yes"/>
  </node>
  <node id="-401" lat="54.88837574189094" lon="-1.4485530153821558">
    <tag k="addr:postcode" v="SR4 9LT"/>
    <tag k="removemelater" v="yes"/>
  </node>
  <node id="-402" lat="54.88902088760898" lon="-1.4481388815790075">
    <tag k="addr:postcode" v="SR4 9QF"/>
    <tag k="removemelater" v="yes"/>
  </node>
  <node id="-403" lat="54.88743771671944" lon="-1.44189378947902">
    <tag k="addr:postcode" v="SR4 9QX"/>
    <tag k="removemelater" v="yes"/>
  </node>
  <node id="-404" lat="54.91837562054634" lon="-1.4202488024432807">
    <tag k="addr:postcode" v="SR4 9WD"/>
    <tag k="removemelater" v="yes"/>
  </node>
  <node id="-405" lat="54.91837562054634" lon="-1.4202488024432807">
    <tag k="addr:postcode" v="SR4 9YY"/>
    <tag k="removemelater" v="yes"/>
  </node>
  <node id="-406" lat="54.91417919177022" lon="-1.3819817778022718">
    <tag k="addr:postcode" v="SR5 1AQ"/>
    <tag k="removemelater" v="yes"/>
  </node>
  <node id="-407" lat="54.91435730399557" lon="-1.385208108913459">
    <tag k="addr:postcode" v="SR5 1AT"/>
    <tag k="removemelater" v="yes"/>
  </node>
  <node id="-408" lat="54.91837562054634" lon="-1.4202488024432807">
    <tag k="addr:postcode" v="SR5 1BL"/>
    <tag k="removemelater" v="yes"/>
  </node>
  <node id="-409" lat="54.91651805774938" lon="-1.384223576699948">
    <tag k="addr:postcode" v="SR5 1DH"/>
    <tag k="removemelater" v="yes"/>
  </node>
  <node id="-410" lat="54.916006738260826" lon="-1.3844029795239678">
    <tag k="addr:postcode" v="SR5 1DQ"/>
    <tag k="removemelater" v="yes"/>
  </node>
  <node id="-411" lat="54.91676489930883" lon="-1.38861907929918">
    <tag k="addr:postcode" v="SR5 1EJ"/>
    <tag k="removemelater" v="yes"/>
  </node>
  <node id="-412" lat="54.918103877752245" lon="-1.3904084780093688">
    <tag k="addr:postcode" v="SR5 1ES"/>
    <tag k="removemelater" v="yes"/>
  </node>
  <node id="-413" lat="54.91723975781803" lon="-1.390125125430857">
    <tag k="addr:postcode" v="SR5 1EY"/>
    <tag k="removemelater" v="yes"/>
  </node>
  <node id="-414" lat="54.91814425657174" lon="-1.3930912013568288">
    <tag k="addr:postcode" v="SR5 1HE"/>
    <tag k="removemelater" v="yes"/>
  </node>
  <node id="-415" lat="54.917779058647234" lon="-1.3919422478471641">
    <tag k="addr:postcode" v="SR5 1HQ"/>
    <tag k="removemelater" v="yes"/>
  </node>
  <node id="-416" lat="54.91895209181955" lon="-1.3839680118908344">
    <tag k="addr:postcode" v="SR5 1JE"/>
    <tag k="removemelater" v="yes"/>
  </node>
  <node id="-417" lat="54.920101082652074" lon="-1.383716444126625">
    <tag k="addr:postcode" v="SR5 1JQ"/>
    <tag k="removemelater" v="yes"/>
  </node>
  <node id="-418" lat="54.924546911562736" lon="-1.386784775580151">
    <tag k="addr:postcode" v="SR5 1NB"/>
    <tag k="removemelater" v="yes"/>
  </node>
  <node id="-419" lat="54.915482835059095" lon="-1.3892156957245434">
    <tag k="addr:postcode" v="SR5 1SN"/>
    <tag k="removemelater" v="yes"/>
  </node>
  <node id="-420" lat="54.91824457904397" lon="-1.3933861077118495">
    <tag k="addr:postcode" v="SR5 1SP"/>
    <tag k="removemelater" v="yes"/>
  </node>
  <node id="-421" lat="54.914063396712244" lon="-1.3892995775986166">
    <tag k="addr:postcode" v="SR5 1SU"/>
    <tag k="removemelater" v="yes"/>
  </node>
  <node id="-422" lat="54.91837562054634" lon="-1.4202488024432807">
    <tag k="addr:postcode" v="SR5 1WY"/>
    <tag k="removemelater" v="yes"/>
  </node>
  <node id="-423" lat="54.91837562054634" lon="-1.4202488024432807">
    <tag k="addr:postcode" v="SR5 1YN"/>
    <tag k="removemelater" v="yes"/>
  </node>
  <node id="-424" lat="54.91837562054634" lon="-1.4202488024432807">
    <tag k="addr:postcode" v="SR5 1YT"/>
    <tag k="removemelater" v="yes"/>
  </node>
  <node id="-425" lat="54.91646760144641" lon="-1.404769710704514">
    <tag k="addr:postcode" v="SR5 2BN"/>
    <tag k="removemelater" v="yes"/>
  </node>
  <node id="-426" lat="54.91567111912786" lon="-1.4036114744843395">
    <tag k="addr:postcode" v="SR5 2BP"/>
    <tag k="removemelater" v="yes"/>
  </node>
  <node id="-427" lat="54.91479960127497" lon="-1.4054806921784548">
    <tag k="addr:postcode" v="SR5 2BS"/>
    <tag k="removemelater" v="yes"/>
  </node>
  <node id="-428" lat="54.91624081776787" lon="-1.4043362554052758">
    <tag k="addr:postcode" v="SR5 2BT"/>
    <tag k="removemelater" v="yes"/>
  </node>
  <node id="-429" lat="54.917133047476554" lon="-1.4030282525524949">
    <tag k="addr:postcode" v="SR5 2DA"/>
    <tag k="removemelater" v="yes"/>
  </node>
  <node id="-430" lat="54.91875396090814" lon="-1.4055472321834233">
    <tag k="addr:postcode" v="SR5 2DU"/>
    <tag k="removemelater" v="yes"/>
  </node>
  <node id="-431" lat="54.92336959301784" lon="-1.3975530001707832">
    <tag k="addr:postcode" v="SR5 2EX"/>
    <tag k="removemelater" v="yes"/>
  </node>
  <node id="-432" lat="54.922429749704904" lon="-1.4001258339994427">
    <tag k="addr:postcode" v="SR5 2JX"/>
    <tag k="removemelater" v="yes"/>
  </node>
  <node id="-433" lat="54.91833262106746" lon="-1.415023144323063">
    <tag k="addr:postcode" v="SR5 2TA"/>
    <tag k="removemelater" v="yes"/>
  </node>
  <node id="-434" lat="54.91798206535031" lon="-1.4131405431657424">
    <tag k="addr:postcode" v="SR5 2TB"/>
    <tag k="removemelater" v="yes"/>
  </node>
  <node id="-435" lat="54.9159897889373" lon="-1.4099871349254647">
    <tag k="addr:postcode" v="SR5 2TD"/>
    <tag k="removemelater" v="yes"/>
  </node>
  <node id="-436" lat="54.91653034376866" lon="-1.4084192172151198">
    <tag k="addr:postcode" v="SR5 2TE"/>
    <tag k="removemelater" v="yes"/>
  </node>
  <node id="-437" lat="54.91773071953368" lon="-1.407637187964391">
    <tag k="addr:postcode" v="SR5 2TF"/>
    <tag k="removemelater" v="yes"/>
  </node>
  <node id="-438" lat="54.91837562054634" lon="-1.4202488024432807">
    <tag k="addr:postcode" v="SR5 2TG"/>
    <tag k="removemelater" v="yes"/>
  </node>
  <node id="-439" lat="54.91783397056167" lon="-1.414109936562904">
    <tag k="addr:postcode" v="SR5 2TH"/>
    <tag k="removemelater" v="yes"/>
  </node>
  <node id="-440" lat="54.91790033474805" lon="-1.4166986822292356">
    <tag k="addr:postcode" v="SR5 2TJ"/>
    <tag k="removemelater" v="yes"/>
  </node>
  <node id="-441" lat="54.9183506677266" lon="-1.4150384835044505">
    <tag k="addr:postcode" v="SR5 2TP"/>
    <tag k="removemelater" v="yes"/>
  </node>
  <node id="-442" lat="54.91731425348336" lon="-1.412557439860748">
    <tag k="addr:postcode" v="SR5 2TQ"/>
    <tag k="removemelater" v="yes"/>
  </node>
  <node id="-443" lat="54.918443894934406" lon="-1.4176112751055907">
    <tag k="addr:postcode" v="SR5 2TZ"/>
    <tag k="removemelater" v="yes"/>
  </node>
  <node id="-444" lat="54.91837562054634" lon="-1.4202488024432807">
    <tag k="addr:postcode" v="SR5 2YF"/>
    <tag k="removemelater" v="yes"/>
  </node>
  <node id="-445" lat="54.91837562054634" lon="-1.4202488024432807">
    <tag k="addr:postcode" v="SR5 2YG"/>
    <tag k="removemelater" v="yes"/>
  </node>
  <node id="-446" lat="54.91837562054634" lon="-1.4202488024432807">
    <tag k="addr:postcode" v="SR5 2YU"/>
    <tag k="removemelater" v="yes"/>
  </node>
  <node id="-447" lat="54.92262189005625" lon="-1.419345245504554">
    <tag k="addr:postcode" v="SR5 3AD"/>
    <tag k="removemelater" v="yes"/>
  </node>
  <node id="-448" lat="54.91911786108026" lon="-1.4347471770677689">
    <tag k="addr:postcode" v="SR5 3BE"/>
    <tag k="removemelater" v="yes"/>
  </node>
  <node id="-449" lat="54.92190510674946" lon="-1.4273750936100087">
    <tag k="addr:postcode" v="SR5 3FF"/>
    <tag k="removemelater" v="yes"/>
  </node>
  <node id="-450" lat="54.92275874303849" lon="-1.4467725095246884">
    <tag k="addr:postcode" v="SR5 3FG"/>
    <tag k="removemelater" v="yes"/>
  </node>
  <node id="-451" lat="54.918680663504354" lon="-1.423926244439151">
    <tag k="addr:postcode" v="SR5 3HD"/>
    <tag k="removemelater" v="yes"/>
  </node>
  <node id="-452" lat="54.923051859424255" lon="-1.470219216896399">
    <tag k="addr:postcode" v="SR5 3HE"/>
    <tag k="removemelater" v="yes"/>
  </node>
  <node id="-453" lat="54.92091776796788" lon="-1.4276231348978439">
    <tag k="addr:postcode" v="SR5 3HT"/>
    <tag k="removemelater" v="yes"/>
  </node>
  <node id="-454" lat="54.921597000108406" lon="-1.4306559029057175">
    <tag k="addr:postcode" v="SR5 3JD"/>
    <tag k="removemelater" v="yes"/>
  </node>
  <node id="-455" lat="54.92151343059633" lon="-1.4186903115515055">
    <tag k="addr:postcode" v="SR5 3JT"/>
    <tag k="removemelater" v="yes"/>
  </node>
  <node id="-456" lat="54.91812854122764" lon="-1.4851513200694728">
    <tag k="addr:postcode" v="SR5 3NT"/>
    <tag k="removemelater" v="yes"/>
  </node>
  <node id="-457" lat="54.91913348193873" lon="-1.4323131836625456">
    <tag k="addr:postcode" v="SR5 3NU"/>
    <tag k="removemelater" v="yes"/>
  </node>
  <node id="-458" lat="54.91375522920403" lon="-1.4449928640604162">
    <tag k="addr:postcode" v="SR5 3NX"/>
    <tag k="removemelater" v="yes"/>
  </node>
  <node id="-459" lat="54.91311477002059" lon="-1.4874303052738593">
    <tag k="addr:postcode" v="SR5 3NY"/>
    <tag k="removemelater" v="yes"/>
  </node>
  <node id="-460" lat="54.915188294153396" lon="-1.48901072167588">
    <tag k="addr:postcode" v="SR5 3PL"/>
    <tag k="removemelater" v="yes"/>
  </node>
  <node id="-461" lat="54.91717542795449" lon="-1.489281964119773">
    <tag k="addr:postcode" v="SR5 3QZ"/>
    <tag k="removemelater" v="yes"/>
  </node>
  <node id="-462" lat="54.91337226939747" lon="-1.4866938891676558">
    <tag k="addr:postcode" v="SR5 3TW"/>
    <tag k="removemelater" v="yes"/>
  </node>
  <node id="-463" lat="54.914740623851515" lon="-1.4384431576431052">
    <tag k="addr:postcode" v="SR5 3XB"/>
    <tag k="removemelater" v="yes"/>
  </node>
  <node id="-464" lat="54.914740623851515" lon="-1.4384431576431052">
    <tag k="addr:postcode" v="SR5 3XE"/>
    <tag k="removemelater" v="yes"/>
  </node>
  <node id="-465" lat="54.91703024449939" lon="-1.434152410342171">
    <tag k="addr:postcode" v="SR5 3XF"/>
    <tag k="removemelater" v="yes"/>
  </node>
  <node id="-466" lat="54.91706638816177" lon="-1.4303454252789514">
    <tag k="addr:postcode" v="SR5 3XJ"/>
    <tag k="removemelater" v="yes"/>
  </node>
  <node id="-467" lat="54.91837562054634" lon="-1.4202488024432807">
    <tag k="addr:postcode" v="SR5 3YE"/>
    <tag k="removemelater" v="yes"/>
  </node>
  <node id="-468" lat="54.91837562054634" lon="-1.4202488024432807">
    <tag k="addr:postcode" v="SR5 3YX"/>
    <tag k="removemelater" v="yes"/>
  </node>
  <node id="-469" lat="54.93014422501034" lon="-1.4405851102775296">
    <tag k="addr:postcode" v="SR5 4AH"/>
    <tag k="removemelater" v="yes"/>
  </node>
  <node id="-470" lat="54.92960881621975" lon="-1.4394533595371777">
    <tag k="addr:postcode" v="SR5 4AJ"/>
    <tag k="removemelater" v="yes"/>
  </node>
  <node id="-471" lat="54.92985970012037" lon="-1.4392938199171375">
    <tag k="addr:postcode" v="SR5 4AL"/>
    <tag k="removemelater" v="yes"/>
  </node>
  <node id="-472" lat="54.930118489981716" lon="-1.4389000878742466">
    <tag k="addr:postcode" v="SR5 4AN"/>
    <tag k="removemelater" v="yes"/>
  </node>
  <node id="-473" lat="54.930417900353355" lon="-1.4395201414858405">
    <tag k="addr:postcode" v="SR5 4AP"/>
    <tag k="removemelater" v="yes"/>
  </node>
  <node id="-474" lat="54.93063866095259" lon="-1.440625068623794">
    <tag k="addr:postcode" v="SR5 4AR"/>
    <tag k="removemelater" v="yes"/>
  </node>
  <node id="-475" lat="54.93091182186622" lon="-1.4414015633463013">
    <tag k="addr:postcode" v="SR5 4AS"/>
    <tag k="removemelater" v="yes"/>
  </node>
  <node id="-476" lat="54.9306035806486" lon="-1.4388621277776892">
    <tag k="addr:postcode" v="SR5 4AW"/>
    <tag k="removemelater" v="yes"/>
  </node>
  <node id="-477" lat="54.92658898450774" lon="-1.447219304723588">
    <tag k="addr:postcode" v="SR5 4BW"/>
    <tag k="removemelater" v="yes"/>
  </node>
  <node id="-478" lat="54.9314592913495" lon="-1.4511164420859597">
    <tag k="addr:postcode" v="SR5 4JW"/>
    <tag k="removemelater" v="yes"/>
  </node>
  <node id="-479" lat="54.92341417497826" lon="-1.415901227487632">
    <tag k="addr:postcode" v="SR5 5DB"/>
    <tag k="removemelater" v="yes"/>
  </node>
  <node id="-480" lat="54.92904600700712" lon="-1.4382283906226054">
    <tag k="addr:postcode" v="SR5 5JR"/>
    <tag k="removemelater" v="yes"/>
  </node>
  <node id="-481" lat="54.92891503157697" lon="-1.4410078869182754">
    <tag k="addr:postcode" v="SR5 5JW"/>
    <tag k="removemelater" v="yes"/>
  </node>
  <node id="-482" lat="54.863549979635906" lon="-1.4356957155465868">
    <tag k="addr:postcode" v="SR5 9AF"/>
    <tag k="removemelater" v="yes"/>
  </node>
  <node id="-483" lat="54.91837562054634" lon="-1.4202488024432807">
    <tag k="addr:postcode" v="SR5 9AW"/>
    <tag k="removemelater" v="yes"/>
  </node>
  <node id="-484" lat="54.91837562054634" lon="-1.4202488024432807">
    <tag k="addr:postcode" v="SR5 9BD"/>
    <tag k="removemelater" v="yes"/>
  </node>
  <node id="-485" lat="54.91837562054634" lon="-1.4202488024432807">
    <tag k="addr:postcode" v="SR5 9BJ"/>
    <tag k="removemelater" v="yes"/>
  </node>
  <node id="-486" lat="54.91837562054634" lon="-1.4202488024432807">
    <tag k="addr:postcode" v="SR5 9BS"/>
    <tag k="removemelater" v="yes"/>
  </node>
  <node id="-487" lat="54.91837562054634" lon="-1.4202488024432807">
    <tag k="addr:postcode" v="SR5 9BZ"/>
    <tag k="removemelater" v="yes"/>
  </node>
  <node id="-488" lat="54.91837562054634" lon="-1.4202488024432807">
    <tag k="addr:postcode" v="SR5 9DG"/>
    <tag k="removemelater" v="yes"/>
  </node>
  <node id="-489" lat="54.91837562054634" lon="-1.4202488024432807">
    <tag k="addr:postcode" v="SR5 9EH"/>
    <tag k="removemelater" v="yes"/>
  </node>
  <node id="-490" lat="54.91837562054634" lon="-1.4202488024432807">
    <tag k="addr:postcode" v="SR5 9EN"/>
    <tag k="removemelater" v="yes"/>
  </node>
  <node id="-491" lat="54.91837562054634" lon="-1.4202488024432807">
    <tag k="addr:postcode" v="SR5 9FE"/>
    <tag k="removemelater" v="yes"/>
  </node>
  <node id="-492" lat="54.91837562054634" lon="-1.4202488024432807">
    <tag k="addr:postcode" v="SR5 9FF"/>
    <tag k="removemelater" v="yes"/>
  </node>
  <node id="-493" lat="54.91837562054634" lon="-1.4202488024432807">
    <tag k="addr:postcode" v="SR5 9FT"/>
    <tag k="removemelater" v="yes"/>
  </node>
  <node id="-494" lat="54.91837562054634" lon="-1.4202488024432807">
    <tag k="addr:postcode" v="SR5 9FX"/>
    <tag k="removemelater" v="yes"/>
  </node>
  <node id="-495" lat="54.91837562054634" lon="-1.4202488024432807">
    <tag k="addr:postcode" v="SR5 9FZ"/>
    <tag k="removemelater" v="yes"/>
  </node>
  <node id="-496" lat="54.91837562054634" lon="-1.4202488024432807">
    <tag k="addr:postcode" v="SR5 9GE"/>
    <tag k="removemelater" v="yes"/>
  </node>
  <node id="-497" lat="54.91837562054634" lon="-1.4202488024432807">
    <tag k="addr:postcode" v="SR5 9GG"/>
    <tag k="removemelater" v="yes"/>
  </node>
  <node id="-498" lat="54.91837562054634" lon="-1.4202488024432807">
    <tag k="addr:postcode" v="SR5 9GJ"/>
    <tag k="removemelater" v="yes"/>
  </node>
  <node id="-499" lat="54.91837562054634" lon="-1.4202488024432807">
    <tag k="addr:postcode" v="SR5 9GZ"/>
    <tag k="removemelater" v="yes"/>
  </node>
  <node id="-500" lat="54.91837562054634" lon="-1.4202488024432807">
    <tag k="addr:postcode" v="SR5 9HB"/>
    <tag k="removemelater" v="yes"/>
  </node>
  <node id="-501" lat="54.91837562054634" lon="-1.4202488024432807">
    <tag k="addr:postcode" v="SR5 9HL"/>
    <tag k="removemelater" v="yes"/>
  </node>
  <node id="-502" lat="54.91837562054634" lon="-1.4202488024432807">
    <tag k="addr:postcode" v="SR5 9HX"/>
    <tag k="removemelater" v="yes"/>
  </node>
  <node id="-503" lat="54.91837562054634" lon="-1.4202488024432807">
    <tag k="addr:postcode" v="SR5 9JB"/>
    <tag k="removemelater" v="yes"/>
  </node>
  <node id="-504" lat="54.91837562054634" lon="-1.4202488024432807">
    <tag k="addr:postcode" v="SR5 9JL"/>
    <tag k="removemelater" v="yes"/>
  </node>
  <node id="-505" lat="54.91837562054634" lon="-1.4202488024432807">
    <tag k="addr:postcode" v="SR5 9JQ"/>
    <tag k="removemelater" v="yes"/>
  </node>
  <node id="-506" lat="54.91837562054634" lon="-1.4202488024432807">
    <tag k="addr:postcode" v="SR5 9LY"/>
    <tag k="removemelater" v="yes"/>
  </node>
  <node id="-507" lat="54.91837562054634" lon="-1.4202488024432807">
    <tag k="addr:postcode" v="SR5 9LZ"/>
    <tag k="removemelater" v="yes"/>
  </node>
  <node id="-508" lat="54.91837562054634" lon="-1.4202488024432807">
    <tag k="addr:postcode" v="SR5 9NE"/>
    <tag k="removemelater" v="yes"/>
  </node>
  <node id="-509" lat="54.91837562054634" lon="-1.4202488024432807">
    <tag k="addr:postcode" v="SR5 9NF"/>
    <tag k="removemelater" v="yes"/>
  </node>
  <node id="-510" lat="54.91837562054634" lon="-1.4202488024432807">
    <tag k="addr:postcode" v="SR5 9NJ"/>
    <tag k="removemelater" v="yes"/>
  </node>
  <node id="-511" lat="54.91837562054634" lon="-1.4202488024432807">
    <tag k="addr:postcode" v="SR5 9NN"/>
    <tag k="removemelater" v="yes"/>
  </node>
  <node id="-512" lat="54.91837562054634" lon="-1.4202488024432807">
    <tag k="addr:postcode" v="SR5 9NQ"/>
    <tag k="removemelater" v="yes"/>
  </node>
  <node id="-513" lat="54.91837562054634" lon="-1.4202488024432807">
    <tag k="addr:postcode" v="SR5 9NX"/>
    <tag k="removemelater" v="yes"/>
  </node>
  <node id="-514" lat="54.91837562054634" lon="-1.4202488024432807">
    <tag k="addr:postcode" v="SR5 9PD"/>
    <tag k="removemelater" v="yes"/>
  </node>
  <node id="-515" lat="54.91837562054634" lon="-1.4202488024432807">
    <tag k="addr:postcode" v="SR5 9PF"/>
    <tag k="removemelater" v="yes"/>
  </node>
  <node id="-516" lat="54.91837562054634" lon="-1.4202488024432807">
    <tag k="addr:postcode" v="SR5 9PG"/>
    <tag k="removemelater" v="yes"/>
  </node>
  <node id="-517" lat="54.91837562054634" lon="-1.4202488024432807">
    <tag k="addr:postcode" v="SR5 9PL"/>
    <tag k="removemelater" v="yes"/>
  </node>
  <node id="-518" lat="54.91837562054634" lon="-1.4202488024432807">
    <tag k="addr:postcode" v="SR5 9PQ"/>
    <tag k="removemelater" v="yes"/>
  </node>
  <node id="-519" lat="54.91837562054634" lon="-1.4202488024432807">
    <tag k="addr:postcode" v="SR5 9PR"/>
    <tag k="removemelater" v="yes"/>
  </node>
  <node id="-520" lat="54.91837562054634" lon="-1.4202488024432807">
    <tag k="addr:postcode" v="SR5 9PW"/>
    <tag k="removemelater" v="yes"/>
  </node>
  <node id="-521" lat="54.91837562054634" lon="-1.4202488024432807">
    <tag k="addr:postcode" v="SR5 9PX"/>
    <tag k="removemelater" v="yes"/>
  </node>
  <node id="-522" lat="54.91837562054634" lon="-1.4202488024432807">
    <tag k="addr:postcode" v="SR5 9PZ"/>
    <tag k="removemelater" v="yes"/>
  </node>
  <node id="-523" lat="54.91837562054634" lon="-1.4202488024432807">
    <tag k="addr:postcode" v="SR5 9QA"/>
    <tag k="removemelater" v="yes"/>
  </node>
  <node id="-524" lat="54.91837562054634" lon="-1.4202488024432807">
    <tag k="addr:postcode" v="SR5 9QB"/>
    <tag k="removemelater" v="yes"/>
  </node>
  <node id="-525" lat="54.91837562054634" lon="-1.4202488024432807">
    <tag k="addr:postcode" v="SR5 9QD"/>
    <tag k="removemelater" v="yes"/>
  </node>
  <node id="-526" lat="54.91837562054634" lon="-1.4202488024432807">
    <tag k="addr:postcode" v="SR5 9QE"/>
    <tag k="removemelater" v="yes"/>
  </node>
  <node id="-527" lat="54.91837562054634" lon="-1.4202488024432807">
    <tag k="addr:postcode" v="SR5 9QF"/>
    <tag k="removemelater" v="yes"/>
  </node>
  <node id="-528" lat="54.91837562054634" lon="-1.4202488024432807">
    <tag k="addr:postcode" v="SR5 9QG"/>
    <tag k="removemelater" v="yes"/>
  </node>
  <node id="-529" lat="54.90139307659889" lon="-1.382302281844365">
    <tag k="addr:postcode" v="SR5 9SA"/>
    <tag k="removemelater" v="yes"/>
  </node>
  <node id="-530" lat="54.90139307659889" lon="-1.382302281844365">
    <tag k="addr:postcode" v="SR5 9SB"/>
    <tag k="removemelater" v="yes"/>
  </node>
  <node id="-531" lat="54.90139307659889" lon="-1.382302281844365">
    <tag k="addr:postcode" v="SR5 9SD"/>
    <tag k="removemelater" v="yes"/>
  </node>
  <node id="-532" lat="54.90139307659889" lon="-1.382302281844365">
    <tag k="addr:postcode" v="SR5 9SF"/>
    <tag k="removemelater" v="yes"/>
  </node>
  <node id="-533" lat="54.90139307659889" lon="-1.382302281844365">
    <tag k="addr:postcode" v="SR5 9SG"/>
    <tag k="removemelater" v="yes"/>
  </node>
  <node id="-534" lat="54.90139307659889" lon="-1.382302281844365">
    <tag k="addr:postcode" v="SR5 9SH"/>
    <tag k="removemelater" v="yes"/>
  </node>
  <node id="-535" lat="54.90139307659889" lon="-1.382302281844365">
    <tag k="addr:postcode" v="SR5 9SJ"/>
    <tag k="removemelater" v="yes"/>
  </node>
  <node id="-536" lat="54.90139307659889" lon="-1.382302281844365">
    <tag k="addr:postcode" v="SR5 9SL"/>
    <tag k="removemelater" v="yes"/>
  </node>
  <node id="-537" lat="54.90139307659889" lon="-1.382302281844365">
    <tag k="addr:postcode" v="SR5 9SN"/>
    <tag k="removemelater" v="yes"/>
  </node>
  <node id="-538" lat="54.90139307659889" lon="-1.382302281844365">
    <tag k="addr:postcode" v="SR5 9SP"/>
    <tag k="removemelater" v="yes"/>
  </node>
  <node id="-539" lat="54.90139307659889" lon="-1.382302281844365">
    <tag k="addr:postcode" v="SR5 9SQ"/>
    <tag k="removemelater" v="yes"/>
  </node>
  <node id="-540" lat="54.90139307659889" lon="-1.382302281844365">
    <tag k="addr:postcode" v="SR5 9SR"/>
    <tag k="removemelater" v="yes"/>
  </node>
  <node id="-541" lat="54.90139307659889" lon="-1.382302281844365">
    <tag k="addr:postcode" v="SR5 9SS"/>
    <tag k="removemelater" v="yes"/>
  </node>
  <node id="-542" lat="54.90139307659889" lon="-1.382302281844365">
    <tag k="addr:postcode" v="SR5 9ST"/>
    <tag k="removemelater" v="yes"/>
  </node>
  <node id="-543" lat="54.90139307659889" lon="-1.382302281844365">
    <tag k="addr:postcode" v="SR5 9SU"/>
    <tag k="removemelater" v="yes"/>
  </node>
  <node id="-544" lat="54.90139307659889" lon="-1.382302281844365">
    <tag k="addr:postcode" v="SR5 9SW"/>
    <tag k="removemelater" v="yes"/>
  </node>
  <node id="-545" lat="54.90139307659889" lon="-1.382302281844365">
    <tag k="addr:postcode" v="SR5 9SX"/>
    <tag k="removemelater" v="yes"/>
  </node>
  <node id="-546" lat="54.90139307659889" lon="-1.382302281844365">
    <tag k="addr:postcode" v="SR5 9SY"/>
    <tag k="removemelater" v="yes"/>
  </node>
  <node id="-547" lat="54.90139307659889" lon="-1.382302281844365">
    <tag k="addr:postcode" v="SR5 9SZ"/>
    <tag k="removemelater" v="yes"/>
  </node>
  <node id="-548" lat="54.90139307659889" lon="-1.382302281844365">
    <tag k="addr:postcode" v="SR5 9TA"/>
    <tag k="removemelater" v="yes"/>
  </node>
  <node id="-549" lat="54.90139307659889" lon="-1.382302281844365">
    <tag k="addr:postcode" v="SR5 9TB"/>
    <tag k="removemelater" v="yes"/>
  </node>
  <node id="-550" lat="54.90139307659889" lon="-1.382302281844365">
    <tag k="addr:postcode" v="SR5 9TD"/>
    <tag k="removemelater" v="yes"/>
  </node>
  <node id="-551" lat="54.90139307659889" lon="-1.382302281844365">
    <tag k="addr:postcode" v="SR5 9TE"/>
    <tag k="removemelater" v="yes"/>
  </node>
  <node id="-552" lat="54.90139307659889" lon="-1.382302281844365">
    <tag k="addr:postcode" v="SR5 9TF"/>
    <tag k="removemelater" v="yes"/>
  </node>
  <node id="-553" lat="54.90139307659889" lon="-1.382302281844365">
    <tag k="addr:postcode" v="SR5 9TG"/>
    <tag k="removemelater" v="yes"/>
  </node>
  <node id="-554" lat="54.90139307659889" lon="-1.382302281844365">
    <tag k="addr:postcode" v="SR5 9TH"/>
    <tag k="removemelater" v="yes"/>
  </node>
  <node id="-555" lat="54.90139307659889" lon="-1.382302281844365">
    <tag k="addr:postcode" v="SR5 9TJ"/>
    <tag k="removemelater" v="yes"/>
  </node>
  <node id="-556" lat="54.90139307659889" lon="-1.382302281844365">
    <tag k="addr:postcode" v="SR5 9TL"/>
    <tag k="removemelater" v="yes"/>
  </node>
  <node id="-557" lat="54.90139307659889" lon="-1.382302281844365">
    <tag k="addr:postcode" v="SR5 9TN"/>
    <tag k="removemelater" v="yes"/>
  </node>
  <node id="-558" lat="54.90139307659889" lon="-1.382302281844365">
    <tag k="addr:postcode" v="SR5 9TP"/>
    <tag k="removemelater" v="yes"/>
  </node>
  <node id="-559" lat="54.90139307659889" lon="-1.382302281844365">
    <tag k="addr:postcode" v="SR5 9TQ"/>
    <tag k="removemelater" v="yes"/>
  </node>
  <node id="-560" lat="54.90139307659889" lon="-1.382302281844365">
    <tag k="addr:postcode" v="SR5 9TR"/>
    <tag k="removemelater" v="yes"/>
  </node>
  <node id="-561" lat="54.90139307659889" lon="-1.382302281844365">
    <tag k="addr:postcode" v="SR5 9TS"/>
    <tag k="removemelater" v="yes"/>
  </node>
  <node id="-562" lat="54.90139307659889" lon="-1.382302281844365">
    <tag k="addr:postcode" v="SR5 9TT"/>
    <tag k="removemelater" v="yes"/>
  </node>
  <node id="-563" lat="54.90139307659889" lon="-1.382302281844365">
    <tag k="addr:postcode" v="SR5 9TU"/>
    <tag k="removemelater" v="yes"/>
  </node>
  <node id="-564" lat="54.90139307659889" lon="-1.382302281844365">
    <tag k="addr:postcode" v="SR5 9TW"/>
    <tag k="removemelater" v="yes"/>
  </node>
  <node id="-565" lat="54.91240700695914" lon="-1.378093677782397">
    <tag k="addr:postcode" v="SR6 0AN"/>
    <tag k="removemelater" v="yes"/>
  </node>
  <node id="-566" lat="54.91588514730894" lon="-1.3799276600374846">
    <tag k="addr:postcode" v="SR6 0BT"/>
    <tag k="removemelater" v="yes"/>
  </node>
  <node id="-567" lat="54.915658906886016" lon="-1.381381920520159">
    <tag k="addr:postcode" v="SR6 0DA"/>
    <tag k="removemelater" v="yes"/>
  </node>
  <node id="-568" lat="54.912338134788335" lon="-1.3734307739511884">
    <tag k="addr:postcode" v="SR6 0DD"/>
    <tag k="removemelater" v="yes"/>
  </node>
  <node id="-569" lat="54.91295505764976" lon="-1.371081376877211">
    <tag k="addr:postcode" v="SR6 0GL"/>
    <tag k="removemelater" v="yes"/>
  </node>
  <node id="-570" lat="54.91809118004731" lon="-1.3755099403496844">
    <tag k="addr:postcode" v="SR6 0JT"/>
    <tag k="removemelater" v="yes"/>
  </node>
  <node id="-571" lat="54.91921817147086" lon="-1.3744784172855993">
    <tag k="addr:postcode" v="SR6 0JW"/>
    <tag k="removemelater" v="yes"/>
  </node>
  <node id="-572" lat="54.91874136550378" lon="-1.3743766026758606">
    <tag k="addr:postcode" v="SR6 0LA"/>
    <tag k="removemelater" v="yes"/>
  </node>
  <node id="-573" lat="54.91880081254116" lon="-1.3737048358058621">
    <tag k="addr:postcode" v="SR6 0LQ"/>
    <tag k="removemelater" v="yes"/>
  </node>
  <node id="-574" lat="54.919981586032534" lon="-1.3674459023366092">
    <tag k="addr:postcode" v="SR6 0PW"/>
    <tag k="removemelater" v="yes"/>
  </node>
  <node id="-575" lat="54.91423348404283" lon="-1.373276549708754">
    <tag k="addr:postcode" v="SR6 0QA"/>
    <tag k="removemelater" v="yes"/>
  </node>
  <node id="-576" lat="54.91837562054634" lon="-1.4202488024432807">
    <tag k="addr:postcode" v="SR6 0YG"/>
    <tag k="removemelater" v="yes"/>
  </node>
  <node id="-577" lat="54.91837562054634" lon="-1.4202488024432807">
    <tag k="addr:postcode" v="SR6 0YN"/>
    <tag k="removemelater" v="yes"/>
  </node>
  <node id="-578" lat="54.94952099166655" lon="-1.3590509364822128">
    <tag k="addr:postcode" v="SR6 7EF"/>
    <tag k="removemelater" v="yes"/>
  </node>
  <node id="-579" lat="54.91837562054634" lon="-1.4202488024432807">
    <tag k="addr:postcode" v="SR6 7EH"/>
    <tag k="removemelater" v="yes"/>
  </node>
  <node id="-580" lat="54.96144263560527" lon="-1.366998009356597">
    <tag k="addr:postcode" v="SR6 7HJ"/>
    <tag k="removemelater" v="yes"/>
  </node>
  <node id="-581" lat="54.97146245428479" lon="-1.3669967160040584">
    <tag k="addr:postcode" v="SR6 7NJ"/>
    <tag k="removemelater" v="yes"/>
  </node>
  <node id="-582" lat="54.91837562054634" lon="-1.4202488024432807">
    <tag k="addr:postcode" v="SR6 7YE"/>
    <tag k="removemelater" v="yes"/>
  </node>
  <node id="-583" lat="54.91837562054634" lon="-1.4202488024432807">
    <tag k="addr:postcode" v="SR6 7YF"/>
    <tag k="removemelater" v="yes"/>
  </node>
  <node id="-584" lat="54.91837562054634" lon="-1.4202488024432807">
    <tag k="addr:postcode" v="SR6 7YQ"/>
    <tag k="removemelater" v="yes"/>
  </node>
  <node id="-585" lat="54.91837562054634" lon="-1.4202488024432807">
    <tag k="addr:postcode" v="SR6 7YS"/>
    <tag k="removemelater" v="yes"/>
  </node>
  <node id="-586" lat="54.93644892966831" lon="-1.3682489084413623">
    <tag k="addr:postcode" v="SR6 8AA"/>
    <tag k="removemelater" v="yes"/>
  </node>
  <node id="-587" lat="54.933565815122044" lon="-1.3685437884764888">
    <tag k="addr:postcode" v="SR6 8DB"/>
    <tag k="removemelater" v="yes"/>
  </node>
  <node id="-588" lat="54.9357443316146" lon="-1.3850693370863496">
    <tag k="addr:postcode" v="SR6 8LG"/>
    <tag k="removemelater" v="yes"/>
  </node>
  <node id="-589" lat="54.91837562054634" lon="-1.4202488024432807">
    <tag k="addr:postcode" v="SR6 8YQ"/>
    <tag k="removemelater" v="yes"/>
  </node>
  <node id="-590" lat="54.93023971012461" lon="-1.3770384324497704">
    <tag k="addr:postcode" v="SR6 9BN"/>
    <tag k="removemelater" v="yes"/>
  </node>
  <node id="-591" lat="54.93038598639623" lon="-1.3757721250431956">
    <tag k="addr:postcode" v="SR6 9EQ"/>
    <tag k="removemelater" v="yes"/>
  </node>
  <node id="-592" lat="54.92152426774448" lon="-1.3773134459663576">
    <tag k="addr:postcode" v="SR6 9QH"/>
    <tag k="removemelater" v="yes"/>
  </node>
  <node id="-593" lat="54.92198655011696" lon="-1.3798494811479185">
    <tag k="addr:postcode" v="SR6 9QS"/>
    <tag k="removemelater" v="yes"/>
  </node>
  <node id="-594" lat="54.92261674540638" lon="-1.3800738307663902">
    <tag k="addr:postcode" v="SR6 9QT"/>
    <tag k="removemelater" v="yes"/>
  </node>
  <node id="-595" lat="54.923497745853204" lon="-1.380138305699817">
    <tag k="addr:postcode" v="SR6 9QU"/>
    <tag k="removemelater" v="yes"/>
  </node>
  <node id="-596" lat="54.92153805842083" lon="-1.3800123966960118">
    <tag k="addr:postcode" v="SR6 9QW"/>
    <tag k="removemelater" v="yes"/>
  </node>
  <node id="-597" lat="54.92101370054567" lon="-1.3811593937120772">
    <tag k="addr:postcode" v="SR6 9QX"/>
    <tag k="removemelater" v="yes"/>
  </node>
  <node id="-598" lat="54.92166543851875" lon="-1.3785594390425342">
    <tag k="addr:postcode" v="SR6 9QZ"/>
    <tag k="removemelater" v="yes"/>
  </node>
  <node id="-599" lat="54.9221150445147" lon="-1.3786149221742408">
    <tag k="addr:postcode" v="SR6 9RD"/>
    <tag k="removemelater" v="yes"/>
  </node>
  <node id="-600" lat="54.92238493563122" lon="-1.3786731745514096">
    <tag k="addr:postcode" v="SR6 9RE"/>
    <tag k="removemelater" v="yes"/>
  </node>
  <node id="-601" lat="54.922790250420285" lon="-1.3788541627062807">
    <tag k="addr:postcode" v="SR6 9RQ"/>
    <tag k="removemelater" v="yes"/>
  </node>
  <node id="-602" lat="54.91837562054634" lon="-1.4202488024432807">
    <tag k="addr:postcode" v="SR6 9YU"/>
    <tag k="removemelater" v="yes"/>
  </node>
  <node id="-603" lat="54.84154685818767" lon="-1.362210662754598">
    <tag k="addr:postcode" v="SR7 0BH"/>
    <tag k="removemelater" v="yes"/>
  </node>
  <node id="-604" lat="54.849141882850226" lon="-1.3710927797558656">
    <tag k="addr:postcode" v="SR7 0PT"/>
    <tag k="removemelater" v="yes"/>
  </node>
  <node id="-605" lat="54.83758203959119" lon="-1.335072832864054">
    <tag k="addr:postcode" v="SR7 1AN"/>
    <tag k="removemelater" v="yes"/>
  </node>
  <node id="-606" lat="54.83758203959119" lon="-1.335072832864054">
    <tag k="addr:postcode" v="SR7 1AQ"/>
    <tag k="removemelater" v="yes"/>
  </node>
  <node id="-607" lat="54.83758203959119" lon="-1.335072832864054">
    <tag k="addr:postcode" v="SR7 1AS"/>
    <tag k="removemelater" v="yes"/>
  </node>
  <node id="-608" lat="54.83976102980947" lon="-1.3358466960665163">
    <tag k="addr:postcode" v="SR7 7AX"/>
    <tag k="removemelater" v="yes"/>
  </node>
  <node id="-609" lat="54.84056153780004" lon="-1.3409252368664575">
    <tag k="addr:postcode" v="SR7 7BJ"/>
    <tag k="removemelater" v="yes"/>
  </node>
  <node id="-610" lat="54.839013536715726" lon="-1.3371980104942345">
    <tag k="addr:postcode" v="SR7 7DJ"/>
    <tag k="removemelater" v="yes"/>
  </node>
  <node id="-611" lat="54.82292985733942" lon="-1.3359827421062591">
    <tag k="addr:postcode" v="SR7 7DN"/>
    <tag k="removemelater" v="yes"/>
  </node>
  <node id="-612" lat="54.83855137975398" lon="-1.3266957483438764">
    <tag k="addr:postcode" v="SR7 7EE"/>
    <tag k="removemelater" v="yes"/>
  </node>
  <node id="-613" lat="54.840596159832856" lon="-1.3324541011359115">
    <tag k="addr:postcode" v="SR7 7EZ"/>
    <tag k="removemelater" v="yes"/>
  </node>
  <node id="-614" lat="54.840543699399234" lon="-1.3327196717461025">
    <tag k="addr:postcode" v="SR7 7HA"/>
    <tag k="removemelater" v="yes"/>
  </node>
  <node id="-615" lat="54.824321876334096" lon="-1.3260296663641216">
    <tag k="addr:postcode" v="SR7 7PP"/>
    <tag k="removemelater" v="yes"/>
  </node>
  <node id="-616" lat="54.822596344535455" lon="-1.3260116980995311">
    <tag k="addr:postcode" v="SR7 7PR"/>
    <tag k="removemelater" v="yes"/>
  </node>
  <node id="-617" lat="54.82463741049056" lon="-1.324592454261833">
    <tag k="addr:postcode" v="SR7 7PS"/>
    <tag k="removemelater" v="yes"/>
  </node>
  <node id="-618" lat="54.8363338169664" lon="-1.3401844913586338">
    <tag k="addr:postcode" v="SR7 7SL"/>
    <tag k="removemelater" v="yes"/>
  </node>
  <node id="-619" lat="54.82530383173115" lon="-1.326464704958813">
    <tag k="addr:postcode" v="SR7 7TT"/>
    <tag k="removemelater" v="yes"/>
  </node>
  <node id="-620" lat="54.83758203959119" lon="-1.335072832864054">
    <tag k="addr:postcode" v="SR7 7XQ"/>
    <tag k="removemelater" v="yes"/>
  </node>
  <node id="-621" lat="54.83684820694474" lon="-1.348910567371175">
    <tag k="addr:postcode" v="SR7 8LF"/>
    <tag k="removemelater" v="yes"/>
  </node>
  <node id="-622" lat="54.805060904829034" lon="-1.3638585956794218">
    <tag k="addr:postcode" v="SR7 8RP"/>
    <tag k="removemelater" v="yes"/>
  </node>
  <node id="-623" lat="54.80215828727263" lon="-1.3690376763566388">
    <tag k="addr:postcode" v="SR7 8RZ"/>
    <tag k="removemelater" v="yes"/>
  </node>
  <node id="-624" lat="54.805216444316194" lon="-1.3765197658203028">
    <tag k="addr:postcode" v="SR7 8SA"/>
    <tag k="removemelater" v="yes"/>
  </node>
  <node id="-625" lat="54.81700656409635" lon="-1.3643245618584385">
    <tag k="addr:postcode" v="SR7 8ST"/>
    <tag k="removemelater" v="yes"/>
  </node>
  <node id="-626" lat="54.818233215901536" lon="-1.3843806243962147">
    <tag k="addr:postcode" v="SR7 9AG"/>
    <tag k="removemelater" v="yes"/>
  </node>
  <node id="-627" lat="54.815241955610865" lon="-1.381096016558986">
    <tag k="addr:postcode" v="SR7 9BX"/>
    <tag k="removemelater" v="yes"/>
  </node>
  <node id="-628" lat="54.81407268694478" lon="-1.3791376804031907">
    <tag k="addr:postcode" v="SR7 9BZ"/>
    <tag k="removemelater" v="yes"/>
  </node>
  <node id="-629" lat="54.81316892172162" lon="-1.3781401135932692">
    <tag k="addr:postcode" v="SR7 9DA"/>
    <tag k="removemelater" v="yes"/>
  </node>
  <node id="-630" lat="54.75828680842727" lon="-1.3356267192757698">
    <tag k="addr:postcode" v="SR8 1AD"/>
    <tag k="removemelater" v="yes"/>
  </node>
  <node id="-631" lat="54.7582046259282" lon="-1.3304845670234609">
    <tag k="addr:postcode" v="SR8 1AP"/>
    <tag k="removemelater" v="yes"/>
  </node>
  <node id="-632" lat="54.749618545244275" lon="-1.3529824312698704">
    <tag k="addr:postcode" v="SR8 1AU"/>
    <tag k="removemelater" v="yes"/>
  </node>
  <node id="-633" lat="54.75958882930738" lon="-1.33543446685656">
    <tag k="addr:postcode" v="SR8 1BU"/>
    <tag k="removemelater" v="yes"/>
  </node>
  <node id="-634" lat="54.75959647985811" lon="-1.3368329233501157">
    <tag k="addr:postcode" v="SR8 1EA"/>
    <tag k="removemelater" v="yes"/>
  </node>
  <node id="-635" lat="54.74922384400474" lon="-1.3581932162096972">
    <tag k="addr:postcode" v="SR8 1PX"/>
    <tag k="removemelater" v="yes"/>
  </node>
  <node id="-636" lat="54.774324598856474" lon="-1.3634857336338253">
    <tag k="addr:postcode" v="SR8 2HP"/>
    <tag k="removemelater" v="yes"/>
  </node>
  <node id="-637" lat="54.76863698406732" lon="-1.3602487178444616">
    <tag k="addr:postcode" v="SR8 2HR"/>
    <tag k="removemelater" v="yes"/>
  </node>
  <node id="-638" lat="54.757393653489174" lon="-1.3651964015211346">
    <tag k="addr:postcode" v="SR8 2HS"/>
    <tag k="removemelater" v="yes"/>
  </node>
  <node id="-639" lat="54.75573610885642" lon="-1.3610114478592106">
    <tag k="addr:postcode" v="SR8 2HU"/>
    <tag k="removemelater" v="yes"/>
  </node>
  <node id="-640" lat="54.76483716867059" lon="-1.3622513521384318">
    <tag k="addr:postcode" v="SR8 2HX"/>
    <tag k="removemelater" v="yes"/>
  </node>
  <node id="-641" lat="54.76631507425187" lon="-1.3733875220816">
    <tag k="addr:postcode" v="SR8 2HY"/>
    <tag k="removemelater" v="yes"/>
  </node>
  <node id="-642" lat="54.760351041868354" lon="-1.3602084038546138">
    <tag k="addr:postcode" v="SR8 2JD"/>
    <tag k="removemelater" v="yes"/>
  </node>
  <node id="-643" lat="54.76961785429472" lon="-1.3622072888417158">
    <tag k="addr:postcode" v="SR8 2JF"/>
    <tag k="removemelater" v="yes"/>
  </node>
  <node id="-644" lat="54.76471837933994" lon="-1.3739561397625712">
    <tag k="addr:postcode" v="SR8 2JH"/>
    <tag k="removemelater" v="yes"/>
  </node>
  <node id="-645" lat="54.75558509436631" lon="-1.356243586177467">
    <tag k="addr:postcode" v="SR8 2JS"/>
    <tag k="removemelater" v="yes"/>
  </node>
  <node id="-646" lat="54.75678183750458" lon="-1.353147942524374">
    <tag k="addr:postcode" v="SR8 2LR"/>
    <tag k="removemelater" v="yes"/>
  </node>
  <node id="-647" lat="54.75629528609574" lon="-1.3682591261190575">
    <tag k="addr:postcode" v="SR8 2LS"/>
    <tag k="removemelater" v="yes"/>
  </node>
  <node id="-648" lat="54.75970028083266" lon="-1.3646319690336617">
    <tag k="addr:postcode" v="SR8 2LT"/>
    <tag k="removemelater" v="yes"/>
  </node>
  <node id="-649" lat="54.75884876653969" lon="-1.3616306398794162">
    <tag k="addr:postcode" v="SR8 2LU"/>
    <tag k="removemelater" v="yes"/>
  </node>
  <node id="-650" lat="54.75568276592865" lon="-1.3628302654279576">
    <tag k="addr:postcode" v="SR8 2LX"/>
    <tag k="removemelater" v="yes"/>
  </node>
  <node id="-651" lat="54.75668186543747" lon="-1.3546257087313929">
    <tag k="addr:postcode" v="SR8 2NB"/>
    <tag k="removemelater" v="yes"/>
  </node>
  <node id="-652" lat="54.750916269167426" lon="-1.3570478361730929">
    <tag k="addr:postcode" v="SR8 2PH"/>
    <tag k="removemelater" v="yes"/>
  </node>
  <node id="-653" lat="54.76620420402889" lon="-1.3693326957427288">
    <tag k="addr:postcode" v="SR8 2QH"/>
    <tag k="removemelater" v="yes"/>
  </node>
  <node id="-654" lat="54.75855519914806" lon="-1.3656288755827155">
    <tag k="addr:postcode" v="SR8 2RA"/>
    <tag k="removemelater" v="yes"/>
  </node>
  <node id="-655" lat="54.76685385728401" lon="-1.3612404725132063">
    <tag k="addr:postcode" v="SR8 2RB"/>
    <tag k="removemelater" v="yes"/>
  </node>
  <node id="-656" lat="54.767722539290794" lon="-1.364086686789055">
    <tag k="addr:postcode" v="SR8 2RD"/>
    <tag k="removemelater" v="yes"/>
  </node>
  <node id="-657" lat="54.7550124538297" lon="-1.3652491795812798">
    <tag k="addr:postcode" v="SR8 2RJ"/>
    <tag k="removemelater" v="yes"/>
  </node>
  <node id="-658" lat="54.76082328158371" lon="-1.3645677664563403">
    <tag k="addr:postcode" v="SR8 2RL"/>
    <tag k="removemelater" v="yes"/>
  </node>
  <node id="-659" lat="54.7540445844272" lon="-1.3674861968798473">
    <tag k="addr:postcode" v="SR8 2RS"/>
    <tag k="removemelater" v="yes"/>
  </node>
  <node id="-660" lat="54.75647928980119" lon="-1.3690798064529166">
    <tag k="addr:postcode" v="SR8 2SW"/>
    <tag k="removemelater" v="yes"/>
  </node>
  <node id="-661" lat="54.76359562629229" lon="-1.3637006648629044">
    <tag k="addr:postcode" v="SR8 2TG"/>
    <tag k="removemelater" v="yes"/>
  </node>
  <node id="-662" lat="54.78399057060924" lon="-1.3593689797034603">
    <tag k="addr:postcode" v="SR8 3BP"/>
    <tag k="removemelater" v="yes"/>
  </node>
  <node id="-663" lat="54.790337278650824" lon="-1.3314313648615617">
    <tag k="addr:postcode" v="SR8 3LS"/>
    <tag k="removemelater" v="yes"/>
  </node>
  <node id="-664" lat="54.790240489039235" lon="-1.3318061984514633">
    <tag k="addr:postcode" v="SR8 3LT"/>
    <tag k="removemelater" v="yes"/>
  </node>
  <node id="-665" lat="54.790296372272" lon="-1.332162963487317">
    <tag k="addr:postcode" v="SR8 3LU"/>
    <tag k="removemelater" v="yes"/>
  </node>
  <node id="-666" lat="54.79028952445942" lon="-1.3325518655654522">
    <tag k="addr:postcode" v="SR8 3LX"/>
    <tag k="removemelater" v="yes"/>
  </node>
  <node id="-667" lat="54.790345320051294" lon="-1.3328930818937457">
    <tag k="addr:postcode" v="SR8 3LY"/>
    <tag k="removemelater" v="yes"/>
  </node>
  <node id="-668" lat="54.790338384495485" lon="-1.3332664341539275">
    <tag k="addr:postcode" v="SR8 3LZ"/>
    <tag k="removemelater" v="yes"/>
  </node>
  <node id="-669" lat="54.7930159589035" lon="-1.370206466413615">
    <tag k="addr:postcode" v="SR8 3NY"/>
    <tag k="removemelater" v="yes"/>
  </node>
  <node id="-670" lat="54.78879850990057" lon="-1.3261849526511764">
    <tag k="addr:postcode" v="SR8 3PX"/>
    <tag k="removemelater" v="yes"/>
  </node>
  <node id="-671" lat="54.78881268197461" lon="-1.3255004726249802">
    <tag k="addr:postcode" v="SR8 3PZ"/>
    <tag k="removemelater" v="yes"/>
  </node>
  <node id="-672" lat="54.78883721956144" lon="-1.3250646357840068">
    <tag k="addr:postcode" v="SR8 3QA"/>
    <tag k="removemelater" v="yes"/>
  </node>
  <node id="-673" lat="54.78896898008625" lon="-1.3245181545771738">
    <tag k="addr:postcode" v="SR8 3QB"/>
    <tag k="removemelater" v="yes"/>
  </node>
  <node id="-674" lat="54.789001114433475" lon="-1.3238333714072452">
    <tag k="addr:postcode" v="SR8 3QJ"/>
    <tag k="removemelater" v="yes"/>
  </node>
  <node id="-675" lat="54.78848450163015" lon="-1.3230488928858146">
    <tag k="addr:postcode" v="SR8 3QQ"/>
    <tag k="removemelater" v="yes"/>
  </node>
  <node id="-676" lat="54.78812687681721" lon="-1.3201624247838513">
    <tag k="addr:postcode" v="SR8 3QR"/>
    <tag k="removemelater" v="yes"/>
  </node>
  <node id="-677" lat="54.78757464575246" lon="-1.3194408098440107">
    <tag k="addr:postcode" v="SR8 3QU"/>
    <tag k="removemelater" v="yes"/>
  </node>
  <node id="-678" lat="54.788280593833754" lon="-1.3203309059360777">
    <tag k="addr:postcode" v="SR8 3QW"/>
    <tag k="removemelater" v="yes"/>
  </node>
  <node id="-679" lat="54.786688446025416" lon="-1.3200621439992493">
    <tag k="addr:postcode" v="SR8 3RA"/>
    <tag k="removemelater" v="yes"/>
  </node>
  <node id="-680" lat="54.786568929274345" lon="-1.3195820935910811">
    <tag k="addr:postcode" v="SR8 3RB"/>
    <tag k="removemelater" v="yes"/>
  </node>
  <node id="-681" lat="54.78597342285246" lon="-1.3191566897741145">
    <tag k="addr:postcode" v="SR8 3RF"/>
    <tag k="removemelater" v="yes"/>
  </node>
  <node id="-682" lat="54.7883396007312" lon="-1.3228491516965282">
    <tag k="addr:postcode" v="SR8 3RU"/>
    <tag k="removemelater" v="yes"/>
  </node>
  <node id="-683" lat="54.78740661627497" lon="-1.3199256953562597">
    <tag k="addr:postcode" v="SR8 3RW"/>
    <tag k="removemelater" v="yes"/>
  </node>
  <node id="-684" lat="54.788070892744926" lon="-1.3230091472923124">
    <tag k="addr:postcode" v="SR8 3RX"/>
    <tag k="removemelater" v="yes"/>
  </node>
  <node id="-685" lat="54.78785497236333" lon="-1.3229661010503064">
    <tag k="addr:postcode" v="SR8 3RY"/>
    <tag k="removemelater" v="yes"/>
  </node>
  <node id="-686" lat="54.787566124341055" lon="-1.3227376668053872">
    <tag k="addr:postcode" v="SR8 3RZ"/>
    <tag k="removemelater" v="yes"/>
  </node>
  <node id="-687" lat="54.787360143898596" lon="-1.3228655114808128">
    <tag k="addr:postcode" v="SR8 3SA"/>
    <tag k="removemelater" v="yes"/>
  </node>
  <node id="-688" lat="54.78714240146079" lon="-1.3224959393273652">
    <tag k="addr:postcode" v="SR8 3SB"/>
    <tag k="removemelater" v="yes"/>
  </node>
  <node id="-689" lat="54.78667630513268" lon="-1.3211042107757103">
    <tag k="addr:postcode" v="SR8 3SD"/>
    <tag k="removemelater" v="yes"/>
  </node>
  <node id="-690" lat="54.78578484474357" lon="-1.3223942262221107">
    <tag k="addr:postcode" v="SR8 3SJ"/>
    <tag k="removemelater" v="yes"/>
  </node>
  <node id="-691" lat="54.785664816045326" lon="-1.3218208894154702">
    <tag k="addr:postcode" v="SR8 3SL"/>
    <tag k="removemelater" v="yes"/>
  </node>
  <node id="-692" lat="54.78577948250924" lon="-1.3198285903073168">
    <tag k="addr:postcode" v="SR8 3SP"/>
    <tag k="removemelater" v="yes"/>
  </node>
  <node id="-693" lat="54.781105187797046" lon="-1.3180101332572864">
    <tag k="addr:postcode" v="SR8 3SU"/>
    <tag k="removemelater" v="yes"/>
  </node>
  <node id="-694" lat="54.78735757636943" lon="-1.3207973436509364">
    <tag k="addr:postcode" v="SR8 3SW"/>
    <tag k="removemelater" v="yes"/>
  </node>
  <node id="-695" lat="54.77992681912801" lon="-1.3178122841800255">
    <tag k="addr:postcode" v="SR8 3SX"/>
    <tag k="removemelater" v="yes"/>
  </node>
  <node id="-696" lat="54.78483377012223" lon="-1.367643511194893">
    <tag k="addr:postcode" v="SR8 3TX"/>
    <tag k="removemelater" v="yes"/>
  </node>
  <node id="-697" lat="54.78545338112944" lon="-1.3744912542442826">
    <tag k="addr:postcode" v="SR8 3TY"/>
    <tag k="removemelater" v="yes"/>
  </node>
  <node id="-698" lat="54.781031162899176" lon="-1.3656815716114472">
    <tag k="addr:postcode" v="SR8 3UH"/>
    <tag k="removemelater" v="yes"/>
  </node>
  <node id="-699" lat="54.77208244463539" lon="-1.3835111999920522">
    <tag k="addr:postcode" v="SR8 3UN"/>
    <tag k="removemelater" v="yes"/>
  </node>
  <node id="-700" lat="54.75723269094895" lon="-1.3302364388051042">
    <tag k="addr:postcode" v="SR8 5QU"/>
    <tag k="removemelater" v="yes"/>
  </node>
  <node id="-701" lat="54.757706713276384" lon="-1.3298246002809428">
    <tag k="addr:postcode" v="SR8 5QY"/>
    <tag k="removemelater" v="yes"/>
  </node>
  <node id="-702" lat="54.75796976273285" lon="-1.3286392788461976">
    <tag k="addr:postcode" v="SR8 5QZ"/>
    <tag k="removemelater" v="yes"/>
  </node>
  <node id="-703" lat="54.75347879921217" lon="-1.3193910771006758">
    <tag k="addr:postcode" v="SR8 5RR"/>
    <tag k="removemelater" v="yes"/>
  </node>
  <node id="-704" lat="54.75799410437934" lon="-1.3314203912182985">
    <tag k="addr:postcode" v="SR8 5TW"/>
    <tag k="removemelater" v="yes"/>
  </node>
  <node id="-705" lat="54.75406682727082" lon="-1.3330388469734644">
    <tag k="addr:postcode" v="SR8 5UP"/>
    <tag k="removemelater" v="yes"/>
  </node>
  <node id="-706" lat="54.75406682727082" lon="-1.3330388469734644">
    <tag k="addr:postcode" v="SR8 5UQ"/>
    <tag k="removemelater" v="yes"/>
  </node>
  <node id="-707" lat="54.91837562054634" lon="-1.4202488024432807">
    <tag k="addr:postcode" v="SR9 9WL"/>
    <tag k="removemelater" v="yes"/>
  </node>
  <node id="-708" lat="54.91837562054634" lon="-1.4202488024432807">
    <tag k="addr:postcode" v="SR9 9WN"/>
    <tag k="removemelater" v="yes"/>
  </node>
  <node id="-709" lat="54.91837562054634" lon="-1.4202488024432807">
    <tag k="addr:postcode" v="SR9 9WP"/>
    <tag k="removemelater" v="yes"/>
  </node>
  <node id="-710" lat="54.91837562054634" lon="-1.4202488024432807">
    <tag k="addr:postcode" v="SR9 9WQ"/>
    <tag k="removemelater" v="yes"/>
  </node>
  <node id="-711" lat="54.91837562054634" lon="-1.4202488024432807">
    <tag k="addr:postcode" v="SR9 9WU"/>
    <tag k="removemelater" v="yes"/>
  </node>
  <node id="-712" lat="54.91837562054634" lon="-1.4202488024432807">
    <tag k="addr:postcode" v="SR9 9WX"/>
    <tag k="removemelater" v="yes"/>
  </node>
  <node id="-713" lat="54.91837562054634" lon="-1.4202488024432807">
    <tag k="addr:postcode" v="SR9 9WZ"/>
    <tag k="removemelater" v="yes"/>
  </node>
  <node id="-714" lat="54.91837562054634" lon="-1.4202488024432807">
    <tag k="addr:postcode" v="SR9 9YY"/>
    <tag k="removemelater" v="yes"/>
  </node>
</osm>
