<?xml version="1.0" encoding="UTF-8"?><osm version="0.6" generator="import_postcodes.py" upload="false">
  <node id="-1" lat="51.01715501006571" lon="-3.0945407342040423">
    <tag k="addr:postcode" v="TA1 1AU"/>
    <tag k="removemelater" v="yes"/>
  </node>
  <node id="-2" lat="51.01988299894146" lon="-3.1018477481617444">
    <tag k="addr:postcode" v="TA1 1DX"/>
    <tag k="removemelater" v="yes"/>
  </node>
  <node id="-3" lat="51.02305864536851" lon="-3.0930971126318254">
    <tag k="addr:postcode" v="TA1 1FA"/>
    <tag k="removemelater" v="yes"/>
  </node>
  <node id="-4" lat="51.01530022261515" lon="-3.1024376479556364">
    <tag k="addr:postcode" v="TA1 1HN"/>
    <tag k="removemelater" v="yes"/>
  </node>
  <node id="-5" lat="51.01516348105762" lon="-3.1026339880832725">
    <tag k="addr:postcode" v="TA1 1HP"/>
    <tag k="removemelater" v="yes"/>
  </node>
  <node id="-6" lat="51.017197874290765" lon="-3.103366569357566">
    <tag k="addr:postcode" v="TA1 1JN"/>
    <tag k="removemelater" v="yes"/>
  </node>
  <node id="-7" lat="51.0169421501845" lon="-3.1018778213615477">
    <tag k="addr:postcode" v="TA1 1JR"/>
    <tag k="removemelater" v="yes"/>
  </node>
  <node id="-8" lat="51.018933777942586" lon="-3.099515589322892">
    <tag k="addr:postcode" v="TA1 1JT"/>
    <tag k="removemelater" v="yes"/>
  </node>
  <node id="-9" lat="51.01522625279347" lon="-3.103604884120372">
    <tag k="addr:postcode" v="TA1 1LR"/>
    <tag k="removemelater" v="yes"/>
  </node>
  <node id="-10" lat="51.01644455345621" lon="-3.1031490964177273">
    <tag k="addr:postcode" v="TA1 1LT"/>
    <tag k="removemelater" v="yes"/>
  </node>
  <node id="-11" lat="51.01649044834953" lon="-3.103050391149449">
    <tag k="addr:postcode" v="TA1 1LW"/>
    <tag k="removemelater" v="yes"/>
  </node>
  <node id="-12" lat="51.02344217446776" lon="-3.109645997835382">
    <tag k="addr:postcode" v="TA1 1NG"/>
    <tag k="removemelater" v="yes"/>
  </node>
  <node id="-13" lat="51.01994310076331" lon="-3.1059553134092517">
    <tag k="addr:postcode" v="TA1 1NR"/>
    <tag k="removemelater" v="yes"/>
  </node>
  <node id="-14" lat="51.020179231554195" lon="-3.1038080498357905">
    <tag k="addr:postcode" v="TA1 1NU"/>
    <tag k="removemelater" v="yes"/>
  </node>
  <node id="-15" lat="51.02356927504177" lon="-3.0990549347247485">
    <tag k="addr:postcode" v="TA1 1QP"/>
    <tag k="removemelater" v="yes"/>
  </node>
  <node id="-16" lat="51.01516094633448" lon="-3.1019496417354384">
    <tag k="addr:postcode" v="TA1 1RN"/>
    <tag k="removemelater" v="yes"/>
  </node>
  <node id="-17" lat="51.01697491017692" lon="-3.10031038106781">
    <tag k="addr:postcode" v="TA1 1RT"/>
    <tag k="removemelater" v="yes"/>
  </node>
  <node id="-18" lat="51.01538571002772" lon="-3.1019549705632667">
    <tag k="addr:postcode" v="TA1 1RZ"/>
    <tag k="removemelater" v="yes"/>
  </node>
  <node id="-19" lat="51.01579579595289" lon="-3.101380190860633">
    <tag k="addr:postcode" v="TA1 1SA"/>
    <tag k="removemelater" v="yes"/>
  </node>
  <node id="-20" lat="51.017138082576764" lon="-3.100171678470566">
    <tag k="addr:postcode" v="TA1 1SH"/>
    <tag k="removemelater" v="yes"/>
  </node>
  <node id="-21" lat="51.01708399740362" lon="-3.1011398436468816">
    <tag k="addr:postcode" v="TA1 1SJ"/>
    <tag k="removemelater" v="yes"/>
  </node>
  <node id="-22" lat="51.01781603145811" lon="-3.1045645577130037">
    <tag k="addr:postcode" v="TA1 1TG"/>
    <tag k="removemelater" v="yes"/>
  </node>
  <node id="-23" lat="51.01914874485145" lon="-3.105323350072761">
    <tag k="addr:postcode" v="TA1 1UE"/>
    <tag k="removemelater" v="yes"/>
  </node>
  <node id="-24" lat="51.018488928792095" lon="-3.105678338691811">
    <tag k="addr:postcode" v="TA1 1UR"/>
    <tag k="removemelater" v="yes"/>
  </node>
  <node id="-25" lat="51.0250303315398" lon="-3.073451858279961">
    <tag k="addr:postcode" v="TA1 2DX"/>
    <tag k="removemelater" v="yes"/>
  </node>
  <node id="-26" lat="51.0213676170559" lon="-3.082520780842899">
    <tag k="addr:postcode" v="TA1 2FD"/>
    <tag k="removemelater" v="yes"/>
  </node>
  <node id="-27" lat="51.013904760232315" lon="-3.0843570001693323">
    <tag k="addr:postcode" v="TA1 2FF"/>
    <tag k="removemelater" v="yes"/>
  </node>
  <node id="-28" lat="51.021755797743694" lon="-3.082358728247172">
    <tag k="addr:postcode" v="TA1 2FG"/>
    <tag k="removemelater" v="yes"/>
  </node>
  <node id="-29" lat="51.013503747753425" lon="-3.0849321180338984">
    <tag k="addr:postcode" v="TA1 2FH"/>
    <tag k="removemelater" v="yes"/>
  </node>
  <node id="-30" lat="51.01624816681683" lon="-3.0661921600568345">
    <tag k="addr:postcode" v="TA1 2FU"/>
    <tag k="removemelater" v="yes"/>
  </node>
  <node id="-31" lat="51.02420932358441" lon="-3.06687388532032">
    <tag k="addr:postcode" v="TA1 2LP"/>
    <tag k="removemelater" v="yes"/>
  </node>
  <node id="-32" lat="51.01716690444586" lon="-3.0660279013996243">
    <tag k="addr:postcode" v="TA1 2PG"/>
    <tag k="removemelater" v="yes"/>
  </node>
  <node id="-33" lat="51.02344217446776" lon="-3.109645997835382">
    <tag k="addr:postcode" v="TA1 2WG"/>
    <tag k="removemelater" v="yes"/>
  </node>
  <node id="-34" lat="51.01383020102885" lon="-3.097156738697455">
    <tag k="addr:postcode" v="TA1 3DJ"/>
    <tag k="removemelater" v="yes"/>
  </node>
  <node id="-35" lat="51.015170973795485" lon="-3.0961049347739267">
    <tag k="addr:postcode" v="TA1 3EN"/>
    <tag k="removemelater" v="yes"/>
  </node>
  <node id="-36" lat="51.01542538599566" lon="-3.092946094492356">
    <tag k="addr:postcode" v="TA1 3HL"/>
    <tag k="removemelater" v="yes"/>
  </node>
  <node id="-37" lat="51.015067996124245" lon="-3.0946198898346586">
    <tag k="addr:postcode" v="TA1 3HN"/>
    <tag k="removemelater" v="yes"/>
  </node>
  <node id="-38" lat="51.01717948694372" lon="-3.0909629109525216">
    <tag k="addr:postcode" v="TA1 3HZ"/>
    <tag k="removemelater" v="yes"/>
  </node>
  <node id="-39" lat="51.00922248491323" lon="-3.1080094269552134">
    <tag k="addr:postcode" v="TA1 3JS"/>
    <tag k="removemelater" v="yes"/>
  </node>
  <node id="-40" lat="51.00968489839801" lon="-3.105711253457795">
    <tag k="addr:postcode" v="TA1 3JX"/>
    <tag k="removemelater" v="yes"/>
  </node>
  <node id="-41" lat="51.01501175003561" lon="-3.0900566748900014">
    <tag k="addr:postcode" v="TA1 3JZ"/>
    <tag k="removemelater" v="yes"/>
  </node>
  <node id="-42" lat="51.01163328338935" lon="-3.093612441347562">
    <tag k="addr:postcode" v="TA1 3LA"/>
    <tag k="removemelater" v="yes"/>
  </node>
  <node id="-43" lat="51.011043634058176" lon="-3.0960788860011355">
    <tag k="addr:postcode" v="TA1 3LB"/>
    <tag k="removemelater" v="yes"/>
  </node>
  <node id="-44" lat="51.01448519120028" lon="-3.1011352986838197">
    <tag k="addr:postcode" v="TA1 3LQ"/>
    <tag k="removemelater" v="yes"/>
  </node>
  <node id="-45" lat="51.01420044888458" lon="-3.1008149284256907">
    <tag k="addr:postcode" v="TA1 3LU"/>
    <tag k="removemelater" v="yes"/>
  </node>
  <node id="-46" lat="51.014313035474416" lon="-3.100318645306957">
    <tag k="addr:postcode" v="TA1 3NH"/>
    <tag k="removemelater" v="yes"/>
  </node>
  <node id="-47" lat="51.01277484576043" lon="-3.0994126649885363">
    <tag k="addr:postcode" v="TA1 3NN"/>
    <tag k="removemelater" v="yes"/>
  </node>
  <node id="-48" lat="51.01265874994346" lon="-3.09741419229121">
    <tag k="addr:postcode" v="TA1 3NR"/>
    <tag k="removemelater" v="yes"/>
  </node>
  <node id="-49" lat="51.01220943718434" lon="-3.1040606959479513">
    <tag k="addr:postcode" v="TA1 3NY"/>
    <tag k="removemelater" v="yes"/>
  </node>
  <node id="-50" lat="51.012516663116195" lon="-3.101045900777643">
    <tag k="addr:postcode" v="TA1 3PE"/>
    <tag k="removemelater" v="yes"/>
  </node>
  <node id="-51" lat="51.01364846321312" lon="-3.104037854145187">
    <tag k="addr:postcode" v="TA1 3PU"/>
    <tag k="removemelater" v="yes"/>
  </node>
  <node id="-52" lat="51.012040502515525" lon="-3.103857113437565">
    <tag k="addr:postcode" v="TA1 3PY"/>
    <tag k="removemelater" v="yes"/>
  </node>
  <node id="-53" lat="51.01200772362726" lon="-3.107320299831812">
    <tag k="addr:postcode" v="TA1 3QA"/>
    <tag k="removemelater" v="yes"/>
  </node>
  <node id="-54" lat="51.01220943718434" lon="-3.1040606959479513">
    <tag k="addr:postcode" v="TA1 3RL"/>
    <tag k="removemelater" v="yes"/>
  </node>
  <node id="-55" lat="51.01379933920798" lon="-3.102345027785567">
    <tag k="addr:postcode" v="TA1 3TP"/>
    <tag k="removemelater" v="yes"/>
  </node>
  <node id="-56" lat="51.01443500927278" lon="-3.0988246803181987">
    <tag k="addr:postcode" v="TA1 3TZ"/>
    <tag k="removemelater" v="yes"/>
  </node>
  <node id="-57" lat="51.02344217446776" lon="-3.109645997835382">
    <tag k="addr:postcode" v="TA1 3WF"/>
    <tag k="removemelater" v="yes"/>
  </node>
  <node id="-58" lat="51.01391529271075" lon="-3.1014924428953474">
    <tag k="addr:postcode" v="TA1 3XZ"/>
    <tag k="removemelater" v="yes"/>
  </node>
  <node id="-59" lat="51.015889091098536" lon="-3.1048323989021855">
    <tag k="addr:postcode" v="TA1 4AA"/>
    <tag k="removemelater" v="yes"/>
  </node>
  <node id="-60" lat="51.0151708820746" lon="-3.1056564288172828">
    <tag k="addr:postcode" v="TA1 4AF"/>
    <tag k="removemelater" v="yes"/>
  </node>
  <node id="-61" lat="51.01266050985324" lon="-3.109602427476702">
    <tag k="addr:postcode" v="TA1 4AG"/>
    <tag k="removemelater" v="yes"/>
  </node>
  <node id="-62" lat="51.01454765224391" lon="-3.1040449565183987">
    <tag k="addr:postcode" v="TA1 4AJ"/>
    <tag k="removemelater" v="yes"/>
  </node>
  <node id="-63" lat="51.01484258875689" lon="-3.1042372884719973">
    <tag k="addr:postcode" v="TA1 4AQ"/>
    <tag k="removemelater" v="yes"/>
  </node>
  <node id="-64" lat="51.014715765924166" lon="-3.1071852322546776">
    <tag k="addr:postcode" v="TA1 4AR"/>
    <tag k="removemelater" v="yes"/>
  </node>
  <node id="-65" lat="51.01573418653381" lon="-3.1097898546614826">
    <tag k="addr:postcode" v="TA1 4AU"/>
    <tag k="removemelater" v="yes"/>
  </node>
  <node id="-66" lat="51.014300148887166" lon="-3.1054931591492836">
    <tag k="addr:postcode" v="TA1 4AW"/>
    <tag k="removemelater" v="yes"/>
  </node>
  <node id="-67" lat="51.01429651502693" lon="-3.1096699936997645">
    <tag k="addr:postcode" v="TA1 4AX"/>
    <tag k="removemelater" v="yes"/>
  </node>
  <node id="-68" lat="51.014069122924596" lon="-3.1089945501780503">
    <tag k="addr:postcode" v="TA1 4AZ"/>
    <tag k="removemelater" v="yes"/>
  </node>
  <node id="-69" lat="51.014235731278426" lon="-3.1056484395538706">
    <tag k="addr:postcode" v="TA1 4BB"/>
    <tag k="removemelater" v="yes"/>
  </node>
  <node id="-70" lat="51.0147362882278" lon="-3.1107069134006164">
    <tag k="addr:postcode" v="TA1 4BG"/>
    <tag k="removemelater" v="yes"/>
  </node>
  <node id="-71" lat="51.0145163529785" lon="-3.107351551368813">
    <tag k="addr:postcode" v="TA1 4BH"/>
    <tag k="removemelater" v="yes"/>
  </node>
  <node id="-72" lat="51.01201025822763" lon="-3.105153600125761">
    <tag k="addr:postcode" v="TA1 4BP"/>
    <tag k="removemelater" v="yes"/>
  </node>
  <node id="-73" lat="51.01353367410068" lon="-3.109509227481616">
    <tag k="addr:postcode" v="TA1 4DG"/>
    <tag k="removemelater" v="yes"/>
  </node>
  <node id="-74" lat="51.013445853060276" lon="-3.110234158891419">
    <tag k="addr:postcode" v="TA1 4DQ"/>
    <tag k="removemelater" v="yes"/>
  </node>
  <node id="-75" lat="51.0134749074485" lon="-3.105273955843037">
    <tag k="addr:postcode" v="TA1 4ED"/>
    <tag k="removemelater" v="yes"/>
  </node>
  <node id="-76" lat="51.01410303143565" lon="-3.1054171927398873">
    <tag k="addr:postcode" v="TA1 4EP"/>
    <tag k="removemelater" v="yes"/>
  </node>
  <node id="-77" lat="51.01409300498404" lon="-3.104575871647234">
    <tag k="addr:postcode" v="TA1 4ER"/>
    <tag k="removemelater" v="yes"/>
  </node>
  <node id="-78" lat="51.00178041517272" lon="-3.126416538080963">
    <tag k="addr:postcode" v="TA1 4LD"/>
    <tag k="removemelater" v="yes"/>
  </node>
  <node id="-79" lat="51.00363327995152" lon="-3.116071388604233">
    <tag k="addr:postcode" v="TA1 4QP"/>
    <tag k="removemelater" v="yes"/>
  </node>
  <node id="-80" lat="51.004699322285035" lon="-3.1146146890037865">
    <tag k="addr:postcode" v="TA1 4QW"/>
    <tag k="removemelater" v="yes"/>
  </node>
  <node id="-81" lat="51.02344217446776" lon="-3.109645997835382">
    <tag k="addr:postcode" v="TA1 4YP"/>
    <tag k="removemelater" v="yes"/>
  </node>
  <node id="-82" lat="51.02344217446776" lon="-3.109645997835382">
    <tag k="addr:postcode" v="TA1 4ZD"/>
    <tag k="removemelater" v="yes"/>
  </node>
  <node id="-83" lat="51.02344217446776" lon="-3.109645997835382">
    <tag k="addr:postcode" v="TA1 4ZX"/>
    <tag k="removemelater" v="yes"/>
  </node>
  <node id="-84" lat="51.00767544037927" lon="-3.1249771990519943">
    <tag k="addr:postcode" v="TA1 5AG"/>
    <tag k="removemelater" v="yes"/>
  </node>
  <node id="-85" lat="51.01705009361275" lon="-3.1189027016574467">
    <tag k="addr:postcode" v="TA1 5AT"/>
    <tag k="removemelater" v="yes"/>
  </node>
  <node id="-86" lat="51.01482194886892" lon="-3.113987810242273">
    <tag k="addr:postcode" v="TA1 5AW"/>
    <tag k="removemelater" v="yes"/>
  </node>
  <node id="-87" lat="51.013188322687945" lon="-3.1388528112795853">
    <tag k="addr:postcode" v="TA1 5BF"/>
    <tag k="removemelater" v="yes"/>
  </node>
  <node id="-88" lat="51.011962132720676" lon="-3.1196497827830454">
    <tag k="addr:postcode" v="TA1 5DB"/>
    <tag k="removemelater" v="yes"/>
  </node>
  <node id="-89" lat="51.01137149150125" lon="-3.1193504601903044">
    <tag k="addr:postcode" v="TA1 5FE"/>
    <tag k="removemelater" v="yes"/>
  </node>
  <node id="-90" lat="51.01133753609091" lon="-3.1284869770743864">
    <tag k="addr:postcode" v="TA1 5LY"/>
    <tag k="removemelater" v="yes"/>
  </node>
  <node id="-91" lat="51.010408445463995" lon="-3.12785147816093">
    <tag k="addr:postcode" v="TA1 5LZ"/>
    <tag k="removemelater" v="yes"/>
  </node>
  <node id="-92" lat="51.01052057406032" lon="-3.13020620209538">
    <tag k="addr:postcode" v="TA1 5NA"/>
    <tag k="removemelater" v="yes"/>
  </node>
  <node id="-93" lat="51.012012687395206" lon="-3.126550429293988">
    <tag k="addr:postcode" v="TA1 5NJ"/>
    <tag k="removemelater" v="yes"/>
  </node>
  <node id="-94" lat="51.010062304391205" lon="-3.1292400140330505">
    <tag k="addr:postcode" v="TA1 5NQ"/>
    <tag k="removemelater" v="yes"/>
  </node>
  <node id="-95" lat="51.00790493750614" lon="-3.1254246189064303">
    <tag k="addr:postcode" v="TA1 5NY"/>
    <tag k="removemelater" v="yes"/>
  </node>
  <node id="-96" lat="51.02344217446776" lon="-3.109645997835382">
    <tag k="addr:postcode" v="TA1 5WA"/>
    <tag k="removemelater" v="yes"/>
  </node>
  <node id="-97" lat="51.01229051241687" lon="-3.1210404371343405">
    <tag k="addr:postcode" v="TA1 5ZD"/>
    <tag k="removemelater" v="yes"/>
  </node>
  <node id="-98" lat="51.02344217446776" lon="-3.109645997835382">
    <tag k="addr:postcode" v="TA1 9AT"/>
    <tag k="removemelater" v="yes"/>
  </node>
  <node id="-99" lat="51.02344217446776" lon="-3.109645997835382">
    <tag k="addr:postcode" v="TA1 9BA"/>
    <tag k="removemelater" v="yes"/>
  </node>
  <node id="-100" lat="51.02344217446776" lon="-3.109645997835382">
    <tag k="addr:postcode" v="TA1 9BB"/>
    <tag k="removemelater" v="yes"/>
  </node>
  <node id="-101" lat="51.02344217446776" lon="-3.109645997835382">
    <tag k="addr:postcode" v="TA1 9FE"/>
    <tag k="removemelater" v="yes"/>
  </node>
  <node id="-102" lat="51.02344217446776" lon="-3.109645997835382">
    <tag k="addr:postcode" v="TA1 9FF"/>
    <tag k="removemelater" v="yes"/>
  </node>
  <node id="-103" lat="51.02344217446776" lon="-3.109645997835382">
    <tag k="addr:postcode" v="TA1 9GH"/>
    <tag k="removemelater" v="yes"/>
  </node>
  <node id="-104" lat="51.02344217446776" lon="-3.109645997835382">
    <tag k="addr:postcode" v="TA1 9GL"/>
    <tag k="removemelater" v="yes"/>
  </node>
  <node id="-105" lat="51.02344217446776" lon="-3.109645997835382">
    <tag k="addr:postcode" v="TA1 9GN"/>
    <tag k="removemelater" v="yes"/>
  </node>
  <node id="-106" lat="51.02344217446776" lon="-3.109645997835382">
    <tag k="addr:postcode" v="TA1 9GS"/>
    <tag k="removemelater" v="yes"/>
  </node>
  <node id="-107" lat="51.02344217446776" lon="-3.109645997835382">
    <tag k="addr:postcode" v="TA1 9HE"/>
    <tag k="removemelater" v="yes"/>
  </node>
  <node id="-108" lat="51.02344217446776" lon="-3.109645997835382">
    <tag k="addr:postcode" v="TA1 9HL"/>
    <tag k="removemelater" v="yes"/>
  </node>
  <node id="-109" lat="51.02344217446776" lon="-3.109645997835382">
    <tag k="addr:postcode" v="TA1 9JL"/>
    <tag k="removemelater" v="yes"/>
  </node>
  <node id="-110" lat="51.02344217446776" lon="-3.109645997835382">
    <tag k="addr:postcode" v="TA1 9JP"/>
    <tag k="removemelater" v="yes"/>
  </node>
  <node id="-111" lat="51.02344217446776" lon="-3.109645997835382">
    <tag k="addr:postcode" v="TA1 9JZ"/>
    <tag k="removemelater" v="yes"/>
  </node>
  <node id="-112" lat="51.02344217446776" lon="-3.109645997835382">
    <tag k="addr:postcode" v="TA1 9LB"/>
    <tag k="removemelater" v="yes"/>
  </node>
  <node id="-113" lat="51.02344217446776" lon="-3.109645997835382">
    <tag k="addr:postcode" v="TA1 9LF"/>
    <tag k="removemelater" v="yes"/>
  </node>
  <node id="-114" lat="51.02344217446776" lon="-3.109645997835382">
    <tag k="addr:postcode" v="TA1 9LL"/>
    <tag k="removemelater" v="yes"/>
  </node>
  <node id="-115" lat="51.02344217446776" lon="-3.109645997835382">
    <tag k="addr:postcode" v="TA1 9LP"/>
    <tag k="removemelater" v="yes"/>
  </node>
  <node id="-116" lat="51.02344217446776" lon="-3.109645997835382">
    <tag k="addr:postcode" v="TA1 9LQ"/>
    <tag k="removemelater" v="yes"/>
  </node>
  <node id="-117" lat="51.02344217446776" lon="-3.109645997835382">
    <tag k="addr:postcode" v="TA1 9LS"/>
    <tag k="removemelater" v="yes"/>
  </node>
  <node id="-118" lat="51.02344217446776" lon="-3.109645997835382">
    <tag k="addr:postcode" v="TA1 9LU"/>
    <tag k="removemelater" v="yes"/>
  </node>
  <node id="-119" lat="51.02344217446776" lon="-3.109645997835382">
    <tag k="addr:postcode" v="TA1 9LZ"/>
    <tag k="removemelater" v="yes"/>
  </node>
  <node id="-120" lat="51.02344217446776" lon="-3.109645997835382">
    <tag k="addr:postcode" v="TA1 9NA"/>
    <tag k="removemelater" v="yes"/>
  </node>
  <node id="-121" lat="51.02344217446776" lon="-3.109645997835382">
    <tag k="addr:postcode" v="TA1 9NG"/>
    <tag k="removemelater" v="yes"/>
  </node>
  <node id="-122" lat="51.02344217446776" lon="-3.109645997835382">
    <tag k="addr:postcode" v="TA1 9NH"/>
    <tag k="removemelater" v="yes"/>
  </node>
  <node id="-123" lat="51.02344217446776" lon="-3.109645997835382">
    <tag k="addr:postcode" v="TA1 9NJ"/>
    <tag k="removemelater" v="yes"/>
  </node>
  <node id="-124" lat="51.02344217446776" lon="-3.109645997835382">
    <tag k="addr:postcode" v="TA1 9NP"/>
    <tag k="removemelater" v="yes"/>
  </node>
  <node id="-125" lat="51.02344217446776" lon="-3.109645997835382">
    <tag k="addr:postcode" v="TA1 9NQ"/>
    <tag k="removemelater" v="yes"/>
  </node>
  <node id="-126" lat="51.02344217446776" lon="-3.109645997835382">
    <tag k="addr:postcode" v="TA1 9NR"/>
    <tag k="removemelater" v="yes"/>
  </node>
  <node id="-127" lat="51.02344217446776" lon="-3.109645997835382">
    <tag k="addr:postcode" v="TA1 9NS"/>
    <tag k="removemelater" v="yes"/>
  </node>
  <node id="-128" lat="51.02344217446776" lon="-3.109645997835382">
    <tag k="addr:postcode" v="TA1 9NT"/>
    <tag k="removemelater" v="yes"/>
  </node>
  <node id="-129" lat="51.02344217446776" lon="-3.109645997835382">
    <tag k="addr:postcode" v="TA1 9NU"/>
    <tag k="removemelater" v="yes"/>
  </node>
  <node id="-130" lat="51.021062192117654" lon="-3.106480969358363">
    <tag k="addr:postcode" v="TA1 9SA"/>
    <tag k="removemelater" v="yes"/>
  </node>
  <node id="-131" lat="51.02107720234041" lon="-3.106794997969415">
    <tag k="addr:postcode" v="TA1 9SB"/>
    <tag k="removemelater" v="yes"/>
  </node>
  <node id="-132" lat="51.02107720234041" lon="-3.106794997969415">
    <tag k="addr:postcode" v="TA1 9SD"/>
    <tag k="removemelater" v="yes"/>
  </node>
  <node id="-133" lat="51.02107720234041" lon="-3.106794997969415">
    <tag k="addr:postcode" v="TA1 9SE"/>
    <tag k="removemelater" v="yes"/>
  </node>
  <node id="-134" lat="51.02107720234041" lon="-3.106794997969415">
    <tag k="addr:postcode" v="TA1 9SF"/>
    <tag k="removemelater" v="yes"/>
  </node>
  <node id="-135" lat="51.02107720234041" lon="-3.106794997969415">
    <tag k="addr:postcode" v="TA1 9SG"/>
    <tag k="removemelater" v="yes"/>
  </node>
  <node id="-136" lat="51.02107720234041" lon="-3.106794997969415">
    <tag k="addr:postcode" v="TA1 9SH"/>
    <tag k="removemelater" v="yes"/>
  </node>
  <node id="-137" lat="51.02107720234041" lon="-3.106794997969415">
    <tag k="addr:postcode" v="TA1 9SJ"/>
    <tag k="removemelater" v="yes"/>
  </node>
  <node id="-138" lat="51.02107720234041" lon="-3.106794997969415">
    <tag k="addr:postcode" v="TA1 9SL"/>
    <tag k="removemelater" v="yes"/>
  </node>
  <node id="-139" lat="51.02107720234041" lon="-3.106794997969415">
    <tag k="addr:postcode" v="TA1 9SN"/>
    <tag k="removemelater" v="yes"/>
  </node>
  <node id="-140" lat="51.02107720234041" lon="-3.106794997969415">
    <tag k="addr:postcode" v="TA1 9SP"/>
    <tag k="removemelater" v="yes"/>
  </node>
  <node id="-141" lat="51.02107720234041" lon="-3.106794997969415">
    <tag k="addr:postcode" v="TA1 9SQ"/>
    <tag k="removemelater" v="yes"/>
  </node>
  <node id="-142" lat="51.02107720234041" lon="-3.106794997969415">
    <tag k="addr:postcode" v="TA1 9SR"/>
    <tag k="removemelater" v="yes"/>
  </node>
  <node id="-143" lat="51.02107720234041" lon="-3.106794997969415">
    <tag k="addr:postcode" v="TA1 9SS"/>
    <tag k="removemelater" v="yes"/>
  </node>
  <node id="-144" lat="51.02107720234041" lon="-3.106794997969415">
    <tag k="addr:postcode" v="TA1 9ST"/>
    <tag k="removemelater" v="yes"/>
  </node>
  <node id="-145" lat="51.02107720234041" lon="-3.106794997969415">
    <tag k="addr:postcode" v="TA1 9SU"/>
    <tag k="removemelater" v="yes"/>
  </node>
  <node id="-146" lat="51.02107720234041" lon="-3.106794997969415">
    <tag k="addr:postcode" v="TA1 9SW"/>
    <tag k="removemelater" v="yes"/>
  </node>
  <node id="-147" lat="51.02107720234041" lon="-3.106794997969415">
    <tag k="addr:postcode" v="TA1 9SX"/>
    <tag k="removemelater" v="yes"/>
  </node>
  <node id="-148" lat="51.02107720234041" lon="-3.106794997969415">
    <tag k="addr:postcode" v="TA1 9SY"/>
    <tag k="removemelater" v="yes"/>
  </node>
  <node id="-149" lat="51.02107720234041" lon="-3.106794997969415">
    <tag k="addr:postcode" v="TA1 9SZ"/>
    <tag k="removemelater" v="yes"/>
  </node>
  <node id="-150" lat="51.02107720234041" lon="-3.106794997969415">
    <tag k="addr:postcode" v="TA1 9TP"/>
    <tag k="removemelater" v="yes"/>
  </node>
  <node id="-151" lat="51.02107720234041" lon="-3.106794997969415">
    <tag k="addr:postcode" v="TA1 9TR"/>
    <tag k="removemelater" v="yes"/>
  </node>
  <node id="-152" lat="51.02107720234041" lon="-3.106794997969415">
    <tag k="addr:postcode" v="TA1 9TS"/>
    <tag k="removemelater" v="yes"/>
  </node>
  <node id="-153" lat="51.02107720234041" lon="-3.106794997969415">
    <tag k="addr:postcode" v="TA1 9TT"/>
    <tag k="removemelater" v="yes"/>
  </node>
  <node id="-154" lat="51.02107720234041" lon="-3.106794997969415">
    <tag k="addr:postcode" v="TA1 9TU"/>
    <tag k="removemelater" v="yes"/>
  </node>
  <node id="-155" lat="51.02107720234041" lon="-3.106794997969415">
    <tag k="addr:postcode" v="TA1 9TY"/>
    <tag k="removemelater" v="yes"/>
  </node>
  <node id="-156" lat="51.02107720234041" lon="-3.106794997969415">
    <tag k="addr:postcode" v="TA1 9TZ"/>
    <tag k="removemelater" v="yes"/>
  </node>
  <node id="-157" lat="51.02107720234041" lon="-3.106794997969415">
    <tag k="addr:postcode" v="TA1 9ZY"/>
    <tag k="removemelater" v="yes"/>
  </node>
  <node id="-158" lat="51.02149656297195" lon="-2.815361745935648">
    <tag k="addr:postcode" v="TA10 0DF"/>
    <tag k="removemelater" v="yes"/>
  </node>
  <node id="-159" lat="51.02129616681373" lon="-2.8157289271227377">
    <tag k="addr:postcode" v="TA10 0DG"/>
    <tag k="removemelater" v="yes"/>
  </node>
  <node id="-160" lat="51.02010573144849" lon="-2.816221290384153">
    <tag k="addr:postcode" v="TA10 0DQ"/>
    <tag k="removemelater" v="yes"/>
  </node>
  <node id="-161" lat="51.02343480715776" lon="-2.869548679107995">
    <tag k="addr:postcode" v="TA10 0HE"/>
    <tag k="removemelater" v="yes"/>
  </node>
  <node id="-162" lat="51.018798333103135" lon="-2.8810670198415367">
    <tag k="addr:postcode" v="TA10 0PA"/>
    <tag k="removemelater" v="yes"/>
  </node>
  <node id="-163" lat="51.07833382545177" lon="-2.8461957249069942">
    <tag k="addr:postcode" v="TA10 0QX"/>
    <tag k="removemelater" v="yes"/>
  </node>
  <node id="-164" lat="51.044502150491496" lon="-2.820059372047512">
    <tag k="addr:postcode" v="TA10 9SJ"/>
    <tag k="removemelater" v="yes"/>
  </node>
  <node id="-165" lat="51.04478448822761" lon="-2.8182669929186632">
    <tag k="addr:postcode" v="TA10 9SN"/>
    <tag k="removemelater" v="yes"/>
  </node>
  <node id="-166" lat="51.04426945515899" lon="-2.8211821696025217">
    <tag k="addr:postcode" v="TA10 9TS"/>
    <tag k="removemelater" v="yes"/>
  </node>
  <node id="-167" lat="51.045390853606314" lon="-2.8215586289327996">
    <tag k="addr:postcode" v="TA10 9TZ"/>
    <tag k="removemelater" v="yes"/>
  </node>
  <node id="-168" lat="51.063725780997636" lon="-2.7075615311585453">
    <tag k="addr:postcode" v="TA11 6AA"/>
    <tag k="removemelater" v="yes"/>
  </node>
  <node id="-169" lat="51.06076428930945" lon="-2.7414067982326817">
    <tag k="addr:postcode" v="TA11 6JB"/>
    <tag k="removemelater" v="yes"/>
  </node>
  <node id="-170" lat="51.07257919971884" lon="-2.740139766993755">
    <tag k="addr:postcode" v="TA11 6JD"/>
    <tag k="removemelater" v="yes"/>
  </node>
  <node id="-171" lat="51.06772241359442" lon="-2.7571313590721918">
    <tag k="addr:postcode" v="TA11 6JN"/>
    <tag k="removemelater" v="yes"/>
  </node>
  <node id="-172" lat="51.080744190775015" lon="-2.7243525690193375">
    <tag k="addr:postcode" v="TA11 6NU"/>
    <tag k="removemelater" v="yes"/>
  </node>
  <node id="-173" lat="51.05415015710354" lon="-2.7321841214041473">
    <tag k="addr:postcode" v="TA11 6QQ"/>
    <tag k="removemelater" v="yes"/>
  </node>
  <node id="-174" lat="51.059172039121854" lon="-2.7499571343154354">
    <tag k="addr:postcode" v="TA11 6YL"/>
    <tag k="removemelater" v="yes"/>
  </node>
  <node id="-175" lat="51.052828636254816" lon="-2.729252761570548">
    <tag k="addr:postcode" v="TA11 7AA"/>
    <tag k="removemelater" v="yes"/>
  </node>
  <node id="-176" lat="51.05181230620565" lon="-2.72639767958605">
    <tag k="addr:postcode" v="TA11 7AB"/>
    <tag k="removemelater" v="yes"/>
  </node>
  <node id="-177" lat="51.052117926219495" lon="-2.726416729521831">
    <tag k="addr:postcode" v="TA11 7AD"/>
    <tag k="removemelater" v="yes"/>
  </node>
  <node id="-178" lat="51.05049769940227" lon="-2.7223254215026667">
    <tag k="addr:postcode" v="TA11 7AE"/>
    <tag k="removemelater" v="yes"/>
  </node>
  <node id="-179" lat="51.05142671976887" lon="-2.72332428672509">
    <tag k="addr:postcode" v="TA11 7AF"/>
    <tag k="removemelater" v="yes"/>
  </node>
  <node id="-180" lat="51.051273600342675" lon="-2.7233647008220934">
    <tag k="addr:postcode" v="TA11 7AG"/>
    <tag k="removemelater" v="yes"/>
  </node>
  <node id="-181" lat="51.05256965456039" lon="-2.7275223688630894">
    <tag k="addr:postcode" v="TA11 7BP"/>
    <tag k="removemelater" v="yes"/>
  </node>
  <node id="-182" lat="51.076249113983565" lon="-2.6125567727151315">
    <tag k="addr:postcode" v="TA11 7HJ"/>
    <tag k="removemelater" v="yes"/>
  </node>
  <node id="-183" lat="51.04541685853667" lon="-2.738180307531373">
    <tag k="addr:postcode" v="TA11 7JF"/>
    <tag k="removemelater" v="yes"/>
  </node>
  <node id="-184" lat="51.05357233968515" lon="-2.728237190690686">
    <tag k="addr:postcode" v="TA11 7LX"/>
    <tag k="removemelater" v="yes"/>
  </node>
  <node id="-185" lat="51.053987989960405" lon="-2.727915558312729">
    <tag k="addr:postcode" v="TA11 7LZ"/>
    <tag k="removemelater" v="yes"/>
  </node>
  <node id="-186" lat="51.05407274630022" lon="-2.728744408380439">
    <tag k="addr:postcode" v="TA11 7NB"/>
    <tag k="removemelater" v="yes"/>
  </node>
  <node id="-187" lat="51.05460029564397" lon="-2.7277824841052922">
    <tag k="addr:postcode" v="TA11 7ND"/>
    <tag k="removemelater" v="yes"/>
  </node>
  <node id="-188" lat="51.05499467408504" lon="-2.7279884188603125">
    <tag k="addr:postcode" v="TA11 7NG"/>
    <tag k="removemelater" v="yes"/>
  </node>
  <node id="-189" lat="51.0546933190648" lon="-2.727284570190662">
    <tag k="addr:postcode" v="TA11 7NH"/>
    <tag k="removemelater" v="yes"/>
  </node>
  <node id="-190" lat="51.05372117919113" lon="-2.727440546554171">
    <tag k="addr:postcode" v="TA11 7NJ"/>
    <tag k="removemelater" v="yes"/>
  </node>
  <node id="-191" lat="51.05507880684452" lon="-2.728917152626677">
    <tag k="addr:postcode" v="TA11 7NQ"/>
    <tag k="removemelater" v="yes"/>
  </node>
  <node id="-192" lat="51.055260406617144" lon="-2.72429718471194">
    <tag k="addr:postcode" v="TA11 7NS"/>
    <tag k="removemelater" v="yes"/>
  </node>
  <node id="-193" lat="51.05526045683763" lon="-2.725738249688203">
    <tag k="addr:postcode" v="TA11 7NT"/>
    <tag k="removemelater" v="yes"/>
  </node>
  <node id="-194" lat="51.05501635884985" lon="-2.725948450939786">
    <tag k="addr:postcode" v="TA11 7NU"/>
    <tag k="removemelater" v="yes"/>
  </node>
  <node id="-195" lat="51.05521562095091" lon="-2.727164343512685">
    <tag k="addr:postcode" v="TA11 7NX"/>
    <tag k="removemelater" v="yes"/>
  </node>
  <node id="-196" lat="51.05565699984839" lon="-2.7270428464593337">
    <tag k="addr:postcode" v="TA11 7NY"/>
    <tag k="removemelater" v="yes"/>
  </node>
  <node id="-197" lat="51.0556276280281" lon="-2.727427624393219">
    <tag k="addr:postcode" v="TA11 7NZ"/>
    <tag k="removemelater" v="yes"/>
  </node>
  <node id="-198" lat="51.05593706546827" lon="-2.726833211392541">
    <tag k="addr:postcode" v="TA11 7PA"/>
    <tag k="removemelater" v="yes"/>
  </node>
  <node id="-199" lat="51.05275674604665" lon="-2.7234591513835604">
    <tag k="addr:postcode" v="TA11 7PF"/>
    <tag k="removemelater" v="yes"/>
  </node>
  <node id="-200" lat="51.053782251691544" lon="-2.7306231586423686">
    <tag k="addr:postcode" v="TA11 7PR"/>
    <tag k="removemelater" v="yes"/>
  </node>
  <node id="-201" lat="51.05358613506718" lon="-2.7303489898286513">
    <tag k="addr:postcode" v="TA11 7PS"/>
    <tag k="removemelater" v="yes"/>
  </node>
  <node id="-202" lat="51.05361254900491" lon="-2.7318760236838093">
    <tag k="addr:postcode" v="TA11 7PU"/>
    <tag k="removemelater" v="yes"/>
  </node>
  <node id="-203" lat="51.05307955248941" lon="-2.7322671033899466">
    <tag k="addr:postcode" v="TA11 7PX"/>
    <tag k="removemelater" v="yes"/>
  </node>
  <node id="-204" lat="51.05317232688245" lon="-2.731812012684129">
    <tag k="addr:postcode" v="TA11 7PZ"/>
    <tag k="removemelater" v="yes"/>
  </node>
  <node id="-205" lat="51.059172039121854" lon="-2.7499571343154354">
    <tag k="addr:postcode" v="TA11 7YU"/>
    <tag k="removemelater" v="yes"/>
  </node>
  <node id="-206" lat="51.059172039121854" lon="-2.7499571343154354">
    <tag k="addr:postcode" v="TA11 9AY"/>
    <tag k="removemelater" v="yes"/>
  </node>
  <node id="-207" lat="51.059172039121854" lon="-2.7499571343154354">
    <tag k="addr:postcode" v="TA11 9BJ"/>
    <tag k="removemelater" v="yes"/>
  </node>
  <node id="-208" lat="51.059172039121854" lon="-2.7499571343154354">
    <tag k="addr:postcode" v="TA11 9BL"/>
    <tag k="removemelater" v="yes"/>
  </node>
  <node id="-209" lat="51.059172039121854" lon="-2.7499571343154354">
    <tag k="addr:postcode" v="TA11 9BN"/>
    <tag k="removemelater" v="yes"/>
  </node>
  <node id="-210" lat="50.97151025164358" lon="-2.7658340993669417">
    <tag k="addr:postcode" v="TA12 6DL"/>
    <tag k="removemelater" v="yes"/>
  </node>
  <node id="-211" lat="50.95752760868669" lon="-2.717607786471125">
    <tag k="addr:postcode" v="TA15 6SH"/>
    <tag k="removemelater" v="yes"/>
  </node>
  <node id="-212" lat="50.95504486233013" lon="-2.713341072633244">
    <tag k="addr:postcode" v="TA15 6US"/>
    <tag k="removemelater" v="yes"/>
  </node>
  <node id="-213" lat="50.951165055726406" lon="-2.71547401118616">
    <tag k="addr:postcode" v="TA15 6XP"/>
    <tag k="removemelater" v="yes"/>
  </node>
  <node id="-214" lat="50.90628024960305" lon="-2.7938619864781935">
    <tag k="addr:postcode" v="TA16 5NQ"/>
    <tag k="removemelater" v="yes"/>
  </node>
  <node id="-215" lat="50.88462242937919" lon="-2.795725610577981">
    <tag k="addr:postcode" v="TA18 7JL"/>
    <tag k="removemelater" v="yes"/>
  </node>
  <node id="-216" lat="50.88433450601116" lon="-2.7957491356401607">
    <tag k="addr:postcode" v="TA18 7JP"/>
    <tag k="removemelater" v="yes"/>
  </node>
  <node id="-217" lat="50.88390572184889" lon="-2.7953295762938852">
    <tag k="addr:postcode" v="TA18 7JS"/>
    <tag k="removemelater" v="yes"/>
  </node>
  <node id="-218" lat="50.883454400351916" lon="-2.7955777679081426">
    <tag k="addr:postcode" v="TA18 7JU"/>
    <tag k="removemelater" v="yes"/>
  </node>
  <node id="-219" lat="50.88527078992556" lon="-2.795594499184872">
    <tag k="addr:postcode" v="TA18 7LN"/>
    <tag k="removemelater" v="yes"/>
  </node>
  <node id="-220" lat="50.88366420925039" lon="-2.795140661034732">
    <tag k="addr:postcode" v="TA18 7LX"/>
    <tag k="removemelater" v="yes"/>
  </node>
  <node id="-221" lat="50.89779135040275" lon="-2.7696860939444843">
    <tag k="addr:postcode" v="TA18 7NY"/>
    <tag k="removemelater" v="yes"/>
  </node>
  <node id="-222" lat="50.88453381611269" lon="-2.746537512582908">
    <tag k="addr:postcode" v="TA18 7SP"/>
    <tag k="removemelater" v="yes"/>
  </node>
  <node id="-223" lat="50.8862999846527" lon="-2.7473760797914606">
    <tag k="addr:postcode" v="TA18 7SS"/>
    <tag k="removemelater" v="yes"/>
  </node>
  <node id="-224" lat="50.88334528095251" lon="-2.7467743885889844">
    <tag k="addr:postcode" v="TA18 7SW"/>
    <tag k="removemelater" v="yes"/>
  </node>
  <node id="-225" lat="50.883744990690104" lon="-2.7475484189319856">
    <tag k="addr:postcode" v="TA18 7SY"/>
    <tag k="removemelater" v="yes"/>
  </node>
  <node id="-226" lat="50.881753760271884" lon="-2.7983633554485716">
    <tag k="addr:postcode" v="TA18 8EQ"/>
    <tag k="removemelater" v="yes"/>
  </node>
  <node id="-227" lat="50.86909492044758" lon="-2.769852746689056">
    <tag k="addr:postcode" v="TA18 8NR"/>
    <tag k="removemelater" v="yes"/>
  </node>
  <node id="-228" lat="50.961403733495445" lon="-2.8611990352386303">
    <tag k="addr:postcode" v="TA19 0NQ"/>
    <tag k="removemelater" v="yes"/>
  </node>
  <node id="-229" lat="50.92869888970496" lon="-2.9279564103847697">
    <tag k="addr:postcode" v="TA19 9DL"/>
    <tag k="removemelater" v="yes"/>
  </node>
  <node id="-230" lat="50.94042576831645" lon="-2.908448826174428">
    <tag k="addr:postcode" v="TA19 9DX"/>
    <tag k="removemelater" v="yes"/>
  </node>
  <node id="-231" lat="50.95051717680691" lon="-2.907065401608582">
    <tag k="addr:postcode" v="TA19 9EA"/>
    <tag k="removemelater" v="yes"/>
  </node>
  <node id="-232" lat="50.954619163450644" lon="-2.90456833671515">
    <tag k="addr:postcode" v="TA19 9EB"/>
    <tag k="removemelater" v="yes"/>
  </node>
  <node id="-233" lat="50.93005004651041" lon="-2.96320201198176">
    <tag k="addr:postcode" v="TA19 9FD"/>
    <tag k="removemelater" v="yes"/>
  </node>
  <node id="-234" lat="50.948834172147684" lon="-2.916456527433145">
    <tag k="addr:postcode" v="TA19 9HF"/>
    <tag k="removemelater" v="yes"/>
  </node>
  <node id="-235" lat="50.936084785332426" lon="-2.981472061646658">
    <tag k="addr:postcode" v="TA19 9JX"/>
    <tag k="removemelater" v="yes"/>
  </node>
  <node id="-236" lat="50.93225333886191" lon="-2.9242560975441054">
    <tag k="addr:postcode" v="TA19 9PH"/>
    <tag k="removemelater" v="yes"/>
  </node>
  <node id="-237" lat="50.931676260805844" lon="-2.9289833332907484">
    <tag k="addr:postcode" v="TA19 9PW"/>
    <tag k="removemelater" v="yes"/>
  </node>
  <node id="-238" lat="50.92962059375826" lon="-2.9651141442990196">
    <tag k="addr:postcode" v="TA19 9QB"/>
    <tag k="removemelater" v="yes"/>
  </node>
  <node id="-239" lat="50.929456700190784" lon="-2.964271204202082">
    <tag k="addr:postcode" v="TA19 9QE"/>
    <tag k="removemelater" v="yes"/>
  </node>
  <node id="-240" lat="50.92984297760619" lon="-2.9675804921163014">
    <tag k="addr:postcode" v="TA19 9QQ"/>
    <tag k="removemelater" v="yes"/>
  </node>
  <node id="-241" lat="50.93006226236047" lon="-2.966076684122447">
    <tag k="addr:postcode" v="TA19 9RW"/>
    <tag k="removemelater" v="yes"/>
  </node>
  <node id="-242" lat="50.929222442530495" lon="-2.966500397704439">
    <tag k="addr:postcode" v="TA19 9SQ"/>
    <tag k="removemelater" v="yes"/>
  </node>
  <node id="-243" lat="51.025902617199044" lon="-3.117561617610432">
    <tag k="addr:postcode" v="TA2 6AE"/>
    <tag k="removemelater" v="yes"/>
  </node>
  <node id="-244" lat="51.025608415438676" lon="-3.12572505546004">
    <tag k="addr:postcode" v="TA2 6BG"/>
    <tag k="removemelater" v="yes"/>
  </node>
  <node id="-245" lat="51.02407499720741" lon="-3.146548428251948">
    <tag k="addr:postcode" v="TA2 6EY"/>
    <tag k="removemelater" v="yes"/>
  </node>
  <node id="-246" lat="51.02552446120332" lon="-3.1062735325942454">
    <tag k="addr:postcode" v="TA2 6HU"/>
    <tag k="removemelater" v="yes"/>
  </node>
  <node id="-247" lat="51.02694253792958" lon="-3.108460495742086">
    <tag k="addr:postcode" v="TA2 6LD"/>
    <tag k="removemelater" v="yes"/>
  </node>
  <node id="-248" lat="51.02915839884847" lon="-3.117511595642159">
    <tag k="addr:postcode" v="TA2 6LP"/>
    <tag k="removemelater" v="yes"/>
  </node>
  <node id="-249" lat="51.03455871794271" lon="-3.1430420437911244">
    <tag k="addr:postcode" v="TA2 6PD"/>
    <tag k="removemelater" v="yes"/>
  </node>
  <node id="-250" lat="51.02344217446776" lon="-3.109645997835382">
    <tag k="addr:postcode" v="TA2 6YD"/>
    <tag k="removemelater" v="yes"/>
  </node>
  <node id="-251" lat="51.02856195699826" lon="-3.1017255978642178">
    <tag k="addr:postcode" v="TA2 7DL"/>
    <tag k="removemelater" v="yes"/>
  </node>
  <node id="-252" lat="51.025716993893944" lon="-3.103982385012645">
    <tag k="addr:postcode" v="TA2 7TJ"/>
    <tag k="removemelater" v="yes"/>
  </node>
  <node id="-253" lat="51.02597958625336" lon="-3.090385274459914">
    <tag k="addr:postcode" v="TA2 7TN"/>
    <tag k="removemelater" v="yes"/>
  </node>
  <node id="-254" lat="51.0447859580191" lon="-3.1120104812628506">
    <tag k="addr:postcode" v="TA2 8AB"/>
    <tag k="removemelater" v="yes"/>
  </node>
  <node id="-255" lat="51.04680695369532" lon="-3.1179078204203265">
    <tag k="addr:postcode" v="TA2 8AT"/>
    <tag k="removemelater" v="yes"/>
  </node>
  <node id="-256" lat="51.03336988451928" lon="-3.0582849255307556">
    <tag k="addr:postcode" v="TA2 8BJ"/>
    <tag k="removemelater" v="yes"/>
  </node>
  <node id="-257" lat="51.03659352171412" lon="-3.0458216493804144">
    <tag k="addr:postcode" v="TA2 8DA"/>
    <tag k="removemelater" v="yes"/>
  </node>
  <node id="-258" lat="51.02766803196778" lon="-3.0848208062913973">
    <tag k="addr:postcode" v="TA2 8DB"/>
    <tag k="removemelater" v="yes"/>
  </node>
  <node id="-259" lat="51.02684716306961" lon="-3.08799577442726">
    <tag k="addr:postcode" v="TA2 8DF"/>
    <tag k="removemelater" v="yes"/>
  </node>
  <node id="-260" lat="51.02591748195891" lon="-3.0864340049549166">
    <tag k="addr:postcode" v="TA2 8DG"/>
    <tag k="removemelater" v="yes"/>
  </node>
  <node id="-261" lat="51.02749368750034" lon="-3.0880964734158147">
    <tag k="addr:postcode" v="TA2 8DN"/>
    <tag k="removemelater" v="yes"/>
  </node>
  <node id="-262" lat="51.02886087667448" lon="-3.084192693754028">
    <tag k="addr:postcode" v="TA2 8FR"/>
    <tag k="removemelater" v="yes"/>
  </node>
  <node id="-263" lat="51.056351493834164" lon="-3.111888049626519">
    <tag k="addr:postcode" v="TA2 8HL"/>
    <tag k="removemelater" v="yes"/>
  </node>
  <node id="-264" lat="51.07037501275284" lon="-3.120859281667505">
    <tag k="addr:postcode" v="TA2 8HX"/>
    <tag k="removemelater" v="yes"/>
  </node>
  <node id="-265" lat="51.052848761001236" lon="-3.0836685729532505">
    <tag k="addr:postcode" v="TA2 8LF"/>
    <tag k="removemelater" v="yes"/>
  </node>
  <node id="-266" lat="51.06195050084959" lon="-3.071822712823658">
    <tag k="addr:postcode" v="TA2 8LP"/>
    <tag k="removemelater" v="yes"/>
  </node>
  <node id="-267" lat="51.062845941471124" lon="-3.0633809470488234">
    <tag k="addr:postcode" v="TA2 8LR"/>
    <tag k="removemelater" v="yes"/>
  </node>
  <node id="-268" lat="51.05753162216773" lon="-3.0534278804421846">
    <tag k="addr:postcode" v="TA2 8LS"/>
    <tag k="removemelater" v="yes"/>
  </node>
  <node id="-269" lat="51.0272332611745" lon="-3.0870921984435893">
    <tag k="addr:postcode" v="TA2 8PZ"/>
    <tag k="removemelater" v="yes"/>
  </node>
  <node id="-270" lat="51.0321647357867" lon="-3.0799201520399633">
    <tag k="addr:postcode" v="TA2 8QJ"/>
    <tag k="removemelater" v="yes"/>
  </node>
  <node id="-271" lat="51.042996175910744" lon="-3.054824078769599">
    <tag k="addr:postcode" v="TA2 8QN"/>
    <tag k="removemelater" v="yes"/>
  </node>
  <node id="-272" lat="51.02911563188891" lon="-3.0809615681743563">
    <tag k="addr:postcode" v="TA2 8QY"/>
    <tag k="removemelater" v="yes"/>
  </node>
  <node id="-273" lat="51.0559011742817" lon="-3.0417050377664334">
    <tag k="addr:postcode" v="TA2 8RB"/>
    <tag k="removemelater" v="yes"/>
  </node>
  <node id="-274" lat="51.057091374862374" lon="-3.041346495703353">
    <tag k="addr:postcode" v="TA2 8RE"/>
    <tag k="removemelater" v="yes"/>
  </node>
  <node id="-275" lat="51.05900798151181" lon="-3.037165770973603">
    <tag k="addr:postcode" v="TA2 8RF"/>
    <tag k="removemelater" v="yes"/>
  </node>
  <node id="-276" lat="51.06256688008095" lon="-3.0353758894268714">
    <tag k="addr:postcode" v="TA2 8RG"/>
    <tag k="removemelater" v="yes"/>
  </node>
  <node id="-277" lat="51.0563410831846" lon="-3.0326686545938975">
    <tag k="addr:postcode" v="TA2 8RP"/>
    <tag k="removemelater" v="yes"/>
  </node>
  <node id="-278" lat="51.06347797126675" lon="-3.0350537223334784">
    <tag k="addr:postcode" v="TA2 8RQ"/>
    <tag k="removemelater" v="yes"/>
  </node>
  <node id="-279" lat="51.05964211276051" lon="-3.0346114234489066">
    <tag k="addr:postcode" v="TA2 8RW"/>
    <tag k="removemelater" v="yes"/>
  </node>
  <node id="-280" lat="51.02779770804464" lon="-3.080531628310303">
    <tag k="addr:postcode" v="TA2 8RX"/>
    <tag k="removemelater" v="yes"/>
  </node>
  <node id="-281" lat="51.02344217446776" lon="-3.109645997835382">
    <tag k="addr:postcode" v="TA2 8ZQ"/>
    <tag k="removemelater" v="yes"/>
  </node>
  <node id="-282" lat="50.87626792268479" lon="-2.958482357294349">
    <tag k="addr:postcode" v="TA20 1AF"/>
    <tag k="removemelater" v="yes"/>
  </node>
  <node id="-283" lat="50.884070772212716" lon="-2.95443463449983">
    <tag k="addr:postcode" v="TA20 1FB"/>
    <tag k="removemelater" v="yes"/>
  </node>
  <node id="-284" lat="50.874996019715674" lon="-2.952373089178312">
    <tag k="addr:postcode" v="TA20 1NF"/>
    <tag k="removemelater" v="yes"/>
  </node>
  <node id="-285" lat="50.87382180361319" lon="-2.978003011126277">
    <tag k="addr:postcode" v="TA20 1QP"/>
    <tag k="removemelater" v="yes"/>
  </node>
  <node id="-286" lat="50.87200365328771" lon="-2.9641507709745314">
    <tag k="addr:postcode" v="TA20 2DD"/>
    <tag k="removemelater" v="yes"/>
  </node>
  <node id="-287" lat="50.87141564634125" lon="-2.965659312860993">
    <tag k="addr:postcode" v="TA20 2DQ"/>
    <tag k="removemelater" v="yes"/>
  </node>
  <node id="-288" lat="50.869926053216275" lon="-2.9652732377891784">
    <tag k="addr:postcode" v="TA20 2DY"/>
    <tag k="removemelater" v="yes"/>
  </node>
  <node id="-289" lat="50.84247225387651" lon="-2.954224567468905">
    <tag k="addr:postcode" v="TA20 2PQ"/>
    <tag k="removemelater" v="yes"/>
  </node>
  <node id="-290" lat="50.87155209904779" lon="-2.9643830555707398">
    <tag k="addr:postcode" v="TA20 2YA"/>
    <tag k="removemelater" v="yes"/>
  </node>
  <node id="-291" lat="50.87155209904779" lon="-2.9643830555707398">
    <tag k="addr:postcode" v="TA20 2YD"/>
    <tag k="removemelater" v="yes"/>
  </node>
  <node id="-292" lat="50.89596262508054" lon="-2.9928142342455186">
    <tag k="addr:postcode" v="TA20 3BP"/>
    <tag k="removemelater" v="yes"/>
  </node>
  <node id="-293" lat="50.87718463511571" lon="-3.0086897580551777">
    <tag k="addr:postcode" v="TA20 3DQ"/>
    <tag k="removemelater" v="yes"/>
  </node>
  <node id="-294" lat="50.86428862283469" lon="-3.0014343581151266">
    <tag k="addr:postcode" v="TA20 3EN"/>
    <tag k="removemelater" v="yes"/>
  </node>
  <node id="-295" lat="50.85685547280778" lon="-2.9967855191202126">
    <tag k="addr:postcode" v="TA20 3EP"/>
    <tag k="removemelater" v="yes"/>
  </node>
  <node id="-296" lat="50.896411209767884" lon="-2.9929375320701115">
    <tag k="addr:postcode" v="TA20 3NG"/>
    <tag k="removemelater" v="yes"/>
  </node>
  <node id="-297" lat="50.87932218167506" lon="-2.9220568805765943">
    <tag k="addr:postcode" v="TA20 4AF"/>
    <tag k="removemelater" v="yes"/>
  </node>
  <node id="-298" lat="50.86343310053227" lon="-2.9035410184858743">
    <tag k="addr:postcode" v="TA20 4BY"/>
    <tag k="removemelater" v="yes"/>
  </node>
  <node id="-299" lat="50.86675269510272" lon="-2.901047324248479">
    <tag k="addr:postcode" v="TA20 4BZ"/>
    <tag k="removemelater" v="yes"/>
  </node>
  <node id="-300" lat="50.87313238944804" lon="-2.89352409871468">
    <tag k="addr:postcode" v="TA20 4DD"/>
    <tag k="removemelater" v="yes"/>
  </node>
  <node id="-301" lat="50.87444930541391" lon="-2.8906498777398193">
    <tag k="addr:postcode" v="TA20 4DE"/>
    <tag k="removemelater" v="yes"/>
  </node>
  <node id="-302" lat="50.875854755674936" lon="-2.9020188311787014">
    <tag k="addr:postcode" v="TA20 4DF"/>
    <tag k="removemelater" v="yes"/>
  </node>
  <node id="-303" lat="50.883182749048636" lon="-2.8773828359306943">
    <tag k="addr:postcode" v="TA20 4DQ"/>
    <tag k="removemelater" v="yes"/>
  </node>
  <node id="-304" lat="50.867183540344946" lon="-2.8894313705207417">
    <tag k="addr:postcode" v="TA20 4EJ"/>
    <tag k="removemelater" v="yes"/>
  </node>
  <node id="-305" lat="50.8622128692513" lon="-2.8961855404140713">
    <tag k="addr:postcode" v="TA20 4EN"/>
    <tag k="removemelater" v="yes"/>
  </node>
  <node id="-306" lat="50.834402477984376" lon="-2.9130626421501797">
    <tag k="addr:postcode" v="TA20 4LP"/>
    <tag k="removemelater" v="yes"/>
  </node>
  <node id="-307" lat="50.8379310155475" lon="-2.9022246049201144">
    <tag k="addr:postcode" v="TA20 4NQ"/>
    <tag k="removemelater" v="yes"/>
  </node>
  <node id="-308" lat="50.84266519640487" lon="-2.878127994963019">
    <tag k="addr:postcode" v="TA20 4PA"/>
    <tag k="removemelater" v="yes"/>
  </node>
  <node id="-309" lat="50.826528084255166" lon="-2.8834476278659418">
    <tag k="addr:postcode" v="TA20 4PX"/>
    <tag k="removemelater" v="yes"/>
  </node>
  <node id="-310" lat="50.98620126948518" lon="-3.2429373852825445">
    <tag k="addr:postcode" v="TA21 0AA"/>
    <tag k="removemelater" v="yes"/>
  </node>
  <node id="-311" lat="50.98652529852623" lon="-3.2445987325791013">
    <tag k="addr:postcode" v="TA21 0AD"/>
    <tag k="removemelater" v="yes"/>
  </node>
  <node id="-312" lat="50.98684173605501" lon="-3.2435956296454935">
    <tag k="addr:postcode" v="TA21 0AE"/>
    <tag k="removemelater" v="yes"/>
  </node>
  <node id="-313" lat="50.987148871807136" lon="-3.2426207598069205">
    <tag k="addr:postcode" v="TA21 0AF"/>
    <tag k="removemelater" v="yes"/>
  </node>
  <node id="-314" lat="50.986771522916555" lon="-3.244277628700553">
    <tag k="addr:postcode" v="TA21 0AG"/>
    <tag k="removemelater" v="yes"/>
  </node>
  <node id="-315" lat="50.98677512045656" lon="-3.247312424352912">
    <tag k="addr:postcode" v="TA21 0AH"/>
    <tag k="removemelater" v="yes"/>
  </node>
  <node id="-316" lat="50.98804344642255" lon="-3.2455939479785023">
    <tag k="addr:postcode" v="TA21 0AJ"/>
    <tag k="removemelater" v="yes"/>
  </node>
  <node id="-317" lat="50.98833905714926" lon="-3.24570159771933">
    <tag k="addr:postcode" v="TA21 0AL"/>
    <tag k="removemelater" v="yes"/>
  </node>
  <node id="-318" lat="50.98878883803102" lon="-3.244844511160841">
    <tag k="addr:postcode" v="TA21 0AN"/>
    <tag k="removemelater" v="yes"/>
  </node>
  <node id="-319" lat="50.98632990267048" lon="-3.240988945010649">
    <tag k="addr:postcode" v="TA21 0AP"/>
    <tag k="removemelater" v="yes"/>
  </node>
  <node id="-320" lat="50.98708955158459" lon="-3.2448132918795998">
    <tag k="addr:postcode" v="TA21 0AQ"/>
    <tag k="removemelater" v="yes"/>
  </node>
  <node id="-321" lat="50.9869197706374" lon="-3.2413323699644447">
    <tag k="addr:postcode" v="TA21 0AR"/>
    <tag k="removemelater" v="yes"/>
  </node>
  <node id="-322" lat="50.98747049632714" lon="-3.241973959224618">
    <tag k="addr:postcode" v="TA21 0AS"/>
    <tag k="removemelater" v="yes"/>
  </node>
  <node id="-323" lat="50.98730225844999" lon="-3.2417272594523894">
    <tag k="addr:postcode" v="TA21 0AT"/>
    <tag k="removemelater" v="yes"/>
  </node>
  <node id="-324" lat="50.98779146270524" lon="-3.243079602072864">
    <tag k="addr:postcode" v="TA21 0AU"/>
    <tag k="removemelater" v="yes"/>
  </node>
  <node id="-325" lat="50.98545594709119" lon="-3.2419914195017254">
    <tag k="addr:postcode" v="TA21 0AW"/>
    <tag k="removemelater" v="yes"/>
  </node>
  <node id="-326" lat="50.988115107608834" lon="-3.243088249559886">
    <tag k="addr:postcode" v="TA21 0AX"/>
    <tag k="removemelater" v="yes"/>
  </node>
  <node id="-327" lat="50.98766093905889" lon="-3.2443584062240314">
    <tag k="addr:postcode" v="TA21 0AY"/>
    <tag k="removemelater" v="yes"/>
  </node>
  <node id="-328" lat="50.99021394619138" lon="-3.24360028334359">
    <tag k="addr:postcode" v="TA21 0AZ"/>
    <tag k="removemelater" v="yes"/>
  </node>
  <node id="-329" lat="50.98602047666189" lon="-3.2396414571931107">
    <tag k="addr:postcode" v="TA21 0BA"/>
    <tag k="removemelater" v="yes"/>
  </node>
  <node id="-330" lat="50.98591131294787" lon="-3.238911944414622">
    <tag k="addr:postcode" v="TA21 0BB"/>
    <tag k="removemelater" v="yes"/>
  </node>
  <node id="-331" lat="50.987079046282176" lon="-3.239883374269258">
    <tag k="addr:postcode" v="TA21 0BD"/>
    <tag k="removemelater" v="yes"/>
  </node>
  <node id="-332" lat="50.9873706621667" lon="-3.239520708368721">
    <tag k="addr:postcode" v="TA21 0BE"/>
    <tag k="removemelater" v="yes"/>
  </node>
  <node id="-333" lat="50.99752986848499" lon="-3.2682358826470352">
    <tag k="addr:postcode" v="TA21 0BF"/>
    <tag k="removemelater" v="yes"/>
  </node>
  <node id="-334" lat="50.98605287289189" lon="-3.2408248369252477">
    <tag k="addr:postcode" v="TA21 0BG"/>
    <tag k="removemelater" v="yes"/>
  </node>
  <node id="-335" lat="50.99908377284278" lon="-3.218570131067317">
    <tag k="addr:postcode" v="TA21 0BH"/>
    <tag k="removemelater" v="yes"/>
  </node>
  <node id="-336" lat="50.99830428231491" lon="-3.2277415514311354">
    <tag k="addr:postcode" v="TA21 0BL"/>
    <tag k="removemelater" v="yes"/>
  </node>
  <node id="-337" lat="50.99832149744804" lon="-3.230378428603494">
    <tag k="addr:postcode" v="TA21 0BN"/>
    <tag k="removemelater" v="yes"/>
  </node>
  <node id="-338" lat="51.000245973570216" lon="-3.2371845694189445">
    <tag k="addr:postcode" v="TA21 0BP"/>
    <tag k="removemelater" v="yes"/>
  </node>
  <node id="-339" lat="50.98528419130378" lon="-3.2395363588878223">
    <tag k="addr:postcode" v="TA21 0BQ"/>
    <tag k="removemelater" v="yes"/>
  </node>
  <node id="-340" lat="50.99984981446795" lon="-3.2218537725540544">
    <tag k="addr:postcode" v="TA21 0BS"/>
    <tag k="removemelater" v="yes"/>
  </node>
  <node id="-341" lat="51.00595097237265" lon="-3.221458224375779">
    <tag k="addr:postcode" v="TA21 0BU"/>
    <tag k="removemelater" v="yes"/>
  </node>
  <node id="-342" lat="50.99753304832525" lon="-3.2309560991939597">
    <tag k="addr:postcode" v="TA21 0BW"/>
    <tag k="removemelater" v="yes"/>
  </node>
  <node id="-343" lat="50.98945337692603" lon="-3.2457741800682762">
    <tag k="addr:postcode" v="TA21 0DE"/>
    <tag k="removemelater" v="yes"/>
  </node>
  <node id="-344" lat="50.98962628637125" lon="-3.244738685308395">
    <tag k="addr:postcode" v="TA21 0DF"/>
    <tag k="removemelater" v="yes"/>
  </node>
  <node id="-345" lat="50.97579264741804" lon="-3.2534136718512197">
    <tag k="addr:postcode" v="TA21 0DG"/>
    <tag k="removemelater" v="yes"/>
  </node>
  <node id="-346" lat="50.98572684617292" lon="-3.2444206562442677">
    <tag k="addr:postcode" v="TA21 0DH"/>
    <tag k="removemelater" v="yes"/>
  </node>
  <node id="-347" lat="50.976206370450676" lon="-3.2525701620202017">
    <tag k="addr:postcode" v="TA21 0DJ"/>
    <tag k="removemelater" v="yes"/>
  </node>
  <node id="-348" lat="50.977773276731526" lon="-3.2506893020665113">
    <tag k="addr:postcode" v="TA21 0DN"/>
    <tag k="removemelater" v="yes"/>
  </node>
  <node id="-349" lat="50.977448874993264" lon="-3.249070948779464">
    <tag k="addr:postcode" v="TA21 0DP"/>
    <tag k="removemelater" v="yes"/>
  </node>
  <node id="-350" lat="50.989458997591385" lon="-3.2452471458175025">
    <tag k="addr:postcode" v="TA21 0DQ"/>
    <tag k="removemelater" v="yes"/>
  </node>
  <node id="-351" lat="50.97654391678499" lon="-3.250442602619189">
    <tag k="addr:postcode" v="TA21 0DR"/>
    <tag k="removemelater" v="yes"/>
  </node>
  <node id="-352" lat="50.977023282874335" lon="-3.2510252589867035">
    <tag k="addr:postcode" v="TA21 0DS"/>
    <tag k="removemelater" v="yes"/>
  </node>
  <node id="-353" lat="50.976356452864216" lon="-3.252830597206186">
    <tag k="addr:postcode" v="TA21 0DT"/>
    <tag k="removemelater" v="yes"/>
  </node>
  <node id="-354" lat="50.97554311107974" lon="-3.2557144778694846">
    <tag k="addr:postcode" v="TA21 0DU"/>
    <tag k="removemelater" v="yes"/>
  </node>
  <node id="-355" lat="50.979753995655045" lon="-3.24795045961796">
    <tag k="addr:postcode" v="TA21 0DW"/>
    <tag k="removemelater" v="yes"/>
  </node>
  <node id="-356" lat="50.97734243408251" lon="-3.2539682118141684">
    <tag k="addr:postcode" v="TA21 0DX"/>
    <tag k="removemelater" v="yes"/>
  </node>
  <node id="-357" lat="50.97560496649223" lon="-3.25162811734066">
    <tag k="addr:postcode" v="TA21 0DY"/>
    <tag k="removemelater" v="yes"/>
  </node>
  <node id="-358" lat="50.97558874966645" lon="-3.2539779410261587">
    <tag k="addr:postcode" v="TA21 0DZ"/>
    <tag k="removemelater" v="yes"/>
  </node>
  <node id="-359" lat="50.97475096116208" lon="-3.257459331833185">
    <tag k="addr:postcode" v="TA21 0EA"/>
    <tag k="removemelater" v="yes"/>
  </node>
  <node id="-360" lat="50.97130228197214" lon="-3.263704173475383">
    <tag k="addr:postcode" v="TA21 0EB"/>
    <tag k="removemelater" v="yes"/>
  </node>
  <node id="-361" lat="50.976497940579826" lon="-3.254728894670104">
    <tag k="addr:postcode" v="TA21 0ED"/>
    <tag k="removemelater" v="yes"/>
  </node>
  <node id="-362" lat="50.97589340921415" lon="-3.2756656774500756">
    <tag k="addr:postcode" v="TA21 0EH"/>
    <tag k="removemelater" v="yes"/>
  </node>
  <node id="-363" lat="50.97567892104418" lon="-3.274719691475003">
    <tag k="addr:postcode" v="TA21 0EJ"/>
    <tag k="removemelater" v="yes"/>
  </node>
  <node id="-364" lat="50.97580247403235" lon="-3.274110579439365">
    <tag k="addr:postcode" v="TA21 0EL"/>
    <tag k="removemelater" v="yes"/>
  </node>
  <node id="-365" lat="50.97443862743748" lon="-3.2738311044028556">
    <tag k="addr:postcode" v="TA21 0EN"/>
    <tag k="removemelater" v="yes"/>
  </node>
  <node id="-366" lat="50.97573072044499" lon="-3.2549930930406745">
    <tag k="addr:postcode" v="TA21 0EP"/>
    <tag k="removemelater" v="yes"/>
  </node>
  <node id="-367" lat="50.978224769737345" lon="-3.249675809307514">
    <tag k="addr:postcode" v="TA21 0ER"/>
    <tag k="removemelater" v="yes"/>
  </node>
  <node id="-368" lat="50.97648901285318" lon="-3.2530478295040703">
    <tag k="addr:postcode" v="TA21 0EW"/>
    <tag k="removemelater" v="yes"/>
  </node>
  <node id="-369" lat="50.9850719456377" lon="-3.241738972273868">
    <tag k="addr:postcode" v="TA21 0EZ"/>
    <tag k="removemelater" v="yes"/>
  </node>
  <node id="-370" lat="50.96936237200536" lon="-3.2709292334498485">
    <tag k="addr:postcode" v="TA21 0HD"/>
    <tag k="removemelater" v="yes"/>
  </node>
  <node id="-371" lat="50.97163903941033" lon="-3.2814883450755894">
    <tag k="addr:postcode" v="TA21 0HF"/>
    <tag k="removemelater" v="yes"/>
  </node>
  <node id="-372" lat="50.98110218449483" lon="-3.3247568234098233">
    <tag k="addr:postcode" v="TA21 0HH"/>
    <tag k="removemelater" v="yes"/>
  </node>
  <node id="-373" lat="50.97456763031733" lon="-3.315725456610192">
    <tag k="addr:postcode" v="TA21 0JJ"/>
    <tag k="removemelater" v="yes"/>
  </node>
  <node id="-374" lat="50.97336099585036" lon="-3.312671751630489">
    <tag k="addr:postcode" v="TA21 0JN"/>
    <tag k="removemelater" v="yes"/>
  </node>
  <node id="-375" lat="50.98394781793095" lon="-3.304436666887501">
    <tag k="addr:postcode" v="TA21 0JR"/>
    <tag k="removemelater" v="yes"/>
  </node>
  <node id="-376" lat="50.96918364879324" lon="-3.2945661952153027">
    <tag k="addr:postcode" v="TA21 0JS"/>
    <tag k="removemelater" v="yes"/>
  </node>
  <node id="-377" lat="50.97259734285044" lon="-3.303776736503751">
    <tag k="addr:postcode" v="TA21 0JW"/>
    <tag k="removemelater" v="yes"/>
  </node>
  <node id="-378" lat="50.9611184264446" lon="-3.2838616214305203">
    <tag k="addr:postcode" v="TA21 0LP"/>
    <tag k="removemelater" v="yes"/>
  </node>
  <node id="-379" lat="50.96148254727077" lon="-3.302141232492632">
    <tag k="addr:postcode" v="TA21 0LR"/>
    <tag k="removemelater" v="yes"/>
  </node>
  <node id="-380" lat="50.96269766177596" lon="-3.285813333808839">
    <tag k="addr:postcode" v="TA21 0LS"/>
    <tag k="removemelater" v="yes"/>
  </node>
  <node id="-381" lat="50.96165213012569" lon="-3.2884757821220774">
    <tag k="addr:postcode" v="TA21 0LT"/>
    <tag k="removemelater" v="yes"/>
  </node>
  <node id="-382" lat="50.96028683268314" lon="-3.290773262461328">
    <tag k="addr:postcode" v="TA21 0LU"/>
    <tag k="removemelater" v="yes"/>
  </node>
  <node id="-383" lat="50.95614546336131" lon="-3.295257396142244">
    <tag k="addr:postcode" v="TA21 0LX"/>
    <tag k="removemelater" v="yes"/>
  </node>
  <node id="-384" lat="50.96254701473587" lon="-3.301843476645103">
    <tag k="addr:postcode" v="TA21 0LY"/>
    <tag k="removemelater" v="yes"/>
  </node>
  <node id="-385" lat="50.954352781327195" lon="-3.3603729961050393">
    <tag k="addr:postcode" v="TA21 0QA"/>
    <tag k="removemelater" v="yes"/>
  </node>
  <node id="-386" lat="50.98983605175929" lon="-3.2595625920328035">
    <tag k="addr:postcode" v="TA21 0QP"/>
    <tag k="removemelater" v="yes"/>
  </node>
  <node id="-387" lat="50.98946223798517" lon="-3.2558621739447324">
    <tag k="addr:postcode" v="TA21 0QW"/>
    <tag k="removemelater" v="yes"/>
  </node>
  <node id="-388" lat="50.99830844284184" lon="-3.268584886527936">
    <tag k="addr:postcode" v="TA21 0RA"/>
    <tag k="removemelater" v="yes"/>
  </node>
  <node id="-389" lat="50.998297269749116" lon="-3.2679575390690374">
    <tag k="addr:postcode" v="TA21 0RB"/>
    <tag k="removemelater" v="yes"/>
  </node>
  <node id="-390" lat="50.999056794985336" lon="-3.269232352990076">
    <tag k="addr:postcode" v="TA21 0RD"/>
    <tag k="removemelater" v="yes"/>
  </node>
  <node id="-391" lat="51.000185051839345" lon="-3.270503031272">
    <tag k="addr:postcode" v="TA21 0RE"/>
    <tag k="removemelater" v="yes"/>
  </node>
  <node id="-392" lat="51.00028626660404" lon="-3.270292022779935">
    <tag k="addr:postcode" v="TA21 0RF"/>
    <tag k="removemelater" v="yes"/>
  </node>
  <node id="-393" lat="51.000649121231945" lon="-3.2700026490653467">
    <tag k="addr:postcode" v="TA21 0RG"/>
    <tag k="removemelater" v="yes"/>
  </node>
  <node id="-394" lat="51.00035090116695" lon="-3.2701370207219806">
    <tag k="addr:postcode" v="TA21 0RH"/>
    <tag k="removemelater" v="yes"/>
  </node>
  <node id="-395" lat="51.00049396072407" lon="-3.2693855908978797">
    <tag k="addr:postcode" v="TA21 0RJ"/>
    <tag k="removemelater" v="yes"/>
  </node>
  <node id="-396" lat="50.999469398810746" lon="-3.2726354310174925">
    <tag k="addr:postcode" v="TA21 0RL"/>
    <tag k="removemelater" v="yes"/>
  </node>
  <node id="-397" lat="50.999664714414365" lon="-3.2712156366378347">
    <tag k="addr:postcode" v="TA21 0RN"/>
    <tag k="removemelater" v="yes"/>
  </node>
  <node id="-398" lat="50.995989808394285" lon="-3.270103423860763">
    <tag k="addr:postcode" v="TA21 0RP"/>
    <tag k="removemelater" v="yes"/>
  </node>
  <node id="-399" lat="51.00129265183064" lon="-3.267882440959783">
    <tag k="addr:postcode" v="TA21 0RQ"/>
    <tag k="removemelater" v="yes"/>
  </node>
  <node id="-400" lat="50.99522240207137" lon="-3.270381718823874">
    <tag k="addr:postcode" v="TA21 0RW"/>
    <tag k="removemelater" v="yes"/>
  </node>
  <node id="-401" lat="50.97899156250905" lon="-3.227402936376227">
    <tag k="addr:postcode" v="TA21 1AU"/>
    <tag k="removemelater" v="yes"/>
  </node>
  <node id="-402" lat="50.97899156250905" lon="-3.227402936376227">
    <tag k="addr:postcode" v="TA21 1BE"/>
    <tag k="removemelater" v="yes"/>
  </node>
  <node id="-403" lat="50.97899156250905" lon="-3.227402936376227">
    <tag k="addr:postcode" v="TA21 1BH"/>
    <tag k="removemelater" v="yes"/>
  </node>
  <node id="-404" lat="50.97899156250905" lon="-3.227402936376227">
    <tag k="addr:postcode" v="TA21 1BJ"/>
    <tag k="removemelater" v="yes"/>
  </node>
  <node id="-405" lat="50.97899156250905" lon="-3.227402936376227">
    <tag k="addr:postcode" v="TA21 1BT"/>
    <tag k="removemelater" v="yes"/>
  </node>
  <node id="-406" lat="50.97899156250905" lon="-3.227402936376227">
    <tag k="addr:postcode" v="TA21 1BW"/>
    <tag k="removemelater" v="yes"/>
  </node>
  <node id="-407" lat="50.97899156250905" lon="-3.227402936376227">
    <tag k="addr:postcode" v="TA21 1BX"/>
    <tag k="removemelater" v="yes"/>
  </node>
  <node id="-408" lat="50.97899156250905" lon="-3.227402936376227">
    <tag k="addr:postcode" v="TA21 1BY"/>
    <tag k="removemelater" v="yes"/>
  </node>
  <node id="-409" lat="50.97778928007612" lon="-3.2288526720989648">
    <tag k="addr:postcode" v="TA21 8AF"/>
    <tag k="removemelater" v="yes"/>
  </node>
  <node id="-410" lat="50.97789865787584" lon="-3.227858432580569">
    <tag k="addr:postcode" v="TA21 8AL"/>
    <tag k="removemelater" v="yes"/>
  </node>
  <node id="-411" lat="50.97762251168373" lon="-3.2284636648019958">
    <tag k="addr:postcode" v="TA21 8AN"/>
    <tag k="removemelater" v="yes"/>
  </node>
  <node id="-412" lat="50.97875617064608" lon="-3.2275534226462392">
    <tag k="addr:postcode" v="TA21 8LR"/>
    <tag k="removemelater" v="yes"/>
  </node>
  <node id="-413" lat="50.97854730004296" lon="-3.2277473416644265">
    <tag k="addr:postcode" v="TA21 8LS"/>
    <tag k="removemelater" v="yes"/>
  </node>
  <node id="-414" lat="50.978639152295145" lon="-3.2292739696361568">
    <tag k="addr:postcode" v="TA21 8LT"/>
    <tag k="removemelater" v="yes"/>
  </node>
  <node id="-415" lat="50.97843642284666" lon="-3.228029313527768">
    <tag k="addr:postcode" v="TA21 8LU"/>
    <tag k="removemelater" v="yes"/>
  </node>
  <node id="-416" lat="50.97553209300163" lon="-3.2254315053929297">
    <tag k="addr:postcode" v="TA21 8NZ"/>
    <tag k="removemelater" v="yes"/>
  </node>
  <node id="-417" lat="50.97553209300163" lon="-3.2254315053929297">
    <tag k="addr:postcode" v="TA21 8PU"/>
    <tag k="removemelater" v="yes"/>
  </node>
  <node id="-418" lat="50.97947268259171" lon="-3.2269740254526327">
    <tag k="addr:postcode" v="TA21 8QS"/>
    <tag k="removemelater" v="yes"/>
  </node>
  <node id="-419" lat="50.98255358493472" lon="-3.2039908413264735">
    <tag k="addr:postcode" v="TA21 8YA"/>
    <tag k="removemelater" v="yes"/>
  </node>
  <node id="-420" lat="50.98055827492623" lon="-3.2082413495985502">
    <tag k="addr:postcode" v="TA21 9AD"/>
    <tag k="removemelater" v="yes"/>
  </node>
  <node id="-421" lat="50.97383016464378" lon="-3.2418236281208284">
    <tag k="addr:postcode" v="TA21 9BS"/>
    <tag k="removemelater" v="yes"/>
  </node>
  <node id="-422" lat="50.97316256654338" lon="-3.243714412786081">
    <tag k="addr:postcode" v="TA21 9BT"/>
    <tag k="removemelater" v="yes"/>
  </node>
  <node id="-423" lat="50.97342487223468" lon="-3.2452597005747164">
    <tag k="addr:postcode" v="TA21 9BU"/>
    <tag k="removemelater" v="yes"/>
  </node>
  <node id="-424" lat="50.97580946709431" lon="-3.2484856786256997">
    <tag k="addr:postcode" v="TA21 9BX"/>
    <tag k="removemelater" v="yes"/>
  </node>
  <node id="-425" lat="50.973165728876644" lon="-3.2467910389975976">
    <tag k="addr:postcode" v="TA21 9DB"/>
    <tag k="removemelater" v="yes"/>
  </node>
  <node id="-426" lat="50.97381569977202" lon="-3.2448713395492965">
    <tag k="addr:postcode" v="TA21 9DD"/>
    <tag k="removemelater" v="yes"/>
  </node>
  <node id="-427" lat="50.97517894364649" lon="-3.2494231052915152">
    <tag k="addr:postcode" v="TA21 9DE"/>
    <tag k="removemelater" v="yes"/>
  </node>
  <node id="-428" lat="50.97124925518987" lon="-3.2452015022834972">
    <tag k="addr:postcode" v="TA21 9DF"/>
    <tag k="removemelater" v="yes"/>
  </node>
  <node id="-429" lat="50.97106365003513" lon="-3.2448974429243895">
    <tag k="addr:postcode" v="TA21 9DG"/>
    <tag k="removemelater" v="yes"/>
  </node>
  <node id="-430" lat="50.97251826284131" lon="-3.2459476002171317">
    <tag k="addr:postcode" v="TA21 9DH"/>
    <tag k="removemelater" v="yes"/>
  </node>
  <node id="-431" lat="50.976652688136525" lon="-3.246998399555662">
    <tag k="addr:postcode" v="TA21 9DJ"/>
    <tag k="removemelater" v="yes"/>
  </node>
  <node id="-432" lat="50.97643292691503" lon="-3.245682040695755">
    <tag k="addr:postcode" v="TA21 9DN"/>
    <tag k="removemelater" v="yes"/>
  </node>
  <node id="-433" lat="50.97581397388959" lon="-3.2455372788767263">
    <tag k="addr:postcode" v="TA21 9DP"/>
    <tag k="removemelater" v="yes"/>
  </node>
  <node id="-434" lat="50.97232193154467" lon="-3.2441192425236567">
    <tag k="addr:postcode" v="TA21 9DQ"/>
    <tag k="removemelater" v="yes"/>
  </node>
  <node id="-435" lat="50.975289173632575" lon="-3.244996211102148">
    <tag k="addr:postcode" v="TA21 9DR"/>
    <tag k="removemelater" v="yes"/>
  </node>
  <node id="-436" lat="50.974664265013054" lon="-3.24456642882792">
    <tag k="addr:postcode" v="TA21 9DS"/>
    <tag k="removemelater" v="yes"/>
  </node>
  <node id="-437" lat="50.97496488531541" lon="-3.244204128188763">
    <tag k="addr:postcode" v="TA21 9DT"/>
    <tag k="removemelater" v="yes"/>
  </node>
  <node id="-438" lat="50.97412052698333" lon="-3.243269971932961">
    <tag k="addr:postcode" v="TA21 9DU"/>
    <tag k="removemelater" v="yes"/>
  </node>
  <node id="-439" lat="50.9726226568099" lon="-3.2429023749519765">
    <tag k="addr:postcode" v="TA21 9DX"/>
    <tag k="removemelater" v="yes"/>
  </node>
  <node id="-440" lat="50.971520200633364" lon="-3.2425595994192413">
    <tag k="addr:postcode" v="TA21 9DY"/>
    <tag k="removemelater" v="yes"/>
  </node>
  <node id="-441" lat="50.97323741029603" lon="-3.244286143269785">
    <tag k="addr:postcode" v="TA21 9EB"/>
    <tag k="removemelater" v="yes"/>
  </node>
  <node id="-442" lat="50.978966814007784" lon="-3.2056074453422303">
    <tag k="addr:postcode" v="TA21 9FF"/>
    <tag k="removemelater" v="yes"/>
  </node>
  <node id="-443" lat="50.98000721269904" lon="-3.2076144945182263">
    <tag k="addr:postcode" v="TA21 9FH"/>
    <tag k="removemelater" v="yes"/>
  </node>
  <node id="-444" lat="50.975186513420276" lon="-3.2461899500164226">
    <tag k="addr:postcode" v="TA21 9FJ"/>
    <tag k="removemelater" v="yes"/>
  </node>
  <node id="-445" lat="50.97454760521101" lon="-3.2462298191548857">
    <tag k="addr:postcode" v="TA21 9FL"/>
    <tag k="removemelater" v="yes"/>
  </node>
  <node id="-446" lat="50.98191161630365" lon="-3.2233628887749406">
    <tag k="addr:postcode" v="TA21 9HB"/>
    <tag k="removemelater" v="yes"/>
  </node>
  <node id="-447" lat="50.98377314519772" lon="-3.2225000558178096">
    <tag k="addr:postcode" v="TA21 9HG"/>
    <tag k="removemelater" v="yes"/>
  </node>
  <node id="-448" lat="50.988968289160866" lon="-3.2167236222809104">
    <tag k="addr:postcode" v="TA21 9HH"/>
    <tag k="removemelater" v="yes"/>
  </node>
  <node id="-449" lat="50.98619849267279" lon="-3.217591504193191">
    <tag k="addr:postcode" v="TA21 9HN"/>
    <tag k="removemelater" v="yes"/>
  </node>
  <node id="-450" lat="50.98296779700172" lon="-3.206551629340687">
    <tag k="addr:postcode" v="TA21 9HP"/>
    <tag k="removemelater" v="yes"/>
  </node>
  <node id="-451" lat="50.98989909663842" lon="-3.2119605253660466">
    <tag k="addr:postcode" v="TA21 9HW"/>
    <tag k="removemelater" v="yes"/>
  </node>
  <node id="-452" lat="50.98350479189514" lon="-3.2041864096672024">
    <tag k="addr:postcode" v="TA21 9JE"/>
    <tag k="removemelater" v="yes"/>
  </node>
  <node id="-453" lat="50.98441374207834" lon="-3.2058625439099844">
    <tag k="addr:postcode" v="TA21 9JF"/>
    <tag k="removemelater" v="yes"/>
  </node>
  <node id="-454" lat="50.985983283691155" lon="-3.2036521752763503">
    <tag k="addr:postcode" v="TA21 9JG"/>
    <tag k="removemelater" v="yes"/>
  </node>
  <node id="-455" lat="50.98480048851161" lon="-3.2023678626704135">
    <tag k="addr:postcode" v="TA21 9JH"/>
    <tag k="removemelater" v="yes"/>
  </node>
  <node id="-456" lat="50.979125581935385" lon="-3.186594458002842">
    <tag k="addr:postcode" v="TA21 9JL"/>
    <tag k="removemelater" v="yes"/>
  </node>
  <node id="-457" lat="50.98397860814778" lon="-3.2009647135166754">
    <tag k="addr:postcode" v="TA21 9JQ"/>
    <tag k="removemelater" v="yes"/>
  </node>
  <node id="-458" lat="50.97589239473102" lon="-3.1746182792651245">
    <tag k="addr:postcode" v="TA21 9LD"/>
    <tag k="removemelater" v="yes"/>
  </node>
  <node id="-459" lat="50.967652282961055" lon="-3.185575706380683">
    <tag k="addr:postcode" v="TA21 9LQ"/>
    <tag k="removemelater" v="yes"/>
  </node>
  <node id="-460" lat="50.98946205026042" lon="-3.1593448865138187">
    <tag k="addr:postcode" v="TA21 9LT"/>
    <tag k="removemelater" v="yes"/>
  </node>
  <node id="-461" lat="50.98406222112467" lon="-3.160677730221489">
    <tag k="addr:postcode" v="TA21 9LU"/>
    <tag k="removemelater" v="yes"/>
  </node>
  <node id="-462" lat="50.96799533402457" lon="-3.240841973325701">
    <tag k="addr:postcode" v="TA21 9NE"/>
    <tag k="removemelater" v="yes"/>
  </node>
  <node id="-463" lat="50.964594035796196" lon="-3.2350978058744873">
    <tag k="addr:postcode" v="TA21 9NJ"/>
    <tag k="removemelater" v="yes"/>
  </node>
  <node id="-464" lat="50.9611487224527" lon="-3.2343514074565936">
    <tag k="addr:postcode" v="TA21 9NW"/>
    <tag k="removemelater" v="yes"/>
  </node>
  <node id="-465" lat="50.976407021796206" lon="-3.2035611952235117">
    <tag k="addr:postcode" v="TA21 9PH"/>
    <tag k="removemelater" v="yes"/>
  </node>
  <node id="-466" lat="50.97284948800115" lon="-3.214507622989403">
    <tag k="addr:postcode" v="TA21 9PQ"/>
    <tag k="removemelater" v="yes"/>
  </node>
  <node id="-467" lat="50.96741233611742" lon="-3.246608479280975">
    <tag k="addr:postcode" v="TA21 9PZ"/>
    <tag k="removemelater" v="yes"/>
  </node>
  <node id="-468" lat="50.966946554958575" lon="-3.248119832375505">
    <tag k="addr:postcode" v="TA21 9QD"/>
    <tag k="removemelater" v="yes"/>
  </node>
  <node id="-469" lat="50.96063553544591" lon="-3.266319546300694">
    <tag k="addr:postcode" v="TA21 9QN"/>
    <tag k="removemelater" v="yes"/>
  </node>
  <node id="-470" lat="50.96370125922228" lon="-3.2705326266663906">
    <tag k="addr:postcode" v="TA21 9QP"/>
    <tag k="removemelater" v="yes"/>
  </node>
  <node id="-471" lat="50.96308683542873" lon="-3.2708006660362936">
    <tag k="addr:postcode" v="TA21 9QR"/>
    <tag k="removemelater" v="yes"/>
  </node>
  <node id="-472" lat="50.96110774591154" lon="-3.2741641604452703">
    <tag k="addr:postcode" v="TA21 9QS"/>
    <tag k="removemelater" v="yes"/>
  </node>
  <node id="-473" lat="50.96270847787829" lon="-3.271687465536408">
    <tag k="addr:postcode" v="TA21 9QT"/>
    <tag k="removemelater" v="yes"/>
  </node>
  <node id="-474" lat="50.96500466563387" lon="-3.2705824327577546">
    <tag k="addr:postcode" v="TA21 9QW"/>
    <tag k="removemelater" v="yes"/>
  </node>
  <node id="-475" lat="50.97621561456801" lon="-3.1976876628357034">
    <tag k="addr:postcode" v="TA21 9RF"/>
    <tag k="removemelater" v="yes"/>
  </node>
  <node id="-476" lat="50.970133338878384" lon="-3.2486467808135004">
    <tag k="addr:postcode" v="TA21 9RL"/>
    <tag k="removemelater" v="yes"/>
  </node>
  <node id="-477" lat="50.968204739296894" lon="-3.259917239768247">
    <tag k="addr:postcode" v="TA21 9RN"/>
    <tag k="removemelater" v="yes"/>
  </node>
  <node id="-478" lat="50.974010211013606" lon="-3.2477109997205735">
    <tag k="addr:postcode" v="TA21 9RS"/>
    <tag k="removemelater" v="yes"/>
  </node>
  <node id="-479" lat="50.974172504261944" lon="-3.2501937296304395">
    <tag k="addr:postcode" v="TA21 9RT"/>
    <tag k="removemelater" v="yes"/>
  </node>
  <node id="-480" lat="50.973004543767175" lon="-3.248410446771677">
    <tag k="addr:postcode" v="TA21 9RU"/>
    <tag k="removemelater" v="yes"/>
  </node>
  <node id="-481" lat="50.97262147655063" lon="-3.248912924421311">
    <tag k="addr:postcode" v="TA21 9RX"/>
    <tag k="removemelater" v="yes"/>
  </node>
  <node id="-482" lat="50.972272967545166" lon="-3.2470235009771296">
    <tag k="addr:postcode" v="TA21 9RY"/>
    <tag k="removemelater" v="yes"/>
  </node>
  <node id="-483" lat="50.971327192051874" lon="-3.2480093964592633">
    <tag k="addr:postcode" v="TA21 9RZ"/>
    <tag k="removemelater" v="yes"/>
  </node>
  <node id="-484" lat="51.04048246032567" lon="-3.550468185294187">
    <tag k="addr:postcode" v="TA22 9BS"/>
    <tag k="removemelater" v="yes"/>
  </node>
  <node id="-485" lat="51.0407377314239" lon="-3.548850572979176">
    <tag k="addr:postcode" v="TA22 9DN"/>
    <tag k="removemelater" v="yes"/>
  </node>
  <node id="-486" lat="51.040138689293514" lon="-3.5485881010270584">
    <tag k="addr:postcode" v="TA22 9DP"/>
    <tag k="removemelater" v="yes"/>
  </node>
  <node id="-487" lat="51.04080623973214" lon="-3.549109616798013">
    <tag k="addr:postcode" v="TA22 9DR"/>
    <tag k="removemelater" v="yes"/>
  </node>
  <node id="-488" lat="51.0402734377709" lon="-3.549277276745015">
    <tag k="addr:postcode" v="TA22 9DW"/>
    <tag k="removemelater" v="yes"/>
  </node>
  <node id="-489" lat="51.040234651021244" lon="-3.5508450442579784">
    <tag k="addr:postcode" v="TA22 9EX"/>
    <tag k="removemelater" v="yes"/>
  </node>
  <node id="-490" lat="51.04004995196384" lon="-3.5512097433603995">
    <tag k="addr:postcode" v="TA22 9EY"/>
    <tag k="removemelater" v="yes"/>
  </node>
  <node id="-491" lat="51.04016377810628" lon="-3.551441772641518">
    <tag k="addr:postcode" v="TA22 9EZ"/>
    <tag k="removemelater" v="yes"/>
  </node>
  <node id="-492" lat="51.039496605842146" lon="-3.5522467926494388">
    <tag k="addr:postcode" v="TA22 9HJ"/>
    <tag k="removemelater" v="yes"/>
  </node>
  <node id="-493" lat="51.038638129137276" lon="-3.549850321288816">
    <tag k="addr:postcode" v="TA22 9HQ"/>
    <tag k="removemelater" v="yes"/>
  </node>
  <node id="-494" lat="51.06127058479889" lon="-3.5581553487400868">
    <tag k="addr:postcode" v="TA22 9PS"/>
    <tag k="removemelater" v="yes"/>
  </node>
  <node id="-495" lat="51.078461169381804" lon="-3.5964072544368797">
    <tag k="addr:postcode" v="TA22 9PU"/>
    <tag k="removemelater" v="yes"/>
  </node>
  <node id="-496" lat="51.08156404510235" lon="-3.5983558159358826">
    <tag k="addr:postcode" v="TA22 9PX"/>
    <tag k="removemelater" v="yes"/>
  </node>
  <node id="-497" lat="51.08223521718137" lon="-3.603847117037921">
    <tag k="addr:postcode" v="TA22 9QA"/>
    <tag k="removemelater" v="yes"/>
  </node>
  <node id="-498" lat="51.08557651743486" lon="-3.6178411527044636">
    <tag k="addr:postcode" v="TA22 9QB"/>
    <tag k="removemelater" v="yes"/>
  </node>
  <node id="-499" lat="51.07618691252955" lon="-3.632788200164599">
    <tag k="addr:postcode" v="TA22 9QP"/>
    <tag k="removemelater" v="yes"/>
  </node>
  <node id="-500" lat="51.06285851271211" lon="-3.6615609827091125">
    <tag k="addr:postcode" v="TA22 9QT"/>
    <tag k="removemelater" v="yes"/>
  </node>
  <node id="-501" lat="51.04048246032567" lon="-3.550468185294187">
    <tag k="addr:postcode" v="TA22 9YD"/>
    <tag k="removemelater" v="yes"/>
  </node>
  <node id="-502" lat="51.181346312614174" lon="-3.3306046558087505">
    <tag k="addr:postcode" v="TA23 0AB"/>
    <tag k="removemelater" v="yes"/>
  </node>
  <node id="-503" lat="51.18129639777207" lon="-3.3294586249471516">
    <tag k="addr:postcode" v="TA23 0AQ"/>
    <tag k="removemelater" v="yes"/>
  </node>
  <node id="-504" lat="51.18100748977295" lon="-3.3279766572851366">
    <tag k="addr:postcode" v="TA23 0DF"/>
    <tag k="removemelater" v="yes"/>
  </node>
  <node id="-505" lat="51.18138580159081" lon="-3.3271290843896306">
    <tag k="addr:postcode" v="TA23 0DG"/>
    <tag k="removemelater" v="yes"/>
  </node>
  <node id="-506" lat="51.17825940814002" lon="-3.325279593475172">
    <tag k="addr:postcode" v="TA23 0DS"/>
    <tag k="removemelater" v="yes"/>
  </node>
  <node id="-507" lat="51.180724806437986" lon="-3.329113111479812">
    <tag k="addr:postcode" v="TA23 0ET"/>
    <tag k="removemelater" v="yes"/>
  </node>
  <node id="-508" lat="51.17590734802375" lon="-3.34227890200414">
    <tag k="addr:postcode" v="TA23 0JB"/>
    <tag k="removemelater" v="yes"/>
  </node>
  <node id="-509" lat="51.17478310446119" lon="-3.347768139502051">
    <tag k="addr:postcode" v="TA23 0JD"/>
    <tag k="removemelater" v="yes"/>
  </node>
  <node id="-510" lat="51.10043350402107" lon="-3.396721443026817">
    <tag k="addr:postcode" v="TA23 0LL"/>
    <tag k="removemelater" v="yes"/>
  </node>
  <node id="-511" lat="51.100789850868345" lon="-3.3734800927502246">
    <tag k="addr:postcode" v="TA23 0LN"/>
    <tag k="removemelater" v="yes"/>
  </node>
  <node id="-512" lat="51.16292766611961" lon="-3.3627968998906397">
    <tag k="addr:postcode" v="TA23 0PA"/>
    <tag k="removemelater" v="yes"/>
  </node>
  <node id="-513" lat="51.16250582895615" lon="-3.362727259084553">
    <tag k="addr:postcode" v="TA23 0PB"/>
    <tag k="removemelater" v="yes"/>
  </node>
  <node id="-514" lat="51.16250663858784" lon="-3.36420035216821">
    <tag k="addr:postcode" v="TA23 0PG"/>
    <tag k="removemelater" v="yes"/>
  </node>
  <node id="-515" lat="51.161538601036774" lon="-3.3685480016170875">
    <tag k="addr:postcode" v="TA23 0PP"/>
    <tag k="removemelater" v="yes"/>
  </node>
  <node id="-516" lat="51.16193458300052" lon="-3.3662142814667817">
    <tag k="addr:postcode" v="TA23 0PZ"/>
    <tag k="removemelater" v="yes"/>
  </node>
  <node id="-517" lat="51.18015041738671" lon="-3.3313857186021405">
    <tag k="addr:postcode" v="TA23 0QE"/>
    <tag k="removemelater" v="yes"/>
  </node>
  <node id="-518" lat="51.1275007126345" lon="-3.3785882919338768">
    <tag k="addr:postcode" v="TA23 0RR"/>
    <tag k="removemelater" v="yes"/>
  </node>
  <node id="-519" lat="51.17754447671028" lon="-3.30730476008315">
    <tag k="addr:postcode" v="TA23 0TP"/>
    <tag k="removemelater" v="yes"/>
  </node>
  <node id="-520" lat="51.177571640130324" lon="-3.3080923715544173">
    <tag k="addr:postcode" v="TA23 0TR"/>
    <tag k="removemelater" v="yes"/>
  </node>
  <node id="-521" lat="51.180560873767874" lon="-3.322155104487184">
    <tag k="addr:postcode" v="TA23 0UE"/>
    <tag k="removemelater" v="yes"/>
  </node>
  <node id="-522" lat="51.18194747186084" lon="-3.3307221224313177">
    <tag k="addr:postcode" v="TA23 0WD"/>
    <tag k="removemelater" v="yes"/>
  </node>
  <node id="-523" lat="51.18194747186084" lon="-3.3307221224313177">
    <tag k="addr:postcode" v="TA23 0YF"/>
    <tag k="removemelater" v="yes"/>
  </node>
  <node id="-524" lat="51.205948975966734" lon="-3.46822375735836">
    <tag k="addr:postcode" v="TA24 5AE"/>
    <tag k="removemelater" v="yes"/>
  </node>
  <node id="-525" lat="51.20604964423179" lon="-3.4716626243055693">
    <tag k="addr:postcode" v="TA24 5AF"/>
    <tag k="removemelater" v="yes"/>
  </node>
  <node id="-526" lat="51.20689462144258" lon="-3.4702580104641108">
    <tag k="addr:postcode" v="TA24 5AP"/>
    <tag k="removemelater" v="yes"/>
  </node>
  <node id="-527" lat="51.20517159159659" lon="-3.4671110922759634">
    <tag k="addr:postcode" v="TA24 5AU"/>
    <tag k="removemelater" v="yes"/>
  </node>
  <node id="-528" lat="51.206718786504254" lon="-3.4713690172461087">
    <tag k="addr:postcode" v="TA24 5AW"/>
    <tag k="removemelater" v="yes"/>
  </node>
  <node id="-529" lat="51.20718763952991" lon="-3.4719852187553597">
    <tag k="addr:postcode" v="TA24 5BA"/>
    <tag k="removemelater" v="yes"/>
  </node>
  <node id="-530" lat="51.20646746762908" lon="-3.4699008353989105">
    <tag k="addr:postcode" v="TA24 5BD"/>
    <tag k="removemelater" v="yes"/>
  </node>
  <node id="-531" lat="51.20733956384884" lon="-3.4713458582743932">
    <tag k="addr:postcode" v="TA24 5BE"/>
    <tag k="removemelater" v="yes"/>
  </node>
  <node id="-532" lat="51.20294473349959" lon="-3.4639770629976074">
    <tag k="addr:postcode" v="TA24 5BF"/>
    <tag k="removemelater" v="yes"/>
  </node>
  <node id="-533" lat="51.2069676020735" lon="-3.4680271085266203">
    <tag k="addr:postcode" v="TA24 5BG"/>
    <tag k="removemelater" v="yes"/>
  </node>
  <node id="-534" lat="51.20497835564542" lon="-3.4703258117731237">
    <tag k="addr:postcode" v="TA24 5BH"/>
    <tag k="removemelater" v="yes"/>
  </node>
  <node id="-535" lat="51.20349984683465" lon="-3.4684750972792684">
    <tag k="addr:postcode" v="TA24 5BJ"/>
    <tag k="removemelater" v="yes"/>
  </node>
  <node id="-536" lat="51.20625424748312" lon="-3.4704093977978974">
    <tag k="addr:postcode" v="TA24 5BQ"/>
    <tag k="removemelater" v="yes"/>
  </node>
  <node id="-537" lat="51.202957394815954" lon="-3.4658383241558783">
    <tag k="addr:postcode" v="TA24 5BY"/>
    <tag k="removemelater" v="yes"/>
  </node>
  <node id="-538" lat="51.201797073548356" lon="-3.4651430418830014">
    <tag k="addr:postcode" v="TA24 5BZ"/>
    <tag k="removemelater" v="yes"/>
  </node>
  <node id="-539" lat="51.20387882796181" lon="-3.4698040954149527">
    <tag k="addr:postcode" v="TA24 5DA"/>
    <tag k="removemelater" v="yes"/>
  </node>
  <node id="-540" lat="51.20560469677635" lon="-3.4712905606231166">
    <tag k="addr:postcode" v="TA24 5DT"/>
    <tag k="removemelater" v="yes"/>
  </node>
  <node id="-541" lat="51.20106348368534" lon="-3.469141917329926">
    <tag k="addr:postcode" v="TA24 5JE"/>
    <tag k="removemelater" v="yes"/>
  </node>
  <node id="-542" lat="51.20923239265766" lon="-3.4738542779141413">
    <tag k="addr:postcode" v="TA24 5QB"/>
    <tag k="removemelater" v="yes"/>
  </node>
  <node id="-543" lat="51.20750331687796" lon="-3.472625177560267">
    <tag k="addr:postcode" v="TA24 5QN"/>
    <tag k="removemelater" v="yes"/>
  </node>
  <node id="-544" lat="51.20755331859264" lon="-3.4715101450691965">
    <tag k="addr:postcode" v="TA24 5QP"/>
    <tag k="removemelater" v="yes"/>
  </node>
  <node id="-545" lat="51.208075203918256" lon="-3.472199630242999">
    <tag k="addr:postcode" v="TA24 5QR"/>
    <tag k="removemelater" v="yes"/>
  </node>
  <node id="-546" lat="51.20867708453721" lon="-3.472963264345751">
    <tag k="addr:postcode" v="TA24 5QS"/>
    <tag k="removemelater" v="yes"/>
  </node>
  <node id="-547" lat="51.20827456422839" lon="-3.4727929434666076">
    <tag k="addr:postcode" v="TA24 5QY"/>
    <tag k="removemelater" v="yes"/>
  </node>
  <node id="-548" lat="51.20278136552286" lon="-3.477684942124694">
    <tag k="addr:postcode" v="TA24 5RD"/>
    <tag k="removemelater" v="yes"/>
  </node>
  <node id="-549" lat="51.20972371862048" lon="-3.4741133464287017">
    <tag k="addr:postcode" v="TA24 5UH"/>
    <tag k="removemelater" v="yes"/>
  </node>
  <node id="-550" lat="51.20011110803143" lon="-3.4618976473219534">
    <tag k="addr:postcode" v="TA24 6DF"/>
    <tag k="removemelater" v="yes"/>
  </node>
  <node id="-551" lat="51.20550555029938" lon="-3.464859920848183">
    <tag k="addr:postcode" v="TA24 6GA"/>
    <tag k="removemelater" v="yes"/>
  </node>
  <node id="-552" lat="51.20588490716783" lon="-3.4654445677324666">
    <tag k="addr:postcode" v="TA24 6GB"/>
    <tag k="removemelater" v="yes"/>
  </node>
  <node id="-553" lat="51.20601005900804" lon="-3.4662215645216388">
    <tag k="addr:postcode" v="TA24 6GD"/>
    <tag k="removemelater" v="yes"/>
  </node>
  <node id="-554" lat="51.205651344905895" lon="-3.4647070808595055">
    <tag k="addr:postcode" v="TA24 6GE"/>
    <tag k="removemelater" v="yes"/>
  </node>
  <node id="-555" lat="51.205762940452956" lon="-3.463694244445617">
    <tag k="addr:postcode" v="TA24 6GF"/>
    <tag k="removemelater" v="yes"/>
  </node>
  <node id="-556" lat="51.2060540254133" lon="-3.4641472475093837">
    <tag k="addr:postcode" v="TA24 6GG"/>
    <tag k="removemelater" v="yes"/>
  </node>
  <node id="-557" lat="51.206226997714246" lon="-3.4646967160424347">
    <tag k="addr:postcode" v="TA24 6GH"/>
    <tag k="removemelater" v="yes"/>
  </node>
  <node id="-558" lat="51.20653820723688" lon="-3.4649785838658382">
    <tag k="addr:postcode" v="TA24 6GJ"/>
    <tag k="removemelater" v="yes"/>
  </node>
  <node id="-559" lat="51.20657472744002" lon="-3.4656525679971995">
    <tag k="addr:postcode" v="TA24 6GL"/>
    <tag k="removemelater" v="yes"/>
  </node>
  <node id="-560" lat="51.20488076696886" lon="-3.4637664772553354">
    <tag k="addr:postcode" v="TA24 6GN"/>
    <tag k="removemelater" v="yes"/>
  </node>
  <node id="-561" lat="51.20667362840582" lon="-3.466371481226065">
    <tag k="addr:postcode" v="TA24 6GP"/>
    <tag k="removemelater" v="yes"/>
  </node>
  <node id="-562" lat="51.20649251504034" lon="-3.464318625288634">
    <tag k="addr:postcode" v="TA24 6GQ"/>
    <tag k="removemelater" v="yes"/>
  </node>
  <node id="-563" lat="51.205143989247134" lon="-3.4642901631400336">
    <tag k="addr:postcode" v="TA24 6GR"/>
    <tag k="removemelater" v="yes"/>
  </node>
  <node id="-564" lat="51.20607178838885" lon="-3.4634463627248366">
    <tag k="addr:postcode" v="TA24 6GW"/>
    <tag k="removemelater" v="yes"/>
  </node>
  <node id="-565" lat="51.16236739097266" lon="-3.382945657658561">
    <tag k="addr:postcode" v="TA24 6HF"/>
    <tag k="removemelater" v="yes"/>
  </node>
  <node id="-566" lat="51.162381586872776" lon="-3.3817447455140393">
    <tag k="addr:postcode" v="TA24 6HG"/>
    <tag k="removemelater" v="yes"/>
  </node>
  <node id="-567" lat="51.166308629686846" lon="-3.3773996366721017">
    <tag k="addr:postcode" v="TA24 6HH"/>
    <tag k="removemelater" v="yes"/>
  </node>
  <node id="-568" lat="51.16854030480206" lon="-3.3749773230209534">
    <tag k="addr:postcode" v="TA24 6HJ"/>
    <tag k="removemelater" v="yes"/>
  </node>
  <node id="-569" lat="51.16825019832021" lon="-3.3759413271104464">
    <tag k="addr:postcode" v="TA24 6HL"/>
    <tag k="removemelater" v="yes"/>
  </node>
  <node id="-570" lat="51.16727981918651" lon="-3.3773999690343897">
    <tag k="addr:postcode" v="TA24 6HN"/>
    <tag k="removemelater" v="yes"/>
  </node>
  <node id="-571" lat="51.168974569586716" lon="-3.373988984856769">
    <tag k="addr:postcode" v="TA24 6HP"/>
    <tag k="removemelater" v="yes"/>
  </node>
  <node id="-572" lat="51.15984987481364" lon="-3.379867181839065">
    <tag k="addr:postcode" v="TA24 6HQ"/>
    <tag k="removemelater" v="yes"/>
  </node>
  <node id="-573" lat="51.168803350338145" lon="-3.3747848972172982">
    <tag k="addr:postcode" v="TA24 6HR"/>
    <tag k="removemelater" v="yes"/>
  </node>
  <node id="-574" lat="51.16893851069165" lon="-3.376290800297661">
    <tag k="addr:postcode" v="TA24 6HS"/>
    <tag k="removemelater" v="yes"/>
  </node>
  <node id="-575" lat="51.168334741002155" lon="-3.3817367472985596">
    <tag k="addr:postcode" v="TA24 6HT"/>
    <tag k="removemelater" v="yes"/>
  </node>
  <node id="-576" lat="51.17123979087649" lon="-3.3763593256562636">
    <tag k="addr:postcode" v="TA24 6HU"/>
    <tag k="removemelater" v="yes"/>
  </node>
  <node id="-577" lat="51.167414279314876" lon="-3.3736136337954803">
    <tag k="addr:postcode" v="TA24 6HW"/>
    <tag k="removemelater" v="yes"/>
  </node>
  <node id="-578" lat="51.181040966356115" lon="-3.3908585311225794">
    <tag k="addr:postcode" v="TA24 6JS"/>
    <tag k="removemelater" v="yes"/>
  </node>
  <node id="-579" lat="51.18191997346075" lon="-3.4008431475008765">
    <tag k="addr:postcode" v="TA24 6LD"/>
    <tag k="removemelater" v="yes"/>
  </node>
  <node id="-580" lat="51.16863704637885" lon="-3.3774547159018935">
    <tag k="addr:postcode" v="TA24 6LQ"/>
    <tag k="removemelater" v="yes"/>
  </node>
  <node id="-581" lat="51.19477345595115" lon="-3.439831692205866">
    <tag k="addr:postcode" v="TA24 6PJ"/>
    <tag k="removemelater" v="yes"/>
  </node>
  <node id="-582" lat="51.19124708919142" lon="-3.439936414657863">
    <tag k="addr:postcode" v="TA24 6PL"/>
    <tag k="removemelater" v="yes"/>
  </node>
  <node id="-583" lat="51.181558934800535" lon="-3.4438408955920994">
    <tag k="addr:postcode" v="TA24 6SL"/>
    <tag k="removemelater" v="yes"/>
  </node>
  <node id="-584" lat="51.104940483427015" lon="-3.590805959415639">
    <tag k="addr:postcode" v="TA24 7AB"/>
    <tag k="removemelater" v="yes"/>
  </node>
  <node id="-585" lat="51.09740832106545" lon="-3.468909597282761">
    <tag k="addr:postcode" v="TA24 7DB"/>
    <tag k="removemelater" v="yes"/>
  </node>
  <node id="-586" lat="51.13634875194705" lon="-3.7388275549271506">
    <tag k="addr:postcode" v="TA24 7JT"/>
    <tag k="removemelater" v="yes"/>
  </node>
  <node id="-587" lat="51.12080241235241" lon="-3.7149235336716857">
    <tag k="addr:postcode" v="TA24 7LA"/>
    <tag k="removemelater" v="yes"/>
  </node>
  <node id="-588" lat="51.11821261767379" lon="-3.7840125831683262">
    <tag k="addr:postcode" v="TA24 7LD"/>
    <tag k="removemelater" v="yes"/>
  </node>
  <node id="-589" lat="51.116760327864476" lon="-3.7563948935118376">
    <tag k="addr:postcode" v="TA24 7LF"/>
    <tag k="removemelater" v="yes"/>
  </node>
  <node id="-590" lat="51.15339006623065" lon="-3.724268023431391">
    <tag k="addr:postcode" v="TA24 7LN"/>
    <tag k="removemelater" v="yes"/>
  </node>
  <node id="-591" lat="51.14628821835444" lon="-3.6771087776564886">
    <tag k="addr:postcode" v="TA24 7NL"/>
    <tag k="removemelater" v="yes"/>
  </node>
  <node id="-592" lat="51.13324581333125" lon="-3.64054624250791">
    <tag k="addr:postcode" v="TA24 7PY"/>
    <tag k="removemelater" v="yes"/>
  </node>
  <node id="-593" lat="51.1407694698941" lon="-3.761308936418305">
    <tag k="addr:postcode" v="TA24 7SJ"/>
    <tag k="removemelater" v="yes"/>
  </node>
  <node id="-594" lat="51.14222964631275" lon="-3.7824510755407186">
    <tag k="addr:postcode" v="TA24 7SP"/>
    <tag k="removemelater" v="yes"/>
  </node>
  <node id="-595" lat="51.14914252946848" lon="-3.7926260747196126">
    <tag k="addr:postcode" v="TA24 7ST"/>
    <tag k="removemelater" v="yes"/>
  </node>
  <node id="-596" lat="51.1472082779549" lon="-3.7797262283189945">
    <tag k="addr:postcode" v="TA24 7SW"/>
    <tag k="removemelater" v="yes"/>
  </node>
  <node id="-597" lat="51.219848357149004" lon="-3.578941484591403">
    <tag k="addr:postcode" v="TA24 8HQ"/>
    <tag k="removemelater" v="yes"/>
  </node>
  <node id="-598" lat="51.20867806981159" lon="-3.631472299846981">
    <tag k="addr:postcode" v="TA24 8JJ"/>
    <tag k="removemelater" v="yes"/>
  </node>
  <node id="-599" lat="51.21334630438251" lon="-3.68843609794613">
    <tag k="addr:postcode" v="TA24 8JP"/>
    <tag k="removemelater" v="yes"/>
  </node>
  <node id="-600" lat="51.18254574254009" lon="-3.6106751803476196">
    <tag k="addr:postcode" v="TA24 8JT"/>
    <tag k="removemelater" v="yes"/>
  </node>
  <node id="-601" lat="51.21931668832984" lon="-3.6282256027826953">
    <tag k="addr:postcode" v="TA24 8PD"/>
    <tag k="removemelater" v="yes"/>
  </node>
  <node id="-602" lat="51.2210958080593" lon="-3.6354198397833404">
    <tag k="addr:postcode" v="TA24 8PG"/>
    <tag k="removemelater" v="yes"/>
  </node>
  <node id="-603" lat="51.21023530005203" lon="-3.596823478728132">
    <tag k="addr:postcode" v="TA24 8PX"/>
    <tag k="removemelater" v="yes"/>
  </node>
  <node id="-604" lat="51.20868362725168" lon="-3.597184967033582">
    <tag k="addr:postcode" v="TA24 8PY"/>
    <tag k="removemelater" v="yes"/>
  </node>
  <node id="-605" lat="51.20916821380366" lon="-3.5985761127019193">
    <tag k="addr:postcode" v="TA24 8QD"/>
    <tag k="removemelater" v="yes"/>
  </node>
  <node id="-606" lat="51.19487647375353" lon="-3.52879721907613">
    <tag k="addr:postcode" v="TA24 8SU"/>
    <tag k="removemelater" v="yes"/>
  </node>
  <node id="-607" lat="51.05607793852145" lon="-2.951389867882537">
    <tag k="addr:postcode" v="TA3 5AU"/>
    <tag k="removemelater" v="yes"/>
  </node>
  <node id="-608" lat="51.04273479666477" lon="-2.9901578441495085">
    <tag k="addr:postcode" v="TA3 5AW"/>
    <tag k="removemelater" v="yes"/>
  </node>
  <node id="-609" lat="50.972619054448444" lon="-3.0459931475595203">
    <tag k="addr:postcode" v="TA3 5BA"/>
    <tag k="removemelater" v="yes"/>
  </node>
  <node id="-610" lat="50.958518535623654" lon="-3.052012595373424">
    <tag k="addr:postcode" v="TA3 5BH"/>
    <tag k="removemelater" v="yes"/>
  </node>
  <node id="-611" lat="50.962964993923585" lon="-3.0525544834673215">
    <tag k="addr:postcode" v="TA3 5BL"/>
    <tag k="removemelater" v="yes"/>
  </node>
  <node id="-612" lat="50.98813593513863" lon="-3.04847911554523">
    <tag k="addr:postcode" v="TA3 5BP"/>
    <tag k="removemelater" v="yes"/>
  </node>
  <node id="-613" lat="50.98868949722509" lon="-3.0439038005332484">
    <tag k="addr:postcode" v="TA3 5BS"/>
    <tag k="removemelater" v="yes"/>
  </node>
  <node id="-614" lat="50.985456947494015" lon="-3.0483902523425566">
    <tag k="addr:postcode" v="TA3 5BW"/>
    <tag k="removemelater" v="yes"/>
  </node>
  <node id="-615" lat="50.993941961214595" lon="-3.050832890798159">
    <tag k="addr:postcode" v="TA3 5BX"/>
    <tag k="removemelater" v="yes"/>
  </node>
  <node id="-616" lat="50.99563014748369" lon="-3.050101535281224">
    <tag k="addr:postcode" v="TA3 5BY"/>
    <tag k="removemelater" v="yes"/>
  </node>
  <node id="-617" lat="50.99673888317005" lon="-3.047803775065456">
    <tag k="addr:postcode" v="TA3 5BZ"/>
    <tag k="removemelater" v="yes"/>
  </node>
  <node id="-618" lat="50.996974856215886" lon="-3.04856435905257">
    <tag k="addr:postcode" v="TA3 5DA"/>
    <tag k="removemelater" v="yes"/>
  </node>
  <node id="-619" lat="50.996915794010064" lon="-3.049133040223954">
    <tag k="addr:postcode" v="TA3 5DB"/>
    <tag k="removemelater" v="yes"/>
  </node>
  <node id="-620" lat="51.00083940406089" lon="-3.052812940131901">
    <tag k="addr:postcode" v="TA3 5DD"/>
    <tag k="removemelater" v="yes"/>
  </node>
  <node id="-621" lat="50.99580228490078" lon="-3.0539529163482304">
    <tag k="addr:postcode" v="TA3 5DE"/>
    <tag k="removemelater" v="yes"/>
  </node>
  <node id="-622" lat="50.99746461950755" lon="-3.063025401051046">
    <tag k="addr:postcode" v="TA3 5DF"/>
    <tag k="removemelater" v="yes"/>
  </node>
  <node id="-623" lat="51.00078327236234" lon="-3.0747732579835865">
    <tag k="addr:postcode" v="TA3 5DG"/>
    <tag k="removemelater" v="yes"/>
  </node>
  <node id="-624" lat="51.01357643195165" lon="-3.03834704532666">
    <tag k="addr:postcode" v="TA3 5DJ"/>
    <tag k="removemelater" v="yes"/>
  </node>
  <node id="-625" lat="51.02691271039806" lon="-3.0393152721226375">
    <tag k="addr:postcode" v="TA3 5DP"/>
    <tag k="removemelater" v="yes"/>
  </node>
  <node id="-626" lat="50.98761042082885" lon="-3.068755680694231">
    <tag k="addr:postcode" v="TA3 5DQ"/>
    <tag k="removemelater" v="yes"/>
  </node>
  <node id="-627" lat="50.995692856915596" lon="-3.052126443401253">
    <tag k="addr:postcode" v="TA3 5HA"/>
    <tag k="removemelater" v="yes"/>
  </node>
  <node id="-628" lat="51.01197098934419" lon="-3.045937569020876">
    <tag k="addr:postcode" v="TA3 5HU"/>
    <tag k="removemelater" v="yes"/>
  </node>
  <node id="-629" lat="51.01964912526808" lon="-3.0450981038257936">
    <tag k="addr:postcode" v="TA3 5JD"/>
    <tag k="removemelater" v="yes"/>
  </node>
  <node id="-630" lat="51.00470211221334" lon="-3.0482682707064286">
    <tag k="addr:postcode" v="TA3 5LZ"/>
    <tag k="removemelater" v="yes"/>
  </node>
  <node id="-631" lat="51.00487373635911" lon="-3.035074093250598">
    <tag k="addr:postcode" v="TA3 5ND"/>
    <tag k="removemelater" v="yes"/>
  </node>
  <node id="-632" lat="51.00012332834337" lon="-3.0189784197664262">
    <tag k="addr:postcode" v="TA3 5NN"/>
    <tag k="removemelater" v="yes"/>
  </node>
  <node id="-633" lat="51.009264558531555" lon="-3.0235690264937163">
    <tag k="addr:postcode" v="TA3 5NP"/>
    <tag k="removemelater" v="yes"/>
  </node>
  <node id="-634" lat="51.011758862874686" lon="-3.0252347461266207">
    <tag k="addr:postcode" v="TA3 5NR"/>
    <tag k="removemelater" v="yes"/>
  </node>
  <node id="-635" lat="51.0155931416219" lon="-3.0268874838534736">
    <tag k="addr:postcode" v="TA3 5NT"/>
    <tag k="removemelater" v="yes"/>
  </node>
  <node id="-636" lat="51.018050092552656" lon="-3.027683123552981">
    <tag k="addr:postcode" v="TA3 5NX"/>
    <tag k="removemelater" v="yes"/>
  </node>
  <node id="-637" lat="51.02026187005687" lon="-3.0205462793979447">
    <tag k="addr:postcode" v="TA3 5NY"/>
    <tag k="removemelater" v="yes"/>
  </node>
  <node id="-638" lat="51.021677530351845" lon="-3.017012899616472">
    <tag k="addr:postcode" v="TA3 5NZ"/>
    <tag k="removemelater" v="yes"/>
  </node>
  <node id="-639" lat="51.02059567340166" lon="-3.011115113850379">
    <tag k="addr:postcode" v="TA3 5PA"/>
    <tag k="removemelater" v="yes"/>
  </node>
  <node id="-640" lat="51.01922961247056" lon="-3.0305748922803315">
    <tag k="addr:postcode" v="TA3 5PB"/>
    <tag k="removemelater" v="yes"/>
  </node>
  <node id="-641" lat="51.0229162516045" lon="-3.0437742727565347">
    <tag k="addr:postcode" v="TA3 5PX"/>
    <tag k="removemelater" v="yes"/>
  </node>
  <node id="-642" lat="51.029656374358524" lon="-3.0177579789787945">
    <tag k="addr:postcode" v="TA3 5RA"/>
    <tag k="removemelater" v="yes"/>
  </node>
  <node id="-643" lat="50.992676345758625" lon="-3.01704840483484">
    <tag k="addr:postcode" v="TA3 5RH"/>
    <tag k="removemelater" v="yes"/>
  </node>
  <node id="-644" lat="50.984853698509326" lon="-3.016948640136633">
    <tag k="addr:postcode" v="TA3 5RJ"/>
    <tag k="removemelater" v="yes"/>
  </node>
  <node id="-645" lat="50.98280135935799" lon="-3.0182144159327406">
    <tag k="addr:postcode" v="TA3 5RL"/>
    <tag k="removemelater" v="yes"/>
  </node>
  <node id="-646" lat="50.97663805888719" lon="-3.038007059593568">
    <tag k="addr:postcode" v="TA3 5RR"/>
    <tag k="removemelater" v="yes"/>
  </node>
  <node id="-647" lat="50.97289484290899" lon="-3.037254168720309">
    <tag k="addr:postcode" v="TA3 5RS"/>
    <tag k="removemelater" v="yes"/>
  </node>
  <node id="-648" lat="50.98700867978332" lon="-3.029633062138197">
    <tag k="addr:postcode" v="TA3 5RW"/>
    <tag k="removemelater" v="yes"/>
  </node>
  <node id="-649" lat="50.96062144171108" lon="-3.0501662837861705">
    <tag k="addr:postcode" v="TA3 5SP"/>
    <tag k="removemelater" v="yes"/>
  </node>
  <node id="-650" lat="50.99476680084641" lon="-3.051108019514666">
    <tag k="addr:postcode" v="TA3 5SU"/>
    <tag k="removemelater" v="yes"/>
  </node>
  <node id="-651" lat="50.95952571805824" lon="-3.050013425828557">
    <tag k="addr:postcode" v="TA3 5SW"/>
    <tag k="removemelater" v="yes"/>
  </node>
  <node id="-652" lat="50.95978160026072" lon="-3.0475558559997973">
    <tag k="addr:postcode" v="TA3 5TZ"/>
    <tag k="removemelater" v="yes"/>
  </node>
  <node id="-653" lat="50.985578556212374" lon="-2.990151996706601">
    <tag k="addr:postcode" v="TA3 6AA"/>
    <tag k="removemelater" v="yes"/>
  </node>
  <node id="-654" lat="51.02214835462468" lon="-2.9904747847643063">
    <tag k="addr:postcode" v="TA3 6AX"/>
    <tag k="removemelater" v="yes"/>
  </node>
  <node id="-655" lat="51.02314973189202" lon="-2.9953867305498227">
    <tag k="addr:postcode" v="TA3 6AY"/>
    <tag k="removemelater" v="yes"/>
  </node>
  <node id="-656" lat="51.02465580653025" lon="-3.00119379965054">
    <tag k="addr:postcode" v="TA3 6AZ"/>
    <tag k="removemelater" v="yes"/>
  </node>
  <node id="-657" lat="51.02544960784468" lon="-2.9998562977600702">
    <tag k="addr:postcode" v="TA3 6BA"/>
    <tag k="removemelater" v="yes"/>
  </node>
  <node id="-658" lat="51.02386703584803" lon="-2.9977404963783463">
    <tag k="addr:postcode" v="TA3 6BB"/>
    <tag k="removemelater" v="yes"/>
  </node>
  <node id="-659" lat="51.02421805788516" lon="-2.994539839821274">
    <tag k="addr:postcode" v="TA3 6BD"/>
    <tag k="removemelater" v="yes"/>
  </node>
  <node id="-660" lat="51.026700623028205" lon="-2.9965750385871828">
    <tag k="addr:postcode" v="TA3 6BE"/>
    <tag k="removemelater" v="yes"/>
  </node>
  <node id="-661" lat="51.026592475006844" lon="-2.9934356577592767">
    <tag k="addr:postcode" v="TA3 6BG"/>
    <tag k="removemelater" v="yes"/>
  </node>
  <node id="-662" lat="51.02374933954594" lon="-2.988313104445355">
    <tag k="addr:postcode" v="TA3 6BH"/>
    <tag k="removemelater" v="yes"/>
  </node>
  <node id="-663" lat="51.019841734785516" lon="-2.986761497492272">
    <tag k="addr:postcode" v="TA3 6BJ"/>
    <tag k="removemelater" v="yes"/>
  </node>
  <node id="-664" lat="51.01402418056097" lon="-2.98881908182101">
    <tag k="addr:postcode" v="TA3 6BL"/>
    <tag k="removemelater" v="yes"/>
  </node>
  <node id="-665" lat="51.024747478630744" lon="-2.991499788698114">
    <tag k="addr:postcode" v="TA3 6BQ"/>
    <tag k="removemelater" v="yes"/>
  </node>
  <node id="-666" lat="50.99733949527191" lon="-2.993480446716256">
    <tag k="addr:postcode" v="TA3 6DB"/>
    <tag k="removemelater" v="yes"/>
  </node>
  <node id="-667" lat="50.99724689523591" lon="-2.992737449504635">
    <tag k="addr:postcode" v="TA3 6DD"/>
    <tag k="removemelater" v="yes"/>
  </node>
  <node id="-668" lat="50.99767710918169" lon="-2.9876022028296965">
    <tag k="addr:postcode" v="TA3 6DF"/>
    <tag k="removemelater" v="yes"/>
  </node>
  <node id="-669" lat="50.99837281804838" lon="-2.986149153578811">
    <tag k="addr:postcode" v="TA3 6DG"/>
    <tag k="removemelater" v="yes"/>
  </node>
  <node id="-670" lat="51.041678419680885" lon="-2.92824395970066">
    <tag k="addr:postcode" v="TA3 6ED"/>
    <tag k="removemelater" v="yes"/>
  </node>
  <node id="-671" lat="51.038970953361215" lon="-2.9328538784930953">
    <tag k="addr:postcode" v="TA3 6EG"/>
    <tag k="removemelater" v="yes"/>
  </node>
  <node id="-672" lat="51.04055780009941" lon="-2.931202651038739">
    <tag k="addr:postcode" v="TA3 6EH"/>
    <tag k="removemelater" v="yes"/>
  </node>
  <node id="-673" lat="51.0398732194603" lon="-2.930219012787221">
    <tag k="addr:postcode" v="TA3 6EJ"/>
    <tag k="removemelater" v="yes"/>
  </node>
  <node id="-674" lat="51.03685685295411" lon="-2.923911638029026">
    <tag k="addr:postcode" v="TA3 6EL"/>
    <tag k="removemelater" v="yes"/>
  </node>
  <node id="-675" lat="51.03962901480991" lon="-2.923595944624706">
    <tag k="addr:postcode" v="TA3 6EN"/>
    <tag k="removemelater" v="yes"/>
  </node>
  <node id="-676" lat="51.04694487159163" lon="-2.91725065187886">
    <tag k="addr:postcode" v="TA3 6EP"/>
    <tag k="removemelater" v="yes"/>
  </node>
  <node id="-677" lat="51.04096114130962" lon="-2.9336213089369636">
    <tag k="addr:postcode" v="TA3 6EQ"/>
    <tag k="removemelater" v="yes"/>
  </node>
  <node id="-678" lat="51.046748462545764" lon="-2.9216405428480985">
    <tag k="addr:postcode" v="TA3 6ER"/>
    <tag k="removemelater" v="yes"/>
  </node>
  <node id="-679" lat="51.046921190833125" lon="-2.922542701282115">
    <tag k="addr:postcode" v="TA3 6ES"/>
    <tag k="removemelater" v="yes"/>
  </node>
  <node id="-680" lat="51.04897646609088" lon="-2.91619229766609">
    <tag k="addr:postcode" v="TA3 6ET"/>
    <tag k="removemelater" v="yes"/>
  </node>
  <node id="-681" lat="51.04317251934443" lon="-2.925806087357991">
    <tag k="addr:postcode" v="TA3 6EU"/>
    <tag k="removemelater" v="yes"/>
  </node>
  <node id="-682" lat="51.043021123489794" lon="-2.9222084523610947">
    <tag k="addr:postcode" v="TA3 6EW"/>
    <tag k="removemelater" v="yes"/>
  </node>
  <node id="-683" lat="51.04126071371435" lon="-2.927622265762882">
    <tag k="addr:postcode" v="TA3 6EX"/>
    <tag k="removemelater" v="yes"/>
  </node>
  <node id="-684" lat="51.039506068670676" lon="-2.934533431518215">
    <tag k="addr:postcode" v="TA3 6EZ"/>
    <tag k="removemelater" v="yes"/>
  </node>
  <node id="-685" lat="51.023150959572455" lon="-2.9684956017310915">
    <tag k="addr:postcode" v="TA3 6FA"/>
    <tag k="removemelater" v="yes"/>
  </node>
  <node id="-686" lat="51.041143926576794" lon="-2.9321272869054322">
    <tag k="addr:postcode" v="TA3 6HA"/>
    <tag k="removemelater" v="yes"/>
  </node>
  <node id="-687" lat="51.03310570551613" lon="-2.9465410362364883">
    <tag k="addr:postcode" v="TA3 6HU"/>
    <tag k="removemelater" v="yes"/>
  </node>
  <node id="-688" lat="51.040161996878034" lon="-2.942434338805327">
    <tag k="addr:postcode" v="TA3 6HZ"/>
    <tag k="removemelater" v="yes"/>
  </node>
  <node id="-689" lat="51.04357773261781" lon="-2.9414908850644284">
    <tag k="addr:postcode" v="TA3 6JA"/>
    <tag k="removemelater" v="yes"/>
  </node>
  <node id="-690" lat="51.0468932092861" lon="-2.9418291647158408">
    <tag k="addr:postcode" v="TA3 6JB"/>
    <tag k="removemelater" v="yes"/>
  </node>
  <node id="-691" lat="51.0464332911408" lon="-2.941991019615626">
    <tag k="addr:postcode" v="TA3 6JD"/>
    <tag k="removemelater" v="yes"/>
  </node>
  <node id="-692" lat="51.04882442272581" lon="-2.942096603078457">
    <tag k="addr:postcode" v="TA3 6JE"/>
    <tag k="removemelater" v="yes"/>
  </node>
  <node id="-693" lat="51.05184401305523" lon="-2.938976329546404">
    <tag k="addr:postcode" v="TA3 6JF"/>
    <tag k="removemelater" v="yes"/>
  </node>
  <node id="-694" lat="51.04282843146109" lon="-2.937381836491285">
    <tag k="addr:postcode" v="TA3 6JG"/>
    <tag k="removemelater" v="yes"/>
  </node>
  <node id="-695" lat="51.0441573680406" lon="-2.9342561651507175">
    <tag k="addr:postcode" v="TA3 6JQ"/>
    <tag k="removemelater" v="yes"/>
  </node>
  <node id="-696" lat="51.024422989604304" lon="-2.973412843598449">
    <tag k="addr:postcode" v="TA3 6JX"/>
    <tag k="removemelater" v="yes"/>
  </node>
  <node id="-697" lat="51.025428544565926" lon="-2.9736050184909373">
    <tag k="addr:postcode" v="TA3 6JZ"/>
    <tag k="removemelater" v="yes"/>
  </node>
  <node id="-698" lat="51.02415023463774" lon="-2.971610545957761">
    <tag k="addr:postcode" v="TA3 6LG"/>
    <tag k="removemelater" v="yes"/>
  </node>
  <node id="-699" lat="51.024506905940264" lon="-2.9719744720864574">
    <tag k="addr:postcode" v="TA3 6LH"/>
    <tag k="removemelater" v="yes"/>
  </node>
  <node id="-700" lat="51.01629065254841" lon="-2.983449945051043">
    <tag k="addr:postcode" v="TA3 6NB"/>
    <tag k="removemelater" v="yes"/>
  </node>
  <node id="-701" lat="51.01540256138995" lon="-2.9853271918208235">
    <tag k="addr:postcode" v="TA3 6ND"/>
    <tag k="removemelater" v="yes"/>
  </node>
  <node id="-702" lat="51.02167595671074" lon="-2.9717726775546507">
    <tag k="addr:postcode" v="TA3 6NG"/>
    <tag k="removemelater" v="yes"/>
  </node>
  <node id="-703" lat="51.00545416251378" lon="-2.9045165295897037">
    <tag k="addr:postcode" v="TA3 6PY"/>
    <tag k="removemelater" v="yes"/>
  </node>
  <node id="-704" lat="50.98280389884091" lon="-2.9100736865234196">
    <tag k="addr:postcode" v="TA3 6RZ"/>
    <tag k="removemelater" v="yes"/>
  </node>
  <node id="-705" lat="50.9799586297459" lon="-2.993280297196773">
    <tag k="addr:postcode" v="TA3 6SE"/>
    <tag k="removemelater" v="yes"/>
  </node>
  <node id="-706" lat="50.975368065380245" lon="-2.998010936009029">
    <tag k="addr:postcode" v="TA3 6TH"/>
    <tag k="removemelater" v="yes"/>
  </node>
  <node id="-707" lat="50.97754554956417" lon="-2.9989122883132198">
    <tag k="addr:postcode" v="TA3 6TT"/>
    <tag k="removemelater" v="yes"/>
  </node>
  <node id="-708" lat="50.97212334314796" lon="-3.0932394468554736">
    <tag k="addr:postcode" v="TA3 7AH"/>
    <tag k="removemelater" v="yes"/>
  </node>
  <node id="-709" lat="50.97010348911414" lon="-3.0947871349067433">
    <tag k="addr:postcode" v="TA3 7AJ"/>
    <tag k="removemelater" v="yes"/>
  </node>
  <node id="-710" lat="50.97118908657494" lon="-3.095054787274517">
    <tag k="addr:postcode" v="TA3 7AL"/>
    <tag k="removemelater" v="yes"/>
  </node>
  <node id="-711" lat="50.97130062217787" lon="-3.0956271117833274">
    <tag k="addr:postcode" v="TA3 7AN"/>
    <tag k="removemelater" v="yes"/>
  </node>
  <node id="-712" lat="50.97276592394516" lon="-3.100461481310169">
    <tag k="addr:postcode" v="TA3 7AQ"/>
    <tag k="removemelater" v="yes"/>
  </node>
  <node id="-713" lat="50.96868087289754" lon="-3.0959357442537048">
    <tag k="addr:postcode" v="TA3 7AW"/>
    <tag k="removemelater" v="yes"/>
  </node>
  <node id="-714" lat="50.977101023258086" lon="-3.0908066350134833">
    <tag k="addr:postcode" v="TA3 7BB"/>
    <tag k="removemelater" v="yes"/>
  </node>
  <node id="-715" lat="50.98910289529104" lon="-3.0775951988654775">
    <tag k="addr:postcode" v="TA3 7BQ"/>
    <tag k="removemelater" v="yes"/>
  </node>
  <node id="-716" lat="50.99018742923599" lon="-3.094419058067194">
    <tag k="addr:postcode" v="TA3 7BS"/>
    <tag k="removemelater" v="yes"/>
  </node>
  <node id="-717" lat="50.96821398606967" lon="-3.094899360416618">
    <tag k="addr:postcode" v="TA3 7BU"/>
    <tag k="removemelater" v="yes"/>
  </node>
  <node id="-718" lat="50.93819491462891" lon="-3.1084121792107147">
    <tag k="addr:postcode" v="TA3 7EA"/>
    <tag k="removemelater" v="yes"/>
  </node>
  <node id="-719" lat="50.99250752471465" lon="-3.1219030169195685">
    <tag k="addr:postcode" v="TA3 7EX"/>
    <tag k="removemelater" v="yes"/>
  </node>
  <node id="-720" lat="50.98539010416404" lon="-3.1251506395076305">
    <tag k="addr:postcode" v="TA3 7HP"/>
    <tag k="removemelater" v="yes"/>
  </node>
  <node id="-721" lat="50.98764460780211" lon="-3.121686015803939">
    <tag k="addr:postcode" v="TA3 7HT"/>
    <tag k="removemelater" v="yes"/>
  </node>
  <node id="-722" lat="50.971453899500325" lon="-3.096542243645067">
    <tag k="addr:postcode" v="TA3 7LS"/>
    <tag k="removemelater" v="yes"/>
  </node>
  <node id="-723" lat="50.98891261576415" lon="-3.1365629469386054">
    <tag k="addr:postcode" v="TA3 7NU"/>
    <tag k="removemelater" v="yes"/>
  </node>
  <node id="-724" lat="50.97892660359337" lon="-3.158042539388243">
    <tag k="addr:postcode" v="TA3 7NY"/>
    <tag k="removemelater" v="yes"/>
  </node>
  <node id="-725" lat="50.96628120703607" lon="-3.123236221073218">
    <tag k="addr:postcode" v="TA3 7RY"/>
    <tag k="removemelater" v="yes"/>
  </node>
  <node id="-726" lat="50.96779924552632" lon="-3.1196697506498468">
    <tag k="addr:postcode" v="TA3 7SB"/>
    <tag k="removemelater" v="yes"/>
  </node>
  <node id="-727" lat="51.02344217446776" lon="-3.109645997835382">
    <tag k="addr:postcode" v="TA3 7WB"/>
    <tag k="removemelater" v="yes"/>
  </node>
  <node id="-728" lat="51.03388210004473" lon="-3.1705078106811313">
    <tag k="addr:postcode" v="TA4 1AA"/>
    <tag k="removemelater" v="yes"/>
  </node>
  <node id="-729" lat="51.01392060268793" lon="-3.1810246843181376">
    <tag k="addr:postcode" v="TA4 1AN"/>
    <tag k="removemelater" v="yes"/>
  </node>
  <node id="-730" lat="51.02165571888863" lon="-3.199414533762276">
    <tag k="addr:postcode" v="TA4 1AS"/>
    <tag k="removemelater" v="yes"/>
  </node>
  <node id="-731" lat="51.01901936556042" lon="-3.210025173173049">
    <tag k="addr:postcode" v="TA4 1BA"/>
    <tag k="removemelater" v="yes"/>
  </node>
  <node id="-732" lat="51.02344217446776" lon="-3.109645997835382">
    <tag k="addr:postcode" v="TA4 1BP"/>
    <tag k="removemelater" v="yes"/>
  </node>
  <node id="-733" lat="51.03792430811615" lon="-3.1834464110322673">
    <tag k="addr:postcode" v="TA4 1BU"/>
    <tag k="removemelater" v="yes"/>
  </node>
  <node id="-734" lat="51.038078519873935" lon="-3.1859749062001197">
    <tag k="addr:postcode" v="TA4 1DA"/>
    <tag k="removemelater" v="yes"/>
  </node>
  <node id="-735" lat="51.006569828346805" lon="-3.1462022099761557">
    <tag k="addr:postcode" v="TA4 1EH"/>
    <tag k="removemelater" v="yes"/>
  </node>
  <node id="-736" lat="51.00526422904149" lon="-3.1518569616230123">
    <tag k="addr:postcode" v="TA4 1EJ"/>
    <tag k="removemelater" v="yes"/>
  </node>
  <node id="-737" lat="50.99341834712537" lon="-3.1746903102649804">
    <tag k="addr:postcode" v="TA4 1ES"/>
    <tag k="removemelater" v="yes"/>
  </node>
  <node id="-738" lat="50.99109105683095" lon="-3.184306384629416">
    <tag k="addr:postcode" v="TA4 1EU"/>
    <tag k="removemelater" v="yes"/>
  </node>
  <node id="-739" lat="50.99961033228419" lon="-3.1786517989151477">
    <tag k="addr:postcode" v="TA4 1HG"/>
    <tag k="removemelater" v="yes"/>
  </node>
  <node id="-740" lat="51.001940701115664" lon="-3.189171828549924">
    <tag k="addr:postcode" v="TA4 1HL"/>
    <tag k="removemelater" v="yes"/>
  </node>
  <node id="-741" lat="51.02389231853259" lon="-3.2494207380249045">
    <tag k="addr:postcode" v="TA4 1HU"/>
    <tag k="removemelater" v="yes"/>
  </node>
  <node id="-742" lat="51.022879790307826" lon="-3.2591320623729905">
    <tag k="addr:postcode" v="TA4 1JP"/>
    <tag k="removemelater" v="yes"/>
  </node>
  <node id="-743" lat="51.02455380876282" lon="-3.2539871477614604">
    <tag k="addr:postcode" v="TA4 1JU"/>
    <tag k="removemelater" v="yes"/>
  </node>
  <node id="-744" lat="51.024034596554" lon="-3.2554417963320303">
    <tag k="addr:postcode" v="TA4 1JW"/>
    <tag k="removemelater" v="yes"/>
  </node>
  <node id="-745" lat="51.02457765846056" lon="-3.2517633855891406">
    <tag k="addr:postcode" v="TA4 1JX"/>
    <tag k="removemelater" v="yes"/>
  </node>
  <node id="-746" lat="51.025231828612235" lon="-3.250298051983637">
    <tag k="addr:postcode" v="TA4 1LA"/>
    <tag k="removemelater" v="yes"/>
  </node>
  <node id="-747" lat="51.02467733124132" lon="-3.250853492273105">
    <tag k="addr:postcode" v="TA4 1LB"/>
    <tag k="removemelater" v="yes"/>
  </node>
  <node id="-748" lat="51.02656846295339" lon="-3.2489223199341577">
    <tag k="addr:postcode" v="TA4 1LD"/>
    <tag k="removemelater" v="yes"/>
  </node>
  <node id="-749" lat="51.02558305920533" lon="-3.2494091667342646">
    <tag k="addr:postcode" v="TA4 1LE"/>
    <tag k="removemelater" v="yes"/>
  </node>
  <node id="-750" lat="51.02576651894032" lon="-3.2490718752765844">
    <tag k="addr:postcode" v="TA4 1LF"/>
    <tag k="removemelater" v="yes"/>
  </node>
  <node id="-751" lat="51.02611541501802" lon="-3.2517620375746867">
    <tag k="addr:postcode" v="TA4 1LG"/>
    <tag k="removemelater" v="yes"/>
  </node>
  <node id="-752" lat="51.02672878640651" lon="-3.2541028901139546">
    <tag k="addr:postcode" v="TA4 1LH"/>
    <tag k="removemelater" v="yes"/>
  </node>
  <node id="-753" lat="51.025855945018385" lon="-3.2549919317534157">
    <tag k="addr:postcode" v="TA4 1LJ"/>
    <tag k="removemelater" v="yes"/>
  </node>
  <node id="-754" lat="51.02611093617326" lon="-3.2563677301574088">
    <tag k="addr:postcode" v="TA4 1LL"/>
    <tag k="removemelater" v="yes"/>
  </node>
  <node id="-755" lat="51.02655101750858" lon="-3.2580907854718615">
    <tag k="addr:postcode" v="TA4 1LN"/>
    <tag k="removemelater" v="yes"/>
  </node>
  <node id="-756" lat="51.02657330714759" lon="-3.259360496209921">
    <tag k="addr:postcode" v="TA4 1LP"/>
    <tag k="removemelater" v="yes"/>
  </node>
  <node id="-757" lat="51.027100625487414" lon="-3.2529721444590316">
    <tag k="addr:postcode" v="TA4 1LQ"/>
    <tag k="removemelater" v="yes"/>
  </node>
  <node id="-758" lat="51.02629251920108" lon="-3.257042838963011">
    <tag k="addr:postcode" v="TA4 1LW"/>
    <tag k="removemelater" v="yes"/>
  </node>
  <node id="-759" lat="51.02445522432984" lon="-3.253955969144139">
    <tag k="addr:postcode" v="TA4 1PA"/>
    <tag k="removemelater" v="yes"/>
  </node>
  <node id="-760" lat="51.024152091776116" lon="-3.2511958242560834">
    <tag k="addr:postcode" v="TA4 1PF"/>
    <tag k="removemelater" v="yes"/>
  </node>
  <node id="-761" lat="51.0289944655293" lon="-3.2389767686178996">
    <tag k="addr:postcode" v="TA4 1PH"/>
    <tag k="removemelater" v="yes"/>
  </node>
  <node id="-762" lat="51.029550801791906" lon="-3.232289162430259">
    <tag k="addr:postcode" v="TA4 1PJ"/>
    <tag k="removemelater" v="yes"/>
  </node>
  <node id="-763" lat="51.023960416263634" lon="-3.2506203099786823">
    <tag k="addr:postcode" v="TA4 1PL"/>
    <tag k="removemelater" v="yes"/>
  </node>
  <node id="-764" lat="51.02431742384684" lon="-3.250872321003278">
    <tag k="addr:postcode" v="TA4 1PN"/>
    <tag k="removemelater" v="yes"/>
  </node>
  <node id="-765" lat="51.02514056767425" lon="-3.248741345448377">
    <tag k="addr:postcode" v="TA4 1PP"/>
    <tag k="removemelater" v="yes"/>
  </node>
  <node id="-766" lat="51.029825844526044" lon="-3.236046996645684">
    <tag k="addr:postcode" v="TA4 1PQ"/>
    <tag k="removemelater" v="yes"/>
  </node>
  <node id="-767" lat="51.02392416530847" lon="-3.2481240429750238">
    <tag k="addr:postcode" v="TA4 1PR"/>
    <tag k="removemelater" v="yes"/>
  </node>
  <node id="-768" lat="51.02432749331634" lon="-3.24740767189296">
    <tag k="addr:postcode" v="TA4 1PS"/>
    <tag k="removemelater" v="yes"/>
  </node>
  <node id="-769" lat="51.02275362928671" lon="-3.248263702481478">
    <tag k="addr:postcode" v="TA4 1PT"/>
    <tag k="removemelater" v="yes"/>
  </node>
  <node id="-770" lat="51.02162178744844" lon="-3.2473065213956707">
    <tag k="addr:postcode" v="TA4 1PU"/>
    <tag k="removemelater" v="yes"/>
  </node>
  <node id="-771" lat="51.02680184214318" lon="-3.255673428781169">
    <tag k="addr:postcode" v="TA4 1QU"/>
    <tag k="removemelater" v="yes"/>
  </node>
  <node id="-772" lat="51.027274824486916" lon="-3.2576825905230837">
    <tag k="addr:postcode" v="TA4 1QX"/>
    <tag k="removemelater" v="yes"/>
  </node>
  <node id="-773" lat="51.027545685705434" lon="-3.258417179415514">
    <tag k="addr:postcode" v="TA4 1QY"/>
    <tag k="removemelater" v="yes"/>
  </node>
  <node id="-774" lat="51.028056427600674" lon="-3.2585878750494848">
    <tag k="addr:postcode" v="TA4 1QZ"/>
    <tag k="removemelater" v="yes"/>
  </node>
  <node id="-775" lat="51.03048786024107" lon="-3.261605742767596">
    <tag k="addr:postcode" v="TA4 1RB"/>
    <tag k="removemelater" v="yes"/>
  </node>
  <node id="-776" lat="51.04941606664982" lon="-3.361073975540219">
    <tag k="addr:postcode" v="TA4 2EZ"/>
    <tag k="removemelater" v="yes"/>
  </node>
  <node id="-777" lat="51.049859123546305" lon="-3.3693332398691136">
    <tag k="addr:postcode" v="TA4 2HA"/>
    <tag k="removemelater" v="yes"/>
  </node>
  <node id="-778" lat="51.05177334552764" lon="-3.3663649991979816">
    <tag k="addr:postcode" v="TA4 2HH"/>
    <tag k="removemelater" v="yes"/>
  </node>
  <node id="-779" lat="51.066456461442364" lon="-3.283249320671463">
    <tag k="addr:postcode" v="TA4 2RR"/>
    <tag k="removemelater" v="yes"/>
  </node>
  <node id="-780" lat="51.073634361384585" lon="-3.2961233313988947">
    <tag k="addr:postcode" v="TA4 2RT"/>
    <tag k="removemelater" v="yes"/>
  </node>
  <node id="-781" lat="51.08808422774463" lon="-3.305123011092617">
    <tag k="addr:postcode" v="TA4 2SD"/>
    <tag k="removemelater" v="yes"/>
  </node>
  <node id="-782" lat="51.07931369848852" lon="-3.329302236945159">
    <tag k="addr:postcode" v="TA4 2SG"/>
    <tag k="removemelater" v="yes"/>
  </node>
  <node id="-783" lat="51.07466346058191" lon="-3.338061963896024">
    <tag k="addr:postcode" v="TA4 2SN"/>
    <tag k="removemelater" v="yes"/>
  </node>
  <node id="-784" lat="51.062051400938216" lon="-3.1887566372470766">
    <tag k="addr:postcode" v="TA4 3AL"/>
    <tag k="removemelater" v="yes"/>
  </node>
  <node id="-785" lat="51.05434168003378" lon="-3.1943520073927334">
    <tag k="addr:postcode" v="TA4 3BX"/>
    <tag k="removemelater" v="yes"/>
  </node>
  <node id="-786" lat="51.06090399454358" lon="-3.187514284177726">
    <tag k="addr:postcode" v="TA4 3DJ"/>
    <tag k="removemelater" v="yes"/>
  </node>
  <node id="-787" lat="51.09125636793658" lon="-3.159490114575216">
    <tag k="addr:postcode" v="TA4 3DU"/>
    <tag k="removemelater" v="yes"/>
  </node>
  <node id="-788" lat="51.08725513060363" lon="-3.1774376668373265">
    <tag k="addr:postcode" v="TA4 3EB"/>
    <tag k="removemelater" v="yes"/>
  </node>
  <node id="-789" lat="51.113058099703146" lon="-3.2088087599141475">
    <tag k="addr:postcode" v="TA4 3HE"/>
    <tag k="removemelater" v="yes"/>
  </node>
  <node id="-790" lat="51.0680170775434" lon="-3.220679651656387">
    <tag k="addr:postcode" v="TA4 3JQ"/>
    <tag k="removemelater" v="yes"/>
  </node>
  <node id="-791" lat="51.057666066653475" lon="-3.1884588045671163">
    <tag k="addr:postcode" v="TA4 3LJ"/>
    <tag k="removemelater" v="yes"/>
  </node>
  <node id="-792" lat="51.05272923643172" lon="-3.2146846558732127">
    <tag k="addr:postcode" v="TA4 3LZ"/>
    <tag k="removemelater" v="yes"/>
  </node>
  <node id="-793" lat="51.08414960149335" lon="-3.251300842547324">
    <tag k="addr:postcode" v="TA4 3SP"/>
    <tag k="removemelater" v="yes"/>
  </node>
  <node id="-794" lat="51.0861162761275" lon="-3.2303796628480193">
    <tag k="addr:postcode" v="TA4 3SQ"/>
    <tag k="removemelater" v="yes"/>
  </node>
  <node id="-795" lat="51.12631215444129" lon="-3.271617754843262">
    <tag k="addr:postcode" v="TA4 3TR"/>
    <tag k="removemelater" v="yes"/>
  </node>
  <node id="-796" lat="51.02344217446776" lon="-3.109645997835382">
    <tag k="addr:postcode" v="TA4 3WR"/>
    <tag k="removemelater" v="yes"/>
  </node>
  <node id="-797" lat="51.02344217446776" lon="-3.109645997835382">
    <tag k="addr:postcode" v="TA4 3WY"/>
    <tag k="removemelater" v="yes"/>
  </node>
  <node id="-798" lat="51.02344217446776" lon="-3.109645997835382">
    <tag k="addr:postcode" v="TA4 3ZE"/>
    <tag k="removemelater" v="yes"/>
  </node>
  <node id="-799" lat="51.16600962314885" lon="-3.310296751317194">
    <tag k="addr:postcode" v="TA4 4AT"/>
    <tag k="removemelater" v="yes"/>
  </node>
  <node id="-800" lat="51.11711757093461" lon="-3.2435903776047383">
    <tag k="addr:postcode" v="TA4 4BN"/>
    <tag k="removemelater" v="yes"/>
  </node>
  <node id="-801" lat="51.10239963049545" lon="-3.2331401270375264">
    <tag k="addr:postcode" v="TA4 4BU"/>
    <tag k="removemelater" v="yes"/>
  </node>
  <node id="-802" lat="51.108477319435295" lon="-3.2400586198994974">
    <tag k="addr:postcode" v="TA4 4BW"/>
    <tag k="removemelater" v="yes"/>
  </node>
  <node id="-803" lat="51.10288383243961" lon="-3.2341242629741456">
    <tag k="addr:postcode" v="TA4 4BX"/>
    <tag k="removemelater" v="yes"/>
  </node>
  <node id="-804" lat="51.158955938357664" lon="-3.273173082916741">
    <tag k="addr:postcode" v="TA4 4EB"/>
    <tag k="removemelater" v="yes"/>
  </node>
  <node id="-805" lat="51.1325470471923" lon="-3.349167655008346">
    <tag k="addr:postcode" v="TA4 4HS"/>
    <tag k="removemelater" v="yes"/>
  </node>
  <node id="-806" lat="51.1436625575072" lon="-3.3452030383222935">
    <tag k="addr:postcode" v="TA4 4HW"/>
    <tag k="removemelater" v="yes"/>
  </node>
  <node id="-807" lat="51.15298308225533" lon="-3.288122270578337">
    <tag k="addr:postcode" v="TA4 4LP"/>
    <tag k="removemelater" v="yes"/>
  </node>
  <node id="-808" lat="51.147689098442335" lon="-3.2895189208766986">
    <tag k="addr:postcode" v="TA4 4LR"/>
    <tag k="removemelater" v="yes"/>
  </node>
  <node id="-809" lat="51.102029331173775" lon="-3.234144351584823">
    <tag k="addr:postcode" v="TA4 4PA"/>
    <tag k="removemelater" v="yes"/>
  </node>
  <node id="-810" lat="51.165888765611804" lon="-3.311451838276043">
    <tag k="addr:postcode" v="TA4 4RF"/>
    <tag k="removemelater" v="yes"/>
  </node>
  <node id="-811" lat="51.1659275487758" lon="-3.308792648376471">
    <tag k="addr:postcode" v="TA4 4RJ"/>
    <tag k="removemelater" v="yes"/>
  </node>
  <node id="-812" lat="51.16537810639677" lon="-3.310479086357924">
    <tag k="addr:postcode" v="TA4 4RL"/>
    <tag k="removemelater" v="yes"/>
  </node>
  <node id="-813" lat="51.165131042557995" lon="-3.310057313500742">
    <tag k="addr:postcode" v="TA4 4RQ"/>
    <tag k="removemelater" v="yes"/>
  </node>
  <node id="-814" lat="51.165613468297146" lon="-3.31274555960068">
    <tag k="addr:postcode" v="TA4 4TA"/>
    <tag k="removemelater" v="yes"/>
  </node>
  <node id="-815" lat="51.166109823000525" lon="-3.3133889732336708">
    <tag k="addr:postcode" v="TA4 4TB"/>
    <tag k="removemelater" v="yes"/>
  </node>
  <node id="-816" lat="51.02344217446776" lon="-3.109645997835382">
    <tag k="addr:postcode" v="TA4 4WF"/>
    <tag k="removemelater" v="yes"/>
  </node>
  <node id="-817" lat="51.02344217446776" lon="-3.109645997835382">
    <tag k="addr:postcode" v="TA4 4WZ"/>
    <tag k="removemelater" v="yes"/>
  </node>
  <node id="-818" lat="51.02344217446776" lon="-3.109645997835382">
    <tag k="addr:postcode" v="TA4 4YL"/>
    <tag k="removemelater" v="yes"/>
  </node>
  <node id="-819" lat="51.02344217446776" lon="-3.109645997835382">
    <tag k="addr:postcode" v="TA4 4YN"/>
    <tag k="removemelater" v="yes"/>
  </node>
  <node id="-820" lat="51.02344217446776" lon="-3.109645997835382">
    <tag k="addr:postcode" v="TA4 4YU"/>
    <tag k="removemelater" v="yes"/>
  </node>
  <node id="-821" lat="51.02344217446776" lon="-3.109645997835382">
    <tag k="addr:postcode" v="TA4 4ZN"/>
    <tag k="removemelater" v="yes"/>
  </node>
  <node id="-822" lat="51.11523767099092" lon="-3.1265450339382626">
    <tag k="addr:postcode" v="TA5 1BH"/>
    <tag k="removemelater" v="yes"/>
  </node>
  <node id="-823" lat="51.14026261491525" lon="-3.1651776029126117">
    <tag k="addr:postcode" v="TA5 1HA"/>
    <tag k="removemelater" v="yes"/>
  </node>
  <node id="-824" lat="51.123957395022444" lon="-3.1508492412878106">
    <tag k="addr:postcode" v="TA5 1HH"/>
    <tag k="removemelater" v="yes"/>
  </node>
  <node id="-825" lat="51.150620521181345" lon="-3.155344309702199">
    <tag k="addr:postcode" v="TA5 1LJ"/>
    <tag k="removemelater" v="yes"/>
  </node>
  <node id="-826" lat="51.152983056308976" lon="-3.1583202106597534">
    <tag k="addr:postcode" v="TA5 1NH"/>
    <tag k="removemelater" v="yes"/>
  </node>
  <node id="-827" lat="51.196026109545265" lon="-3.1375884038499104">
    <tag k="addr:postcode" v="TA5 1QQ"/>
    <tag k="removemelater" v="yes"/>
  </node>
  <node id="-828" lat="51.12639385004994" lon="-3.004578543186647">
    <tag k="addr:postcode" v="TA5 1YN"/>
    <tag k="removemelater" v="yes"/>
  </node>
  <node id="-829" lat="51.12639385004994" lon="-3.004578543186647">
    <tag k="addr:postcode" v="TA5 1YU"/>
    <tag k="removemelater" v="yes"/>
  </node>
  <node id="-830" lat="51.12639385004994" lon="-3.004578543186647">
    <tag k="addr:postcode" v="TA5 1YY"/>
    <tag k="removemelater" v="yes"/>
  </node>
  <node id="-831" lat="51.0979305156493" lon="-3.067756158826395">
    <tag k="addr:postcode" v="TA5 2DH"/>
    <tag k="removemelater" v="yes"/>
  </node>
  <node id="-832" lat="51.16853643985043" lon="-3.0738774883727586">
    <tag k="addr:postcode" v="TA5 2PN"/>
    <tag k="removemelater" v="yes"/>
  </node>
  <node id="-833" lat="51.187206992665345" lon="-3.0794626981381574">
    <tag k="addr:postcode" v="TA5 2QJ"/>
    <tag k="removemelater" v="yes"/>
  </node>
  <node id="-834" lat="51.12922777273491" lon="-3.0054689199207014">
    <tag k="addr:postcode" v="TA6 3AL"/>
    <tag k="removemelater" v="yes"/>
  </node>
  <node id="-835" lat="51.12920547414023" lon="-3.0017813682148486">
    <tag k="addr:postcode" v="TA6 3AU"/>
    <tag k="removemelater" v="yes"/>
  </node>
  <node id="-836" lat="51.12859422748587" lon="-3.0048978186759863">
    <tag k="addr:postcode" v="TA6 3BW"/>
    <tag k="removemelater" v="yes"/>
  </node>
  <node id="-837" lat="51.13004826957131" lon="-3.0020711412228733">
    <tag k="addr:postcode" v="TA6 3DN"/>
    <tag k="removemelater" v="yes"/>
  </node>
  <node id="-838" lat="51.129453171411654" lon="-3.002258332929445">
    <tag k="addr:postcode" v="TA6 3DT"/>
    <tag k="removemelater" v="yes"/>
  </node>
  <node id="-839" lat="51.12761131646695" lon="-3.0062626572527504">
    <tag k="addr:postcode" v="TA6 3EL"/>
    <tag k="removemelater" v="yes"/>
  </node>
  <node id="-840" lat="51.127500281061366" lon="-3.0034878995610654">
    <tag k="addr:postcode" v="TA6 3FD"/>
    <tag k="removemelater" v="yes"/>
  </node>
  <node id="-841" lat="51.1290165127873" lon="-3.0038923319631596">
    <tag k="addr:postcode" v="TA6 3FE"/>
    <tag k="removemelater" v="yes"/>
  </node>
  <node id="-842" lat="51.13383012335575" lon="-3.0056689487540353">
    <tag k="addr:postcode" v="TA6 3FJ"/>
    <tag k="removemelater" v="yes"/>
  </node>
  <node id="-843" lat="51.1289611815277" lon="-3.00300509723769">
    <tag k="addr:postcode" v="TA6 3FL"/>
    <tag k="removemelater" v="yes"/>
  </node>
  <node id="-844" lat="51.13012493939707" lon="-3.0036162551333274">
    <tag k="addr:postcode" v="TA6 3HF"/>
    <tag k="removemelater" v="yes"/>
  </node>
  <node id="-845" lat="51.128045009108945" lon="-3.0007844940505946">
    <tag k="addr:postcode" v="TA6 3LF"/>
    <tag k="removemelater" v="yes"/>
  </node>
  <node id="-846" lat="51.12841637699366" lon="-3.00152134915484">
    <tag k="addr:postcode" v="TA6 3NE"/>
    <tag k="removemelater" v="yes"/>
  </node>
  <node id="-847" lat="51.13851394928034" lon="-3.0037124260258414">
    <tag k="addr:postcode" v="TA6 3PE"/>
    <tag k="removemelater" v="yes"/>
  </node>
  <node id="-848" lat="51.13244408212391" lon="-3.009983588999946">
    <tag k="addr:postcode" v="TA6 3PX"/>
    <tag k="removemelater" v="yes"/>
  </node>
  <node id="-849" lat="51.12528607354548" lon="-3.007912596964891">
    <tag k="addr:postcode" v="TA6 3RF"/>
    <tag k="removemelater" v="yes"/>
  </node>
  <node id="-850" lat="51.12497965670219" lon="-2.9985604922735116">
    <tag k="addr:postcode" v="TA6 3SA"/>
    <tag k="removemelater" v="yes"/>
  </node>
  <node id="-851" lat="51.12497965670219" lon="-2.9985604922735116">
    <tag k="addr:postcode" v="TA6 3SB"/>
    <tag k="removemelater" v="yes"/>
  </node>
  <node id="-852" lat="51.12931455387179" lon="-3.0037415947315225">
    <tag k="addr:postcode" v="TA6 3YF"/>
    <tag k="removemelater" v="yes"/>
  </node>
  <node id="-853" lat="51.13304282208002" lon="-2.998905950628793">
    <tag k="addr:postcode" v="TA6 4AB"/>
    <tag k="removemelater" v="yes"/>
  </node>
  <node id="-854" lat="51.164140372089896" lon="-2.9933707536115866">
    <tag k="addr:postcode" v="TA6 4BQ"/>
    <tag k="removemelater" v="yes"/>
  </node>
  <node id="-855" lat="51.142284435023285" lon="-2.990742891311545">
    <tag k="addr:postcode" v="TA6 4BX"/>
    <tag k="removemelater" v="yes"/>
  </node>
  <node id="-856" lat="51.14464312132173" lon="-2.972208983849653">
    <tag k="addr:postcode" v="TA6 4NT"/>
    <tag k="removemelater" v="yes"/>
  </node>
  <node id="-857" lat="51.13393881056767" lon="-2.991893421800948">
    <tag k="addr:postcode" v="TA6 4PW"/>
    <tag k="removemelater" v="yes"/>
  </node>
  <node id="-858" lat="51.14567624315009" lon="-2.9916018096573422">
    <tag k="addr:postcode" v="TA6 4RR"/>
    <tag k="removemelater" v="yes"/>
  </node>
  <node id="-859" lat="51.16322606079911" lon="-2.9898472508730705">
    <tag k="addr:postcode" v="TA6 4TE"/>
    <tag k="removemelater" v="yes"/>
  </node>
  <node id="-860" lat="51.1631989425637" lon="-2.986671748757816">
    <tag k="addr:postcode" v="TA6 4TL"/>
    <tag k="removemelater" v="yes"/>
  </node>
  <node id="-861" lat="51.13366354844359" lon="-2.9893577813372305">
    <tag k="addr:postcode" v="TA6 4TZ"/>
    <tag k="removemelater" v="yes"/>
  </node>
  <node id="-862" lat="51.12639385004994" lon="-3.004578543186647">
    <tag k="addr:postcode" v="TA6 4ZW"/>
    <tag k="removemelater" v="yes"/>
  </node>
  <node id="-863" lat="51.129223153010294" lon="-3.000767092510721">
    <tag k="addr:postcode" v="TA6 5BE"/>
    <tag k="removemelater" v="yes"/>
  </node>
  <node id="-864" lat="51.13096569975823" lon="-2.995731286229965">
    <tag k="addr:postcode" v="TA6 5EH"/>
    <tag k="removemelater" v="yes"/>
  </node>
  <node id="-865" lat="51.129767028272425" lon="-2.9928758585341084">
    <tag k="addr:postcode" v="TA6 5EY"/>
    <tag k="removemelater" v="yes"/>
  </node>
  <node id="-866" lat="51.12859117131907" lon="-2.9915644693882433">
    <tag k="addr:postcode" v="TA6 5HA"/>
    <tag k="removemelater" v="yes"/>
  </node>
  <node id="-867" lat="51.127835804069974" lon="-2.9905050811756797">
    <tag k="addr:postcode" v="TA6 5HB"/>
    <tag k="removemelater" v="yes"/>
  </node>
  <node id="-868" lat="51.121037020323634" lon="-2.9905739626764287">
    <tag k="addr:postcode" v="TA6 5LN"/>
    <tag k="removemelater" v="yes"/>
  </node>
  <node id="-869" lat="51.12072779102798" lon="-2.98992437246548">
    <tag k="addr:postcode" v="TA6 5LP"/>
    <tag k="removemelater" v="yes"/>
  </node>
  <node id="-870" lat="51.12775125773221" lon="-2.9972769695716277">
    <tag k="addr:postcode" v="TA6 5LX"/>
    <tag k="removemelater" v="yes"/>
  </node>
  <node id="-871" lat="51.12278487910921" lon="-2.9912400713827507">
    <tag k="addr:postcode" v="TA6 5LZ"/>
    <tag k="removemelater" v="yes"/>
  </node>
  <node id="-872" lat="51.13057388490517" lon="-2.999495780665772">
    <tag k="addr:postcode" v="TA6 5PZ"/>
    <tag k="removemelater" v="yes"/>
  </node>
  <node id="-873" lat="51.128211522479425" lon="-2.9949718007712214">
    <tag k="addr:postcode" v="TA6 5QF"/>
    <tag k="removemelater" v="yes"/>
  </node>
  <node id="-874" lat="51.12639385004994" lon="-3.004578543186647">
    <tag k="addr:postcode" v="TA6 5SR"/>
    <tag k="removemelater" v="yes"/>
  </node>
  <node id="-875" lat="51.11200425965404" lon="-2.990037917498861">
    <tag k="addr:postcode" v="TA6 6AJ"/>
    <tag k="removemelater" v="yes"/>
  </node>
  <node id="-876" lat="51.12099620114568" lon="-3.0006464239996413">
    <tag k="addr:postcode" v="TA6 6AZ"/>
    <tag k="removemelater" v="yes"/>
  </node>
  <node id="-877" lat="51.12040706043472" lon="-2.9980332328757506">
    <tag k="addr:postcode" v="TA6 6BG"/>
    <tag k="removemelater" v="yes"/>
  </node>
  <node id="-878" lat="51.11113989532476" lon="-2.9944050523670755">
    <tag k="addr:postcode" v="TA6 6DD"/>
    <tag k="removemelater" v="yes"/>
  </node>
  <node id="-879" lat="51.101332422500214" lon="-2.9982507500963496">
    <tag k="addr:postcode" v="TA6 6DF"/>
    <tag k="removemelater" v="yes"/>
  </node>
  <node id="-880" lat="51.093157325794785" lon="-3.0140395352070426">
    <tag k="addr:postcode" v="TA6 6FU"/>
    <tag k="removemelater" v="yes"/>
  </node>
  <node id="-881" lat="51.1112379258263" lon="-2.9923929147077213">
    <tag k="addr:postcode" v="TA6 6LS"/>
    <tag k="removemelater" v="yes"/>
  </node>
  <node id="-882" lat="51.094531887090824" lon="-3.004815993391221">
    <tag k="addr:postcode" v="TA6 6PN"/>
    <tag k="removemelater" v="yes"/>
  </node>
  <node id="-883" lat="51.09279522084655" lon="-3.014317207928872">
    <tag k="addr:postcode" v="TA6 6QA"/>
    <tag k="removemelater" v="yes"/>
  </node>
  <node id="-884" lat="51.09040764468704" lon="-3.010695211292608">
    <tag k="addr:postcode" v="TA6 6QW"/>
    <tag k="removemelater" v="yes"/>
  </node>
  <node id="-885" lat="51.089667073794324" lon="-3.011064591263527">
    <tag k="addr:postcode" v="TA6 6RH"/>
    <tag k="removemelater" v="yes"/>
  </node>
  <node id="-886" lat="51.089717897536715" lon="-3.012465021269384">
    <tag k="addr:postcode" v="TA6 6RW"/>
    <tag k="removemelater" v="yes"/>
  </node>
  <node id="-887" lat="51.092645480158815" lon="-3.0160274945029166">
    <tag k="addr:postcode" v="TA6 6TN"/>
    <tag k="removemelater" v="yes"/>
  </node>
  <node id="-888" lat="51.09369044712181" lon="-3.0147794799276144">
    <tag k="addr:postcode" v="TA6 6TR"/>
    <tag k="removemelater" v="yes"/>
  </node>
  <node id="-889" lat="51.106069740815684" lon="-2.994224801287061">
    <tag k="addr:postcode" v="TA6 6TS"/>
    <tag k="removemelater" v="yes"/>
  </node>
  <node id="-890" lat="51.1218899952598" lon="-2.999179715481584">
    <tag k="addr:postcode" v="TA6 6WL"/>
    <tag k="removemelater" v="yes"/>
  </node>
  <node id="-891" lat="51.12923090429236" lon="-3.012400109119763">
    <tag k="addr:postcode" v="TA6 7AA"/>
    <tag k="removemelater" v="yes"/>
  </node>
  <node id="-892" lat="51.13041563786186" lon="-3.015770195345546">
    <tag k="addr:postcode" v="TA6 7BD"/>
    <tag k="removemelater" v="yes"/>
  </node>
  <node id="-893" lat="51.12239391823922" lon="-3.022024193177056">
    <tag k="addr:postcode" v="TA6 7HY"/>
    <tag k="removemelater" v="yes"/>
  </node>
  <node id="-894" lat="51.12800337818104" lon="-3.018103792825046">
    <tag k="addr:postcode" v="TA6 7QP"/>
    <tag k="removemelater" v="yes"/>
  </node>
  <node id="-895" lat="51.12639385004994" lon="-3.004578543186647">
    <tag k="addr:postcode" v="TA6 7YT"/>
    <tag k="removemelater" v="yes"/>
  </node>
  <node id="-896" lat="51.12639385004994" lon="-3.004578543186647">
    <tag k="addr:postcode" v="TA6 9AD"/>
    <tag k="removemelater" v="yes"/>
  </node>
  <node id="-897" lat="51.12639385004994" lon="-3.004578543186647">
    <tag k="addr:postcode" v="TA6 9AL"/>
    <tag k="removemelater" v="yes"/>
  </node>
  <node id="-898" lat="51.12639385004994" lon="-3.004578543186647">
    <tag k="addr:postcode" v="TA6 9AT"/>
    <tag k="removemelater" v="yes"/>
  </node>
  <node id="-899" lat="51.12639385004994" lon="-3.004578543186647">
    <tag k="addr:postcode" v="TA6 9DL"/>
    <tag k="removemelater" v="yes"/>
  </node>
  <node id="-900" lat="51.12639385004994" lon="-3.004578543186647">
    <tag k="addr:postcode" v="TA6 9DP"/>
    <tag k="removemelater" v="yes"/>
  </node>
  <node id="-901" lat="51.12639385004994" lon="-3.004578543186647">
    <tag k="addr:postcode" v="TA6 9EQ"/>
    <tag k="removemelater" v="yes"/>
  </node>
  <node id="-902" lat="51.12639385004994" lon="-3.004578543186647">
    <tag k="addr:postcode" v="TA6 9ES"/>
    <tag k="removemelater" v="yes"/>
  </node>
  <node id="-903" lat="51.12639385004994" lon="-3.004578543186647">
    <tag k="addr:postcode" v="TA6 9FH"/>
    <tag k="removemelater" v="yes"/>
  </node>
  <node id="-904" lat="51.12639385004994" lon="-3.004578543186647">
    <tag k="addr:postcode" v="TA6 9GA"/>
    <tag k="removemelater" v="yes"/>
  </node>
  <node id="-905" lat="51.12639385004994" lon="-3.004578543186647">
    <tag k="addr:postcode" v="TA6 9GB"/>
    <tag k="removemelater" v="yes"/>
  </node>
  <node id="-906" lat="51.12639385004994" lon="-3.004578543186647">
    <tag k="addr:postcode" v="TA6 9GG"/>
    <tag k="removemelater" v="yes"/>
  </node>
  <node id="-907" lat="51.12639385004994" lon="-3.004578543186647">
    <tag k="addr:postcode" v="TA6 9GP"/>
    <tag k="removemelater" v="yes"/>
  </node>
  <node id="-908" lat="51.12639385004994" lon="-3.004578543186647">
    <tag k="addr:postcode" v="TA6 9GX"/>
    <tag k="removemelater" v="yes"/>
  </node>
  <node id="-909" lat="51.12639385004994" lon="-3.004578543186647">
    <tag k="addr:postcode" v="TA6 9GY"/>
    <tag k="removemelater" v="yes"/>
  </node>
  <node id="-910" lat="51.12639385004994" lon="-3.004578543186647">
    <tag k="addr:postcode" v="TA6 9HD"/>
    <tag k="removemelater" v="yes"/>
  </node>
  <node id="-911" lat="51.12639385004994" lon="-3.004578543186647">
    <tag k="addr:postcode" v="TA6 9HE"/>
    <tag k="removemelater" v="yes"/>
  </node>
  <node id="-912" lat="51.12639385004994" lon="-3.004578543186647">
    <tag k="addr:postcode" v="TA6 9HF"/>
    <tag k="removemelater" v="yes"/>
  </node>
  <node id="-913" lat="51.12639385004994" lon="-3.004578543186647">
    <tag k="addr:postcode" v="TA6 9HG"/>
    <tag k="removemelater" v="yes"/>
  </node>
  <node id="-914" lat="51.12639385004994" lon="-3.004578543186647">
    <tag k="addr:postcode" v="TA6 9HH"/>
    <tag k="removemelater" v="yes"/>
  </node>
  <node id="-915" lat="51.12639385004994" lon="-3.004578543186647">
    <tag k="addr:postcode" v="TA6 9HJ"/>
    <tag k="removemelater" v="yes"/>
  </node>
  <node id="-916" lat="51.13012493939707" lon="-3.0036162551333274">
    <tag k="addr:postcode" v="TA6 9SA"/>
    <tag k="removemelater" v="yes"/>
  </node>
  <node id="-917" lat="51.13012493939707" lon="-3.0036162551333274">
    <tag k="addr:postcode" v="TA6 9SB"/>
    <tag k="removemelater" v="yes"/>
  </node>
  <node id="-918" lat="51.13012493939707" lon="-3.0036162551333274">
    <tag k="addr:postcode" v="TA6 9SD"/>
    <tag k="removemelater" v="yes"/>
  </node>
  <node id="-919" lat="51.13012493939707" lon="-3.0036162551333274">
    <tag k="addr:postcode" v="TA6 9SE"/>
    <tag k="removemelater" v="yes"/>
  </node>
  <node id="-920" lat="51.13012493939707" lon="-3.0036162551333274">
    <tag k="addr:postcode" v="TA6 9SF"/>
    <tag k="removemelater" v="yes"/>
  </node>
  <node id="-921" lat="51.13012493939707" lon="-3.0036162551333274">
    <tag k="addr:postcode" v="TA6 9SG"/>
    <tag k="removemelater" v="yes"/>
  </node>
  <node id="-922" lat="51.13012493939707" lon="-3.0036162551333274">
    <tag k="addr:postcode" v="TA6 9SH"/>
    <tag k="removemelater" v="yes"/>
  </node>
  <node id="-923" lat="51.13012493939707" lon="-3.0036162551333274">
    <tag k="addr:postcode" v="TA6 9SJ"/>
    <tag k="removemelater" v="yes"/>
  </node>
  <node id="-924" lat="51.13012493939707" lon="-3.0036162551333274">
    <tag k="addr:postcode" v="TA6 9SL"/>
    <tag k="removemelater" v="yes"/>
  </node>
  <node id="-925" lat="51.13012493939707" lon="-3.0036162551333274">
    <tag k="addr:postcode" v="TA6 9SN"/>
    <tag k="removemelater" v="yes"/>
  </node>
  <node id="-926" lat="51.13012493939707" lon="-3.0036162551333274">
    <tag k="addr:postcode" v="TA6 9SP"/>
    <tag k="removemelater" v="yes"/>
  </node>
  <node id="-927" lat="51.13012493939707" lon="-3.0036162551333274">
    <tag k="addr:postcode" v="TA6 9SQ"/>
    <tag k="removemelater" v="yes"/>
  </node>
  <node id="-928" lat="51.13012493939707" lon="-3.0036162551333274">
    <tag k="addr:postcode" v="TA6 9SR"/>
    <tag k="removemelater" v="yes"/>
  </node>
  <node id="-929" lat="51.13012493939707" lon="-3.0036162551333274">
    <tag k="addr:postcode" v="TA6 9SS"/>
    <tag k="removemelater" v="yes"/>
  </node>
  <node id="-930" lat="51.13012493939707" lon="-3.0036162551333274">
    <tag k="addr:postcode" v="TA6 9ST"/>
    <tag k="removemelater" v="yes"/>
  </node>
  <node id="-931" lat="51.13012493939707" lon="-3.0036162551333274">
    <tag k="addr:postcode" v="TA6 9SU"/>
    <tag k="removemelater" v="yes"/>
  </node>
  <node id="-932" lat="51.13012493939707" lon="-3.0036162551333274">
    <tag k="addr:postcode" v="TA6 9SW"/>
    <tag k="removemelater" v="yes"/>
  </node>
  <node id="-933" lat="51.13012493939707" lon="-3.0036162551333274">
    <tag k="addr:postcode" v="TA6 9SX"/>
    <tag k="removemelater" v="yes"/>
  </node>
  <node id="-934" lat="51.13012493939707" lon="-3.0036162551333274">
    <tag k="addr:postcode" v="TA6 9SY"/>
    <tag k="removemelater" v="yes"/>
  </node>
  <node id="-935" lat="51.13012493939707" lon="-3.0036162551333274">
    <tag k="addr:postcode" v="TA6 9SZ"/>
    <tag k="removemelater" v="yes"/>
  </node>
  <node id="-936" lat="51.13012493939707" lon="-3.0036162551333274">
    <tag k="addr:postcode" v="TA6 9TA"/>
    <tag k="removemelater" v="yes"/>
  </node>
  <node id="-937" lat="51.13012493939707" lon="-3.0036162551333274">
    <tag k="addr:postcode" v="TA6 9TB"/>
    <tag k="removemelater" v="yes"/>
  </node>
  <node id="-938" lat="51.13012493939707" lon="-3.0036162551333274">
    <tag k="addr:postcode" v="TA6 9TD"/>
    <tag k="removemelater" v="yes"/>
  </node>
  <node id="-939" lat="51.13012493939707" lon="-3.0036162551333274">
    <tag k="addr:postcode" v="TA6 9TE"/>
    <tag k="removemelater" v="yes"/>
  </node>
  <node id="-940" lat="51.13012493939707" lon="-3.0036162551333274">
    <tag k="addr:postcode" v="TA6 9TF"/>
    <tag k="removemelater" v="yes"/>
  </node>
  <node id="-941" lat="51.13012493939707" lon="-3.0036162551333274">
    <tag k="addr:postcode" v="TA6 9ZY"/>
    <tag k="removemelater" v="yes"/>
  </node>
  <node id="-942" lat="51.11355762816327" lon="-2.9764135987765474">
    <tag k="addr:postcode" v="TA7 0AA"/>
    <tag k="removemelater" v="yes"/>
  </node>
  <node id="-943" lat="51.11040530417779" lon="-2.9834468611814895">
    <tag k="addr:postcode" v="TA7 0AG"/>
    <tag k="removemelater" v="yes"/>
  </node>
  <node id="-944" lat="51.104677239158256" lon="-2.9834395343009343">
    <tag k="addr:postcode" v="TA7 0AH"/>
    <tag k="removemelater" v="yes"/>
  </node>
  <node id="-945" lat="51.08922420804779" lon="-2.969946787443112">
    <tag k="addr:postcode" v="TA7 0AR"/>
    <tag k="removemelater" v="yes"/>
  </node>
  <node id="-946" lat="51.07302611057573" lon="-3.005392007722575">
    <tag k="addr:postcode" v="TA7 0BA"/>
    <tag k="removemelater" v="yes"/>
  </node>
  <node id="-947" lat="51.07934537351274" lon="-3.0025311345300243">
    <tag k="addr:postcode" v="TA7 0BB"/>
    <tag k="removemelater" v="yes"/>
  </node>
  <node id="-948" lat="51.076778482350115" lon="-3.0030038121971447">
    <tag k="addr:postcode" v="TA7 0BD"/>
    <tag k="removemelater" v="yes"/>
  </node>
  <node id="-949" lat="51.07416695233144" lon="-3.0023906501896858">
    <tag k="addr:postcode" v="TA7 0BE"/>
    <tag k="removemelater" v="yes"/>
  </node>
  <node id="-950" lat="51.07479109429658" lon="-2.9998633344380887">
    <tag k="addr:postcode" v="TA7 0BG"/>
    <tag k="removemelater" v="yes"/>
  </node>
  <node id="-951" lat="51.0738947814498" lon="-3.0026702462705477">
    <tag k="addr:postcode" v="TA7 0BJ"/>
    <tag k="removemelater" v="yes"/>
  </node>
  <node id="-952" lat="51.07375052471199" lon="-3.004808207896843">
    <tag k="addr:postcode" v="TA7 0BL"/>
    <tag k="removemelater" v="yes"/>
  </node>
  <node id="-953" lat="51.07393852585209" lon="-3.0090801853500073">
    <tag k="addr:postcode" v="TA7 0BN"/>
    <tag k="removemelater" v="yes"/>
  </node>
  <node id="-954" lat="51.07207957194591" lon="-3.0014748657665304">
    <tag k="addr:postcode" v="TA7 0BP"/>
    <tag k="removemelater" v="yes"/>
  </node>
  <node id="-955" lat="51.07075859637328" lon="-3.0003187833991807">
    <tag k="addr:postcode" v="TA7 0BS"/>
    <tag k="removemelater" v="yes"/>
  </node>
  <node id="-956" lat="51.07322414813814" lon="-3.0022275377230745">
    <tag k="addr:postcode" v="TA7 0BW"/>
    <tag k="removemelater" v="yes"/>
  </node>
  <node id="-957" lat="51.06295599341863" lon="-2.9883630947604747">
    <tag k="addr:postcode" v="TA7 0DH"/>
    <tag k="removemelater" v="yes"/>
  </node>
  <node id="-958" lat="51.10802765589439" lon="-2.9289300327225956">
    <tag k="addr:postcode" v="TA7 0DZ"/>
    <tag k="removemelater" v="yes"/>
  </node>
  <node id="-959" lat="51.10907396899757" lon="-2.927393984503985">
    <tag k="addr:postcode" v="TA7 0EP"/>
    <tag k="removemelater" v="yes"/>
  </node>
  <node id="-960" lat="51.10988235654262" lon="-2.9172535870921426">
    <tag k="addr:postcode" v="TA7 0LZ"/>
    <tag k="removemelater" v="yes"/>
  </node>
  <node id="-961" lat="51.08484529442545" lon="-2.8789521587574343">
    <tag k="addr:postcode" v="TA7 0QN"/>
    <tag k="removemelater" v="yes"/>
  </node>
  <node id="-962" lat="51.0721260774619" lon="-2.920360537073143">
    <tag k="addr:postcode" v="TA7 0RD"/>
    <tag k="removemelater" v="yes"/>
  </node>
  <node id="-963" lat="51.07314944535107" lon="-2.9228644517709665">
    <tag k="addr:postcode" v="TA7 0RE"/>
    <tag k="removemelater" v="yes"/>
  </node>
  <node id="-964" lat="51.064454532917495" lon="-2.9204937690984414">
    <tag k="addr:postcode" v="TA7 0RX"/>
    <tag k="removemelater" v="yes"/>
  </node>
  <node id="-965" lat="51.06334061526086" lon="-2.9237681773079953">
    <tag k="addr:postcode" v="TA7 0RZ"/>
    <tag k="removemelater" v="yes"/>
  </node>
  <node id="-966" lat="51.06075519136319" lon="-2.9277550609027947">
    <tag k="addr:postcode" v="TA7 0SA"/>
    <tag k="removemelater" v="yes"/>
  </node>
  <node id="-967" lat="51.05746092965497" lon="-2.933781978272152">
    <tag k="addr:postcode" v="TA7 0SD"/>
    <tag k="removemelater" v="yes"/>
  </node>
  <node id="-968" lat="51.05463828984245" lon="-2.9359081818927804">
    <tag k="addr:postcode" v="TA7 0SE"/>
    <tag k="removemelater" v="yes"/>
  </node>
  <node id="-969" lat="51.064767715173055" lon="-2.9263796485099554">
    <tag k="addr:postcode" v="TA7 0SG"/>
    <tag k="removemelater" v="yes"/>
  </node>
  <node id="-970" lat="51.15833775950007" lon="-2.921188811977486">
    <tag k="addr:postcode" v="TA7 8JR"/>
    <tag k="removemelater" v="yes"/>
  </node>
  <node id="-971" lat="51.13254664741569" lon="-2.945014547213635">
    <tag k="addr:postcode" v="TA7 8JW"/>
    <tag k="removemelater" v="yes"/>
  </node>
  <node id="-972" lat="51.157321247118546" lon="-2.9200960943164063">
    <tag k="addr:postcode" v="TA7 8LQ"/>
    <tag k="removemelater" v="yes"/>
  </node>
  <node id="-973" lat="51.14464312132173" lon="-2.972208983849653">
    <tag k="addr:postcode" v="TA7 8PE"/>
    <tag k="removemelater" v="yes"/>
  </node>
  <node id="-974" lat="51.154741675294254" lon="-2.955820340553734">
    <tag k="addr:postcode" v="TA7 8PJ"/>
    <tag k="removemelater" v="yes"/>
  </node>
  <node id="-975" lat="51.13757693892554" lon="-2.9654855069011274">
    <tag k="addr:postcode" v="TA7 8QP"/>
    <tag k="removemelater" v="yes"/>
  </node>
  <node id="-976" lat="51.136582976664926" lon="-2.9518147675727913">
    <tag k="addr:postcode" v="TA7 8QQ"/>
    <tag k="removemelater" v="yes"/>
  </node>
  <node id="-977" lat="51.13771844479038" lon="-2.9625011070422786">
    <tag k="addr:postcode" v="TA7 8QR"/>
    <tag k="removemelater" v="yes"/>
  </node>
  <node id="-978" lat="51.1374766163418" lon="-2.9547061350333266">
    <tag k="addr:postcode" v="TA7 8QS"/>
    <tag k="removemelater" v="yes"/>
  </node>
  <node id="-979" lat="51.13507875222728" lon="-2.947696111564688">
    <tag k="addr:postcode" v="TA7 8QT"/>
    <tag k="removemelater" v="yes"/>
  </node>
  <node id="-980" lat="51.133368948836164" lon="-2.9456316092461274">
    <tag k="addr:postcode" v="TA7 8QU"/>
    <tag k="removemelater" v="yes"/>
  </node>
  <node id="-981" lat="51.134097174073595" lon="-2.9467612970127894">
    <tag k="addr:postcode" v="TA7 8QX"/>
    <tag k="removemelater" v="yes"/>
  </node>
  <node id="-982" lat="51.13416809001778" lon="-2.945776569405295">
    <tag k="addr:postcode" v="TA7 8QY"/>
    <tag k="removemelater" v="yes"/>
  </node>
  <node id="-983" lat="51.13461901717046" lon="-2.945614273484467">
    <tag k="addr:postcode" v="TA7 8QZ"/>
    <tag k="removemelater" v="yes"/>
  </node>
  <node id="-984" lat="51.135854313373926" lon="-2.9463112833920313">
    <tag k="addr:postcode" v="TA7 8RA"/>
    <tag k="removemelater" v="yes"/>
  </node>
  <node id="-985" lat="51.133537149012184" lon="-2.9437341775444685">
    <tag k="addr:postcode" v="TA7 8RB"/>
    <tag k="removemelater" v="yes"/>
  </node>
  <node id="-986" lat="51.13356019864673" lon="-2.9442205840346065">
    <tag k="addr:postcode" v="TA7 8RD"/>
    <tag k="removemelater" v="yes"/>
  </node>
  <node id="-987" lat="51.13053521917932" lon="-2.9491036716773165">
    <tag k="addr:postcode" v="TA7 8RF"/>
    <tag k="removemelater" v="yes"/>
  </node>
  <node id="-988" lat="51.128883863273636" lon="-2.953128403461253">
    <tag k="addr:postcode" v="TA7 8RG"/>
    <tag k="removemelater" v="yes"/>
  </node>
  <node id="-989" lat="51.1340737177107" lon="-2.942987621202407">
    <tag k="addr:postcode" v="TA7 8RL"/>
    <tag k="removemelater" v="yes"/>
  </node>
  <node id="-990" lat="51.134864426515996" lon="-2.94083124946979">
    <tag k="addr:postcode" v="TA7 8RN"/>
    <tag k="removemelater" v="yes"/>
  </node>
  <node id="-991" lat="51.13304438449333" lon="-2.943509748444429">
    <tag k="addr:postcode" v="TA7 8RP"/>
    <tag k="removemelater" v="yes"/>
  </node>
  <node id="-992" lat="51.14057591809122" lon="-2.9122871034482616">
    <tag k="addr:postcode" v="TA7 9AB"/>
    <tag k="removemelater" v="yes"/>
  </node>
  <node id="-993" lat="51.140958377391925" lon="-2.909364270532886">
    <tag k="addr:postcode" v="TA7 9AY"/>
    <tag k="removemelater" v="yes"/>
  </node>
  <node id="-994" lat="51.1240353974619" lon="-2.806363656762998">
    <tag k="addr:postcode" v="TA7 9BH"/>
    <tag k="removemelater" v="yes"/>
  </node>
  <node id="-995" lat="51.124687332118384" lon="-2.801788115010085">
    <tag k="addr:postcode" v="TA7 9QJ"/>
    <tag k="removemelater" v="yes"/>
  </node>
  <node id="-996" lat="51.12328873111298" lon="-2.7985488769920615">
    <tag k="addr:postcode" v="TA7 9QL"/>
    <tag k="removemelater" v="yes"/>
  </node>
  <node id="-997" lat="51.12540020964132" lon="-2.804043931400935">
    <tag k="addr:postcode" v="TA7 9RD"/>
    <tag k="removemelater" v="yes"/>
  </node>
  <node id="-998" lat="51.237352913948605" lon="-2.991494983180448">
    <tag k="addr:postcode" v="TA8 1DT"/>
    <tag k="removemelater" v="yes"/>
  </node>
  <node id="-999" lat="51.23870450322852" lon="-2.9985718774227563">
    <tag k="addr:postcode" v="TA8 1DX"/>
    <tag k="removemelater" v="yes"/>
  </node>
  <node id="-1000" lat="51.23879844167167" lon="-2.9938753483128426">
    <tag k="addr:postcode" v="TA8 1ED"/>
    <tag k="removemelater" v="yes"/>
  </node>
  <node id="-1001" lat="51.23705984636821" lon="-2.99529895760279">
    <tag k="addr:postcode" v="TA8 1EN"/>
    <tag k="removemelater" v="yes"/>
  </node>
  <node id="-1002" lat="51.23676123158533" lon="-2.994461705319528">
    <tag k="addr:postcode" v="TA8 1ER"/>
    <tag k="removemelater" v="yes"/>
  </node>
  <node id="-1003" lat="51.23732156421653" lon="-2.994130003635502">
    <tag k="addr:postcode" v="TA8 1ES"/>
    <tag k="removemelater" v="yes"/>
  </node>
  <node id="-1004" lat="51.237921372930934" lon="-2.9944437524720984">
    <tag k="addr:postcode" v="TA8 1ET"/>
    <tag k="removemelater" v="yes"/>
  </node>
  <node id="-1005" lat="51.23811395399016" lon="-2.992943815129819">
    <tag k="addr:postcode" v="TA8 1EU"/>
    <tag k="removemelater" v="yes"/>
  </node>
  <node id="-1006" lat="51.23787008867257" lon="-2.995187525584303">
    <tag k="addr:postcode" v="TA8 1EW"/>
    <tag k="removemelater" v="yes"/>
  </node>
  <node id="-1007" lat="51.23770871058788" lon="-2.9887666457752533">
    <tag k="addr:postcode" v="TA8 1EY"/>
    <tag k="removemelater" v="yes"/>
  </node>
  <node id="-1008" lat="51.23658896369274" lon="-2.987195621977268">
    <tag k="addr:postcode" v="TA8 1HD"/>
    <tag k="removemelater" v="yes"/>
  </node>
  <node id="-1009" lat="51.235402862594384" lon="-2.988158573875914">
    <tag k="addr:postcode" v="TA8 1HE"/>
    <tag k="removemelater" v="yes"/>
  </node>
  <node id="-1010" lat="51.23766465734976" lon="-2.9907854599367654">
    <tag k="addr:postcode" v="TA8 1HH"/>
    <tag k="removemelater" v="yes"/>
  </node>
  <node id="-1011" lat="51.23697032527473" lon="-2.9910140541795505">
    <tag k="addr:postcode" v="TA8 1HJ"/>
    <tag k="removemelater" v="yes"/>
  </node>
  <node id="-1012" lat="51.23658931049346" lon="-2.990346952462209">
    <tag k="addr:postcode" v="TA8 1HL"/>
    <tag k="removemelater" v="yes"/>
  </node>
  <node id="-1013" lat="51.23600868604014" lon="-2.9866961826832665">
    <tag k="addr:postcode" v="TA8 1HN"/>
    <tag k="removemelater" v="yes"/>
  </node>
  <node id="-1014" lat="51.23749892918194" lon="-2.9901802707236995">
    <tag k="addr:postcode" v="TA8 1HQ"/>
    <tag k="removemelater" v="yes"/>
  </node>
  <node id="-1015" lat="51.2349773619413" lon="-2.9874332713323355">
    <tag k="addr:postcode" v="TA8 1HW"/>
    <tag k="removemelater" v="yes"/>
  </node>
  <node id="-1016" lat="51.239209436808196" lon="-2.986750352058695">
    <tag k="addr:postcode" v="TA8 1JE"/>
    <tag k="removemelater" v="yes"/>
  </node>
  <node id="-1017" lat="51.22905992769724" lon="-2.978942622893483">
    <tag k="addr:postcode" v="TA8 1JP"/>
    <tag k="removemelater" v="yes"/>
  </node>
  <node id="-1018" lat="51.22928324572785" lon="-2.978045081843528">
    <tag k="addr:postcode" v="TA8 1JS"/>
    <tag k="removemelater" v="yes"/>
  </node>
  <node id="-1019" lat="51.22985025008268" lon="-2.9779854947847046">
    <tag k="addr:postcode" v="TA8 1JU"/>
    <tag k="removemelater" v="yes"/>
  </node>
  <node id="-1020" lat="51.22795186489622" lon="-2.9919946451575377">
    <tag k="addr:postcode" v="TA8 1LD"/>
    <tag k="removemelater" v="yes"/>
  </node>
  <node id="-1021" lat="51.23013885742905" lon="-2.99070971784202">
    <tag k="addr:postcode" v="TA8 1LP"/>
    <tag k="removemelater" v="yes"/>
  </node>
  <node id="-1022" lat="51.22999719648317" lon="-2.994688233302758">
    <tag k="addr:postcode" v="TA8 1LR"/>
    <tag k="removemelater" v="yes"/>
  </node>
  <node id="-1023" lat="51.228447612165674" lon="-2.988668358072197">
    <tag k="addr:postcode" v="TA8 1LS"/>
    <tag k="removemelater" v="yes"/>
  </node>
  <node id="-1024" lat="51.226427401004074" lon="-2.9883099955807317">
    <tag k="addr:postcode" v="TA8 1LU"/>
    <tag k="removemelater" v="yes"/>
  </node>
  <node id="-1025" lat="51.22859481163602" lon="-2.992524054535721">
    <tag k="addr:postcode" v="TA8 1NE"/>
    <tag k="removemelater" v="yes"/>
  </node>
  <node id="-1026" lat="51.22879126272685" lon="-2.9937456329765015">
    <tag k="addr:postcode" v="TA8 1NF"/>
    <tag k="removemelater" v="yes"/>
  </node>
  <node id="-1027" lat="51.22952350798776" lon="-2.993288783182404">
    <tag k="addr:postcode" v="TA8 1NG"/>
    <tag k="removemelater" v="yes"/>
  </node>
  <node id="-1028" lat="51.229929661938236" lon="-2.9931113422802893">
    <tag k="addr:postcode" v="TA8 1NH"/>
    <tag k="removemelater" v="yes"/>
  </node>
  <node id="-1029" lat="51.23055583813517" lon="-2.9934972057809017">
    <tag k="addr:postcode" v="TA8 1NJ"/>
    <tag k="removemelater" v="yes"/>
  </node>
  <node id="-1030" lat="51.228491627879556" lon="-2.989843679419634">
    <tag k="addr:postcode" v="TA8 1NL"/>
    <tag k="removemelater" v="yes"/>
  </node>
  <node id="-1031" lat="51.22851739083686" lon="-2.98679371258724">
    <tag k="addr:postcode" v="TA8 1NN"/>
    <tag k="removemelater" v="yes"/>
  </node>
  <node id="-1032" lat="51.22820686205417" lon="-2.990553648108549">
    <tag k="addr:postcode" v="TA8 1NQ"/>
    <tag k="removemelater" v="yes"/>
  </node>
  <node id="-1033" lat="51.23462872053001" lon="-2.9967361394796463">
    <tag k="addr:postcode" v="TA8 1PN"/>
    <tag k="removemelater" v="yes"/>
  </node>
  <node id="-1034" lat="51.234839283248576" lon="-2.9962966571985494">
    <tag k="addr:postcode" v="TA8 1PX"/>
    <tag k="removemelater" v="yes"/>
  </node>
  <node id="-1035" lat="51.22945848614975" lon="-2.99035137615323">
    <tag k="addr:postcode" v="TA8 1QH"/>
    <tag k="removemelater" v="yes"/>
  </node>
  <node id="-1036" lat="51.22958157919507" lon="-2.9917432552850722">
    <tag k="addr:postcode" v="TA8 1QJ"/>
    <tag k="removemelater" v="yes"/>
  </node>
  <node id="-1037" lat="51.231472276990985" lon="-2.979724278840004">
    <tag k="addr:postcode" v="TA8 1QR"/>
    <tag k="removemelater" v="yes"/>
  </node>
  <node id="-1038" lat="51.231259482747326" lon="-2.9815100751342127">
    <tag k="addr:postcode" v="TA8 1QS"/>
    <tag k="removemelater" v="yes"/>
  </node>
  <node id="-1039" lat="51.2354708837993" lon="-2.9854241768023555">
    <tag k="addr:postcode" v="TA8 1RA"/>
    <tag k="removemelater" v="yes"/>
  </node>
  <node id="-1040" lat="51.22887713071717" lon="-2.989980848607551">
    <tag k="addr:postcode" v="TA8 1RJ"/>
    <tag k="removemelater" v="yes"/>
  </node>
  <node id="-1041" lat="51.24060539562332" lon="-2.9949887084809026">
    <tag k="addr:postcode" v="TA8 2AR"/>
    <tag k="removemelater" v="yes"/>
  </node>
  <node id="-1042" lat="51.23909099141857" lon="-2.9943687036191093">
    <tag k="addr:postcode" v="TA8 2AU"/>
    <tag k="removemelater" v="yes"/>
  </node>
  <node id="-1043" lat="51.244285087013246" lon="-2.9979334466258885">
    <tag k="addr:postcode" v="TA8 2EB"/>
    <tag k="removemelater" v="yes"/>
  </node>
  <node id="-1044" lat="51.243693739365" lon="-2.9987372510535506">
    <tag k="addr:postcode" v="TA8 2HE"/>
    <tag k="removemelater" v="yes"/>
  </node>
  <node id="-1045" lat="51.24417482356481" lon="-2.999263429911647">
    <tag k="addr:postcode" v="TA8 2HF"/>
    <tag k="removemelater" v="yes"/>
  </node>
  <node id="-1046" lat="51.24453260813336" lon="-2.9994860855617556">
    <tag k="addr:postcode" v="TA8 2HG"/>
    <tag k="removemelater" v="yes"/>
  </node>
  <node id="-1047" lat="51.259234667671066" lon="-2.9984435146639847">
    <tag k="addr:postcode" v="TA8 2JU"/>
    <tag k="removemelater" v="yes"/>
  </node>
  <node id="-1048" lat="51.26557846245602" lon="-3.0052889583990585">
    <tag k="addr:postcode" v="TA8 2LY"/>
    <tag k="removemelater" v="yes"/>
  </node>
  <node id="-1049" lat="51.25167547282817" lon="-2.9959584600058458">
    <tag k="addr:postcode" v="TA8 2QA"/>
    <tag k="removemelater" v="yes"/>
  </node>
  <node id="-1050" lat="51.25120991806159" lon="-2.995719139347008">
    <tag k="addr:postcode" v="TA8 2QB"/>
    <tag k="removemelater" v="yes"/>
  </node>
  <node id="-1051" lat="51.25033918135122" lon="-2.9955427143858118">
    <tag k="addr:postcode" v="TA8 2QD"/>
    <tag k="removemelater" v="yes"/>
  </node>
  <node id="-1052" lat="51.250661036056506" lon="-2.994704280779918">
    <tag k="addr:postcode" v="TA8 2QE"/>
    <tag k="removemelater" v="yes"/>
  </node>
  <node id="-1053" lat="51.28287152948766" lon="-3.0124487092927446">
    <tag k="addr:postcode" v="TA8 2QY"/>
    <tag k="removemelater" v="yes"/>
  </node>
  <node id="-1054" lat="51.284448939285674" lon="-3.012010212229877">
    <tag k="addr:postcode" v="TA8 2RA"/>
    <tag k="removemelater" v="yes"/>
  </node>
  <node id="-1055" lat="51.28028006360325" lon="-3.0126498002540907">
    <tag k="addr:postcode" v="TA8 2RB"/>
    <tag k="removemelater" v="yes"/>
  </node>
  <node id="-1056" lat="51.28732239241777" lon="-3.0124749091329384">
    <tag k="addr:postcode" v="TA8 2RD"/>
    <tag k="removemelater" v="yes"/>
  </node>
  <node id="-1057" lat="51.28975376390635" lon="-3.01206949146092">
    <tag k="addr:postcode" v="TA8 2RF"/>
    <tag k="removemelater" v="yes"/>
  </node>
  <node id="-1058" lat="51.289216014488325" lon="-3.0129037612375953">
    <tag k="addr:postcode" v="TA8 2RH"/>
    <tag k="removemelater" v="yes"/>
  </node>
  <node id="-1059" lat="51.289415938648716" lon="-3.009538108418937">
    <tag k="addr:postcode" v="TA8 2RJ"/>
    <tag k="removemelater" v="yes"/>
  </node>
  <node id="-1060" lat="51.297851277758916" lon="-2.996857266825864">
    <tag k="addr:postcode" v="TA8 2SD"/>
    <tag k="removemelater" v="yes"/>
  </node>
  <node id="-1061" lat="51.297677686943935" lon="-3.0108094563878205">
    <tag k="addr:postcode" v="TA8 2SF"/>
    <tag k="removemelater" v="yes"/>
  </node>
  <node id="-1062" lat="51.236878849645485" lon="-2.9933182987012943">
    <tag k="addr:postcode" v="TA8 2ZH"/>
    <tag k="removemelater" v="yes"/>
  </node>
  <node id="-1063" lat="51.236878849645485" lon="-2.9933182987012943">
    <tag k="addr:postcode" v="TA8 2ZU"/>
    <tag k="removemelater" v="yes"/>
  </node>
  <node id="-1064" lat="51.236878849645485" lon="-2.9933182987012943">
    <tag k="addr:postcode" v="TA8 9BQ"/>
    <tag k="removemelater" v="yes"/>
  </node>
  <node id="-1065" lat="51.236878849645485" lon="-2.9933182987012943">
    <tag k="addr:postcode" v="TA8 9DG"/>
    <tag k="removemelater" v="yes"/>
  </node>
  <node id="-1066" lat="51.236878849645485" lon="-2.9933182987012943">
    <tag k="addr:postcode" v="TA8 9DT"/>
    <tag k="removemelater" v="yes"/>
  </node>
  <node id="-1067" lat="51.222317816216034" lon="-2.981921262563368">
    <tag k="addr:postcode" v="TA9 3AX"/>
    <tag k="removemelater" v="yes"/>
  </node>
  <node id="-1068" lat="51.22266171666227" lon="-2.982730494518137">
    <tag k="addr:postcode" v="TA9 3AY"/>
    <tag k="removemelater" v="yes"/>
  </node>
  <node id="-1069" lat="51.222968981549315" lon="-2.981476883173392">
    <tag k="addr:postcode" v="TA9 3AZ"/>
    <tag k="removemelater" v="yes"/>
  </node>
  <node id="-1070" lat="51.22345783469208" lon="-2.98108632023586">
    <tag k="addr:postcode" v="TA9 3BA"/>
    <tag k="removemelater" v="yes"/>
  </node>
  <node id="-1071" lat="51.222869857786826" lon="-2.980429419570691">
    <tag k="addr:postcode" v="TA9 3BB"/>
    <tag k="removemelater" v="yes"/>
  </node>
  <node id="-1072" lat="51.222065016337716" lon="-2.9809707832796053">
    <tag k="addr:postcode" v="TA9 3BD"/>
    <tag k="removemelater" v="yes"/>
  </node>
  <node id="-1073" lat="51.223940803810905" lon="-2.9813973168294656">
    <tag k="addr:postcode" v="TA9 3BH"/>
    <tag k="removemelater" v="yes"/>
  </node>
  <node id="-1074" lat="51.219657939910974" lon="-2.974175390242795">
    <tag k="addr:postcode" v="TA9 3BP"/>
    <tag k="removemelater" v="yes"/>
  </node>
  <node id="-1075" lat="51.226570564824975" lon="-2.9712136975452856">
    <tag k="addr:postcode" v="TA9 3BQ"/>
    <tag k="removemelater" v="yes"/>
  </node>
  <node id="-1076" lat="51.22201961131912" lon="-2.97240666046965">
    <tag k="addr:postcode" v="TA9 3BX"/>
    <tag k="removemelater" v="yes"/>
  </node>
  <node id="-1077" lat="51.225203205737" lon="-2.980980233119885">
    <tag k="addr:postcode" v="TA9 3EA"/>
    <tag k="removemelater" v="yes"/>
  </node>
  <node id="-1078" lat="51.22548479922262" lon="-2.979568468088295">
    <tag k="addr:postcode" v="TA9 3EF"/>
    <tag k="removemelater" v="yes"/>
  </node>
  <node id="-1079" lat="51.22646724506578" lon="-2.9857187389955757">
    <tag k="addr:postcode" v="TA9 3EH"/>
    <tag k="removemelater" v="yes"/>
  </node>
  <node id="-1080" lat="51.22159691452796" lon="-2.9799584629571005">
    <tag k="addr:postcode" v="TA9 3EL"/>
    <tag k="removemelater" v="yes"/>
  </node>
  <node id="-1081" lat="51.22539511366381" lon="-2.9816860290651532">
    <tag k="addr:postcode" v="TA9 3EN"/>
    <tag k="removemelater" v="yes"/>
  </node>
  <node id="-1082" lat="51.22482411222379" lon="-2.9832920985896774">
    <tag k="addr:postcode" v="TA9 3EP"/>
    <tag k="removemelater" v="yes"/>
  </node>
  <node id="-1083" lat="51.225974061735684" lon="-2.9834168569931205">
    <tag k="addr:postcode" v="TA9 3EQ"/>
    <tag k="removemelater" v="yes"/>
  </node>
  <node id="-1084" lat="51.2257295892503" lon="-2.984686198115393">
    <tag k="addr:postcode" v="TA9 3ER"/>
    <tag k="removemelater" v="yes"/>
  </node>
  <node id="-1085" lat="51.22419147522784" lon="-2.9793834817547755">
    <tag k="addr:postcode" v="TA9 3ET"/>
    <tag k="removemelater" v="yes"/>
  </node>
  <node id="-1086" lat="51.22382727043652" lon="-2.982067952257158">
    <tag k="addr:postcode" v="TA9 3EU"/>
    <tag k="removemelater" v="yes"/>
  </node>
  <node id="-1087" lat="51.224761227170724" lon="-2.981142680619357">
    <tag k="addr:postcode" v="TA9 3EW"/>
    <tag k="removemelater" v="yes"/>
  </node>
  <node id="-1088" lat="51.223393649905645" lon="-2.9833761700953416">
    <tag k="addr:postcode" v="TA9 3EX"/>
    <tag k="removemelater" v="yes"/>
  </node>
  <node id="-1089" lat="51.22378570032624" lon="-2.9848738295583845">
    <tag k="addr:postcode" v="TA9 3EY"/>
    <tag k="removemelater" v="yes"/>
  </node>
  <node id="-1090" lat="51.22443571286407" lon="-2.983498626154727">
    <tag k="addr:postcode" v="TA9 3EZ"/>
    <tag k="removemelater" v="yes"/>
  </node>
  <node id="-1091" lat="51.22366558437095" lon="-2.978828150676806">
    <tag k="addr:postcode" v="TA9 3FU"/>
    <tag k="removemelater" v="yes"/>
  </node>
  <node id="-1092" lat="51.22445771329127" lon="-2.978730394693019">
    <tag k="addr:postcode" v="TA9 3GG"/>
    <tag k="removemelater" v="yes"/>
  </node>
  <node id="-1093" lat="51.224147712905356" lon="-2.978165325183646">
    <tag k="addr:postcode" v="TA9 3GL"/>
    <tag k="removemelater" v="yes"/>
  </node>
  <node id="-1094" lat="51.22358981824994" lon="-2.978210776656357">
    <tag k="addr:postcode" v="TA9 3GN"/>
    <tag k="removemelater" v="yes"/>
  </node>
  <node id="-1095" lat="51.22407183712573" lon="-2.978636286243908">
    <tag k="addr:postcode" v="TA9 3GP"/>
    <tag k="removemelater" v="yes"/>
  </node>
  <node id="-1096" lat="51.22473261053178" lon="-2.986684109283258">
    <tag k="addr:postcode" v="TA9 3HA"/>
    <tag k="removemelater" v="yes"/>
  </node>
  <node id="-1097" lat="51.224691697600406" lon="-2.9851366203275633">
    <tag k="addr:postcode" v="TA9 3HB"/>
    <tag k="removemelater" v="yes"/>
  </node>
  <node id="-1098" lat="51.22546905226521" lon="-2.985726050712067">
    <tag k="addr:postcode" v="TA9 3HD"/>
    <tag k="removemelater" v="yes"/>
  </node>
  <node id="-1099" lat="51.22318501989103" lon="-2.9846605256544407">
    <tag k="addr:postcode" v="TA9 3HE"/>
    <tag k="removemelater" v="yes"/>
  </node>
  <node id="-1100" lat="51.22497761020982" lon="-2.980001636167622">
    <tag k="addr:postcode" v="TA9 3HF"/>
    <tag k="removemelater" v="yes"/>
  </node>
  <node id="-1101" lat="51.22317898386414" lon="-2.9767987032759615">
    <tag k="addr:postcode" v="TA9 3JE"/>
    <tag k="removemelater" v="yes"/>
  </node>
  <node id="-1102" lat="51.22452682464901" lon="-2.9758391321116995">
    <tag k="addr:postcode" v="TA9 3JF"/>
    <tag k="removemelater" v="yes"/>
  </node>
  <node id="-1103" lat="51.22492285908191" lon="-2.9725537808779094">
    <tag k="addr:postcode" v="TA9 3JJ"/>
    <tag k="removemelater" v="yes"/>
  </node>
  <node id="-1104" lat="51.225777977386194" lon="-2.9735313045405536">
    <tag k="addr:postcode" v="TA9 3JL"/>
    <tag k="removemelater" v="yes"/>
  </node>
  <node id="-1105" lat="51.226236547392524" lon="-2.974615055031452">
    <tag k="addr:postcode" v="TA9 3JP"/>
    <tag k="removemelater" v="yes"/>
  </node>
  <node id="-1106" lat="51.22572361674424" lon="-2.9724990591654477">
    <tag k="addr:postcode" v="TA9 3JR"/>
    <tag k="removemelater" v="yes"/>
  </node>
  <node id="-1107" lat="51.225445076557556" lon="-2.9713904916257614">
    <tag k="addr:postcode" v="TA9 3JS"/>
    <tag k="removemelater" v="yes"/>
  </node>
  <node id="-1108" lat="51.225369227927835" lon="-2.9718614774099854">
    <tag k="addr:postcode" v="TA9 3JT"/>
    <tag k="removemelater" v="yes"/>
  </node>
  <node id="-1109" lat="51.226226911012745" lon="-2.973612383907326">
    <tag k="addr:postcode" v="TA9 3JW"/>
    <tag k="removemelater" v="yes"/>
  </node>
  <node id="-1110" lat="51.228888768999745" lon="-2.97467109577749">
    <tag k="addr:postcode" v="TA9 3JX"/>
    <tag k="removemelater" v="yes"/>
  </node>
  <node id="-1111" lat="51.22809873987209" lon="-2.973437070394176">
    <tag k="addr:postcode" v="TA9 3JZ"/>
    <tag k="removemelater" v="yes"/>
  </node>
  <node id="-1112" lat="51.22815862328862" lon="-2.9748848121757776">
    <tag k="addr:postcode" v="TA9 3LA"/>
    <tag k="removemelater" v="yes"/>
  </node>
  <node id="-1113" lat="51.22855070464923" lon="-2.974234301500774">
    <tag k="addr:postcode" v="TA9 3LB"/>
    <tag k="removemelater" v="yes"/>
  </node>
  <node id="-1114" lat="51.227585204318494" lon="-2.9735551253717234">
    <tag k="addr:postcode" v="TA9 3LD"/>
    <tag k="removemelater" v="yes"/>
  </node>
  <node id="-1115" lat="51.22743042397215" lon="-2.975943522150192">
    <tag k="addr:postcode" v="TA9 3LH"/>
    <tag k="removemelater" v="yes"/>
  </node>
  <node id="-1116" lat="51.22676277082378" lon="-2.9740533280663897">
    <tag k="addr:postcode" v="TA9 3LL"/>
    <tag k="removemelater" v="yes"/>
  </node>
  <node id="-1117" lat="51.22743699036485" lon="-2.9751559872928723">
    <tag k="addr:postcode" v="TA9 3LN"/>
    <tag k="removemelater" v="yes"/>
  </node>
  <node id="-1118" lat="51.2256605933585" lon="-2.975748549590714">
    <tag k="addr:postcode" v="TA9 3LS"/>
    <tag k="removemelater" v="yes"/>
  </node>
  <node id="-1119" lat="51.225196425838035" lon="-2.9753377534399585">
    <tag k="addr:postcode" v="TA9 3LT"/>
    <tag k="removemelater" v="yes"/>
  </node>
  <node id="-1120" lat="51.228025503616436" lon="-2.9768297259875514">
    <tag k="addr:postcode" v="TA9 3LY"/>
    <tag k="removemelater" v="yes"/>
  </node>
  <node id="-1121" lat="51.227731945381635" lon="-2.9775252595111725">
    <tag k="addr:postcode" v="TA9 3LZ"/>
    <tag k="removemelater" v="yes"/>
  </node>
  <node id="-1122" lat="51.20343193859271" lon="-2.9907233636546517">
    <tag k="addr:postcode" v="TA9 3RL"/>
    <tag k="removemelater" v="yes"/>
  </node>
  <node id="-1123" lat="51.218782587185984" lon="-2.9767056295355547">
    <tag k="addr:postcode" v="TA9 3TE"/>
    <tag k="removemelater" v="yes"/>
  </node>
  <node id="-1124" lat="51.218751165166374" lon="-2.9761608558269215">
    <tag k="addr:postcode" v="TA9 3TF"/>
    <tag k="removemelater" v="yes"/>
  </node>
  <node id="-1125" lat="51.21855779055108" lon="-2.9756269771356014">
    <tag k="addr:postcode" v="TA9 3TG"/>
    <tag k="removemelater" v="yes"/>
  </node>
  <node id="-1126" lat="51.219185699263875" lon="-2.9758120793966336">
    <tag k="addr:postcode" v="TA9 3TH"/>
    <tag k="removemelater" v="yes"/>
  </node>
  <node id="-1127" lat="51.21896511262417" lon="-2.9753062593701127">
    <tag k="addr:postcode" v="TA9 3TJ"/>
    <tag k="removemelater" v="yes"/>
  </node>
  <node id="-1128" lat="51.219349352860846" lon="-2.9766746704061906">
    <tag k="addr:postcode" v="TA9 3TQ"/>
    <tag k="removemelater" v="yes"/>
  </node>
  <node id="-1129" lat="51.227377013884876" lon="-2.979107404888723">
    <tag k="addr:postcode" v="TA9 3YA"/>
    <tag k="removemelater" v="yes"/>
  </node>
  <node id="-1130" lat="51.227974704099765" lon="-2.9786045174860525">
    <tag k="addr:postcode" v="TA9 3YH"/>
    <tag k="removemelater" v="yes"/>
  </node>
  <node id="-1131" lat="51.21699149865508" lon="-2.9649841520714464">
    <tag k="addr:postcode" v="TA9 4AG"/>
    <tag k="removemelater" v="yes"/>
  </node>
  <node id="-1132" lat="51.2184563900876" lon="-2.966174589971284">
    <tag k="addr:postcode" v="TA9 4AQ"/>
    <tag k="removemelater" v="yes"/>
  </node>
  <node id="-1133" lat="51.21724262478231" lon="-2.9639728138514267">
    <tag k="addr:postcode" v="TA9 4AR"/>
    <tag k="removemelater" v="yes"/>
  </node>
  <node id="-1134" lat="51.218389667638064" lon="-2.9677195936500387">
    <tag k="addr:postcode" v="TA9 4AW"/>
    <tag k="removemelater" v="yes"/>
  </node>
  <node id="-1135" lat="51.25510977749613" lon="-2.9550490586063103">
    <tag k="addr:postcode" v="TA9 4DF"/>
    <tag k="removemelater" v="yes"/>
  </node>
  <node id="-1136" lat="51.22717369319697" lon="-2.963521562617424">
    <tag k="addr:postcode" v="TA9 4JP"/>
    <tag k="removemelater" v="yes"/>
  </node>
  <node id="-1137" lat="51.22445585007989" lon="-2.9670592179049717">
    <tag k="addr:postcode" v="TA9 4JR"/>
    <tag k="removemelater" v="yes"/>
  </node>
  <node id="-1138" lat="51.222367652879825" lon="-2.965125237398446">
    <tag k="addr:postcode" v="TA9 4JS"/>
    <tag k="removemelater" v="yes"/>
  </node>
  <node id="-1139" lat="51.22299900348265" lon="-2.9648950059600727">
    <tag k="addr:postcode" v="TA9 4JT"/>
    <tag k="removemelater" v="yes"/>
  </node>
  <node id="-1140" lat="51.224825020392316" lon="-2.9637302753747794">
    <tag k="addr:postcode" v="TA9 4JU"/>
    <tag k="removemelater" v="yes"/>
  </node>
  <node id="-1141" lat="51.221699637200224" lon="-2.9665288987492797">
    <tag k="addr:postcode" v="TA9 4PW"/>
    <tag k="removemelater" v="yes"/>
  </node>
  <node id="-1142" lat="51.218960987953416" lon="-2.95839578381504">
    <tag k="addr:postcode" v="TA9 4QY"/>
    <tag k="removemelater" v="yes"/>
  </node>
  <node id="-1143" lat="51.236878849645485" lon="-2.9933182987012943">
    <tag k="addr:postcode" v="TA9 4WA"/>
    <tag k="removemelater" v="yes"/>
  </node>
  <node id="-1144" lat="51.236878849645485" lon="-2.9933182987012943">
    <tag k="addr:postcode" v="TA9 4YT"/>
    <tag k="removemelater" v="yes"/>
  </node>
</osm>
