<?xml version="1.0" encoding="UTF-8"?><osm version="0.6" generator="import_postcodes.py" upload="false">
  <node id="-1" lat="50.46300193365752" lon="-3.5249349045674854">
    <tag k="addr:postcode" v="TQ1 1BL"/>
    <tag k="removemelater" v="yes"/>
  </node>
  <node id="-2" lat="50.46248397174374" lon="-3.525340928993368">
    <tag k="addr:postcode" v="TQ1 1BX"/>
    <tag k="removemelater" v="yes"/>
  </node>
  <node id="-3" lat="50.461962665872534" lon="-3.5239433936545357">
    <tag k="addr:postcode" v="TQ1 1DD"/>
    <tag k="removemelater" v="yes"/>
  </node>
  <node id="-4" lat="50.46203181760694" lon="-3.5241569580173633">
    <tag k="addr:postcode" v="TQ1 1DL"/>
    <tag k="removemelater" v="yes"/>
  </node>
  <node id="-5" lat="50.46470952088428" lon="-3.526398861219629">
    <tag k="addr:postcode" v="TQ1 1DR"/>
    <tag k="removemelater" v="yes"/>
  </node>
  <node id="-6" lat="50.46470952088428" lon="-3.526398861219629">
    <tag k="addr:postcode" v="TQ1 1DU"/>
    <tag k="removemelater" v="yes"/>
  </node>
  <node id="-7" lat="50.46277084882452" lon="-3.520601951497131">
    <tag k="addr:postcode" v="TQ1 1DW"/>
    <tag k="removemelater" v="yes"/>
  </node>
  <node id="-8" lat="50.46151879049811" lon="-3.5221256982157705">
    <tag k="addr:postcode" v="TQ1 1EB"/>
    <tag k="removemelater" v="yes"/>
  </node>
  <node id="-9" lat="50.46637901780918" lon="-3.5287071402126244">
    <tag k="addr:postcode" v="TQ1 1EU"/>
    <tag k="removemelater" v="yes"/>
  </node>
  <node id="-10" lat="50.47131084813213" lon="-3.5243426374066282">
    <tag k="addr:postcode" v="TQ1 1LJ"/>
    <tag k="removemelater" v="yes"/>
  </node>
  <node id="-11" lat="50.4702233881363" lon="-3.5249699760747624">
    <tag k="addr:postcode" v="TQ1 1NP"/>
    <tag k="removemelater" v="yes"/>
  </node>
  <node id="-12" lat="50.469016683383586" lon="-3.523028795329256">
    <tag k="addr:postcode" v="TQ1 1PD"/>
    <tag k="removemelater" v="yes"/>
  </node>
  <node id="-13" lat="50.46373783084717" lon="-3.516110106167912">
    <tag k="addr:postcode" v="TQ1 1PX"/>
    <tag k="removemelater" v="yes"/>
  </node>
  <node id="-14" lat="50.46378004415728" lon="-3.5218319697760445">
    <tag k="addr:postcode" v="TQ1 1QD"/>
    <tag k="removemelater" v="yes"/>
  </node>
  <node id="-15" lat="50.466569266165486" lon="-3.522428791973919">
    <tag k="addr:postcode" v="TQ1 1RL"/>
    <tag k="removemelater" v="yes"/>
  </node>
  <node id="-16" lat="50.4719625600345" lon="-3.52608287085644">
    <tag k="addr:postcode" v="TQ1 1TF"/>
    <tag k="removemelater" v="yes"/>
  </node>
  <node id="-17" lat="50.46550104585095" lon="-3.5202104615095218">
    <tag k="addr:postcode" v="TQ1 1TR"/>
    <tag k="removemelater" v="yes"/>
  </node>
  <node id="-18" lat="50.484772183134226" lon="-3.549697891034867">
    <tag k="addr:postcode" v="TQ1 1YH"/>
    <tag k="removemelater" v="yes"/>
  </node>
  <node id="-19" lat="50.46152013207786" lon="-3.5240841495299353">
    <tag k="addr:postcode" v="TQ1 2AA"/>
    <tag k="removemelater" v="yes"/>
  </node>
  <node id="-20" lat="50.46203065722485" lon="-3.524931838887859">
    <tag k="addr:postcode" v="TQ1 2AB"/>
    <tag k="removemelater" v="yes"/>
  </node>
  <node id="-21" lat="50.46149703639622" lon="-3.5237875325066996">
    <tag k="addr:postcode" v="TQ1 2AG"/>
    <tag k="removemelater" v="yes"/>
  </node>
  <node id="-22" lat="50.45895980769946" lon="-3.5245512935397807">
    <tag k="addr:postcode" v="TQ1 2BE"/>
    <tag k="removemelater" v="yes"/>
  </node>
  <node id="-23" lat="50.484772183134226" lon="-3.549697891034867">
    <tag k="addr:postcode" v="TQ1 2BQ"/>
    <tag k="removemelater" v="yes"/>
  </node>
  <node id="-24" lat="50.460115297831734" lon="-3.521474815575856">
    <tag k="addr:postcode" v="TQ1 2BW"/>
    <tag k="removemelater" v="yes"/>
  </node>
  <node id="-25" lat="50.461677152611685" lon="-3.5244555199402634">
    <tag k="addr:postcode" v="TQ1 2DE"/>
    <tag k="removemelater" v="yes"/>
  </node>
  <node id="-26" lat="50.46192536281657" lon="-3.5247312002968516">
    <tag k="addr:postcode" v="TQ1 2DF"/>
    <tag k="removemelater" v="yes"/>
  </node>
  <node id="-27" lat="50.456466265938005" lon="-3.515088665887296">
    <tag k="addr:postcode" v="TQ1 2EQ"/>
    <tag k="removemelater" v="yes"/>
  </node>
  <node id="-28" lat="50.45815676442675" lon="-3.5095778262431696">
    <tag k="addr:postcode" v="TQ1 2LL"/>
    <tag k="removemelater" v="yes"/>
  </node>
  <node id="-29" lat="50.462660118743685" lon="-3.513229539183735">
    <tag k="addr:postcode" v="TQ1 2LS"/>
    <tag k="removemelater" v="yes"/>
  </node>
  <node id="-30" lat="50.46635263985032" lon="-3.506597984480489">
    <tag k="addr:postcode" v="TQ1 2NJ"/>
    <tag k="removemelater" v="yes"/>
  </node>
  <node id="-31" lat="50.46678519659964" lon="-3.5058367393263694">
    <tag k="addr:postcode" v="TQ1 2PP"/>
    <tag k="removemelater" v="yes"/>
  </node>
  <node id="-32" lat="50.4693898550892" lon="-3.505412200129325">
    <tag k="addr:postcode" v="TQ1 2QN"/>
    <tag k="removemelater" v="yes"/>
  </node>
  <node id="-33" lat="50.484772183134226" lon="-3.549697891034867">
    <tag k="addr:postcode" v="TQ1 2ZN"/>
    <tag k="removemelater" v="yes"/>
  </node>
  <node id="-34" lat="50.467150372306" lon="-3.52818247218214">
    <tag k="addr:postcode" v="TQ1 3AQ"/>
    <tag k="removemelater" v="yes"/>
  </node>
  <node id="-35" lat="50.468593929578766" lon="-3.5278344597213773">
    <tag k="addr:postcode" v="TQ1 3AW"/>
    <tag k="removemelater" v="yes"/>
  </node>
  <node id="-36" lat="50.47061794255326" lon="-3.5278010677660205">
    <tag k="addr:postcode" v="TQ1 3BA"/>
    <tag k="removemelater" v="yes"/>
  </node>
  <node id="-37" lat="50.466581527598" lon="-3.5290377597113016">
    <tag k="addr:postcode" v="TQ1 3DN"/>
    <tag k="removemelater" v="yes"/>
  </node>
  <node id="-38" lat="50.47170279562202" lon="-3.53557271918352">
    <tag k="addr:postcode" v="TQ1 3EA"/>
    <tag k="removemelater" v="yes"/>
  </node>
  <node id="-39" lat="50.47102328681597" lon="-3.535268858670468">
    <tag k="addr:postcode" v="TQ1 3EU"/>
    <tag k="removemelater" v="yes"/>
  </node>
  <node id="-40" lat="50.47344783787834" lon="-3.530090787306599">
    <tag k="addr:postcode" v="TQ1 3HF"/>
    <tag k="removemelater" v="yes"/>
  </node>
  <node id="-41" lat="50.46815791967422" lon="-3.531582767866012">
    <tag k="addr:postcode" v="TQ1 3HU"/>
    <tag k="removemelater" v="yes"/>
  </node>
  <node id="-42" lat="50.47852558848166" lon="-3.5255754547184797">
    <tag k="addr:postcode" v="TQ1 3PF"/>
    <tag k="removemelater" v="yes"/>
  </node>
  <node id="-43" lat="50.47869571650544" lon="-3.5249466859580303">
    <tag k="addr:postcode" v="TQ1 3PJ"/>
    <tag k="removemelater" v="yes"/>
  </node>
  <node id="-44" lat="50.478018447607724" lon="-3.523783258420265">
    <tag k="addr:postcode" v="TQ1 3PW"/>
    <tag k="removemelater" v="yes"/>
  </node>
  <node id="-45" lat="50.47672619901247" lon="-3.5249396704989553">
    <tag k="addr:postcode" v="TQ1 3QW"/>
    <tag k="removemelater" v="yes"/>
  </node>
  <node id="-46" lat="50.4745063929867" lon="-3.5193155374245184">
    <tag k="addr:postcode" v="TQ1 3RF"/>
    <tag k="removemelater" v="yes"/>
  </node>
  <node id="-47" lat="50.48070750996013" lon="-3.521036661801201">
    <tag k="addr:postcode" v="TQ1 3SD"/>
    <tag k="removemelater" v="yes"/>
  </node>
  <node id="-48" lat="50.47680615459463" lon="-3.511228969183059">
    <tag k="addr:postcode" v="TQ1 3SY"/>
    <tag k="removemelater" v="yes"/>
  </node>
  <node id="-49" lat="50.46734362917461" lon="-3.5292173467914485">
    <tag k="addr:postcode" v="TQ1 3UT"/>
    <tag k="removemelater" v="yes"/>
  </node>
  <node id="-50" lat="50.46752677534239" lon="-3.530336449886685">
    <tag k="addr:postcode" v="TQ1 3YA"/>
    <tag k="removemelater" v="yes"/>
  </node>
  <node id="-51" lat="50.475539651287335" lon="-3.5365144822432573">
    <tag k="addr:postcode" v="TQ1 4AR"/>
    <tag k="removemelater" v="yes"/>
  </node>
  <node id="-52" lat="50.47138330602044" lon="-3.5379721357590967">
    <tag k="addr:postcode" v="TQ1 4AT"/>
    <tag k="removemelater" v="yes"/>
  </node>
  <node id="-53" lat="50.46957511122018" lon="-3.534601910622353">
    <tag k="addr:postcode" v="TQ1 4BU"/>
    <tag k="removemelater" v="yes"/>
  </node>
  <node id="-54" lat="50.4741541344539" lon="-3.543346960400626">
    <tag k="addr:postcode" v="TQ1 4DP"/>
    <tag k="removemelater" v="yes"/>
  </node>
  <node id="-55" lat="50.47634730329803" lon="-3.5373299204763184">
    <tag k="addr:postcode" v="TQ1 4FB"/>
    <tag k="removemelater" v="yes"/>
  </node>
  <node id="-56" lat="50.47673857322374" lon="-3.537666773585107">
    <tag k="addr:postcode" v="TQ1 4FU"/>
    <tag k="removemelater" v="yes"/>
  </node>
  <node id="-57" lat="50.47860994204931" lon="-3.537614755213376">
    <tag k="addr:postcode" v="TQ1 4HB"/>
    <tag k="removemelater" v="yes"/>
  </node>
  <node id="-58" lat="50.47845147645176" lon="-3.537355914449104">
    <tag k="addr:postcode" v="TQ1 4HD"/>
    <tag k="removemelater" v="yes"/>
  </node>
  <node id="-59" lat="50.477866835104834" lon="-3.5359979996241093">
    <tag k="addr:postcode" v="TQ1 4HN"/>
    <tag k="removemelater" v="yes"/>
  </node>
  <node id="-60" lat="50.478050213826144" lon="-3.5343690177328018">
    <tag k="addr:postcode" v="TQ1 4HS"/>
    <tag k="removemelater" v="yes"/>
  </node>
  <node id="-61" lat="50.478605759726115" lon="-3.5331608003207187">
    <tag k="addr:postcode" v="TQ1 4JJ"/>
    <tag k="removemelater" v="yes"/>
  </node>
  <node id="-62" lat="50.477164566657514" lon="-3.5346926843698467">
    <tag k="addr:postcode" v="TQ1 4JN"/>
    <tag k="removemelater" v="yes"/>
  </node>
  <node id="-63" lat="50.48154201482865" lon="-3.5225575496860295">
    <tag k="addr:postcode" v="TQ1 4NB"/>
    <tag k="removemelater" v="yes"/>
  </node>
  <node id="-64" lat="50.481592901949234" lon="-3.5214174710573722">
    <tag k="addr:postcode" v="TQ1 4PP"/>
    <tag k="removemelater" v="yes"/>
  </node>
  <node id="-65" lat="50.482835032848364" lon="-3.5234025590704396">
    <tag k="addr:postcode" v="TQ1 4PU"/>
    <tag k="removemelater" v="yes"/>
  </node>
  <node id="-66" lat="50.48353231430184" lon="-3.524411691090673">
    <tag k="addr:postcode" v="TQ1 4PY"/>
    <tag k="removemelater" v="yes"/>
  </node>
  <node id="-67" lat="50.4838612465918" lon="-3.5247041951614744">
    <tag k="addr:postcode" v="TQ1 4PZ"/>
    <tag k="removemelater" v="yes"/>
  </node>
  <node id="-68" lat="50.484772183134226" lon="-3.549697891034867">
    <tag k="addr:postcode" v="TQ1 4XR"/>
    <tag k="removemelater" v="yes"/>
  </node>
  <node id="-69" lat="50.484772183134226" lon="-3.549697891034867">
    <tag k="addr:postcode" v="TQ1 9BB"/>
    <tag k="removemelater" v="yes"/>
  </node>
  <node id="-70" lat="50.484772183134226" lon="-3.549697891034867">
    <tag k="addr:postcode" v="TQ1 9EN"/>
    <tag k="removemelater" v="yes"/>
  </node>
  <node id="-71" lat="50.484772183134226" lon="-3.549697891034867">
    <tag k="addr:postcode" v="TQ1 9EQ"/>
    <tag k="removemelater" v="yes"/>
  </node>
  <node id="-72" lat="50.484772183134226" lon="-3.549697891034867">
    <tag k="addr:postcode" v="TQ1 9ES"/>
    <tag k="removemelater" v="yes"/>
  </node>
  <node id="-73" lat="50.484772183134226" lon="-3.549697891034867">
    <tag k="addr:postcode" v="TQ1 9ET"/>
    <tag k="removemelater" v="yes"/>
  </node>
  <node id="-74" lat="50.484772183134226" lon="-3.549697891034867">
    <tag k="addr:postcode" v="TQ1 9FE"/>
    <tag k="removemelater" v="yes"/>
  </node>
  <node id="-75" lat="50.484772183134226" lon="-3.549697891034867">
    <tag k="addr:postcode" v="TQ1 9GW"/>
    <tag k="removemelater" v="yes"/>
  </node>
  <node id="-76" lat="50.484772183134226" lon="-3.549697891034867">
    <tag k="addr:postcode" v="TQ1 9GZ"/>
    <tag k="removemelater" v="yes"/>
  </node>
  <node id="-77" lat="50.484772183134226" lon="-3.549697891034867">
    <tag k="addr:postcode" v="TQ1 9HA"/>
    <tag k="removemelater" v="yes"/>
  </node>
  <node id="-78" lat="50.484772183134226" lon="-3.549697891034867">
    <tag k="addr:postcode" v="TQ1 9HB"/>
    <tag k="removemelater" v="yes"/>
  </node>
  <node id="-79" lat="50.484772183134226" lon="-3.549697891034867">
    <tag k="addr:postcode" v="TQ1 9HD"/>
    <tag k="removemelater" v="yes"/>
  </node>
  <node id="-80" lat="50.484772183134226" lon="-3.549697891034867">
    <tag k="addr:postcode" v="TQ1 9HG"/>
    <tag k="removemelater" v="yes"/>
  </node>
  <node id="-81" lat="50.484772183134226" lon="-3.549697891034867">
    <tag k="addr:postcode" v="TQ1 9HH"/>
    <tag k="removemelater" v="yes"/>
  </node>
  <node id="-82" lat="50.484772183134226" lon="-3.549697891034867">
    <tag k="addr:postcode" v="TQ1 9HR"/>
    <tag k="removemelater" v="yes"/>
  </node>
  <node id="-83" lat="50.484772183134226" lon="-3.549697891034867">
    <tag k="addr:postcode" v="TQ1 9HT"/>
    <tag k="removemelater" v="yes"/>
  </node>
  <node id="-84" lat="50.484772183134226" lon="-3.549697891034867">
    <tag k="addr:postcode" v="TQ1 9HX"/>
    <tag k="removemelater" v="yes"/>
  </node>
  <node id="-85" lat="50.484772183134226" lon="-3.549697891034867">
    <tag k="addr:postcode" v="TQ1 9HY"/>
    <tag k="removemelater" v="yes"/>
  </node>
  <node id="-86" lat="50.484772183134226" lon="-3.549697891034867">
    <tag k="addr:postcode" v="TQ1 9HZ"/>
    <tag k="removemelater" v="yes"/>
  </node>
  <node id="-87" lat="50.484772183134226" lon="-3.549697891034867">
    <tag k="addr:postcode" v="TQ1 9JA"/>
    <tag k="removemelater" v="yes"/>
  </node>
  <node id="-88" lat="50.484772183134226" lon="-3.549697891034867">
    <tag k="addr:postcode" v="TQ1 9JB"/>
    <tag k="removemelater" v="yes"/>
  </node>
  <node id="-89" lat="50.484772183134226" lon="-3.549697891034867">
    <tag k="addr:postcode" v="TQ1 9JD"/>
    <tag k="removemelater" v="yes"/>
  </node>
  <node id="-90" lat="50.484772183134226" lon="-3.549697891034867">
    <tag k="addr:postcode" v="TQ1 9JF"/>
    <tag k="removemelater" v="yes"/>
  </node>
  <node id="-91" lat="50.484772183134226" lon="-3.549697891034867">
    <tag k="addr:postcode" v="TQ1 9JG"/>
    <tag k="removemelater" v="yes"/>
  </node>
  <node id="-92" lat="50.46878933685096" lon="-3.5321245561560324">
    <tag k="addr:postcode" v="TQ1 9SA"/>
    <tag k="removemelater" v="yes"/>
  </node>
  <node id="-93" lat="50.46878933685096" lon="-3.5321245561560324">
    <tag k="addr:postcode" v="TQ1 9SB"/>
    <tag k="removemelater" v="yes"/>
  </node>
  <node id="-94" lat="50.46878933685096" lon="-3.5321245561560324">
    <tag k="addr:postcode" v="TQ1 9SD"/>
    <tag k="removemelater" v="yes"/>
  </node>
  <node id="-95" lat="50.46878933685096" lon="-3.5321245561560324">
    <tag k="addr:postcode" v="TQ1 9SE"/>
    <tag k="removemelater" v="yes"/>
  </node>
  <node id="-96" lat="50.46878933685096" lon="-3.5321245561560324">
    <tag k="addr:postcode" v="TQ1 9SF"/>
    <tag k="removemelater" v="yes"/>
  </node>
  <node id="-97" lat="50.46878933685096" lon="-3.5321245561560324">
    <tag k="addr:postcode" v="TQ1 9SG"/>
    <tag k="removemelater" v="yes"/>
  </node>
  <node id="-98" lat="50.46878933685096" lon="-3.5321245561560324">
    <tag k="addr:postcode" v="TQ1 9SH"/>
    <tag k="removemelater" v="yes"/>
  </node>
  <node id="-99" lat="50.46878933685096" lon="-3.5321245561560324">
    <tag k="addr:postcode" v="TQ1 9SJ"/>
    <tag k="removemelater" v="yes"/>
  </node>
  <node id="-100" lat="50.46878933685096" lon="-3.5321245561560324">
    <tag k="addr:postcode" v="TQ1 9SL"/>
    <tag k="removemelater" v="yes"/>
  </node>
  <node id="-101" lat="50.46878933685096" lon="-3.5321245561560324">
    <tag k="addr:postcode" v="TQ1 9SN"/>
    <tag k="removemelater" v="yes"/>
  </node>
  <node id="-102" lat="50.46878933685096" lon="-3.5321245561560324">
    <tag k="addr:postcode" v="TQ1 9SP"/>
    <tag k="removemelater" v="yes"/>
  </node>
  <node id="-103" lat="50.46878933685096" lon="-3.5321245561560324">
    <tag k="addr:postcode" v="TQ1 9SQ"/>
    <tag k="removemelater" v="yes"/>
  </node>
  <node id="-104" lat="50.46878933685096" lon="-3.5321245561560324">
    <tag k="addr:postcode" v="TQ1 9SR"/>
    <tag k="removemelater" v="yes"/>
  </node>
  <node id="-105" lat="50.46878933685096" lon="-3.5321245561560324">
    <tag k="addr:postcode" v="TQ1 9SS"/>
    <tag k="removemelater" v="yes"/>
  </node>
  <node id="-106" lat="50.46878933685096" lon="-3.5321245561560324">
    <tag k="addr:postcode" v="TQ1 9ST"/>
    <tag k="removemelater" v="yes"/>
  </node>
  <node id="-107" lat="50.46878933685096" lon="-3.5321245561560324">
    <tag k="addr:postcode" v="TQ1 9SU"/>
    <tag k="removemelater" v="yes"/>
  </node>
  <node id="-108" lat="50.42761376489472" lon="-3.83603657655879">
    <tag k="addr:postcode" v="TQ10 9AH"/>
    <tag k="removemelater" v="yes"/>
  </node>
  <node id="-109" lat="50.429776002407884" lon="-3.832952172087535">
    <tag k="addr:postcode" v="TQ10 9AS"/>
    <tag k="removemelater" v="yes"/>
  </node>
  <node id="-110" lat="50.42694130158106" lon="-3.834194316572086">
    <tag k="addr:postcode" v="TQ10 9BE"/>
    <tag k="removemelater" v="yes"/>
  </node>
  <node id="-111" lat="50.435119528156285" lon="-3.8243011169092385">
    <tag k="addr:postcode" v="TQ10 9DR"/>
    <tag k="removemelater" v="yes"/>
  </node>
  <node id="-112" lat="50.41758005857976" lon="-3.8094096897297165">
    <tag k="addr:postcode" v="TQ10 9EX"/>
    <tag k="removemelater" v="yes"/>
  </node>
  <node id="-113" lat="50.42357093715126" lon="-3.833472782171866">
    <tag k="addr:postcode" v="TQ10 9HT"/>
    <tag k="removemelater" v="yes"/>
  </node>
  <node id="-114" lat="50.42238689186046" lon="-3.83327218910665">
    <tag k="addr:postcode" v="TQ10 9HY"/>
    <tag k="removemelater" v="yes"/>
  </node>
  <node id="-115" lat="50.42198651729171" lon="-3.8335664413057526">
    <tag k="addr:postcode" v="TQ10 9JA"/>
    <tag k="removemelater" v="yes"/>
  </node>
  <node id="-116" lat="50.40449767024646" lon="-3.8126264867145325">
    <tag k="addr:postcode" v="TQ10 9ND"/>
    <tag k="removemelater" v="yes"/>
  </node>
  <node id="-117" lat="50.48124317528517" lon="-3.7794066203534773">
    <tag k="addr:postcode" v="TQ11 0AD"/>
    <tag k="removemelater" v="yes"/>
  </node>
  <node id="-118" lat="50.48117768115678" lon="-3.7830971710252155">
    <tag k="addr:postcode" v="TQ11 0AZ"/>
    <tag k="removemelater" v="yes"/>
  </node>
  <node id="-119" lat="50.481672745137004" lon="-3.776603636229606">
    <tag k="addr:postcode" v="TQ11 0BS"/>
    <tag k="removemelater" v="yes"/>
  </node>
  <node id="-120" lat="50.47404058218206" lon="-3.7863519048697616">
    <tag k="addr:postcode" v="TQ11 0DS"/>
    <tag k="removemelater" v="yes"/>
  </node>
  <node id="-121" lat="50.480434346471874" lon="-3.7799541426782004">
    <tag k="addr:postcode" v="TQ11 0FB"/>
    <tag k="removemelater" v="yes"/>
  </node>
  <node id="-122" lat="50.480769814337606" lon="-3.7827153392897523">
    <tag k="addr:postcode" v="TQ11 0FF"/>
    <tag k="removemelater" v="yes"/>
  </node>
  <node id="-123" lat="50.48722252552343" lon="-3.795899519145256">
    <tag k="addr:postcode" v="TQ11 0HD"/>
    <tag k="removemelater" v="yes"/>
  </node>
  <node id="-124" lat="50.47736398097883" lon="-3.8017977665527463">
    <tag k="addr:postcode" v="TQ11 0HG"/>
    <tag k="removemelater" v="yes"/>
  </node>
  <node id="-125" lat="50.48106633608604" lon="-3.7656287563762403">
    <tag k="addr:postcode" v="TQ11 0NF"/>
    <tag k="removemelater" v="yes"/>
  </node>
  <node id="-126" lat="50.48063679350927" lon="-3.777889740956976">
    <tag k="addr:postcode" v="TQ11 0PF"/>
    <tag k="removemelater" v="yes"/>
  </node>
  <node id="-127" lat="50.52670136261725" lon="-3.603414793640473">
    <tag k="addr:postcode" v="TQ12 1AE"/>
    <tag k="removemelater" v="yes"/>
  </node>
  <node id="-128" lat="50.52924926674953" lon="-3.612333757575759">
    <tag k="addr:postcode" v="TQ12 1AF"/>
    <tag k="removemelater" v="yes"/>
  </node>
  <node id="-129" lat="50.52701715881123" lon="-3.603340846757385">
    <tag k="addr:postcode" v="TQ12 1AL"/>
    <tag k="removemelater" v="yes"/>
  </node>
  <node id="-130" lat="50.52720700848023" lon="-3.604574760192415">
    <tag k="addr:postcode" v="TQ12 1AS"/>
    <tag k="removemelater" v="yes"/>
  </node>
  <node id="-131" lat="50.525574907968604" lon="-3.602925134970629">
    <tag k="addr:postcode" v="TQ12 1AW"/>
    <tag k="removemelater" v="yes"/>
  </node>
  <node id="-132" lat="50.52681338270649" lon="-3.607030448843248">
    <tag k="addr:postcode" v="TQ12 1BH"/>
    <tag k="removemelater" v="yes"/>
  </node>
  <node id="-133" lat="50.529256888592975" lon="-3.6124327843336586">
    <tag k="addr:postcode" v="TQ12 1EX"/>
    <tag k="removemelater" v="yes"/>
  </node>
  <node id="-134" lat="50.52896453708203" lon="-3.613410479207338">
    <tag k="addr:postcode" v="TQ12 1FT"/>
    <tag k="removemelater" v="yes"/>
  </node>
  <node id="-135" lat="50.52587548021186" lon="-3.6104692821472026">
    <tag k="addr:postcode" v="TQ12 1HE"/>
    <tag k="removemelater" v="yes"/>
  </node>
  <node id="-136" lat="50.52836555882675" lon="-3.6112031043662203">
    <tag k="addr:postcode" v="TQ12 1HU"/>
    <tag k="removemelater" v="yes"/>
  </node>
  <node id="-137" lat="50.52854533721674" lon="-3.6151034086369567">
    <tag k="addr:postcode" v="TQ12 1JQ"/>
    <tag k="removemelater" v="yes"/>
  </node>
  <node id="-138" lat="50.5278662613469" lon="-3.614134904608516">
    <tag k="addr:postcode" v="TQ12 1JX"/>
    <tag k="removemelater" v="yes"/>
  </node>
  <node id="-139" lat="50.5215191600463" lon="-3.6197869305608736">
    <tag k="addr:postcode" v="TQ12 1LS"/>
    <tag k="removemelater" v="yes"/>
  </node>
  <node id="-140" lat="50.53879718487725" lon="-3.624217440893747">
    <tag k="addr:postcode" v="TQ12 1QE"/>
    <tag k="removemelater" v="yes"/>
  </node>
  <node id="-141" lat="50.525640829024205" lon="-3.60662378761223">
    <tag k="addr:postcode" v="TQ12 1RA"/>
    <tag k="removemelater" v="yes"/>
  </node>
  <node id="-142" lat="50.53035496087683" lon="-3.613669566010842">
    <tag k="addr:postcode" v="TQ12 1TQ"/>
    <tag k="removemelater" v="yes"/>
  </node>
  <node id="-143" lat="50.52924503598179" lon="-3.598294617233769">
    <tag k="addr:postcode" v="TQ12 1XU"/>
    <tag k="removemelater" v="yes"/>
  </node>
  <node id="-144" lat="50.52924503598179" lon="-3.598294617233769">
    <tag k="addr:postcode" v="TQ12 1YS"/>
    <tag k="removemelater" v="yes"/>
  </node>
  <node id="-145" lat="50.52924503598179" lon="-3.598294617233769">
    <tag k="addr:postcode" v="TQ12 1ZT"/>
    <tag k="removemelater" v="yes"/>
  </node>
  <node id="-146" lat="50.52924503598179" lon="-3.598294617233769">
    <tag k="addr:postcode" v="TQ12 1ZX"/>
    <tag k="removemelater" v="yes"/>
  </node>
  <node id="-147" lat="50.530894855056125" lon="-3.6091022251933103">
    <tag k="addr:postcode" v="TQ12 2AG"/>
    <tag k="removemelater" v="yes"/>
  </node>
  <node id="-148" lat="50.530963044603176" lon="-3.608723573889471">
    <tag k="addr:postcode" v="TQ12 2AH"/>
    <tag k="removemelater" v="yes"/>
  </node>
  <node id="-149" lat="50.53084930080246" lon="-3.6084939439116965">
    <tag k="addr:postcode" v="TQ12 2AQ"/>
    <tag k="removemelater" v="yes"/>
  </node>
  <node id="-150" lat="50.53124494166466" lon="-3.60654609181509">
    <tag k="addr:postcode" v="TQ12 2AW"/>
    <tag k="removemelater" v="yes"/>
  </node>
  <node id="-151" lat="50.531427959659645" lon="-3.605014298391119">
    <tag k="addr:postcode" v="TQ12 2BA"/>
    <tag k="removemelater" v="yes"/>
  </node>
  <node id="-152" lat="50.53105915325448" lon="-3.6043668266786275">
    <tag k="addr:postcode" v="TQ12 2BG"/>
    <tag k="removemelater" v="yes"/>
  </node>
  <node id="-153" lat="50.53125074176993" lon="-3.6054739179779633">
    <tag k="addr:postcode" v="TQ12 2BH"/>
    <tag k="removemelater" v="yes"/>
  </node>
  <node id="-154" lat="50.53097395491962" lon="-3.602063996791273">
    <tag k="addr:postcode" v="TQ12 2BN"/>
    <tag k="removemelater" v="yes"/>
  </node>
  <node id="-155" lat="50.5306368833147" lon="-3.600415822579519">
    <tag k="addr:postcode" v="TQ12 2BS"/>
    <tag k="removemelater" v="yes"/>
  </node>
  <node id="-156" lat="50.53000049928738" lon="-3.599604138617769">
    <tag k="addr:postcode" v="TQ12 2BT"/>
    <tag k="removemelater" v="yes"/>
  </node>
  <node id="-157" lat="50.52998109121808" lon="-3.6101434750028036">
    <tag k="addr:postcode" v="TQ12 2EA"/>
    <tag k="removemelater" v="yes"/>
  </node>
  <node id="-158" lat="50.530309196803316" lon="-3.60983011975571">
    <tag k="addr:postcode" v="TQ12 2ED"/>
    <tag k="removemelater" v="yes"/>
  </node>
  <node id="-159" lat="50.53034729999966" lon="-3.609676208223138">
    <tag k="addr:postcode" v="TQ12 2EE"/>
    <tag k="removemelater" v="yes"/>
  </node>
  <node id="-160" lat="50.530283769850435" lon="-3.609067321757442">
    <tag k="addr:postcode" v="TQ12 2EN"/>
    <tag k="removemelater" v="yes"/>
  </node>
  <node id="-161" lat="50.53057218800296" lon="-3.6083716384522875">
    <tag k="addr:postcode" v="TQ12 2EQ"/>
    <tag k="removemelater" v="yes"/>
  </node>
  <node id="-162" lat="50.53071939274448" lon="-3.6055264280411734">
    <tag k="addr:postcode" v="TQ12 2ER"/>
    <tag k="removemelater" v="yes"/>
  </node>
  <node id="-163" lat="50.530680905875954" lon="-3.605708550980681">
    <tag k="addr:postcode" v="TQ12 2ES"/>
    <tag k="removemelater" v="yes"/>
  </node>
  <node id="-164" lat="50.53069685413934" lon="-3.6045520744167905">
    <tag k="addr:postcode" v="TQ12 2ET"/>
    <tag k="removemelater" v="yes"/>
  </node>
  <node id="-165" lat="50.531528514878765" lon="-3.6068520408459186">
    <tag k="addr:postcode" v="TQ12 2FE"/>
    <tag k="removemelater" v="yes"/>
  </node>
  <node id="-166" lat="50.530954781460494" lon="-3.6073687272418975">
    <tag k="addr:postcode" v="TQ12 2FF"/>
    <tag k="removemelater" v="yes"/>
  </node>
  <node id="-167" lat="50.53100095145138" lon="-3.6085837627578075">
    <tag k="addr:postcode" v="TQ12 2FG"/>
    <tag k="removemelater" v="yes"/>
  </node>
  <node id="-168" lat="50.53100643220682" lon="-3.608837930528223">
    <tag k="addr:postcode" v="TQ12 2FH"/>
    <tag k="removemelater" v="yes"/>
  </node>
  <node id="-169" lat="50.529135311372976" lon="-3.6030034834971483">
    <tag k="addr:postcode" v="TQ12 2GY"/>
    <tag k="removemelater" v="yes"/>
  </node>
  <node id="-170" lat="50.530147039043435" lon="-3.6033340847682265">
    <tag k="addr:postcode" v="TQ12 2HS"/>
    <tag k="removemelater" v="yes"/>
  </node>
  <node id="-171" lat="50.52684345469386" lon="-3.599624337768646">
    <tag k="addr:postcode" v="TQ12 2JB"/>
    <tag k="removemelater" v="yes"/>
  </node>
  <node id="-172" lat="50.529961580065006" lon="-3.6128518857085963">
    <tag k="addr:postcode" v="TQ12 2JL"/>
    <tag k="removemelater" v="yes"/>
  </node>
  <node id="-173" lat="50.53001531943262" lon="-3.612218778304897">
    <tag k="addr:postcode" v="TQ12 2JW"/>
    <tag k="removemelater" v="yes"/>
  </node>
  <node id="-174" lat="50.52989235036043" lon="-3.6094067468608464">
    <tag k="addr:postcode" v="TQ12 2JX"/>
    <tag k="removemelater" v="yes"/>
  </node>
  <node id="-175" lat="50.52924698587876" lon="-3.607296570341137">
    <tag k="addr:postcode" v="TQ12 2LS"/>
    <tag k="removemelater" v="yes"/>
  </node>
  <node id="-176" lat="50.53212665658476" lon="-3.6130245054107974">
    <tag k="addr:postcode" v="TQ12 2NN"/>
    <tag k="removemelater" v="yes"/>
  </node>
  <node id="-177" lat="50.531484040803576" lon="-3.6087695188545736">
    <tag k="addr:postcode" v="TQ12 2PG"/>
    <tag k="removemelater" v="yes"/>
  </node>
  <node id="-178" lat="50.52924503598179" lon="-3.598294617233769">
    <tag k="addr:postcode" v="TQ12 2QE"/>
    <tag k="removemelater" v="yes"/>
  </node>
  <node id="-179" lat="50.53004325875263" lon="-3.6115001315095134">
    <tag k="addr:postcode" v="TQ12 2QH"/>
    <tag k="removemelater" v="yes"/>
  </node>
  <node id="-180" lat="50.53083820657276" lon="-3.6099468990578454">
    <tag k="addr:postcode" v="TQ12 2QW"/>
    <tag k="removemelater" v="yes"/>
  </node>
  <node id="-181" lat="50.53114696752097" lon="-3.6097316492502323">
    <tag k="addr:postcode" v="TQ12 2QX"/>
    <tag k="removemelater" v="yes"/>
  </node>
  <node id="-182" lat="50.5309370900835" lon="-3.6099502656243527">
    <tag k="addr:postcode" v="TQ12 2QZ"/>
    <tag k="removemelater" v="yes"/>
  </node>
  <node id="-183" lat="50.530685226329354" lon="-3.612552037331432">
    <tag k="addr:postcode" v="TQ12 2RJ"/>
    <tag k="removemelater" v="yes"/>
  </node>
  <node id="-184" lat="50.53089471781072" lon="-3.6123616405235404">
    <tag k="addr:postcode" v="TQ12 2RL"/>
    <tag k="removemelater" v="yes"/>
  </node>
  <node id="-185" lat="50.53050816114176" lon="-3.611050346820905">
    <tag k="addr:postcode" v="TQ12 2RX"/>
    <tag k="removemelater" v="yes"/>
  </node>
  <node id="-186" lat="50.52924503598179" lon="-3.598294617233769">
    <tag k="addr:postcode" v="TQ12 2WX"/>
    <tag k="removemelater" v="yes"/>
  </node>
  <node id="-187" lat="50.52924503598179" lon="-3.598294617233769">
    <tag k="addr:postcode" v="TQ12 2YD"/>
    <tag k="removemelater" v="yes"/>
  </node>
  <node id="-188" lat="50.52924503598179" lon="-3.598294617233769">
    <tag k="addr:postcode" v="TQ12 2YH"/>
    <tag k="removemelater" v="yes"/>
  </node>
  <node id="-189" lat="50.52924503598179" lon="-3.598294617233769">
    <tag k="addr:postcode" v="TQ12 2YS"/>
    <tag k="removemelater" v="yes"/>
  </node>
  <node id="-190" lat="50.52924503598179" lon="-3.598294617233769">
    <tag k="addr:postcode" v="TQ12 2ZS"/>
    <tag k="removemelater" v="yes"/>
  </node>
  <node id="-191" lat="50.54619474254637" lon="-3.5965670681366104">
    <tag k="addr:postcode" v="TQ12 3AJ"/>
    <tag k="removemelater" v="yes"/>
  </node>
  <node id="-192" lat="50.547967491392114" lon="-3.597149216191931">
    <tag k="addr:postcode" v="TQ12 3EZ"/>
    <tag k="removemelater" v="yes"/>
  </node>
  <node id="-193" lat="50.53191091531891" lon="-3.59933011566397">
    <tag k="addr:postcode" v="TQ12 4AA"/>
    <tag k="removemelater" v="yes"/>
  </node>
  <node id="-194" lat="50.52553697384854" lon="-3.591270289010949">
    <tag k="addr:postcode" v="TQ12 4DA"/>
    <tag k="removemelater" v="yes"/>
  </node>
  <node id="-195" lat="50.52754704604807" lon="-3.586329219693854">
    <tag k="addr:postcode" v="TQ12 4DG"/>
    <tag k="removemelater" v="yes"/>
  </node>
  <node id="-196" lat="50.51057385219698" lon="-3.549104074116518">
    <tag k="addr:postcode" v="TQ12 4EU"/>
    <tag k="removemelater" v="yes"/>
  </node>
  <node id="-197" lat="50.527337554598" lon="-3.5944207331192826">
    <tag k="addr:postcode" v="TQ12 4FS"/>
    <tag k="removemelater" v="yes"/>
  </node>
  <node id="-198" lat="50.53088800056174" lon="-3.5846916520327112">
    <tag k="addr:postcode" v="TQ12 4HW"/>
    <tag k="removemelater" v="yes"/>
  </node>
  <node id="-199" lat="50.53896705923118" lon="-3.563201126916821">
    <tag k="addr:postcode" v="TQ12 4RN"/>
    <tag k="removemelater" v="yes"/>
  </node>
  <node id="-200" lat="50.534011353563145" lon="-3.579871612765645">
    <tag k="addr:postcode" v="TQ12 4SA"/>
    <tag k="removemelater" v="yes"/>
  </node>
  <node id="-201" lat="50.51587105152071" lon="-3.569913842846753">
    <tag k="addr:postcode" v="TQ12 4SF"/>
    <tag k="removemelater" v="yes"/>
  </node>
  <node id="-202" lat="50.524564313152894" lon="-3.572177500364531">
    <tag k="addr:postcode" v="TQ12 4SH"/>
    <tag k="removemelater" v="yes"/>
  </node>
  <node id="-203" lat="50.527337554598" lon="-3.5944207331192826">
    <tag k="addr:postcode" v="TQ12 4TY"/>
    <tag k="removemelater" v="yes"/>
  </node>
  <node id="-204" lat="50.52924503598179" lon="-3.598294617233769">
    <tag k="addr:postcode" v="TQ12 4WB"/>
    <tag k="removemelater" v="yes"/>
  </node>
  <node id="-205" lat="50.52924503598179" lon="-3.598294617233769">
    <tag k="addr:postcode" v="TQ12 4XL"/>
    <tag k="removemelater" v="yes"/>
  </node>
  <node id="-206" lat="50.52924503598179" lon="-3.598294617233769">
    <tag k="addr:postcode" v="TQ12 4XN"/>
    <tag k="removemelater" v="yes"/>
  </node>
  <node id="-207" lat="50.52924503598179" lon="-3.598294617233769">
    <tag k="addr:postcode" v="TQ12 4XP"/>
    <tag k="removemelater" v="yes"/>
  </node>
  <node id="-208" lat="50.52924503598179" lon="-3.598294617233769">
    <tag k="addr:postcode" v="TQ12 4YF"/>
    <tag k="removemelater" v="yes"/>
  </node>
  <node id="-209" lat="50.52924503598179" lon="-3.598294617233769">
    <tag k="addr:postcode" v="TQ12 4YN"/>
    <tag k="removemelater" v="yes"/>
  </node>
  <node id="-210" lat="50.52924503598179" lon="-3.598294617233769">
    <tag k="addr:postcode" v="TQ12 4YR"/>
    <tag k="removemelater" v="yes"/>
  </node>
  <node id="-211" lat="50.52924503598179" lon="-3.598294617233769">
    <tag k="addr:postcode" v="TQ12 4ZP"/>
    <tag k="removemelater" v="yes"/>
  </node>
  <node id="-212" lat="50.52924503598179" lon="-3.598294617233769">
    <tag k="addr:postcode" v="TQ12 4ZT"/>
    <tag k="removemelater" v="yes"/>
  </node>
  <node id="-213" lat="50.52924503598179" lon="-3.598294617233769">
    <tag k="addr:postcode" v="TQ12 4ZU"/>
    <tag k="removemelater" v="yes"/>
  </node>
  <node id="-214" lat="50.52924503598179" lon="-3.598294617233769">
    <tag k="addr:postcode" v="TQ12 4ZW"/>
    <tag k="removemelater" v="yes"/>
  </node>
  <node id="-215" lat="50.52924503598179" lon="-3.598294617233769">
    <tag k="addr:postcode" v="TQ12 4ZY"/>
    <tag k="removemelater" v="yes"/>
  </node>
  <node id="-216" lat="50.52924503598179" lon="-3.598294617233769">
    <tag k="addr:postcode" v="TQ12 5AP"/>
    <tag k="removemelater" v="yes"/>
  </node>
  <node id="-217" lat="50.50509146632316" lon="-3.591485363789691">
    <tag k="addr:postcode" v="TQ12 5FL"/>
    <tag k="removemelater" v="yes"/>
  </node>
  <node id="-218" lat="50.51033317260466" lon="-3.5830300640538453">
    <tag k="addr:postcode" v="TQ12 5FN"/>
    <tag k="removemelater" v="yes"/>
  </node>
  <node id="-219" lat="50.49333420136389" lon="-3.584421427064155">
    <tag k="addr:postcode" v="TQ12 5LX"/>
    <tag k="removemelater" v="yes"/>
  </node>
  <node id="-220" lat="50.473251758363205" lon="-3.659231310354219">
    <tag k="addr:postcode" v="TQ12 5UN"/>
    <tag k="removemelater" v="yes"/>
  </node>
  <node id="-221" lat="50.52924503598179" lon="-3.598294617233769">
    <tag k="addr:postcode" v="TQ12 5WP"/>
    <tag k="removemelater" v="yes"/>
  </node>
  <node id="-222" lat="50.52924503598179" lon="-3.598294617233769">
    <tag k="addr:postcode" v="TQ12 5WX"/>
    <tag k="removemelater" v="yes"/>
  </node>
  <node id="-223" lat="50.52924503598179" lon="-3.598294617233769">
    <tag k="addr:postcode" v="TQ12 5YD"/>
    <tag k="removemelater" v="yes"/>
  </node>
  <node id="-224" lat="50.52924503598179" lon="-3.598294617233769">
    <tag k="addr:postcode" v="TQ12 5YX"/>
    <tag k="removemelater" v="yes"/>
  </node>
  <node id="-225" lat="50.52924503598179" lon="-3.598294617233769">
    <tag k="addr:postcode" v="TQ12 5ZD"/>
    <tag k="removemelater" v="yes"/>
  </node>
  <node id="-226" lat="50.5184093840213" lon="-3.6401910775830486">
    <tag k="addr:postcode" v="TQ12 6AP"/>
    <tag k="removemelater" v="yes"/>
  </node>
  <node id="-227" lat="50.526137656781245" lon="-3.636804933432003">
    <tag k="addr:postcode" v="TQ12 6BL"/>
    <tag k="removemelater" v="yes"/>
  </node>
  <node id="-228" lat="50.506080504722085" lon="-3.6622716869946044">
    <tag k="addr:postcode" v="TQ12 6EB"/>
    <tag k="removemelater" v="yes"/>
  </node>
  <node id="-229" lat="50.54545543210308" lon="-3.656556573584583">
    <tag k="addr:postcode" v="TQ12 6NQ"/>
    <tag k="removemelater" v="yes"/>
  </node>
  <node id="-230" lat="50.532596549099175" lon="-3.693287564613064">
    <tag k="addr:postcode" v="TQ12 6NZ"/>
    <tag k="removemelater" v="yes"/>
  </node>
  <node id="-231" lat="50.52778751868385" lon="-3.702356920105322">
    <tag k="addr:postcode" v="TQ12 6PD"/>
    <tag k="removemelater" v="yes"/>
  </node>
  <node id="-232" lat="50.57916013110326" lon="-3.643473289190389">
    <tag k="addr:postcode" v="TQ12 6RD"/>
    <tag k="removemelater" v="yes"/>
  </node>
  <node id="-233" lat="50.57118538903725" lon="-3.6496495254633463">
    <tag k="addr:postcode" v="TQ12 6RE"/>
    <tag k="removemelater" v="yes"/>
  </node>
  <node id="-234" lat="50.576361998696896" lon="-3.6568781219052156">
    <tag k="addr:postcode" v="TQ12 6RW"/>
    <tag k="removemelater" v="yes"/>
  </node>
  <node id="-235" lat="50.570386659699906" lon="-3.6527001954525833">
    <tag k="addr:postcode" v="TQ12 6SG"/>
    <tag k="removemelater" v="yes"/>
  </node>
  <node id="-236" lat="50.57151357728318" lon="-3.655041563130995">
    <tag k="addr:postcode" v="TQ12 6TN"/>
    <tag k="removemelater" v="yes"/>
  </node>
  <node id="-237" lat="50.53875792760428" lon="-3.7043325444779938">
    <tag k="addr:postcode" v="TQ12 6US"/>
    <tag k="removemelater" v="yes"/>
  </node>
  <node id="-238" lat="50.574743716835705" lon="-3.648601625869421">
    <tag k="addr:postcode" v="TQ12 6UY"/>
    <tag k="removemelater" v="yes"/>
  </node>
  <node id="-239" lat="50.52924503598179" lon="-3.598294617233769">
    <tag k="addr:postcode" v="TQ12 6XA"/>
    <tag k="removemelater" v="yes"/>
  </node>
  <node id="-240" lat="50.52924503598179" lon="-3.598294617233769">
    <tag k="addr:postcode" v="TQ12 6XH"/>
    <tag k="removemelater" v="yes"/>
  </node>
  <node id="-241" lat="50.52924503598179" lon="-3.598294617233769">
    <tag k="addr:postcode" v="TQ12 6XS"/>
    <tag k="removemelater" v="yes"/>
  </node>
  <node id="-242" lat="50.52924503598179" lon="-3.598294617233769">
    <tag k="addr:postcode" v="TQ12 6ZN"/>
    <tag k="removemelater" v="yes"/>
  </node>
  <node id="-243" lat="50.52924503598179" lon="-3.598294617233769">
    <tag k="addr:postcode" v="TQ12 9AG"/>
    <tag k="removemelater" v="yes"/>
  </node>
  <node id="-244" lat="50.52924503598179" lon="-3.598294617233769">
    <tag k="addr:postcode" v="TQ12 9BF"/>
    <tag k="removemelater" v="yes"/>
  </node>
  <node id="-245" lat="50.52924503598179" lon="-3.598294617233769">
    <tag k="addr:postcode" v="TQ12 9BG"/>
    <tag k="removemelater" v="yes"/>
  </node>
  <node id="-246" lat="50.52924503598179" lon="-3.598294617233769">
    <tag k="addr:postcode" v="TQ12 9BS"/>
    <tag k="removemelater" v="yes"/>
  </node>
  <node id="-247" lat="50.52924503598179" lon="-3.598294617233769">
    <tag k="addr:postcode" v="TQ12 9DP"/>
    <tag k="removemelater" v="yes"/>
  </node>
  <node id="-248" lat="50.52924503598179" lon="-3.598294617233769">
    <tag k="addr:postcode" v="TQ12 9EB"/>
    <tag k="removemelater" v="yes"/>
  </node>
  <node id="-249" lat="50.52924503598179" lon="-3.598294617233769">
    <tag k="addr:postcode" v="TQ12 9EJ"/>
    <tag k="removemelater" v="yes"/>
  </node>
  <node id="-250" lat="50.52924503598179" lon="-3.598294617233769">
    <tag k="addr:postcode" v="TQ12 9EX"/>
    <tag k="removemelater" v="yes"/>
  </node>
  <node id="-251" lat="50.52924503598179" lon="-3.598294617233769">
    <tag k="addr:postcode" v="TQ12 9EZ"/>
    <tag k="removemelater" v="yes"/>
  </node>
  <node id="-252" lat="50.52924503598179" lon="-3.598294617233769">
    <tag k="addr:postcode" v="TQ12 9FJ"/>
    <tag k="removemelater" v="yes"/>
  </node>
  <node id="-253" lat="50.52924503598179" lon="-3.598294617233769">
    <tag k="addr:postcode" v="TQ12 9FS"/>
    <tag k="removemelater" v="yes"/>
  </node>
  <node id="-254" lat="50.52924503598179" lon="-3.598294617233769">
    <tag k="addr:postcode" v="TQ12 9FX"/>
    <tag k="removemelater" v="yes"/>
  </node>
  <node id="-255" lat="50.52924503598179" lon="-3.598294617233769">
    <tag k="addr:postcode" v="TQ12 9FY"/>
    <tag k="removemelater" v="yes"/>
  </node>
  <node id="-256" lat="50.52924503598179" lon="-3.598294617233769">
    <tag k="addr:postcode" v="TQ12 9GF"/>
    <tag k="removemelater" v="yes"/>
  </node>
  <node id="-257" lat="50.52924503598179" lon="-3.598294617233769">
    <tag k="addr:postcode" v="TQ12 9GJ"/>
    <tag k="removemelater" v="yes"/>
  </node>
  <node id="-258" lat="50.52924503598179" lon="-3.598294617233769">
    <tag k="addr:postcode" v="TQ12 9GN"/>
    <tag k="removemelater" v="yes"/>
  </node>
  <node id="-259" lat="50.52924503598179" lon="-3.598294617233769">
    <tag k="addr:postcode" v="TQ12 9GR"/>
    <tag k="removemelater" v="yes"/>
  </node>
  <node id="-260" lat="50.52924503598179" lon="-3.598294617233769">
    <tag k="addr:postcode" v="TQ12 9GT"/>
    <tag k="removemelater" v="yes"/>
  </node>
  <node id="-261" lat="50.52924503598179" lon="-3.598294617233769">
    <tag k="addr:postcode" v="TQ12 9GY"/>
    <tag k="removemelater" v="yes"/>
  </node>
  <node id="-262" lat="50.52924503598179" lon="-3.598294617233769">
    <tag k="addr:postcode" v="TQ12 9GZ"/>
    <tag k="removemelater" v="yes"/>
  </node>
  <node id="-263" lat="50.52924503598179" lon="-3.598294617233769">
    <tag k="addr:postcode" v="TQ12 9HD"/>
    <tag k="removemelater" v="yes"/>
  </node>
  <node id="-264" lat="50.52924503598179" lon="-3.598294617233769">
    <tag k="addr:postcode" v="TQ12 9HH"/>
    <tag k="removemelater" v="yes"/>
  </node>
  <node id="-265" lat="50.52924503598179" lon="-3.598294617233769">
    <tag k="addr:postcode" v="TQ12 9HN"/>
    <tag k="removemelater" v="yes"/>
  </node>
  <node id="-266" lat="50.52924503598179" lon="-3.598294617233769">
    <tag k="addr:postcode" v="TQ12 9HY"/>
    <tag k="removemelater" v="yes"/>
  </node>
  <node id="-267" lat="50.52924503598179" lon="-3.598294617233769">
    <tag k="addr:postcode" v="TQ12 9JB"/>
    <tag k="removemelater" v="yes"/>
  </node>
  <node id="-268" lat="50.52924503598179" lon="-3.598294617233769">
    <tag k="addr:postcode" v="TQ12 9JD"/>
    <tag k="removemelater" v="yes"/>
  </node>
  <node id="-269" lat="50.52924503598179" lon="-3.598294617233769">
    <tag k="addr:postcode" v="TQ12 9JE"/>
    <tag k="removemelater" v="yes"/>
  </node>
  <node id="-270" lat="50.52924503598179" lon="-3.598294617233769">
    <tag k="addr:postcode" v="TQ12 9JF"/>
    <tag k="removemelater" v="yes"/>
  </node>
  <node id="-271" lat="50.52924503598179" lon="-3.598294617233769">
    <tag k="addr:postcode" v="TQ12 9JG"/>
    <tag k="removemelater" v="yes"/>
  </node>
  <node id="-272" lat="50.52924503598179" lon="-3.598294617233769">
    <tag k="addr:postcode" v="TQ12 9JH"/>
    <tag k="removemelater" v="yes"/>
  </node>
  <node id="-273" lat="50.52924503598179" lon="-3.598294617233769">
    <tag k="addr:postcode" v="TQ12 9JJ"/>
    <tag k="removemelater" v="yes"/>
  </node>
  <node id="-274" lat="50.52924503598179" lon="-3.598294617233769">
    <tag k="addr:postcode" v="TQ12 9JP"/>
    <tag k="removemelater" v="yes"/>
  </node>
  <node id="-275" lat="50.52924503598179" lon="-3.598294617233769">
    <tag k="addr:postcode" v="TQ12 9JQ"/>
    <tag k="removemelater" v="yes"/>
  </node>
  <node id="-276" lat="50.52924503598179" lon="-3.598294617233769">
    <tag k="addr:postcode" v="TQ12 9LJ"/>
    <tag k="removemelater" v="yes"/>
  </node>
  <node id="-277" lat="50.52730218210228" lon="-3.5956893461581068">
    <tag k="addr:postcode" v="TQ12 9SA"/>
    <tag k="removemelater" v="yes"/>
  </node>
  <node id="-278" lat="50.527337554598" lon="-3.5944207331192826">
    <tag k="addr:postcode" v="TQ12 9SB"/>
    <tag k="removemelater" v="yes"/>
  </node>
  <node id="-279" lat="50.52730218210228" lon="-3.5956893461581068">
    <tag k="addr:postcode" v="TQ12 9SE"/>
    <tag k="removemelater" v="yes"/>
  </node>
  <node id="-280" lat="50.52730218210228" lon="-3.5956893461581068">
    <tag k="addr:postcode" v="TQ12 9SF"/>
    <tag k="removemelater" v="yes"/>
  </node>
  <node id="-281" lat="50.52730218210228" lon="-3.5956893461581068">
    <tag k="addr:postcode" v="TQ12 9SG"/>
    <tag k="removemelater" v="yes"/>
  </node>
  <node id="-282" lat="50.52730218210228" lon="-3.5956893461581068">
    <tag k="addr:postcode" v="TQ12 9SH"/>
    <tag k="removemelater" v="yes"/>
  </node>
  <node id="-283" lat="50.52730218210228" lon="-3.5956893461581068">
    <tag k="addr:postcode" v="TQ12 9SJ"/>
    <tag k="removemelater" v="yes"/>
  </node>
  <node id="-284" lat="50.52730218210228" lon="-3.5956893461581068">
    <tag k="addr:postcode" v="TQ12 9SL"/>
    <tag k="removemelater" v="yes"/>
  </node>
  <node id="-285" lat="50.52730218210228" lon="-3.5956893461581068">
    <tag k="addr:postcode" v="TQ12 9SN"/>
    <tag k="removemelater" v="yes"/>
  </node>
  <node id="-286" lat="50.52730218210228" lon="-3.5956893461581068">
    <tag k="addr:postcode" v="TQ12 9SP"/>
    <tag k="removemelater" v="yes"/>
  </node>
  <node id="-287" lat="50.52730218210228" lon="-3.5956893461581068">
    <tag k="addr:postcode" v="TQ12 9SQ"/>
    <tag k="removemelater" v="yes"/>
  </node>
  <node id="-288" lat="50.52730218210228" lon="-3.5956893461581068">
    <tag k="addr:postcode" v="TQ12 9SR"/>
    <tag k="removemelater" v="yes"/>
  </node>
  <node id="-289" lat="50.52730218210228" lon="-3.5956893461581068">
    <tag k="addr:postcode" v="TQ12 9SS"/>
    <tag k="removemelater" v="yes"/>
  </node>
  <node id="-290" lat="50.52730218210228" lon="-3.5956893461581068">
    <tag k="addr:postcode" v="TQ12 9ST"/>
    <tag k="removemelater" v="yes"/>
  </node>
  <node id="-291" lat="50.52730218210228" lon="-3.5956893461581068">
    <tag k="addr:postcode" v="TQ12 9SU"/>
    <tag k="removemelater" v="yes"/>
  </node>
  <node id="-292" lat="50.52730218210228" lon="-3.5956893461581068">
    <tag k="addr:postcode" v="TQ12 9SW"/>
    <tag k="removemelater" v="yes"/>
  </node>
  <node id="-293" lat="50.52730218210228" lon="-3.5956893461581068">
    <tag k="addr:postcode" v="TQ12 9SX"/>
    <tag k="removemelater" v="yes"/>
  </node>
  <node id="-294" lat="50.52730218210228" lon="-3.5956893461581068">
    <tag k="addr:postcode" v="TQ12 9SY"/>
    <tag k="removemelater" v="yes"/>
  </node>
  <node id="-295" lat="50.52730218210228" lon="-3.5956893461581068">
    <tag k="addr:postcode" v="TQ12 9SZ"/>
    <tag k="removemelater" v="yes"/>
  </node>
  <node id="-296" lat="50.52730218210228" lon="-3.5956893461581068">
    <tag k="addr:postcode" v="TQ12 9TA"/>
    <tag k="removemelater" v="yes"/>
  </node>
  <node id="-297" lat="50.52730218210228" lon="-3.5956893461581068">
    <tag k="addr:postcode" v="TQ12 9TB"/>
    <tag k="removemelater" v="yes"/>
  </node>
  <node id="-298" lat="50.52730218210228" lon="-3.5956893461581068">
    <tag k="addr:postcode" v="TQ12 9TD"/>
    <tag k="removemelater" v="yes"/>
  </node>
  <node id="-299" lat="50.52730218210228" lon="-3.5956893461581068">
    <tag k="addr:postcode" v="TQ12 9TE"/>
    <tag k="removemelater" v="yes"/>
  </node>
  <node id="-300" lat="50.52730218210228" lon="-3.5956893461581068">
    <tag k="addr:postcode" v="TQ12 9TF"/>
    <tag k="removemelater" v="yes"/>
  </node>
  <node id="-301" lat="50.52730218210228" lon="-3.5956893461581068">
    <tag k="addr:postcode" v="TQ12 9TH"/>
    <tag k="removemelater" v="yes"/>
  </node>
  <node id="-302" lat="50.605703758442516" lon="-3.598637286384421">
    <tag k="addr:postcode" v="TQ13 0DB"/>
    <tag k="removemelater" v="yes"/>
  </node>
  <node id="-303" lat="50.61815221758522" lon="-3.587354687221279">
    <tag k="addr:postcode" v="TQ13 0DP"/>
    <tag k="removemelater" v="yes"/>
  </node>
  <node id="-304" lat="50.5847985035046" lon="-3.631365707248795">
    <tag k="addr:postcode" v="TQ13 0HR"/>
    <tag k="removemelater" v="yes"/>
  </node>
  <node id="-305" lat="50.59974412079671" lon="-3.6042995143841274">
    <tag k="addr:postcode" v="TQ13 0JJ"/>
    <tag k="removemelater" v="yes"/>
  </node>
  <node id="-306" lat="50.60654953033714" lon="-3.6005738647051304">
    <tag k="addr:postcode" v="TQ13 0JU"/>
    <tag k="removemelater" v="yes"/>
  </node>
  <node id="-307" lat="50.61899230747779" lon="-3.6008832185197375">
    <tag k="addr:postcode" v="TQ13 0NG"/>
    <tag k="removemelater" v="yes"/>
  </node>
  <node id="-308" lat="50.62669721690208" lon="-3.6231589196225977">
    <tag k="addr:postcode" v="TQ13 0NL"/>
    <tag k="removemelater" v="yes"/>
  </node>
  <node id="-309" lat="50.62914887795253" lon="-3.6195388281771526">
    <tag k="addr:postcode" v="TQ13 0NR"/>
    <tag k="removemelater" v="yes"/>
  </node>
  <node id="-310" lat="50.60407291091803" lon="-3.6021291189351277">
    <tag k="addr:postcode" v="TQ13 0XS"/>
    <tag k="removemelater" v="yes"/>
  </node>
  <node id="-311" lat="50.51647292689391" lon="-3.756257488672562">
    <tag k="addr:postcode" v="TQ13 7AE"/>
    <tag k="removemelater" v="yes"/>
  </node>
  <node id="-312" lat="50.51631563129691" lon="-3.754163977365907">
    <tag k="addr:postcode" v="TQ13 7AQ"/>
    <tag k="removemelater" v="yes"/>
  </node>
  <node id="-313" lat="50.51420977156371" lon="-3.7548475861398396">
    <tag k="addr:postcode" v="TQ13 7DF"/>
    <tag k="removemelater" v="yes"/>
  </node>
  <node id="-314" lat="50.555826733125095" lon="-3.8351558825286203">
    <tag k="addr:postcode" v="TQ13 7FA"/>
    <tag k="removemelater" v="yes"/>
  </node>
  <node id="-315" lat="50.52069978080984" lon="-3.7592499651484093">
    <tag k="addr:postcode" v="TQ13 7GA"/>
    <tag k="removemelater" v="yes"/>
  </node>
  <node id="-316" lat="50.525804876733694" lon="-3.758282940205401">
    <tag k="addr:postcode" v="TQ13 7HA"/>
    <tag k="removemelater" v="yes"/>
  </node>
  <node id="-317" lat="50.52628127955279" lon="-3.7583006517962927">
    <tag k="addr:postcode" v="TQ13 7HS"/>
    <tag k="removemelater" v="yes"/>
  </node>
  <node id="-318" lat="50.5466380586528" lon="-3.7550633895491035">
    <tag k="addr:postcode" v="TQ13 7HY"/>
    <tag k="removemelater" v="yes"/>
  </node>
  <node id="-319" lat="50.495519154733515" lon="-3.764461614308303">
    <tag k="addr:postcode" v="TQ13 7JJ"/>
    <tag k="removemelater" v="yes"/>
  </node>
  <node id="-320" lat="50.495477958253495" lon="-3.7087664385601595">
    <tag k="addr:postcode" v="TQ13 7LP"/>
    <tag k="removemelater" v="yes"/>
  </node>
  <node id="-321" lat="50.482196309683545" lon="-3.725075221181012">
    <tag k="addr:postcode" v="TQ13 7LZ"/>
    <tag k="removemelater" v="yes"/>
  </node>
  <node id="-322" lat="50.534196696666214" lon="-3.828290635259171">
    <tag k="addr:postcode" v="TQ13 7NY"/>
    <tag k="removemelater" v="yes"/>
  </node>
  <node id="-323" lat="50.57695750728876" lon="-3.8119097153772703">
    <tag k="addr:postcode" v="TQ13 7TA"/>
    <tag k="removemelater" v="yes"/>
  </node>
  <node id="-324" lat="50.56666861980378" lon="-3.816527887415601">
    <tag k="addr:postcode" v="TQ13 7TH"/>
    <tag k="removemelater" v="yes"/>
  </node>
  <node id="-325" lat="50.567123063314405" lon="-3.8167995488904203">
    <tag k="addr:postcode" v="TQ13 7TJ"/>
    <tag k="removemelater" v="yes"/>
  </node>
  <node id="-326" lat="50.582831790423256" lon="-3.7768065256102874">
    <tag k="addr:postcode" v="TQ13 7TT"/>
    <tag k="removemelater" v="yes"/>
  </node>
  <node id="-327" lat="50.57198094671781" lon="-3.871231580757763">
    <tag k="addr:postcode" v="TQ13 7TY"/>
    <tag k="removemelater" v="yes"/>
  </node>
  <node id="-328" lat="50.57635837467526" lon="-3.8612923059157502">
    <tag k="addr:postcode" v="TQ13 7UA"/>
    <tag k="removemelater" v="yes"/>
  </node>
  <node id="-329" lat="50.52924503598179" lon="-3.598294617233769">
    <tag k="addr:postcode" v="TQ13 7WA"/>
    <tag k="removemelater" v="yes"/>
  </node>
  <node id="-330" lat="50.52924503598179" lon="-3.598294617233769">
    <tag k="addr:postcode" v="TQ13 7ZJ"/>
    <tag k="removemelater" v="yes"/>
  </node>
  <node id="-331" lat="50.52924503598179" lon="-3.598294617233769">
    <tag k="addr:postcode" v="TQ13 7ZN"/>
    <tag k="removemelater" v="yes"/>
  </node>
  <node id="-332" lat="50.673314736885224" lon="-3.8401029870549266">
    <tag k="addr:postcode" v="TQ13 8AA"/>
    <tag k="removemelater" v="yes"/>
  </node>
  <node id="-333" lat="50.67304978483711" lon="-3.839795411408854">
    <tag k="addr:postcode" v="TQ13 8AB"/>
    <tag k="removemelater" v="yes"/>
  </node>
  <node id="-334" lat="50.6733653142972" lon="-3.8403172613912657">
    <tag k="addr:postcode" v="TQ13 8AE"/>
    <tag k="removemelater" v="yes"/>
  </node>
  <node id="-335" lat="50.672804030278016" lon="-3.8405500575469196">
    <tag k="addr:postcode" v="TQ13 8AH"/>
    <tag k="removemelater" v="yes"/>
  </node>
  <node id="-336" lat="50.672446688526094" lon="-3.8398284378838854">
    <tag k="addr:postcode" v="TQ13 8AJ"/>
    <tag k="removemelater" v="yes"/>
  </node>
  <node id="-337" lat="50.6736030293741" lon="-3.842916585975691">
    <tag k="addr:postcode" v="TQ13 8AL"/>
    <tag k="removemelater" v="yes"/>
  </node>
  <node id="-338" lat="50.67318841912958" lon="-3.8424049885237643">
    <tag k="addr:postcode" v="TQ13 8AN"/>
    <tag k="removemelater" v="yes"/>
  </node>
  <node id="-339" lat="50.6729800407155" lon="-3.841363662050223">
    <tag k="addr:postcode" v="TQ13 8AP"/>
    <tag k="removemelater" v="yes"/>
  </node>
  <node id="-340" lat="50.67288313548974" lon="-3.840666375753973">
    <tag k="addr:postcode" v="TQ13 8AQ"/>
    <tag k="removemelater" v="yes"/>
  </node>
  <node id="-341" lat="50.673794984545246" lon="-3.8438582172023414">
    <tag k="addr:postcode" v="TQ13 8AR"/>
    <tag k="removemelater" v="yes"/>
  </node>
  <node id="-342" lat="50.673146723440276" lon="-3.8439035746843246">
    <tag k="addr:postcode" v="TQ13 8AS"/>
    <tag k="removemelater" v="yes"/>
  </node>
  <node id="-343" lat="50.67358789956418" lon="-3.839321095820896">
    <tag k="addr:postcode" v="TQ13 8AT"/>
    <tag k="removemelater" v="yes"/>
  </node>
  <node id="-344" lat="50.67398248286008" lon="-3.8393931361837668">
    <tag k="addr:postcode" v="TQ13 8AU"/>
    <tag k="removemelater" v="yes"/>
  </node>
  <node id="-345" lat="50.67333012926728" lon="-3.8414056707623043">
    <tag k="addr:postcode" v="TQ13 8AW"/>
    <tag k="removemelater" v="yes"/>
  </node>
  <node id="-346" lat="50.674302980980954" lon="-3.8401699486461225">
    <tag k="addr:postcode" v="TQ13 8AX"/>
    <tag k="removemelater" v="yes"/>
  </node>
  <node id="-347" lat="50.671023833161584" lon="-3.8393765309231664">
    <tag k="addr:postcode" v="TQ13 8BB"/>
    <tag k="removemelater" v="yes"/>
  </node>
  <node id="-348" lat="50.66880058693151" lon="-3.838921674605696">
    <tag k="addr:postcode" v="TQ13 8BG"/>
    <tag k="removemelater" v="yes"/>
  </node>
  <node id="-349" lat="50.67210138501111" lon="-3.8434663291991424">
    <tag k="addr:postcode" v="TQ13 8BH"/>
    <tag k="removemelater" v="yes"/>
  </node>
  <node id="-350" lat="50.672102013392866" lon="-3.8400130966255075">
    <tag k="addr:postcode" v="TQ13 8BJ"/>
    <tag k="removemelater" v="yes"/>
  </node>
  <node id="-351" lat="50.67194307634259" lon="-3.8392567905819037">
    <tag k="addr:postcode" v="TQ13 8BL"/>
    <tag k="removemelater" v="yes"/>
  </node>
  <node id="-352" lat="50.67276791540215" lon="-3.8388502977709837">
    <tag k="addr:postcode" v="TQ13 8BN"/>
    <tag k="removemelater" v="yes"/>
  </node>
  <node id="-353" lat="50.673883720354524" lon="-3.8382428634055623">
    <tag k="addr:postcode" v="TQ13 8BP"/>
    <tag k="removemelater" v="yes"/>
  </node>
  <node id="-354" lat="50.67140161148608" lon="-3.8399432470096477">
    <tag k="addr:postcode" v="TQ13 8BQ"/>
    <tag k="removemelater" v="yes"/>
  </node>
  <node id="-355" lat="50.67360029260075" lon="-3.8396754088766727">
    <tag k="addr:postcode" v="TQ13 8BT"/>
    <tag k="removemelater" v="yes"/>
  </node>
  <node id="-356" lat="50.67504022839638" lon="-3.8401846341538985">
    <tag k="addr:postcode" v="TQ13 8BU"/>
    <tag k="removemelater" v="yes"/>
  </node>
  <node id="-357" lat="50.67145205016035" lon="-3.83674675622664">
    <tag k="addr:postcode" v="TQ13 8BW"/>
    <tag k="removemelater" v="yes"/>
  </node>
  <node id="-358" lat="50.67202999758271" lon="-3.838878066638068">
    <tag k="addr:postcode" v="TQ13 8DP"/>
    <tag k="removemelater" v="yes"/>
  </node>
  <node id="-359" lat="50.67476009093064" lon="-3.838560178069295">
    <tag k="addr:postcode" v="TQ13 8DW"/>
    <tag k="removemelater" v="yes"/>
  </node>
  <node id="-360" lat="50.673331891138666" lon="-3.8441372812973014">
    <tag k="addr:postcode" v="TQ13 8HZ"/>
    <tag k="removemelater" v="yes"/>
  </node>
  <node id="-361" lat="50.66193307134719" lon="-3.7678064066484964">
    <tag k="addr:postcode" v="TQ13 8JB"/>
    <tag k="removemelater" v="yes"/>
  </node>
  <node id="-362" lat="50.68877203371587" lon="-3.8236902919386755">
    <tag k="addr:postcode" v="TQ13 8JN"/>
    <tag k="removemelater" v="yes"/>
  </node>
  <node id="-363" lat="50.694640901297674" lon="-3.8222188255549945">
    <tag k="addr:postcode" v="TQ13 8JR"/>
    <tag k="removemelater" v="yes"/>
  </node>
  <node id="-364" lat="50.66241425800324" lon="-3.7645417586284684">
    <tag k="addr:postcode" v="TQ13 8LQ"/>
    <tag k="removemelater" v="yes"/>
  </node>
  <node id="-365" lat="50.66241148467388" lon="-3.763537028798419">
    <tag k="addr:postcode" v="TQ13 8LU"/>
    <tag k="removemelater" v="yes"/>
  </node>
  <node id="-366" lat="50.66049538571417" lon="-3.7665355866262975">
    <tag k="addr:postcode" v="TQ13 8NE"/>
    <tag k="removemelater" v="yes"/>
  </node>
  <node id="-367" lat="50.678530758420976" lon="-3.7669155910055268">
    <tag k="addr:postcode" v="TQ13 8PZ"/>
    <tag k="removemelater" v="yes"/>
  </node>
  <node id="-368" lat="50.646045687466724" lon="-3.759204011198125">
    <tag k="addr:postcode" v="TQ13 8QT"/>
    <tag k="removemelater" v="yes"/>
  </node>
  <node id="-369" lat="50.63478947514356" lon="-3.778496715226949">
    <tag k="addr:postcode" v="TQ13 8QX"/>
    <tag k="removemelater" v="yes"/>
  </node>
  <node id="-370" lat="50.67195865051557" lon="-3.8399791844302813">
    <tag k="addr:postcode" v="TQ13 8SY"/>
    <tag k="removemelater" v="yes"/>
  </node>
  <node id="-371" lat="50.67192033964404" lon="-3.8412655760971233">
    <tag k="addr:postcode" v="TQ13 8UB"/>
    <tag k="removemelater" v="yes"/>
  </node>
  <node id="-372" lat="50.67406415156953" lon="-3.840486132038099">
    <tag k="addr:postcode" v="TQ13 8UT"/>
    <tag k="removemelater" v="yes"/>
  </node>
  <node id="-373" lat="50.66069377564972" lon="-3.7665005851725017">
    <tag k="addr:postcode" v="TQ13 8WQ"/>
    <tag k="removemelater" v="yes"/>
  </node>
  <node id="-374" lat="50.66069377564972" lon="-3.7665005851725017">
    <tag k="addr:postcode" v="TQ13 8WS"/>
    <tag k="removemelater" v="yes"/>
  </node>
  <node id="-375" lat="50.66069377564972" lon="-3.7665005851725017">
    <tag k="addr:postcode" v="TQ13 8YQ"/>
    <tag k="removemelater" v="yes"/>
  </node>
  <node id="-376" lat="50.66069377564972" lon="-3.7665005851725017">
    <tag k="addr:postcode" v="TQ13 8YX"/>
    <tag k="removemelater" v="yes"/>
  </node>
  <node id="-377" lat="50.66069377564972" lon="-3.7665005851725017">
    <tag k="addr:postcode" v="TQ13 8ZN"/>
    <tag k="removemelater" v="yes"/>
  </node>
  <node id="-378" lat="50.59130786889573" lon="-3.6802057665033585">
    <tag k="addr:postcode" v="TQ13 9AS"/>
    <tag k="removemelater" v="yes"/>
  </node>
  <node id="-379" lat="50.595006702269416" lon="-3.670658920244419">
    <tag k="addr:postcode" v="TQ13 9EJ"/>
    <tag k="removemelater" v="yes"/>
  </node>
  <node id="-380" lat="50.595001547804905" lon="-3.66725357873912">
    <tag k="addr:postcode" v="TQ13 9EN"/>
    <tag k="removemelater" v="yes"/>
  </node>
  <node id="-381" lat="50.59176999843829" lon="-3.6805895594044964">
    <tag k="addr:postcode" v="TQ13 9GA"/>
    <tag k="removemelater" v="yes"/>
  </node>
  <node id="-382" lat="50.59004946429205" lon="-3.6569348437404514">
    <tag k="addr:postcode" v="TQ13 9GQ"/>
    <tag k="removemelater" v="yes"/>
  </node>
  <node id="-383" lat="50.59211455405675" lon="-3.6754025664820977">
    <tag k="addr:postcode" v="TQ13 9GS"/>
    <tag k="removemelater" v="yes"/>
  </node>
  <node id="-384" lat="50.578391883032786" lon="-3.6796612664723">
    <tag k="addr:postcode" v="TQ13 9JN"/>
    <tag k="removemelater" v="yes"/>
  </node>
  <node id="-385" lat="50.585560081560615" lon="-3.7056265922243883">
    <tag k="addr:postcode" v="TQ13 9LB"/>
    <tag k="removemelater" v="yes"/>
  </node>
  <node id="-386" lat="50.5933530347558" lon="-3.7022489238846545">
    <tag k="addr:postcode" v="TQ13 9LF"/>
    <tag k="removemelater" v="yes"/>
  </node>
  <node id="-387" lat="50.52924503598179" lon="-3.598294617233769">
    <tag k="addr:postcode" v="TQ13 9LW"/>
    <tag k="removemelater" v="yes"/>
  </node>
  <node id="-388" lat="50.60225799696424" lon="-3.7009310305599845">
    <tag k="addr:postcode" v="TQ13 9NQ"/>
    <tag k="removemelater" v="yes"/>
  </node>
  <node id="-389" lat="50.59238952056849" lon="-3.669407712135918">
    <tag k="addr:postcode" v="TQ13 9SA"/>
    <tag k="removemelater" v="yes"/>
  </node>
  <node id="-390" lat="50.58233616709512" lon="-3.6755639702924583">
    <tag k="addr:postcode" v="TQ13 9TZ"/>
    <tag k="removemelater" v="yes"/>
  </node>
  <node id="-391" lat="50.61906962900626" lon="-3.7666083474347714">
    <tag k="addr:postcode" v="TQ13 9UJ"/>
    <tag k="removemelater" v="yes"/>
  </node>
  <node id="-392" lat="50.616016692961345" lon="-3.7722047760382873">
    <tag k="addr:postcode" v="TQ13 9UL"/>
    <tag k="removemelater" v="yes"/>
  </node>
  <node id="-393" lat="50.61404581790873" lon="-3.7687382552456614">
    <tag k="addr:postcode" v="TQ13 9UN"/>
    <tag k="removemelater" v="yes"/>
  </node>
  <node id="-394" lat="50.61268386767067" lon="-3.7606869061445423">
    <tag k="addr:postcode" v="TQ13 9UQ"/>
    <tag k="removemelater" v="yes"/>
  </node>
  <node id="-395" lat="50.62521270188562" lon="-3.7570689265141706">
    <tag k="addr:postcode" v="TQ13 9UY"/>
    <tag k="removemelater" v="yes"/>
  </node>
  <node id="-396" lat="50.52924503598179" lon="-3.598294617233769">
    <tag k="addr:postcode" v="TQ13 9WQ"/>
    <tag k="removemelater" v="yes"/>
  </node>
  <node id="-397" lat="50.52924503598179" lon="-3.598294617233769">
    <tag k="addr:postcode" v="TQ13 9WT"/>
    <tag k="removemelater" v="yes"/>
  </node>
  <node id="-398" lat="50.59392981626159" lon="-3.6767527632638126">
    <tag k="addr:postcode" v="TQ13 9YX"/>
    <tag k="removemelater" v="yes"/>
  </node>
  <node id="-399" lat="50.52924503598179" lon="-3.598294617233769">
    <tag k="addr:postcode" v="TQ13 9YY"/>
    <tag k="removemelater" v="yes"/>
  </node>
  <node id="-400" lat="50.5405457662152" lon="-3.5048262347691845">
    <tag k="addr:postcode" v="TQ14 0DL"/>
    <tag k="removemelater" v="yes"/>
  </node>
  <node id="-401" lat="50.54069157268433" lon="-3.506764334419575">
    <tag k="addr:postcode" v="TQ14 0EA"/>
    <tag k="removemelater" v="yes"/>
  </node>
  <node id="-402" lat="50.540199546828" lon="-3.507256708475274">
    <tag k="addr:postcode" v="TQ14 0ED"/>
    <tag k="removemelater" v="yes"/>
  </node>
  <node id="-403" lat="50.54571698056527" lon="-3.49576010423003">
    <tag k="addr:postcode" v="TQ14 4AR"/>
    <tag k="removemelater" v="yes"/>
  </node>
  <node id="-404" lat="50.54571698056527" lon="-3.49576010423003">
    <tag k="addr:postcode" v="TQ14 4AS"/>
    <tag k="removemelater" v="yes"/>
  </node>
  <node id="-405" lat="50.54571698056527" lon="-3.49576010423003">
    <tag k="addr:postcode" v="TQ14 4BB"/>
    <tag k="removemelater" v="yes"/>
  </node>
  <node id="-406" lat="50.54571698056527" lon="-3.49576010423003">
    <tag k="addr:postcode" v="TQ14 4BE"/>
    <tag k="removemelater" v="yes"/>
  </node>
  <node id="-407" lat="50.54571698056527" lon="-3.49576010423003">
    <tag k="addr:postcode" v="TQ14 4BH"/>
    <tag k="removemelater" v="yes"/>
  </node>
  <node id="-408" lat="50.54571698056527" lon="-3.49576010423003">
    <tag k="addr:postcode" v="TQ14 4BJ"/>
    <tag k="removemelater" v="yes"/>
  </node>
  <node id="-409" lat="50.54571698056527" lon="-3.49576010423003">
    <tag k="addr:postcode" v="TQ14 4BL"/>
    <tag k="removemelater" v="yes"/>
  </node>
  <node id="-410" lat="50.54571698056527" lon="-3.49576010423003">
    <tag k="addr:postcode" v="TQ14 4BN"/>
    <tag k="removemelater" v="yes"/>
  </node>
  <node id="-411" lat="50.54571698056527" lon="-3.49576010423003">
    <tag k="addr:postcode" v="TQ14 4BP"/>
    <tag k="removemelater" v="yes"/>
  </node>
  <node id="-412" lat="50.54571698056527" lon="-3.49576010423003">
    <tag k="addr:postcode" v="TQ14 4BQ"/>
    <tag k="removemelater" v="yes"/>
  </node>
  <node id="-413" lat="50.54571698056527" lon="-3.49576010423003">
    <tag k="addr:postcode" v="TQ14 4BS"/>
    <tag k="removemelater" v="yes"/>
  </node>
  <node id="-414" lat="50.545066731404326" lon="-3.4966710586104766">
    <tag k="addr:postcode" v="TQ14 8AD"/>
    <tag k="removemelater" v="yes"/>
  </node>
  <node id="-415" lat="50.5460086722589" lon="-3.4968561450119666">
    <tag k="addr:postcode" v="TQ14 8AH"/>
    <tag k="removemelater" v="yes"/>
  </node>
  <node id="-416" lat="50.546012014745806" lon="-3.4958964709511404">
    <tag k="addr:postcode" v="TQ14 8AJ"/>
    <tag k="removemelater" v="yes"/>
  </node>
  <node id="-417" lat="50.54616349550624" lon="-3.496705789351306">
    <tag k="addr:postcode" v="TQ14 8AL"/>
    <tag k="removemelater" v="yes"/>
  </node>
  <node id="-418" lat="50.546061133563434" lon="-3.495573393813283">
    <tag k="addr:postcode" v="TQ14 8AP"/>
    <tag k="removemelater" v="yes"/>
  </node>
  <node id="-419" lat="50.542918529957966" lon="-3.497972047064592">
    <tag k="addr:postcode" v="TQ14 8AQ"/>
    <tag k="removemelater" v="yes"/>
  </node>
  <node id="-420" lat="50.54587415872811" lon="-3.4954263336307">
    <tag k="addr:postcode" v="TQ14 8AR"/>
    <tag k="removemelater" v="yes"/>
  </node>
  <node id="-421" lat="50.54637247607652" lon="-3.4944399700138704">
    <tag k="addr:postcode" v="TQ14 8AT"/>
    <tag k="removemelater" v="yes"/>
  </node>
  <node id="-422" lat="50.54618778756445" lon="-3.4948152206710184">
    <tag k="addr:postcode" v="TQ14 8AX"/>
    <tag k="removemelater" v="yes"/>
  </node>
  <node id="-423" lat="50.54613500122025" lon="-3.494023142256114">
    <tag k="addr:postcode" v="TQ14 8AY"/>
    <tag k="removemelater" v="yes"/>
  </node>
  <node id="-424" lat="50.54496697575442" lon="-3.4946354697509827">
    <tag k="addr:postcode" v="TQ14 8BD"/>
    <tag k="removemelater" v="yes"/>
  </node>
  <node id="-425" lat="50.545779075815894" lon="-3.495126924069872">
    <tag k="addr:postcode" v="TQ14 8BG"/>
    <tag k="removemelater" v="yes"/>
  </node>
  <node id="-426" lat="50.54412507234649" lon="-3.4971634536035427">
    <tag k="addr:postcode" v="TQ14 8BJ"/>
    <tag k="removemelater" v="yes"/>
  </node>
  <node id="-427" lat="50.542979366603824" lon="-3.497437661774689">
    <tag k="addr:postcode" v="TQ14 8BN"/>
    <tag k="removemelater" v="yes"/>
  </node>
  <node id="-428" lat="50.54461114998131" lon="-3.4964308086745457">
    <tag k="addr:postcode" v="TQ14 8BR"/>
    <tag k="removemelater" v="yes"/>
  </node>
  <node id="-429" lat="50.54378927625571" lon="-3.4980984385239675">
    <tag k="addr:postcode" v="TQ14 8BT"/>
    <tag k="removemelater" v="yes"/>
  </node>
  <node id="-430" lat="50.54436317512264" lon="-3.4982295395240444">
    <tag k="addr:postcode" v="TQ14 8BY"/>
    <tag k="removemelater" v="yes"/>
  </node>
  <node id="-431" lat="50.545450491476146" lon="-3.4976006365712364">
    <tag k="addr:postcode" v="TQ14 8DD"/>
    <tag k="removemelater" v="yes"/>
  </node>
  <node id="-432" lat="50.54544837201389" lon="-3.4956669181853397">
    <tag k="addr:postcode" v="TQ14 8DF"/>
    <tag k="removemelater" v="yes"/>
  </node>
  <node id="-433" lat="50.54703087604267" lon="-3.496394504675337">
    <tag k="addr:postcode" v="TQ14 8DP"/>
    <tag k="removemelater" v="yes"/>
  </node>
  <node id="-434" lat="50.546714675122615" lon="-3.495805793808324">
    <tag k="addr:postcode" v="TQ14 8DS"/>
    <tag k="removemelater" v="yes"/>
  </node>
  <node id="-435" lat="50.545810180061416" lon="-3.498303636923253">
    <tag k="addr:postcode" v="TQ14 8DT"/>
    <tag k="removemelater" v="yes"/>
  </node>
  <node id="-436" lat="50.546640783594476" lon="-3.4973560610609282">
    <tag k="addr:postcode" v="TQ14 8DZ"/>
    <tag k="removemelater" v="yes"/>
  </node>
  <node id="-437" lat="50.5463909783235" lon="-3.497898613312286">
    <tag k="addr:postcode" v="TQ14 8EA"/>
    <tag k="removemelater" v="yes"/>
  </node>
  <node id="-438" lat="50.546092497316906" lon="-3.4980302979863747">
    <tag k="addr:postcode" v="TQ14 8EE"/>
    <tag k="removemelater" v="yes"/>
  </node>
  <node id="-439" lat="50.546097674067816" lon="-3.4983268652721655">
    <tag k="addr:postcode" v="TQ14 8EF"/>
    <tag k="removemelater" v="yes"/>
  </node>
  <node id="-440" lat="50.545943118926196" lon="-3.497757389939091">
    <tag k="addr:postcode" v="TQ14 8EN"/>
    <tag k="removemelater" v="yes"/>
  </node>
  <node id="-441" lat="50.5460584384336" lon="-3.4971823529167336">
    <tag k="addr:postcode" v="TQ14 8EP"/>
    <tag k="removemelater" v="yes"/>
  </node>
  <node id="-442" lat="50.54675800849899" lon="-3.5001262436921023">
    <tag k="addr:postcode" v="TQ14 8EQ"/>
    <tag k="removemelater" v="yes"/>
  </node>
  <node id="-443" lat="50.54545812263654" lon="-3.498405390457374">
    <tag k="addr:postcode" v="TQ14 8ER"/>
    <tag k="removemelater" v="yes"/>
  </node>
  <node id="-444" lat="50.54667845197458" lon="-3.500716532339684">
    <tag k="addr:postcode" v="TQ14 8EU"/>
    <tag k="removemelater" v="yes"/>
  </node>
  <node id="-445" lat="50.54620727370347" lon="-3.497497586009308">
    <tag k="addr:postcode" v="TQ14 8EW"/>
    <tag k="removemelater" v="yes"/>
  </node>
  <node id="-446" lat="50.5470185324354" lon="-3.5001486276569636">
    <tag k="addr:postcode" v="TQ14 8EX"/>
    <tag k="removemelater" v="yes"/>
  </node>
  <node id="-447" lat="50.556784892208036" lon="-3.4903928426622755">
    <tag k="addr:postcode" v="TQ14 8FF"/>
    <tag k="removemelater" v="yes"/>
  </node>
  <node id="-448" lat="50.54643800877197" lon="-3.497039116963502">
    <tag k="addr:postcode" v="TQ14 8FN"/>
    <tag k="removemelater" v="yes"/>
  </node>
  <node id="-449" lat="50.546315819754675" lon="-3.494649896039706">
    <tag k="addr:postcode" v="TQ14 8FP"/>
    <tag k="removemelater" v="yes"/>
  </node>
  <node id="-450" lat="50.545312359975085" lon="-3.4964530094034556">
    <tag k="addr:postcode" v="TQ14 8FQ"/>
    <tag k="removemelater" v="yes"/>
  </node>
  <node id="-451" lat="50.5459982310057" lon="-3.4969687295888066">
    <tag k="addr:postcode" v="TQ14 8FU"/>
    <tag k="removemelater" v="yes"/>
  </node>
  <node id="-452" lat="50.54647169047454" lon="-3.496517945539631">
    <tag k="addr:postcode" v="TQ14 8GB"/>
    <tag k="removemelater" v="yes"/>
  </node>
  <node id="-453" lat="50.546610267712495" lon="-3.49693165655602">
    <tag k="addr:postcode" v="TQ14 8GH"/>
    <tag k="removemelater" v="yes"/>
  </node>
  <node id="-454" lat="50.54665521704803" lon="-3.4969330802303933">
    <tag k="addr:postcode" v="TQ14 8GJ"/>
    <tag k="removemelater" v="yes"/>
  </node>
  <node id="-455" lat="50.54692862211397" lon="-3.5036321025048798">
    <tag k="addr:postcode" v="TQ14 8HB"/>
    <tag k="removemelater" v="yes"/>
  </node>
  <node id="-456" lat="50.54634706878335" lon="-3.495017861493731">
    <tag k="addr:postcode" v="TQ14 8HH"/>
    <tag k="removemelater" v="yes"/>
  </node>
  <node id="-457" lat="50.546669435870314" lon="-3.4951268609486577">
    <tag k="addr:postcode" v="TQ14 8HP"/>
    <tag k="removemelater" v="yes"/>
  </node>
  <node id="-458" lat="50.54684006227178" lon="-3.4951463733457233">
    <tag k="addr:postcode" v="TQ14 8HR"/>
    <tag k="removemelater" v="yes"/>
  </node>
  <node id="-459" lat="50.547014603870636" lon="-3.495561221604003">
    <tag k="addr:postcode" v="TQ14 8HT"/>
    <tag k="removemelater" v="yes"/>
  </node>
  <node id="-460" lat="50.54725453453774" lon="-3.496486274871662">
    <tag k="addr:postcode" v="TQ14 8HU"/>
    <tag k="removemelater" v="yes"/>
  </node>
  <node id="-461" lat="50.54710035556577" lon="-3.4972859329178565">
    <tag k="addr:postcode" v="TQ14 8HY"/>
    <tag k="removemelater" v="yes"/>
  </node>
  <node id="-462" lat="50.54571698056527" lon="-3.49576010423003">
    <tag k="addr:postcode" v="TQ14 8HZ"/>
    <tag k="removemelater" v="yes"/>
  </node>
  <node id="-463" lat="50.54866259827074" lon="-3.498888100828431">
    <tag k="addr:postcode" v="TQ14 8JP"/>
    <tag k="removemelater" v="yes"/>
  </node>
  <node id="-464" lat="50.549174838359924" lon="-3.4989184629157166">
    <tag k="addr:postcode" v="TQ14 8JR"/>
    <tag k="removemelater" v="yes"/>
  </node>
  <node id="-465" lat="50.5473976278012" lon="-3.4930467891326353">
    <tag k="addr:postcode" v="TQ14 8NS"/>
    <tag k="removemelater" v="yes"/>
  </node>
  <node id="-466" lat="50.54689207759541" lon="-3.4945975466768404">
    <tag k="addr:postcode" v="TQ14 8SL"/>
    <tag k="removemelater" v="yes"/>
  </node>
  <node id="-467" lat="50.54719779871162" lon="-3.493901476700646">
    <tag k="addr:postcode" v="TQ14 8SR"/>
    <tag k="removemelater" v="yes"/>
  </node>
  <node id="-468" lat="50.54734097394694" lon="-3.4932567214088137">
    <tag k="addr:postcode" v="TQ14 8ST"/>
    <tag k="removemelater" v="yes"/>
  </node>
  <node id="-469" lat="50.54710542712655" lon="-3.4933904264850186">
    <tag k="addr:postcode" v="TQ14 8SU"/>
    <tag k="removemelater" v="yes"/>
  </node>
  <node id="-470" lat="50.54679946147374" lon="-3.494806337471516">
    <tag k="addr:postcode" v="TQ14 8SW"/>
    <tag k="removemelater" v="yes"/>
  </node>
  <node id="-471" lat="50.54688791864567" lon="-3.4928189668727896">
    <tag k="addr:postcode" v="TQ14 8SX"/>
    <tag k="removemelater" v="yes"/>
  </node>
  <node id="-472" lat="50.54821407824495" lon="-3.493199618199962">
    <tag k="addr:postcode" v="TQ14 8TD"/>
    <tag k="removemelater" v="yes"/>
  </node>
  <node id="-473" lat="50.55705039914244" lon="-3.487916503243234">
    <tag k="addr:postcode" v="TQ14 8TS"/>
    <tag k="removemelater" v="yes"/>
  </node>
  <node id="-474" lat="50.55833237338196" lon="-3.4875333364729837">
    <tag k="addr:postcode" v="TQ14 8UL"/>
    <tag k="removemelater" v="yes"/>
  </node>
  <node id="-475" lat="50.54571698056527" lon="-3.49576010423003">
    <tag k="addr:postcode" v="TQ14 8XL"/>
    <tag k="removemelater" v="yes"/>
  </node>
  <node id="-476" lat="50.54293968928977" lon="-3.498424349467047">
    <tag k="addr:postcode" v="TQ14 8XP"/>
    <tag k="removemelater" v="yes"/>
  </node>
  <node id="-477" lat="50.54571698056527" lon="-3.49576010423003">
    <tag k="addr:postcode" v="TQ14 8XR"/>
    <tag k="removemelater" v="yes"/>
  </node>
  <node id="-478" lat="50.54293968928977" lon="-3.498424349467047">
    <tag k="addr:postcode" v="TQ14 8XZ"/>
    <tag k="removemelater" v="yes"/>
  </node>
  <node id="-479" lat="50.54571698056527" lon="-3.49576010423003">
    <tag k="addr:postcode" v="TQ14 8YN"/>
    <tag k="removemelater" v="yes"/>
  </node>
  <node id="-480" lat="50.54571698056527" lon="-3.49576010423003">
    <tag k="addr:postcode" v="TQ14 8ZL"/>
    <tag k="removemelater" v="yes"/>
  </node>
  <node id="-481" lat="50.54571698056527" lon="-3.49576010423003">
    <tag k="addr:postcode" v="TQ14 8ZT"/>
    <tag k="removemelater" v="yes"/>
  </node>
  <node id="-482" lat="50.54571698056527" lon="-3.49576010423003">
    <tag k="addr:postcode" v="TQ14 8ZW"/>
    <tag k="removemelater" v="yes"/>
  </node>
  <node id="-483" lat="50.545943118926196" lon="-3.497757389939091">
    <tag k="addr:postcode" v="TQ14 8ZZ"/>
    <tag k="removemelater" v="yes"/>
  </node>
  <node id="-484" lat="50.55503683837438" lon="-3.5088028823371147">
    <tag k="addr:postcode" v="TQ14 9ES"/>
    <tag k="removemelater" v="yes"/>
  </node>
  <node id="-485" lat="50.557127314123356" lon="-3.511269660132681">
    <tag k="addr:postcode" v="TQ14 9EY"/>
    <tag k="removemelater" v="yes"/>
  </node>
  <node id="-486" lat="50.54846545275148" lon="-3.4995311448441058">
    <tag k="addr:postcode" v="TQ14 9HS"/>
    <tag k="removemelater" v="yes"/>
  </node>
  <node id="-487" lat="50.5488837109066" lon="-3.4991774192369958">
    <tag k="addr:postcode" v="TQ14 9HY"/>
    <tag k="removemelater" v="yes"/>
  </node>
  <node id="-488" lat="50.55049262510938" lon="-3.498550904945365">
    <tag k="addr:postcode" v="TQ14 9HZ"/>
    <tag k="removemelater" v="yes"/>
  </node>
  <node id="-489" lat="50.55068424208246" lon="-3.504612665083387">
    <tag k="addr:postcode" v="TQ14 9JN"/>
    <tag k="removemelater" v="yes"/>
  </node>
  <node id="-490" lat="50.55054088470625" lon="-3.501784946228263">
    <tag k="addr:postcode" v="TQ14 9JS"/>
    <tag k="removemelater" v="yes"/>
  </node>
  <node id="-491" lat="50.54962977099485" lon="-3.499906861709842">
    <tag k="addr:postcode" v="TQ14 9LD"/>
    <tag k="removemelater" v="yes"/>
  </node>
  <node id="-492" lat="50.55508311709468" lon="-3.5355281303779686">
    <tag k="addr:postcode" v="TQ14 9QE"/>
    <tag k="removemelater" v="yes"/>
  </node>
  <node id="-493" lat="50.554003986952424" lon="-3.5382458457434867">
    <tag k="addr:postcode" v="TQ14 9SW"/>
    <tag k="removemelater" v="yes"/>
  </node>
  <node id="-494" lat="50.566689953010226" lon="-3.5574818304274975">
    <tag k="addr:postcode" v="TQ14 9TG"/>
    <tag k="removemelater" v="yes"/>
  </node>
  <node id="-495" lat="50.54571698056527" lon="-3.49576010423003">
    <tag k="addr:postcode" v="TQ14 9WA"/>
    <tag k="removemelater" v="yes"/>
  </node>
  <node id="-496" lat="50.54571698056527" lon="-3.49576010423003">
    <tag k="addr:postcode" v="TQ14 9XB"/>
    <tag k="removemelater" v="yes"/>
  </node>
  <node id="-497" lat="50.47118566927712" lon="-3.5399949929115198">
    <tag k="addr:postcode" v="TQ2 5BU"/>
    <tag k="removemelater" v="yes"/>
  </node>
  <node id="-498" lat="50.464476087518364" lon="-3.527053581290365">
    <tag k="addr:postcode" v="TQ2 5DL"/>
    <tag k="removemelater" v="yes"/>
  </node>
  <node id="-499" lat="50.46439536354771" lon="-3.527036890580958">
    <tag k="addr:postcode" v="TQ2 5DN"/>
    <tag k="removemelater" v="yes"/>
  </node>
  <node id="-500" lat="50.462187984776385" lon="-3.5259654311193103">
    <tag k="addr:postcode" v="TQ2 5DZ"/>
    <tag k="removemelater" v="yes"/>
  </node>
  <node id="-501" lat="50.462696158649166" lon="-3.5263058508708633">
    <tag k="addr:postcode" v="TQ2 5EA"/>
    <tag k="removemelater" v="yes"/>
  </node>
  <node id="-502" lat="50.46290292578824" lon="-3.5263125083948323">
    <tag k="addr:postcode" v="TQ2 5EB"/>
    <tag k="removemelater" v="yes"/>
  </node>
  <node id="-503" lat="50.46277614368076" lon="-3.5263788744597764">
    <tag k="addr:postcode" v="TQ2 5EH"/>
    <tag k="removemelater" v="yes"/>
  </node>
  <node id="-504" lat="50.46141066741336" lon="-3.525574089452663">
    <tag k="addr:postcode" v="TQ2 5EL"/>
    <tag k="removemelater" v="yes"/>
  </node>
  <node id="-505" lat="50.46383854612907" lon="-3.5269766829040625">
    <tag k="addr:postcode" v="TQ2 5ES"/>
    <tag k="removemelater" v="yes"/>
  </node>
  <node id="-506" lat="50.46142920118749" lon="-3.525532418157909">
    <tag k="addr:postcode" v="TQ2 5JG"/>
    <tag k="removemelater" v="yes"/>
  </node>
  <node id="-507" lat="50.46596124489087" lon="-3.5317513255411255">
    <tag k="addr:postcode" v="TQ2 5NJ"/>
    <tag k="removemelater" v="yes"/>
  </node>
  <node id="-508" lat="50.46543719305022" lon="-3.5278313381275064">
    <tag k="addr:postcode" v="TQ2 5PL"/>
    <tag k="removemelater" v="yes"/>
  </node>
  <node id="-509" lat="50.46578254072306" lon="-3.5289274416440506">
    <tag k="addr:postcode" v="TQ2 5PN"/>
    <tag k="removemelater" v="yes"/>
  </node>
  <node id="-510" lat="50.465833333091425" lon="-3.529168619526462">
    <tag k="addr:postcode" v="TQ2 5PR"/>
    <tag k="removemelater" v="yes"/>
  </node>
  <node id="-511" lat="50.46641286009715" lon="-3.529553675522053">
    <tag k="addr:postcode" v="TQ2 5PS"/>
    <tag k="removemelater" v="yes"/>
  </node>
  <node id="-512" lat="50.46592952479015" lon="-3.528692642948198">
    <tag k="addr:postcode" v="TQ2 5PW"/>
    <tag k="removemelater" v="yes"/>
  </node>
  <node id="-513" lat="50.46757162713941" lon="-3.532395195372866">
    <tag k="addr:postcode" v="TQ2 5QQ"/>
    <tag k="removemelater" v="yes"/>
  </node>
  <node id="-514" lat="50.46886521174551" lon="-3.5338743505630927">
    <tag k="addr:postcode" v="TQ2 5QR"/>
    <tag k="removemelater" v="yes"/>
  </node>
  <node id="-515" lat="50.46808450234326" lon="-3.533059974595861">
    <tag k="addr:postcode" v="TQ2 5RD"/>
    <tag k="removemelater" v="yes"/>
  </node>
  <node id="-516" lat="50.4696647077722" lon="-3.5373526944177796">
    <tag k="addr:postcode" v="TQ2 5RY"/>
    <tag k="removemelater" v="yes"/>
  </node>
  <node id="-517" lat="50.4644704680994" lon="-3.5281665221493377">
    <tag k="addr:postcode" v="TQ2 5SH"/>
    <tag k="removemelater" v="yes"/>
  </node>
  <node id="-518" lat="50.47001004297703" lon="-3.5370820607152837">
    <tag k="addr:postcode" v="TQ2 5SN"/>
    <tag k="removemelater" v="yes"/>
  </node>
  <node id="-519" lat="50.462676264665575" lon="-3.527136497671752">
    <tag k="addr:postcode" v="TQ2 5SR"/>
    <tag k="removemelater" v="yes"/>
  </node>
  <node id="-520" lat="50.46391150484872" lon="-3.527584902471338">
    <tag k="addr:postcode" v="TQ2 5SU"/>
    <tag k="removemelater" v="yes"/>
  </node>
  <node id="-521" lat="50.46428519550029" lon="-3.5278928373006733">
    <tag k="addr:postcode" v="TQ2 5SY"/>
    <tag k="removemelater" v="yes"/>
  </node>
  <node id="-522" lat="50.464992358389374" lon="-3.528831501883102">
    <tag k="addr:postcode" v="TQ2 5SZ"/>
    <tag k="removemelater" v="yes"/>
  </node>
  <node id="-523" lat="50.46459003536818" lon="-3.52864944328676">
    <tag k="addr:postcode" v="TQ2 5TB"/>
    <tag k="removemelater" v="yes"/>
  </node>
  <node id="-524" lat="50.466030848314546" lon="-3.5312463126006524">
    <tag k="addr:postcode" v="TQ2 5TF"/>
    <tag k="removemelater" v="yes"/>
  </node>
  <node id="-525" lat="50.46380255350125" lon="-3.533132833795305">
    <tag k="addr:postcode" v="TQ2 5TY"/>
    <tag k="removemelater" v="yes"/>
  </node>
  <node id="-526" lat="50.46787788782819" lon="-3.5384924844312997">
    <tag k="addr:postcode" v="TQ2 5UW"/>
    <tag k="removemelater" v="yes"/>
  </node>
  <node id="-527" lat="50.484772183134226" lon="-3.549697891034867">
    <tag k="addr:postcode" v="TQ2 5WU"/>
    <tag k="removemelater" v="yes"/>
  </node>
  <node id="-528" lat="50.469185644777035" lon="-3.545679363605169">
    <tag k="addr:postcode" v="TQ2 6AH"/>
    <tag k="removemelater" v="yes"/>
  </node>
  <node id="-529" lat="50.45465852502053" lon="-3.546529968513392">
    <tag k="addr:postcode" v="TQ2 6FA"/>
    <tag k="removemelater" v="yes"/>
  </node>
  <node id="-530" lat="50.466781239218165" lon="-3.5492927567651287">
    <tag k="addr:postcode" v="TQ2 6HE"/>
    <tag k="removemelater" v="yes"/>
  </node>
  <node id="-531" lat="50.462616175091284" lon="-3.545986460584404">
    <tag k="addr:postcode" v="TQ2 6HS"/>
    <tag k="removemelater" v="yes"/>
  </node>
  <node id="-532" lat="50.46285965312528" lon="-3.5466143478120005">
    <tag k="addr:postcode" v="TQ2 6JF"/>
    <tag k="removemelater" v="yes"/>
  </node>
  <node id="-533" lat="50.473179019342545" lon="-3.5598178348706897">
    <tag k="addr:postcode" v="TQ2 6JH"/>
    <tag k="removemelater" v="yes"/>
  </node>
  <node id="-534" lat="50.46730565542264" lon="-3.556496321856641">
    <tag k="addr:postcode" v="TQ2 6NB"/>
    <tag k="removemelater" v="yes"/>
  </node>
  <node id="-535" lat="50.46122851049903" lon="-3.5434755947892858">
    <tag k="addr:postcode" v="TQ2 6NU"/>
    <tag k="removemelater" v="yes"/>
  </node>
  <node id="-536" lat="50.46414685002396" lon="-3.5445005646241405">
    <tag k="addr:postcode" v="TQ2 6PA"/>
    <tag k="removemelater" v="yes"/>
  </node>
  <node id="-537" lat="50.45958825496331" lon="-3.543732144683627">
    <tag k="addr:postcode" v="TQ2 6QQ"/>
    <tag k="removemelater" v="yes"/>
  </node>
  <node id="-538" lat="50.46737841851787" lon="-3.538856729097436">
    <tag k="addr:postcode" v="TQ2 6RF"/>
    <tag k="removemelater" v="yes"/>
  </node>
  <node id="-539" lat="50.470869933491535" lon="-3.561658355526307">
    <tag k="addr:postcode" v="TQ2 6SG"/>
    <tag k="removemelater" v="yes"/>
  </node>
  <node id="-540" lat="50.484772183134226" lon="-3.549697891034867">
    <tag k="addr:postcode" v="TQ2 6XE"/>
    <tag k="removemelater" v="yes"/>
  </node>
  <node id="-541" lat="50.47917083633334" lon="-3.5616782624479137">
    <tag k="addr:postcode" v="TQ2 7BX"/>
    <tag k="removemelater" v="yes"/>
  </node>
  <node id="-542" lat="50.48254434297416" lon="-3.563621900843406">
    <tag k="addr:postcode" v="TQ2 7HG"/>
    <tag k="removemelater" v="yes"/>
  </node>
  <node id="-543" lat="50.47558821018456" lon="-3.577246253687108">
    <tag k="addr:postcode" v="TQ2 7JH"/>
    <tag k="removemelater" v="yes"/>
  </node>
  <node id="-544" lat="50.47819629151081" lon="-3.5692711443984466">
    <tag k="addr:postcode" v="TQ2 7LZ"/>
    <tag k="removemelater" v="yes"/>
  </node>
  <node id="-545" lat="50.48034562070987" lon="-3.5423787820764754">
    <tag k="addr:postcode" v="TQ2 7NU"/>
    <tag k="removemelater" v="yes"/>
  </node>
  <node id="-546" lat="50.479434159042825" lon="-3.544646531034253">
    <tag k="addr:postcode" v="TQ2 7PJ"/>
    <tag k="removemelater" v="yes"/>
  </node>
  <node id="-547" lat="50.4844786981795" lon="-3.5392853498585137">
    <tag k="addr:postcode" v="TQ2 7PT"/>
    <tag k="removemelater" v="yes"/>
  </node>
  <node id="-548" lat="50.48428968140493" lon="-3.5386166925543385">
    <tag k="addr:postcode" v="TQ2 7PW"/>
    <tag k="removemelater" v="yes"/>
  </node>
  <node id="-549" lat="50.4815189885473" lon="-3.5689724493664103">
    <tag k="addr:postcode" v="TQ2 7RP"/>
    <tag k="removemelater" v="yes"/>
  </node>
  <node id="-550" lat="50.47974948009656" lon="-3.5681386341231573">
    <tag k="addr:postcode" v="TQ2 7RQ"/>
    <tag k="removemelater" v="yes"/>
  </node>
  <node id="-551" lat="50.48752318805128" lon="-3.5605439477270573">
    <tag k="addr:postcode" v="TQ2 7SR"/>
    <tag k="removemelater" v="yes"/>
  </node>
  <node id="-552" lat="50.484772183134226" lon="-3.549697891034867">
    <tag k="addr:postcode" v="TQ2 7TA"/>
    <tag k="removemelater" v="yes"/>
  </node>
  <node id="-553" lat="50.490027813010194" lon="-3.543356693473205">
    <tag k="addr:postcode" v="TQ2 8GT"/>
    <tag k="removemelater" v="yes"/>
  </node>
  <node id="-554" lat="50.484772183134226" lon="-3.549697891034867">
    <tag k="addr:postcode" v="TQ2 8SR"/>
    <tag k="removemelater" v="yes"/>
  </node>
  <node id="-555" lat="50.45514836857432" lon="-3.567719332367119">
    <tag k="addr:postcode" v="TQ3 1HF"/>
    <tag k="removemelater" v="yes"/>
  </node>
  <node id="-556" lat="50.45310744674177" lon="-3.593487121735141">
    <tag k="addr:postcode" v="TQ3 1NA"/>
    <tag k="removemelater" v="yes"/>
  </node>
  <node id="-557" lat="50.4367437415227" lon="-3.5673082854925995">
    <tag k="addr:postcode" v="TQ3 1WD"/>
    <tag k="removemelater" v="yes"/>
  </node>
  <node id="-558" lat="50.4367437415227" lon="-3.5673082854925995">
    <tag k="addr:postcode" v="TQ3 1WS"/>
    <tag k="removemelater" v="yes"/>
  </node>
  <node id="-559" lat="50.4367437415227" lon="-3.5673082854925995">
    <tag k="addr:postcode" v="TQ3 1WX"/>
    <tag k="removemelater" v="yes"/>
  </node>
  <node id="-560" lat="50.4367437415227" lon="-3.5673082854925995">
    <tag k="addr:postcode" v="TQ3 1WZ"/>
    <tag k="removemelater" v="yes"/>
  </node>
  <node id="-561" lat="50.439833613430245" lon="-3.563593901037411">
    <tag k="addr:postcode" v="TQ3 2AX"/>
    <tag k="removemelater" v="yes"/>
  </node>
  <node id="-562" lat="50.4367437415227" lon="-3.5673082854925995">
    <tag k="addr:postcode" v="TQ3 2HU"/>
    <tag k="removemelater" v="yes"/>
  </node>
  <node id="-563" lat="50.44419638215155" lon="-3.562864488171761">
    <tag k="addr:postcode" v="TQ3 2JB"/>
    <tag k="removemelater" v="yes"/>
  </node>
  <node id="-564" lat="50.4367437415227" lon="-3.5673082854925995">
    <tag k="addr:postcode" v="TQ3 2WB"/>
    <tag k="removemelater" v="yes"/>
  </node>
  <node id="-565" lat="50.4367437415227" lon="-3.5673082854925995">
    <tag k="addr:postcode" v="TQ3 2ZX"/>
    <tag k="removemelater" v="yes"/>
  </node>
  <node id="-566" lat="50.43637307578284" lon="-3.5674509419421847">
    <tag k="addr:postcode" v="TQ3 3AD"/>
    <tag k="removemelater" v="yes"/>
  </node>
  <node id="-567" lat="50.43626406081311" lon="-3.5675318315480213">
    <tag k="addr:postcode" v="TQ3 3BB"/>
    <tag k="removemelater" v="yes"/>
  </node>
  <node id="-568" lat="50.43631097984349" lon="-3.5680544095132154">
    <tag k="addr:postcode" v="TQ3 3DX"/>
    <tag k="removemelater" v="yes"/>
  </node>
  <node id="-569" lat="50.43575767183154" lon="-3.568402247621903">
    <tag k="addr:postcode" v="TQ3 3EF"/>
    <tag k="removemelater" v="yes"/>
  </node>
  <node id="-570" lat="50.43623951141043" lon="-3.56868572931025">
    <tag k="addr:postcode" v="TQ3 3ES"/>
    <tag k="removemelater" v="yes"/>
  </node>
  <node id="-571" lat="50.43547353540424" lon="-3.571462642212426">
    <tag k="addr:postcode" v="TQ3 3EW"/>
    <tag k="removemelater" v="yes"/>
  </node>
  <node id="-572" lat="50.4367437415227" lon="-3.5673082854925995">
    <tag k="addr:postcode" v="TQ3 3EX"/>
    <tag k="removemelater" v="yes"/>
  </node>
  <node id="-573" lat="50.442015644469684" lon="-3.584453121381878">
    <tag k="addr:postcode" v="TQ3 3EY"/>
    <tag k="removemelater" v="yes"/>
  </node>
  <node id="-574" lat="50.44220953852538" lon="-3.5913324003147977">
    <tag k="addr:postcode" v="TQ3 3GH"/>
    <tag k="removemelater" v="yes"/>
  </node>
  <node id="-575" lat="50.43898569027877" lon="-3.5949139213811514">
    <tag k="addr:postcode" v="TQ3 3LU"/>
    <tag k="removemelater" v="yes"/>
  </node>
  <node id="-576" lat="50.44519878870728" lon="-3.5831791687226167">
    <tag k="addr:postcode" v="TQ3 3NJ"/>
    <tag k="removemelater" v="yes"/>
  </node>
  <node id="-577" lat="50.44681551933323" lon="-3.585317709679335">
    <tag k="addr:postcode" v="TQ3 3PE"/>
    <tag k="removemelater" v="yes"/>
  </node>
  <node id="-578" lat="50.445585305303595" lon="-3.5845160230441886">
    <tag k="addr:postcode" v="TQ3 3PG"/>
    <tag k="removemelater" v="yes"/>
  </node>
  <node id="-579" lat="50.44614442161954" lon="-3.5877037763229707">
    <tag k="addr:postcode" v="TQ3 3PH"/>
    <tag k="removemelater" v="yes"/>
  </node>
  <node id="-580" lat="50.445022326872355" lon="-3.5862296031574257">
    <tag k="addr:postcode" v="TQ3 3PN"/>
    <tag k="removemelater" v="yes"/>
  </node>
  <node id="-581" lat="50.445357213469464" lon="-3.5867337614307164">
    <tag k="addr:postcode" v="TQ3 3PP"/>
    <tag k="removemelater" v="yes"/>
  </node>
  <node id="-582" lat="50.444868958101566" lon="-3.5856047607339403">
    <tag k="addr:postcode" v="TQ3 3PS"/>
    <tag k="removemelater" v="yes"/>
  </node>
  <node id="-583" lat="50.44445363985867" lon="-3.587041558102835">
    <tag k="addr:postcode" v="TQ3 3PT"/>
    <tag k="removemelater" v="yes"/>
  </node>
  <node id="-584" lat="50.444184620911706" lon="-3.5850044330978257">
    <tag k="addr:postcode" v="TQ3 3PU"/>
    <tag k="removemelater" v="yes"/>
  </node>
  <node id="-585" lat="50.44519225323764" lon="-3.5843197944937693">
    <tag k="addr:postcode" v="TQ3 3PW"/>
    <tag k="removemelater" v="yes"/>
  </node>
  <node id="-586" lat="50.44341208602922" lon="-3.5849363678308523">
    <tag k="addr:postcode" v="TQ3 3PY"/>
    <tag k="removemelater" v="yes"/>
  </node>
  <node id="-587" lat="50.44341744222773" lon="-3.5884997910519716">
    <tag k="addr:postcode" v="TQ3 3RX"/>
    <tag k="removemelater" v="yes"/>
  </node>
  <node id="-588" lat="50.4424156179707" lon="-3.583480624012926">
    <tag k="addr:postcode" v="TQ3 3SJ"/>
    <tag k="removemelater" v="yes"/>
  </node>
  <node id="-589" lat="50.44288207992442" lon="-3.584890491793097">
    <tag k="addr:postcode" v="TQ3 3SR"/>
    <tag k="removemelater" v="yes"/>
  </node>
  <node id="-590" lat="50.44319559069342" lon="-3.584323526546338">
    <tag k="addr:postcode" v="TQ3 3SW"/>
    <tag k="removemelater" v="yes"/>
  </node>
  <node id="-591" lat="50.437192220481506" lon="-3.5839963147639544">
    <tag k="addr:postcode" v="TQ3 3TE"/>
    <tag k="removemelater" v="yes"/>
  </node>
  <node id="-592" lat="50.44385970775892" lon="-3.587725891812801">
    <tag k="addr:postcode" v="TQ3 3TH"/>
    <tag k="removemelater" v="yes"/>
  </node>
  <node id="-593" lat="50.44316544143661" lon="-3.589829322545434">
    <tag k="addr:postcode" v="TQ3 3TJ"/>
    <tag k="removemelater" v="yes"/>
  </node>
  <node id="-594" lat="50.44122693249531" lon="-3.586891359268583">
    <tag k="addr:postcode" v="TQ3 3UT"/>
    <tag k="removemelater" v="yes"/>
  </node>
  <node id="-595" lat="50.44040052917586" lon="-3.588793097291757">
    <tag k="addr:postcode" v="TQ3 3UX"/>
    <tag k="removemelater" v="yes"/>
  </node>
  <node id="-596" lat="50.441949332098694" lon="-3.587338030666899">
    <tag k="addr:postcode" v="TQ3 3UZ"/>
    <tag k="removemelater" v="yes"/>
  </node>
  <node id="-597" lat="50.4367437415227" lon="-3.5673082854925995">
    <tag k="addr:postcode" v="TQ3 3WD"/>
    <tag k="removemelater" v="yes"/>
  </node>
  <node id="-598" lat="50.4367437415227" lon="-3.5673082854925995">
    <tag k="addr:postcode" v="TQ3 3WG"/>
    <tag k="removemelater" v="yes"/>
  </node>
  <node id="-599" lat="50.44117589759204" lon="-3.589311980664967">
    <tag k="addr:postcode" v="TQ3 3XB"/>
    <tag k="removemelater" v="yes"/>
  </node>
  <node id="-600" lat="50.44077857004655" lon="-3.5900873282310366">
    <tag k="addr:postcode" v="TQ3 3XD"/>
    <tag k="removemelater" v="yes"/>
  </node>
  <node id="-601" lat="50.43866579365869" lon="-3.6238851330360973">
    <tag k="addr:postcode" v="TQ3 3YG"/>
    <tag k="removemelater" v="yes"/>
  </node>
  <node id="-602" lat="50.4367437415227" lon="-3.5673082854925995">
    <tag k="addr:postcode" v="TQ3 3YJ"/>
    <tag k="removemelater" v="yes"/>
  </node>
  <node id="-603" lat="50.4385993791885" lon="-3.6234885473913305">
    <tag k="addr:postcode" v="TQ3 3YQ"/>
    <tag k="removemelater" v="yes"/>
  </node>
  <node id="-604" lat="50.4367437415227" lon="-3.5673082854925995">
    <tag k="addr:postcode" v="TQ3 3ZG"/>
    <tag k="removemelater" v="yes"/>
  </node>
  <node id="-605" lat="50.4367437415227" lon="-3.5673082854925995">
    <tag k="addr:postcode" v="TQ3 3ZX"/>
    <tag k="removemelater" v="yes"/>
  </node>
  <node id="-606" lat="50.43693036293764" lon="-3.566807497462273">
    <tag k="addr:postcode" v="TQ4 5BL"/>
    <tag k="removemelater" v="yes"/>
  </node>
  <node id="-607" lat="50.4367437415227" lon="-3.5673082854925995">
    <tag k="addr:postcode" v="TQ4 5BX"/>
    <tag k="removemelater" v="yes"/>
  </node>
  <node id="-608" lat="50.43601936504722" lon="-3.567002722961947">
    <tag k="addr:postcode" v="TQ4 5DE"/>
    <tag k="removemelater" v="yes"/>
  </node>
  <node id="-609" lat="50.43585072234475" lon="-3.5675040946373073">
    <tag k="addr:postcode" v="TQ4 5DH"/>
    <tag k="removemelater" v="yes"/>
  </node>
  <node id="-610" lat="50.43526519968295" lon="-3.5655696646241637">
    <tag k="addr:postcode" v="TQ4 5DS"/>
    <tag k="removemelater" v="yes"/>
  </node>
  <node id="-611" lat="50.43565693083082" lon="-3.5672019781780553">
    <tag k="addr:postcode" v="TQ4 5DW"/>
    <tag k="removemelater" v="yes"/>
  </node>
  <node id="-612" lat="50.434189649486996" lon="-3.565294798301487">
    <tag k="addr:postcode" v="TQ4 5EF"/>
    <tag k="removemelater" v="yes"/>
  </node>
  <node id="-613" lat="50.435353960514284" lon="-3.565657082518914">
    <tag k="addr:postcode" v="TQ4 5EQ"/>
    <tag k="removemelater" v="yes"/>
  </node>
  <node id="-614" lat="50.435409418376544" lon="-3.562870762882013">
    <tag k="addr:postcode" v="TQ4 6AB"/>
    <tag k="removemelater" v="yes"/>
  </node>
  <node id="-615" lat="50.435600094491754" lon="-3.562736227131558">
    <tag k="addr:postcode" v="TQ4 6AD"/>
    <tag k="removemelater" v="yes"/>
  </node>
  <node id="-616" lat="50.43507708584335" lon="-3.5635075640917004">
    <tag k="addr:postcode" v="TQ4 6AF"/>
    <tag k="removemelater" v="yes"/>
  </node>
  <node id="-617" lat="50.43540622259919" lon="-3.5597586331577977">
    <tag k="addr:postcode" v="TQ4 6AG"/>
    <tag k="removemelater" v="yes"/>
  </node>
  <node id="-618" lat="50.43555901077692" lon="-3.561777324892045">
    <tag k="addr:postcode" v="TQ4 6AJ"/>
    <tag k="removemelater" v="yes"/>
  </node>
  <node id="-619" lat="50.43322703757224" lon="-3.5606304246394216">
    <tag k="addr:postcode" v="TQ4 6EE"/>
    <tag k="removemelater" v="yes"/>
  </node>
  <node id="-620" lat="50.430357104796265" lon="-3.5600291646601754">
    <tag k="addr:postcode" v="TQ4 6EP"/>
    <tag k="removemelater" v="yes"/>
  </node>
  <node id="-621" lat="50.43585877496961" lon="-3.5608859632515433">
    <tag k="addr:postcode" v="TQ4 6EQ"/>
    <tag k="removemelater" v="yes"/>
  </node>
  <node id="-622" lat="50.40310105503398" lon="-3.561737220619401">
    <tag k="addr:postcode" v="TQ4 6FA"/>
    <tag k="removemelater" v="yes"/>
  </node>
  <node id="-623" lat="50.42978897639286" lon="-3.560813043381634">
    <tag k="addr:postcode" v="TQ4 6JA"/>
    <tag k="removemelater" v="yes"/>
  </node>
  <node id="-624" lat="50.43246781564543" lon="-3.56023935827859">
    <tag k="addr:postcode" v="TQ4 6JS"/>
    <tag k="removemelater" v="yes"/>
  </node>
  <node id="-625" lat="50.4367437415227" lon="-3.5673082854925995">
    <tag k="addr:postcode" v="TQ4 6XW"/>
    <tag k="removemelater" v="yes"/>
  </node>
  <node id="-626" lat="50.414646290263924" lon="-3.587846765903654">
    <tag k="addr:postcode" v="TQ4 7AT"/>
    <tag k="removemelater" v="yes"/>
  </node>
  <node id="-627" lat="50.42000728457321" lon="-3.586477588517223">
    <tag k="addr:postcode" v="TQ4 7BA"/>
    <tag k="removemelater" v="yes"/>
  </node>
  <node id="-628" lat="50.42780184989634" lon="-3.595903766178863">
    <tag k="addr:postcode" v="TQ4 7GF"/>
    <tag k="removemelater" v="yes"/>
  </node>
  <node id="-629" lat="50.420258696836115" lon="-3.597677287194226">
    <tag k="addr:postcode" v="TQ4 7PE"/>
    <tag k="removemelater" v="yes"/>
  </node>
  <node id="-630" lat="50.42148616570949" lon="-3.59211576329792">
    <tag k="addr:postcode" v="TQ4 7PJ"/>
    <tag k="removemelater" v="yes"/>
  </node>
  <node id="-631" lat="50.430041374440485" lon="-3.6231957688849747">
    <tag k="addr:postcode" v="TQ4 7PZ"/>
    <tag k="removemelater" v="yes"/>
  </node>
  <node id="-632" lat="50.413681892115314" lon="-3.5794116579493274">
    <tag k="addr:postcode" v="TQ4 7RZ"/>
    <tag k="removemelater" v="yes"/>
  </node>
  <node id="-633" lat="50.40968981777186" lon="-3.5733537619222435">
    <tag k="addr:postcode" v="TQ4 7SP"/>
    <tag k="removemelater" v="yes"/>
  </node>
  <node id="-634" lat="50.419863765414945" lon="-3.5818273904463127">
    <tag k="addr:postcode" v="TQ4 7TA"/>
    <tag k="removemelater" v="yes"/>
  </node>
  <node id="-635" lat="50.4367437415227" lon="-3.5673082854925995">
    <tag k="addr:postcode" v="TQ4 7TU"/>
    <tag k="removemelater" v="yes"/>
  </node>
  <node id="-636" lat="50.4367437415227" lon="-3.5673082854925995">
    <tag k="addr:postcode" v="TQ4 7XD"/>
    <tag k="removemelater" v="yes"/>
  </node>
  <node id="-637" lat="50.4367437415227" lon="-3.5673082854925995">
    <tag k="addr:postcode" v="TQ4 7XU"/>
    <tag k="removemelater" v="yes"/>
  </node>
  <node id="-638" lat="50.4367437415227" lon="-3.5673082854925995">
    <tag k="addr:postcode" v="TQ4 7XZ"/>
    <tag k="removemelater" v="yes"/>
  </node>
  <node id="-639" lat="50.4367437415227" lon="-3.5673082854925995">
    <tag k="addr:postcode" v="TQ4 9AA"/>
    <tag k="removemelater" v="yes"/>
  </node>
  <node id="-640" lat="50.4367437415227" lon="-3.5673082854925995">
    <tag k="addr:postcode" v="TQ4 9AF"/>
    <tag k="removemelater" v="yes"/>
  </node>
  <node id="-641" lat="50.4367437415227" lon="-3.5673082854925995">
    <tag k="addr:postcode" v="TQ4 9AS"/>
    <tag k="removemelater" v="yes"/>
  </node>
  <node id="-642" lat="50.4367437415227" lon="-3.5673082854925995">
    <tag k="addr:postcode" v="TQ4 9AX"/>
    <tag k="removemelater" v="yes"/>
  </node>
  <node id="-643" lat="50.4367437415227" lon="-3.5673082854925995">
    <tag k="addr:postcode" v="TQ4 9BD"/>
    <tag k="removemelater" v="yes"/>
  </node>
  <node id="-644" lat="50.4367437415227" lon="-3.5673082854925995">
    <tag k="addr:postcode" v="TQ4 9BF"/>
    <tag k="removemelater" v="yes"/>
  </node>
  <node id="-645" lat="50.4367437415227" lon="-3.5673082854925995">
    <tag k="addr:postcode" v="TQ4 9BW"/>
    <tag k="removemelater" v="yes"/>
  </node>
  <node id="-646" lat="50.4367437415227" lon="-3.5673082854925995">
    <tag k="addr:postcode" v="TQ4 9DD"/>
    <tag k="removemelater" v="yes"/>
  </node>
  <node id="-647" lat="50.4367437415227" lon="-3.5673082854925995">
    <tag k="addr:postcode" v="TQ4 9DE"/>
    <tag k="removemelater" v="yes"/>
  </node>
  <node id="-648" lat="50.4367437415227" lon="-3.5673082854925995">
    <tag k="addr:postcode" v="TQ4 9DL"/>
    <tag k="removemelater" v="yes"/>
  </node>
  <node id="-649" lat="50.4367437415227" lon="-3.5673082854925995">
    <tag k="addr:postcode" v="TQ4 9DP"/>
    <tag k="removemelater" v="yes"/>
  </node>
  <node id="-650" lat="50.4367437415227" lon="-3.5673082854925995">
    <tag k="addr:postcode" v="TQ4 9DQ"/>
    <tag k="removemelater" v="yes"/>
  </node>
  <node id="-651" lat="50.4367437415227" lon="-3.5673082854925995">
    <tag k="addr:postcode" v="TQ4 9DU"/>
    <tag k="removemelater" v="yes"/>
  </node>
  <node id="-652" lat="50.4367437415227" lon="-3.5673082854925995">
    <tag k="addr:postcode" v="TQ4 9DY"/>
    <tag k="removemelater" v="yes"/>
  </node>
  <node id="-653" lat="50.4367437415227" lon="-3.5673082854925995">
    <tag k="addr:postcode" v="TQ4 9DZ"/>
    <tag k="removemelater" v="yes"/>
  </node>
  <node id="-654" lat="50.4367437415227" lon="-3.5673082854925995">
    <tag k="addr:postcode" v="TQ4 9EB"/>
    <tag k="removemelater" v="yes"/>
  </node>
  <node id="-655" lat="50.4367437415227" lon="-3.5673082854925995">
    <tag k="addr:postcode" v="TQ4 9ED"/>
    <tag k="removemelater" v="yes"/>
  </node>
  <node id="-656" lat="50.4367437415227" lon="-3.5673082854925995">
    <tag k="addr:postcode" v="TQ4 9EE"/>
    <tag k="removemelater" v="yes"/>
  </node>
  <node id="-657" lat="50.4367437415227" lon="-3.5673082854925995">
    <tag k="addr:postcode" v="TQ4 9EF"/>
    <tag k="removemelater" v="yes"/>
  </node>
  <node id="-658" lat="50.39514773968615" lon="-3.5719576824936294">
    <tag k="addr:postcode" v="TQ5 0EH"/>
    <tag k="removemelater" v="yes"/>
  </node>
  <node id="-659" lat="50.369657054261346" lon="-3.516596422779202">
    <tag k="addr:postcode" v="TQ5 0HF"/>
    <tag k="removemelater" v="yes"/>
  </node>
  <node id="-660" lat="50.398440574589024" lon="-3.5598533407840094">
    <tag k="addr:postcode" v="TQ5 0LB"/>
    <tag k="removemelater" v="yes"/>
  </node>
  <node id="-661" lat="50.39453157762636" lon="-3.5167711066711513">
    <tag k="addr:postcode" v="TQ5 5AN"/>
    <tag k="removemelater" v="yes"/>
  </node>
  <node id="-662" lat="50.39453157762636" lon="-3.5167711066711513">
    <tag k="addr:postcode" v="TQ5 5AP"/>
    <tag k="removemelater" v="yes"/>
  </node>
  <node id="-663" lat="50.39453157762636" lon="-3.5167711066711513">
    <tag k="addr:postcode" v="TQ5 5AY"/>
    <tag k="removemelater" v="yes"/>
  </node>
  <node id="-664" lat="50.39453157762636" lon="-3.5167711066711513">
    <tag k="addr:postcode" v="TQ5 5BD"/>
    <tag k="removemelater" v="yes"/>
  </node>
  <node id="-665" lat="50.39453157762636" lon="-3.5167711066711513">
    <tag k="addr:postcode" v="TQ5 5BH"/>
    <tag k="removemelater" v="yes"/>
  </node>
  <node id="-666" lat="50.39453157762636" lon="-3.5167711066711513">
    <tag k="addr:postcode" v="TQ5 5BJ"/>
    <tag k="removemelater" v="yes"/>
  </node>
  <node id="-667" lat="50.39453157762636" lon="-3.5167711066711513">
    <tag k="addr:postcode" v="TQ5 5BL"/>
    <tag k="removemelater" v="yes"/>
  </node>
  <node id="-668" lat="50.39453157762636" lon="-3.5167711066711513">
    <tag k="addr:postcode" v="TQ5 5BN"/>
    <tag k="removemelater" v="yes"/>
  </node>
  <node id="-669" lat="50.39453157762636" lon="-3.5167711066711513">
    <tag k="addr:postcode" v="TQ5 5BP"/>
    <tag k="removemelater" v="yes"/>
  </node>
  <node id="-670" lat="50.39453157762636" lon="-3.5167711066711513">
    <tag k="addr:postcode" v="TQ5 5BQ"/>
    <tag k="removemelater" v="yes"/>
  </node>
  <node id="-671" lat="50.39453157762636" lon="-3.5167711066711513">
    <tag k="addr:postcode" v="TQ5 5BR"/>
    <tag k="removemelater" v="yes"/>
  </node>
  <node id="-672" lat="50.39585997937511" lon="-3.512142344048924">
    <tag k="addr:postcode" v="TQ5 8AJ"/>
    <tag k="removemelater" v="yes"/>
  </node>
  <node id="-673" lat="50.39725897508064" lon="-3.5131436390897157">
    <tag k="addr:postcode" v="TQ5 8AW"/>
    <tag k="removemelater" v="yes"/>
  </node>
  <node id="-674" lat="50.39560682165956" lon="-3.5129362606458865">
    <tag k="addr:postcode" v="TQ5 8EG"/>
    <tag k="removemelater" v="yes"/>
  </node>
  <node id="-675" lat="50.39601709018041" lon="-3.513892001603756">
    <tag k="addr:postcode" v="TQ5 8EJ"/>
    <tag k="removemelater" v="yes"/>
  </node>
  <node id="-676" lat="50.394775954533934" lon="-3.515962878498824">
    <tag k="addr:postcode" v="TQ5 8EU"/>
    <tag k="removemelater" v="yes"/>
  </node>
  <node id="-677" lat="50.394473960623095" lon="-3.518429453165581">
    <tag k="addr:postcode" v="TQ5 8HF"/>
    <tag k="removemelater" v="yes"/>
  </node>
  <node id="-678" lat="50.395785890465575" lon="-3.5129982411628657">
    <tag k="addr:postcode" v="TQ5 8JL"/>
    <tag k="removemelater" v="yes"/>
  </node>
  <node id="-679" lat="50.39453157762636" lon="-3.5167711066711513">
    <tag k="addr:postcode" v="TQ5 8TQ"/>
    <tag k="removemelater" v="yes"/>
  </node>
  <node id="-680" lat="50.39453157762636" lon="-3.5167711066711513">
    <tag k="addr:postcode" v="TQ5 8WX"/>
    <tag k="removemelater" v="yes"/>
  </node>
  <node id="-681" lat="50.39453157762636" lon="-3.5167711066711513">
    <tag k="addr:postcode" v="TQ5 8XW"/>
    <tag k="removemelater" v="yes"/>
  </node>
  <node id="-682" lat="50.399268554826726" lon="-3.49615386181515">
    <tag k="addr:postcode" v="TQ5 9AL"/>
    <tag k="removemelater" v="yes"/>
  </node>
  <node id="-683" lat="50.399556945002544" lon="-3.4834710445845114">
    <tag k="addr:postcode" v="TQ5 9AW"/>
    <tag k="removemelater" v="yes"/>
  </node>
  <node id="-684" lat="50.3904260387576" lon="-3.5143469653848363">
    <tag k="addr:postcode" v="TQ5 9DS"/>
    <tag k="removemelater" v="yes"/>
  </node>
  <node id="-685" lat="50.390789685127714" lon="-3.5147383959350322">
    <tag k="addr:postcode" v="TQ5 9DW"/>
    <tag k="removemelater" v="yes"/>
  </node>
  <node id="-686" lat="50.393778921548964" lon="-3.4971206180057437">
    <tag k="addr:postcode" v="TQ5 9EW"/>
    <tag k="removemelater" v="yes"/>
  </node>
  <node id="-687" lat="50.39617913190122" lon="-3.5104219069954405">
    <tag k="addr:postcode" v="TQ5 9TU"/>
    <tag k="removemelater" v="yes"/>
  </node>
  <node id="-688" lat="50.34921036662517" lon="-3.571058445844201">
    <tag k="addr:postcode" v="TQ6 0AQ"/>
    <tag k="removemelater" v="yes"/>
  </node>
  <node id="-689" lat="50.349913523876936" lon="-3.569605749724799">
    <tag k="addr:postcode" v="TQ6 0AR"/>
    <tag k="removemelater" v="yes"/>
  </node>
  <node id="-690" lat="50.34998790876768" lon="-3.5694254712697058">
    <tag k="addr:postcode" v="TQ6 0AS"/>
    <tag k="removemelater" v="yes"/>
  </node>
  <node id="-691" lat="50.35019733106785" lon="-3.5692355883113853">
    <tag k="addr:postcode" v="TQ6 0AT"/>
    <tag k="removemelater" v="yes"/>
  </node>
  <node id="-692" lat="50.35022771419602" lon="-3.5689835758539696">
    <tag k="addr:postcode" v="TQ6 0AU"/>
    <tag k="removemelater" v="yes"/>
  </node>
  <node id="-693" lat="50.35338507124629" lon="-3.5636053335043667">
    <tag k="addr:postcode" v="TQ6 0BB"/>
    <tag k="removemelater" v="yes"/>
  </node>
  <node id="-694" lat="50.35028108452969" lon="-3.5690275043548123">
    <tag k="addr:postcode" v="TQ6 0BH"/>
    <tag k="removemelater" v="yes"/>
  </node>
  <node id="-695" lat="50.35746281516226" lon="-3.5812983821735815">
    <tag k="addr:postcode" v="TQ6 0FD"/>
    <tag k="removemelater" v="yes"/>
  </node>
  <node id="-696" lat="50.37810487371905" lon="-3.6061478073203093">
    <tag k="addr:postcode" v="TQ6 0JQ"/>
    <tag k="removemelater" v="yes"/>
  </node>
  <node id="-697" lat="50.346801244324" lon="-3.6431814272308918">
    <tag k="addr:postcode" v="TQ6 0LX"/>
    <tag k="removemelater" v="yes"/>
  </node>
  <node id="-698" lat="50.35447054229571" lon="-3.6350678575083935">
    <tag k="addr:postcode" v="TQ6 0ND"/>
    <tag k="removemelater" v="yes"/>
  </node>
  <node id="-699" lat="50.32506739477996" lon="-3.5990061948326084">
    <tag k="addr:postcode" v="TQ6 0NX"/>
    <tag k="removemelater" v="yes"/>
  </node>
  <node id="-700" lat="50.32223752108438" lon="-3.5974642555390637">
    <tag k="addr:postcode" v="TQ6 0PH"/>
    <tag k="removemelater" v="yes"/>
  </node>
  <node id="-701" lat="50.323391942074664" lon="-3.6044148106846183">
    <tag k="addr:postcode" v="TQ6 0QZ"/>
    <tag k="removemelater" v="yes"/>
  </node>
  <node id="-702" lat="50.31203899531827" lon="-3.630451486488952">
    <tag k="addr:postcode" v="TQ6 0SA"/>
    <tag k="removemelater" v="yes"/>
  </node>
  <node id="-703" lat="50.351319722434056" lon="-3.5819798322148855">
    <tag k="addr:postcode" v="TQ6 6AS"/>
    <tag k="removemelater" v="yes"/>
  </node>
  <node id="-704" lat="50.351319722434056" lon="-3.5819798322148855">
    <tag k="addr:postcode" v="TQ6 6AX"/>
    <tag k="removemelater" v="yes"/>
  </node>
  <node id="-705" lat="50.351319722434056" lon="-3.5819798322148855">
    <tag k="addr:postcode" v="TQ6 9BE"/>
    <tag k="removemelater" v="yes"/>
  </node>
  <node id="-706" lat="50.34780289321495" lon="-3.578025751787805">
    <tag k="addr:postcode" v="TQ6 9BS"/>
    <tag k="removemelater" v="yes"/>
  </node>
  <node id="-707" lat="50.34191107756112" lon="-3.574106168113694">
    <tag k="addr:postcode" v="TQ6 9GJ"/>
    <tag k="removemelater" v="yes"/>
  </node>
  <node id="-708" lat="50.347290475681085" lon="-3.6062462781855835">
    <tag k="addr:postcode" v="TQ6 9HU"/>
    <tag k="removemelater" v="yes"/>
  </node>
  <node id="-709" lat="50.35131410223379" lon="-3.5784233051094576">
    <tag k="addr:postcode" v="TQ6 9PS"/>
    <tag k="removemelater" v="yes"/>
  </node>
  <node id="-710" lat="50.351656724622956" lon="-3.5803463908078688">
    <tag k="addr:postcode" v="TQ6 9QB"/>
    <tag k="removemelater" v="yes"/>
  </node>
  <node id="-711" lat="50.352364819045604" lon="-3.5805245316202976">
    <tag k="addr:postcode" v="TQ6 9QJ"/>
    <tag k="removemelater" v="yes"/>
  </node>
  <node id="-712" lat="50.351319722434056" lon="-3.5819798322148855">
    <tag k="addr:postcode" v="TQ6 9QN"/>
    <tag k="removemelater" v="yes"/>
  </node>
  <node id="-713" lat="50.350235580171216" lon="-3.581016075794563">
    <tag k="addr:postcode" v="TQ6 9QY"/>
    <tag k="removemelater" v="yes"/>
  </node>
  <node id="-714" lat="50.35136941755022" lon="-3.5796480722291246">
    <tag k="addr:postcode" v="TQ6 9RU"/>
    <tag k="removemelater" v="yes"/>
  </node>
  <node id="-715" lat="50.35132163432826" lon="-3.5818393289139423">
    <tag k="addr:postcode" v="TQ6 9SA"/>
    <tag k="removemelater" v="yes"/>
  </node>
  <node id="-716" lat="50.35405575496136" lon="-3.577206894908786">
    <tag k="addr:postcode" v="TQ6 9TR"/>
    <tag k="removemelater" v="yes"/>
  </node>
  <node id="-717" lat="50.2845424170156" lon="-3.7771823511733915">
    <tag k="addr:postcode" v="TQ7 1AA"/>
    <tag k="removemelater" v="yes"/>
  </node>
  <node id="-718" lat="50.28652212154662" lon="-3.7777053203213007">
    <tag k="addr:postcode" v="TQ7 1AF"/>
    <tag k="removemelater" v="yes"/>
  </node>
  <node id="-719" lat="50.285900831212324" lon="-3.7771627728782566">
    <tag k="addr:postcode" v="TQ7 1AH"/>
    <tag k="removemelater" v="yes"/>
  </node>
  <node id="-720" lat="50.28954934011082" lon="-3.776189658746802">
    <tag k="addr:postcode" v="TQ7 1BB"/>
    <tag k="removemelater" v="yes"/>
  </node>
  <node id="-721" lat="50.28961288660213" lon="-3.7767395362580256">
    <tag k="addr:postcode" v="TQ7 1BH"/>
    <tag k="removemelater" v="yes"/>
  </node>
  <node id="-722" lat="50.28474470123931" lon="-3.7763055368287373">
    <tag k="addr:postcode" v="TQ7 1BL"/>
    <tag k="removemelater" v="yes"/>
  </node>
  <node id="-723" lat="50.283387804492484" lon="-3.77563738785915">
    <tag k="addr:postcode" v="TQ7 1BQ"/>
    <tag k="removemelater" v="yes"/>
  </node>
  <node id="-724" lat="50.285380809998976" lon="-3.775290449396786">
    <tag k="addr:postcode" v="TQ7 1DD"/>
    <tag k="removemelater" v="yes"/>
  </node>
  <node id="-725" lat="50.28389186948095" lon="-3.7720767010539067">
    <tag k="addr:postcode" v="TQ7 1DL"/>
    <tag k="removemelater" v="yes"/>
  </node>
  <node id="-726" lat="50.285268881873755" lon="-3.770246836118049">
    <tag k="addr:postcode" v="TQ7 1DT"/>
    <tag k="removemelater" v="yes"/>
  </node>
  <node id="-727" lat="50.283291656169254" lon="-3.7772199767547936">
    <tag k="addr:postcode" v="TQ7 1DY"/>
    <tag k="removemelater" v="yes"/>
  </node>
  <node id="-728" lat="50.28358869834997" lon="-3.7777925217914183">
    <tag k="addr:postcode" v="TQ7 1ED"/>
    <tag k="removemelater" v="yes"/>
  </node>
  <node id="-729" lat="50.28323101286645" lon="-3.7788319571481126">
    <tag k="addr:postcode" v="TQ7 1EE"/>
    <tag k="removemelater" v="yes"/>
  </node>
  <node id="-730" lat="50.28626453014633" lon="-3.7827773902014274">
    <tag k="addr:postcode" v="TQ7 1ER"/>
    <tag k="removemelater" v="yes"/>
  </node>
  <node id="-731" lat="50.28304895267333" lon="-3.7772109350571426">
    <tag k="addr:postcode" v="TQ7 1FD"/>
    <tag k="removemelater" v="yes"/>
  </node>
  <node id="-732" lat="50.28399773442656" lon="-3.7769234286795794">
    <tag k="addr:postcode" v="TQ7 1HU"/>
    <tag k="removemelater" v="yes"/>
  </node>
  <node id="-733" lat="50.284523173520306" lon="-3.7766762934315423">
    <tag k="addr:postcode" v="TQ7 1HX"/>
    <tag k="removemelater" v="yes"/>
  </node>
  <node id="-734" lat="50.28350614634679" lon="-3.7761330857577766">
    <tag k="addr:postcode" v="TQ7 1JA"/>
    <tag k="removemelater" v="yes"/>
  </node>
  <node id="-735" lat="50.28417069066007" lon="-3.776199939847801">
    <tag k="addr:postcode" v="TQ7 1JB"/>
    <tag k="removemelater" v="yes"/>
  </node>
  <node id="-736" lat="50.28351897724581" lon="-3.776470450242065">
    <tag k="addr:postcode" v="TQ7 1JD"/>
    <tag k="removemelater" v="yes"/>
  </node>
  <node id="-737" lat="50.2785675748645" lon="-3.7726508995486636">
    <tag k="addr:postcode" v="TQ7 1LQ"/>
    <tag k="removemelater" v="yes"/>
  </node>
  <node id="-738" lat="50.28976962512008" lon="-3.7735445317451637">
    <tag k="addr:postcode" v="TQ7 1NU"/>
    <tag k="removemelater" v="yes"/>
  </node>
  <node id="-739" lat="50.28542868144777" lon="-3.777454007680955">
    <tag k="addr:postcode" v="TQ7 1NX"/>
    <tag k="removemelater" v="yes"/>
  </node>
  <node id="-740" lat="50.28516947676143" lon="-3.777935659515777">
    <tag k="addr:postcode" v="TQ7 1PE"/>
    <tag k="removemelater" v="yes"/>
  </node>
  <node id="-741" lat="50.28476413819723" lon="-3.777387133926371">
    <tag k="addr:postcode" v="TQ7 1PG"/>
    <tag k="removemelater" v="yes"/>
  </node>
  <node id="-742" lat="50.28429692398832" lon="-3.777355688667103">
    <tag k="addr:postcode" v="TQ7 1PH"/>
    <tag k="removemelater" v="yes"/>
  </node>
  <node id="-743" lat="50.285571647209544" lon="-3.777515485123406">
    <tag k="addr:postcode" v="TQ7 1PN"/>
    <tag k="removemelater" v="yes"/>
  </node>
  <node id="-744" lat="50.28612636298007" lon="-3.7782941929282106">
    <tag k="addr:postcode" v="TQ7 1PZ"/>
    <tag k="removemelater" v="yes"/>
  </node>
  <node id="-745" lat="50.283940987042705" lon="-3.7776933539773405">
    <tag k="addr:postcode" v="TQ7 1QB"/>
    <tag k="removemelater" v="yes"/>
  </node>
  <node id="-746" lat="50.286508221434595" lon="-3.7774380835054107">
    <tag k="addr:postcode" v="TQ7 1QH"/>
    <tag k="removemelater" v="yes"/>
  </node>
  <node id="-747" lat="50.28381861759775" lon="-3.7762850901052682">
    <tag k="addr:postcode" v="TQ7 1SB"/>
    <tag k="removemelater" v="yes"/>
  </node>
  <node id="-748" lat="50.285136649330376" lon="-3.779492590498209">
    <tag k="addr:postcode" v="TQ7 1SF"/>
    <tag k="removemelater" v="yes"/>
  </node>
  <node id="-749" lat="50.28055622677352" lon="-3.7808236032154277">
    <tag k="addr:postcode" v="TQ7 1UB"/>
    <tag k="removemelater" v="yes"/>
  </node>
  <node id="-750" lat="50.270852063109785" lon="-3.7380250912373123">
    <tag k="addr:postcode" v="TQ7 2AP"/>
    <tag k="removemelater" v="yes"/>
  </node>
  <node id="-751" lat="50.27087603825889" lon="-3.749013947105905">
    <tag k="addr:postcode" v="TQ7 2BS"/>
    <tag k="removemelater" v="yes"/>
  </node>
  <node id="-752" lat="50.26612730857245" lon="-3.652540182767381">
    <tag k="addr:postcode" v="TQ7 2EA"/>
    <tag k="removemelater" v="yes"/>
  </node>
  <node id="-753" lat="50.23548137304585" lon="-3.6596974691502546">
    <tag k="addr:postcode" v="TQ7 2EY"/>
    <tag k="removemelater" v="yes"/>
  </node>
  <node id="-754" lat="50.27397645128565" lon="-3.6939456291255044">
    <tag k="addr:postcode" v="TQ7 2JF"/>
    <tag k="removemelater" v="yes"/>
  </node>
  <node id="-755" lat="50.26965504074304" lon="-3.701622536169441">
    <tag k="addr:postcode" v="TQ7 2LQ"/>
    <tag k="removemelater" v="yes"/>
  </node>
  <node id="-756" lat="50.23278198863579" lon="-3.6810432024285475">
    <tag k="addr:postcode" v="TQ7 2NE"/>
    <tag k="removemelater" v="yes"/>
  </node>
  <node id="-757" lat="50.232204295732004" lon="-3.671838647702318">
    <tag k="addr:postcode" v="TQ7 2NF"/>
    <tag k="removemelater" v="yes"/>
  </node>
  <node id="-758" lat="50.31208696622707" lon="-3.6738949216776566">
    <tag k="addr:postcode" v="TQ7 2RF"/>
    <tag k="removemelater" v="yes"/>
  </node>
  <node id="-759" lat="50.249061042657004" lon="-3.726445458859707">
    <tag k="addr:postcode" v="TQ7 2RT"/>
    <tag k="removemelater" v="yes"/>
  </node>
  <node id="-760" lat="50.26566426507981" lon="-3.6541097161910345">
    <tag k="addr:postcode" v="TQ7 2TH"/>
    <tag k="removemelater" v="yes"/>
  </node>
  <node id="-761" lat="50.2841261550646" lon="-3.7767597667085697">
    <tag k="addr:postcode" v="TQ7 2WB"/>
    <tag k="removemelater" v="yes"/>
  </node>
  <node id="-762" lat="50.28615434154118" lon="-3.843444540325613">
    <tag k="addr:postcode" v="TQ7 3AB"/>
    <tag k="removemelater" v="yes"/>
  </node>
  <node id="-763" lat="50.27836906731899" lon="-3.871902565642513">
    <tag k="addr:postcode" v="TQ7 3AN"/>
    <tag k="removemelater" v="yes"/>
  </node>
  <node id="-764" lat="50.27820681335638" lon="-3.85847825081914">
    <tag k="addr:postcode" v="TQ7 3AQ"/>
    <tag k="removemelater" v="yes"/>
  </node>
  <node id="-765" lat="50.29822735734458" lon="-3.8118127565249393">
    <tag k="addr:postcode" v="TQ7 3DQ"/>
    <tag k="removemelater" v="yes"/>
  </node>
  <node id="-766" lat="50.23864905184098" lon="-3.8399001483272994">
    <tag k="addr:postcode" v="TQ7 3EN"/>
    <tag k="removemelater" v="yes"/>
  </node>
  <node id="-767" lat="50.26956601962941" lon="-3.853244259229829">
    <tag k="addr:postcode" v="TQ7 3EP"/>
    <tag k="removemelater" v="yes"/>
  </node>
  <node id="-768" lat="50.241541246475535" lon="-3.8582296271133396">
    <tag k="addr:postcode" v="TQ7 3HR"/>
    <tag k="removemelater" v="yes"/>
  </node>
  <node id="-769" lat="50.27787846076464" lon="-3.8057205507945056">
    <tag k="addr:postcode" v="TQ7 3JD"/>
    <tag k="removemelater" v="yes"/>
  </node>
  <node id="-770" lat="50.27172506177996" lon="-3.8305235468930356">
    <tag k="addr:postcode" v="TQ7 3JW"/>
    <tag k="removemelater" v="yes"/>
  </node>
  <node id="-771" lat="50.25622306533248" lon="-3.8574681626830576">
    <tag k="addr:postcode" v="TQ7 3JY"/>
    <tag k="removemelater" v="yes"/>
  </node>
  <node id="-772" lat="50.26704276892972" lon="-3.833711697507697">
    <tag k="addr:postcode" v="TQ7 3JZ"/>
    <tag k="removemelater" v="yes"/>
  </node>
  <node id="-773" lat="50.27488489785127" lon="-3.8326236204031354">
    <tag k="addr:postcode" v="TQ7 3LB"/>
    <tag k="removemelater" v="yes"/>
  </node>
  <node id="-774" lat="50.27439023044158" lon="-3.84342510638605">
    <tag k="addr:postcode" v="TQ7 3LU"/>
    <tag k="removemelater" v="yes"/>
  </node>
  <node id="-775" lat="50.27262692297772" lon="-3.8592573438247193">
    <tag k="addr:postcode" v="TQ7 3NJ"/>
    <tag k="removemelater" v="yes"/>
  </node>
  <node id="-776" lat="50.268130382164905" lon="-3.8603451087496734">
    <tag k="addr:postcode" v="TQ7 3NX"/>
    <tag k="removemelater" v="yes"/>
  </node>
  <node id="-777" lat="50.243827452667816" lon="-3.811431774452663">
    <tag k="addr:postcode" v="TQ7 3RJ"/>
    <tag k="removemelater" v="yes"/>
  </node>
  <node id="-778" lat="50.35714331400534" lon="-3.768294284768168">
    <tag k="addr:postcode" v="TQ7 4DL"/>
    <tag k="removemelater" v="yes"/>
  </node>
  <node id="-779" lat="50.360104804821724" lon="-3.7927976694307532">
    <tag k="addr:postcode" v="TQ7 4DZ"/>
    <tag k="removemelater" v="yes"/>
  </node>
  <node id="-780" lat="50.314105281259216" lon="-3.8356766104127966">
    <tag k="addr:postcode" v="TQ7 4JD"/>
    <tag k="removemelater" v="yes"/>
  </node>
  <node id="-781" lat="50.32359784595359" lon="-3.7997823886333033">
    <tag k="addr:postcode" v="TQ7 4RJ"/>
    <tag k="removemelater" v="yes"/>
  </node>
  <node id="-782" lat="50.323481567043636" lon="-3.799159850111508">
    <tag k="addr:postcode" v="TQ7 4RW"/>
    <tag k="removemelater" v="yes"/>
  </node>
  <node id="-783" lat="50.32940853313879" lon="-3.798006791002825">
    <tag k="addr:postcode" v="TQ7 4RX"/>
    <tag k="removemelater" v="yes"/>
  </node>
  <node id="-784" lat="50.2841261550646" lon="-3.7767597667085697">
    <tag k="addr:postcode" v="TQ7 4WZ"/>
    <tag k="removemelater" v="yes"/>
  </node>
  <node id="-785" lat="50.2841261550646" lon="-3.7767597667085697">
    <tag k="addr:postcode" v="TQ7 9AD"/>
    <tag k="removemelater" v="yes"/>
  </node>
  <node id="-786" lat="50.2841261550646" lon="-3.7767597667085697">
    <tag k="addr:postcode" v="TQ7 9AN"/>
    <tag k="removemelater" v="yes"/>
  </node>
  <node id="-787" lat="50.2841261550646" lon="-3.7767597667085697">
    <tag k="addr:postcode" v="TQ7 9AX"/>
    <tag k="removemelater" v="yes"/>
  </node>
  <node id="-788" lat="50.2841261550646" lon="-3.7767597667085697">
    <tag k="addr:postcode" v="TQ7 9AY"/>
    <tag k="removemelater" v="yes"/>
  </node>
  <node id="-789" lat="50.2841261550646" lon="-3.7767597667085697">
    <tag k="addr:postcode" v="TQ7 9BF"/>
    <tag k="removemelater" v="yes"/>
  </node>
  <node id="-790" lat="50.2841261550646" lon="-3.7767597667085697">
    <tag k="addr:postcode" v="TQ7 9BH"/>
    <tag k="removemelater" v="yes"/>
  </node>
  <node id="-791" lat="50.2841261550646" lon="-3.7767597667085697">
    <tag k="addr:postcode" v="TQ7 9BJ"/>
    <tag k="removemelater" v="yes"/>
  </node>
  <node id="-792" lat="50.2841261550646" lon="-3.7767597667085697">
    <tag k="addr:postcode" v="TQ7 9BL"/>
    <tag k="removemelater" v="yes"/>
  </node>
  <node id="-793" lat="50.238292853909925" lon="-3.776106654371596">
    <tag k="addr:postcode" v="TQ8 8AQ"/>
    <tag k="removemelater" v="yes"/>
  </node>
  <node id="-794" lat="50.235873901846006" lon="-3.777250763842554">
    <tag k="addr:postcode" v="TQ8 8BN"/>
    <tag k="removemelater" v="yes"/>
  </node>
  <node id="-795" lat="50.237383476900156" lon="-3.7732261054043743">
    <tag k="addr:postcode" v="TQ8 8BQ"/>
    <tag k="removemelater" v="yes"/>
  </node>
  <node id="-796" lat="50.238052789651526" lon="-3.767669561029119">
    <tag k="addr:postcode" v="TQ8 8BS"/>
    <tag k="removemelater" v="yes"/>
  </node>
  <node id="-797" lat="50.23804593326733" lon="-3.7675290716884513">
    <tag k="addr:postcode" v="TQ8 8BU"/>
    <tag k="removemelater" v="yes"/>
  </node>
  <node id="-798" lat="50.23837721873359" lon="-3.7670364745481906">
    <tag k="addr:postcode" v="TQ8 8BX"/>
    <tag k="removemelater" v="yes"/>
  </node>
  <node id="-799" lat="50.23874662619114" lon="-3.766994040858031">
    <tag k="addr:postcode" v="TQ8 8BZ"/>
    <tag k="removemelater" v="yes"/>
  </node>
  <node id="-800" lat="50.23936946872672" lon="-3.7674377934229812">
    <tag k="addr:postcode" v="TQ8 8DH"/>
    <tag k="removemelater" v="yes"/>
  </node>
  <node id="-801" lat="50.24027598015824" lon="-3.7699255667624416">
    <tag k="addr:postcode" v="TQ8 8DU"/>
    <tag k="removemelater" v="yes"/>
  </node>
  <node id="-802" lat="50.23794150728956" lon="-3.7678898208412828">
    <tag k="addr:postcode" v="TQ8 8EN"/>
    <tag k="removemelater" v="yes"/>
  </node>
  <node id="-803" lat="50.23782856870628" lon="-3.7694001810029865">
    <tag k="addr:postcode" v="TQ8 8EY"/>
    <tag k="removemelater" v="yes"/>
  </node>
  <node id="-804" lat="50.24007644054797" lon="-3.768263323182907">
    <tag k="addr:postcode" v="TQ8 8FE"/>
    <tag k="removemelater" v="yes"/>
  </node>
  <node id="-805" lat="50.24061132253584" lon="-3.7785910021179">
    <tag k="addr:postcode" v="TQ8 8FH"/>
    <tag k="removemelater" v="yes"/>
  </node>
  <node id="-806" lat="50.23819989818274" lon="-3.7692316245810566">
    <tag k="addr:postcode" v="TQ8 8HB"/>
    <tag k="removemelater" v="yes"/>
  </node>
  <node id="-807" lat="50.2358540214265" lon="-3.7714865981187793">
    <tag k="addr:postcode" v="TQ8 8HR"/>
    <tag k="removemelater" v="yes"/>
  </node>
  <node id="-808" lat="50.23521526798711" lon="-3.768546188799075">
    <tag k="addr:postcode" v="TQ8 8JH"/>
    <tag k="removemelater" v="yes"/>
  </node>
  <node id="-809" lat="50.247901244913514" lon="-3.7788764625588214">
    <tag k="addr:postcode" v="TQ8 8NG"/>
    <tag k="removemelater" v="yes"/>
  </node>
  <node id="-810" lat="50.23978833229833" lon="-3.767691697276076">
    <tag k="addr:postcode" v="TQ8 8WP"/>
    <tag k="removemelater" v="yes"/>
  </node>
  <node id="-811" lat="50.2841261550646" lon="-3.7767597667085697">
    <tag k="addr:postcode" v="TQ8 8WW"/>
    <tag k="removemelater" v="yes"/>
  </node>
  <node id="-812" lat="50.43048451809783" lon="-3.67940506182938">
    <tag k="addr:postcode" v="TQ9 5AD"/>
    <tag k="removemelater" v="yes"/>
  </node>
  <node id="-813" lat="50.43064977876763" lon="-3.679171545018158">
    <tag k="addr:postcode" v="TQ9 5AE"/>
    <tag k="removemelater" v="yes"/>
  </node>
  <node id="-814" lat="50.43214156803088" lon="-3.6767602021159247">
    <tag k="addr:postcode" v="TQ9 5BG"/>
    <tag k="removemelater" v="yes"/>
  </node>
  <node id="-815" lat="50.429581935033234" lon="-3.6796265615755384">
    <tag k="addr:postcode" v="TQ9 5BZ"/>
    <tag k="removemelater" v="yes"/>
  </node>
  <node id="-816" lat="50.432116943281464" lon="-3.711792254923725">
    <tag k="addr:postcode" v="TQ9 5DQ"/>
    <tag k="removemelater" v="yes"/>
  </node>
  <node id="-817" lat="50.42989358950817" lon="-3.6854385850102993">
    <tag k="addr:postcode" v="TQ9 5DY"/>
    <tag k="removemelater" v="yes"/>
  </node>
  <node id="-818" lat="50.436429785676815" lon="-3.6862199577300627">
    <tag k="addr:postcode" v="TQ9 5FN"/>
    <tag k="removemelater" v="yes"/>
  </node>
  <node id="-819" lat="50.42594572821792" lon="-3.6748236876640137">
    <tag k="addr:postcode" v="TQ9 5GA"/>
    <tag k="removemelater" v="yes"/>
  </node>
  <node id="-820" lat="50.426118015322295" lon="-3.6753506881710463">
    <tag k="addr:postcode" v="TQ9 5GQ"/>
    <tag k="removemelater" v="yes"/>
  </node>
  <node id="-821" lat="50.43008736535112" lon="-3.679503648541071">
    <tag k="addr:postcode" v="TQ9 5GU"/>
    <tag k="removemelater" v="yes"/>
  </node>
  <node id="-822" lat="50.42774378674422" lon="-3.6748730575994055">
    <tag k="addr:postcode" v="TQ9 5GW"/>
    <tag k="removemelater" v="yes"/>
  </node>
  <node id="-823" lat="50.436429785676815" lon="-3.6862199577300627">
    <tag k="addr:postcode" v="TQ9 5GX"/>
    <tag k="removemelater" v="yes"/>
  </node>
  <node id="-824" lat="50.431264030022795" lon="-3.6852056477781363">
    <tag k="addr:postcode" v="TQ9 5HQ"/>
    <tag k="removemelater" v="yes"/>
  </node>
  <node id="-825" lat="50.432561372660416" lon="-3.686913263560453">
    <tag k="addr:postcode" v="TQ9 5HR"/>
    <tag k="removemelater" v="yes"/>
  </node>
  <node id="-826" lat="50.43314750856716" lon="-3.68680737104425">
    <tag k="addr:postcode" v="TQ9 5HU"/>
    <tag k="removemelater" v="yes"/>
  </node>
  <node id="-827" lat="50.43193291972469" lon="-3.6855954994255002">
    <tag k="addr:postcode" v="TQ9 5HW"/>
    <tag k="removemelater" v="yes"/>
  </node>
  <node id="-828" lat="50.43150633128013" lon="-3.6852424134368826">
    <tag k="addr:postcode" v="TQ9 5HX"/>
    <tag k="removemelater" v="yes"/>
  </node>
  <node id="-829" lat="50.43496426580069" lon="-3.683703598093589">
    <tag k="addr:postcode" v="TQ9 5JA"/>
    <tag k="removemelater" v="yes"/>
  </node>
  <node id="-830" lat="50.43437121248574" lon="-3.692342625921227">
    <tag k="addr:postcode" v="TQ9 5JJ"/>
    <tag k="removemelater" v="yes"/>
  </node>
  <node id="-831" lat="50.430891025418425" lon="-3.6954006829076085">
    <tag k="addr:postcode" v="TQ9 5LH"/>
    <tag k="removemelater" v="yes"/>
  </node>
  <node id="-832" lat="50.43097667176256" lon="-3.7000080410354563">
    <tag k="addr:postcode" v="TQ9 5NG"/>
    <tag k="removemelater" v="yes"/>
  </node>
  <node id="-833" lat="50.43158073840464" lon="-3.6875542720783008">
    <tag k="addr:postcode" v="TQ9 5NN"/>
    <tag k="removemelater" v="yes"/>
  </node>
  <node id="-834" lat="50.432180554687804" lon="-3.6902227871787225">
    <tag k="addr:postcode" v="TQ9 5NU"/>
    <tag k="removemelater" v="yes"/>
  </node>
  <node id="-835" lat="50.431440974478924" lon="-3.690984955929792">
    <tag k="addr:postcode" v="TQ9 5PB"/>
    <tag k="removemelater" v="yes"/>
  </node>
  <node id="-836" lat="50.432073870175586" lon="-3.691993160454368">
    <tag k="addr:postcode" v="TQ9 5PL"/>
    <tag k="removemelater" v="yes"/>
  </node>
  <node id="-837" lat="50.433446997471094" lon="-3.690957873645364">
    <tag k="addr:postcode" v="TQ9 5PU"/>
    <tag k="removemelater" v="yes"/>
  </node>
  <node id="-838" lat="50.432413061247296" lon="-3.6884568831666504">
    <tag k="addr:postcode" v="TQ9 5QG"/>
    <tag k="removemelater" v="yes"/>
  </node>
  <node id="-839" lat="50.431867161918646" lon="-3.687029392198502">
    <tag k="addr:postcode" v="TQ9 5QH"/>
    <tag k="removemelater" v="yes"/>
  </node>
  <node id="-840" lat="50.431562776873186" lon="-3.709111028632279">
    <tag k="addr:postcode" v="TQ9 5QJ"/>
    <tag k="removemelater" v="yes"/>
  </node>
  <node id="-841" lat="50.4320005737841" lon="-3.689610905780068">
    <tag k="addr:postcode" v="TQ9 5QN"/>
    <tag k="removemelater" v="yes"/>
  </node>
  <node id="-842" lat="50.42931925961582" lon="-3.6803775800885745">
    <tag k="addr:postcode" v="TQ9 5QP"/>
    <tag k="removemelater" v="yes"/>
  </node>
  <node id="-843" lat="50.431562776873186" lon="-3.709111028632279">
    <tag k="addr:postcode" v="TQ9 5RS"/>
    <tag k="removemelater" v="yes"/>
  </node>
  <node id="-844" lat="50.43098211628267" lon="-3.6860404611772197">
    <tag k="addr:postcode" v="TQ9 5RT"/>
    <tag k="removemelater" v="yes"/>
  </node>
  <node id="-845" lat="50.4314510103198" lon="-3.6890562777391898">
    <tag k="addr:postcode" v="TQ9 5SG"/>
    <tag k="removemelater" v="yes"/>
  </node>
  <node id="-846" lat="50.42924535921803" lon="-3.6910616021853233">
    <tag k="addr:postcode" v="TQ9 5SY"/>
    <tag k="removemelater" v="yes"/>
  </node>
  <node id="-847" lat="50.42848518086249" lon="-3.6895279907605714">
    <tag k="addr:postcode" v="TQ9 5TD"/>
    <tag k="removemelater" v="yes"/>
  </node>
  <node id="-848" lat="50.428472312292676" lon="-3.6891755409413016">
    <tag k="addr:postcode" v="TQ9 5TE"/>
    <tag k="removemelater" v="yes"/>
  </node>
  <node id="-849" lat="50.42837874406865" lon="-3.6888061400618137">
    <tag k="addr:postcode" v="TQ9 5TF"/>
    <tag k="removemelater" v="yes"/>
  </node>
  <node id="-850" lat="50.428625715801196" lon="-3.6860412251627803">
    <tag k="addr:postcode" v="TQ9 5TL"/>
    <tag k="removemelater" v="yes"/>
  </node>
  <node id="-851" lat="50.431032175280734" lon="-3.6863097677630297">
    <tag k="addr:postcode" v="TQ9 5TT"/>
    <tag k="removemelater" v="yes"/>
  </node>
  <node id="-852" lat="50.436429785676815" lon="-3.6862199577300627">
    <tag k="addr:postcode" v="TQ9 5UZ"/>
    <tag k="removemelater" v="yes"/>
  </node>
  <node id="-853" lat="50.42942649224148" lon="-3.683535283814307">
    <tag k="addr:postcode" v="TQ9 5WA"/>
    <tag k="removemelater" v="yes"/>
  </node>
  <node id="-854" lat="50.436429785676815" lon="-3.6862199577300627">
    <tag k="addr:postcode" v="TQ9 5WJ"/>
    <tag k="removemelater" v="yes"/>
  </node>
  <node id="-855" lat="50.436429785676815" lon="-3.6862199577300627">
    <tag k="addr:postcode" v="TQ9 5WU"/>
    <tag k="removemelater" v="yes"/>
  </node>
  <node id="-856" lat="50.42643321754611" lon="-3.682176073766875">
    <tag k="addr:postcode" v="TQ9 5WW"/>
    <tag k="removemelater" v="yes"/>
  </node>
  <node id="-857" lat="50.435838741914125" lon="-3.68604405238918">
    <tag k="addr:postcode" v="TQ9 5XW"/>
    <tag k="removemelater" v="yes"/>
  </node>
  <node id="-858" lat="50.434710381211076" lon="-3.6912845270240413">
    <tag k="addr:postcode" v="TQ9 5YN"/>
    <tag k="removemelater" v="yes"/>
  </node>
  <node id="-859" lat="50.45178951604309" lon="-3.729828863352418">
    <tag k="addr:postcode" v="TQ9 6AA"/>
    <tag k="removemelater" v="yes"/>
  </node>
  <node id="-860" lat="50.407789225396975" lon="-3.62136558223339">
    <tag k="addr:postcode" v="TQ9 6GE"/>
    <tag k="removemelater" v="yes"/>
  </node>
  <node id="-861" lat="50.44465888063715" lon="-3.714540616565957">
    <tag k="addr:postcode" v="TQ9 6GN"/>
    <tag k="removemelater" v="yes"/>
  </node>
  <node id="-862" lat="50.44477449354637" lon="-3.714629302915341">
    <tag k="addr:postcode" v="TQ9 6GP"/>
    <tag k="removemelater" v="yes"/>
  </node>
  <node id="-863" lat="50.445071272078174" lon="-3.7140203075561806">
    <tag k="addr:postcode" v="TQ9 6GQ"/>
    <tag k="removemelater" v="yes"/>
  </node>
  <node id="-864" lat="50.431425034797535" lon="-3.6665405872690076">
    <tag k="addr:postcode" v="TQ9 6GS"/>
    <tag k="removemelater" v="yes"/>
  </node>
  <node id="-865" lat="50.42998706243135" lon="-3.667095534105257">
    <tag k="addr:postcode" v="TQ9 6GU"/>
    <tag k="removemelater" v="yes"/>
  </node>
  <node id="-866" lat="50.476335066114494" lon="-3.7163772532093953">
    <tag k="addr:postcode" v="TQ9 6GY"/>
    <tag k="removemelater" v="yes"/>
  </node>
  <node id="-867" lat="50.4430004439548" lon="-3.7080583624158474">
    <tag k="addr:postcode" v="TQ9 6HD"/>
    <tag k="removemelater" v="yes"/>
  </node>
  <node id="-868" lat="50.441152289925284" lon="-3.709583247887549">
    <tag k="addr:postcode" v="TQ9 6HF"/>
    <tag k="removemelater" v="yes"/>
  </node>
  <node id="-869" lat="50.44375314609301" lon="-3.708860099233666">
    <tag k="addr:postcode" v="TQ9 6HJ"/>
    <tag k="removemelater" v="yes"/>
  </node>
  <node id="-870" lat="50.44455379675598" lon="-3.706395993486853">
    <tag k="addr:postcode" v="TQ9 6HR"/>
    <tag k="removemelater" v="yes"/>
  </node>
  <node id="-871" lat="50.44456656850927" lon="-3.704297867167295">
    <tag k="addr:postcode" v="TQ9 6HW"/>
    <tag k="removemelater" v="yes"/>
  </node>
  <node id="-872" lat="50.44966329802961" lon="-3.7197643253290518">
    <tag k="addr:postcode" v="TQ9 6JP"/>
    <tag k="removemelater" v="yes"/>
  </node>
  <node id="-873" lat="50.44307559877958" lon="-3.711511656377037">
    <tag k="addr:postcode" v="TQ9 6JQ"/>
    <tag k="removemelater" v="yes"/>
  </node>
  <node id="-874" lat="50.45239725784683" lon="-3.674151864933073">
    <tag k="addr:postcode" v="TQ9 6LY"/>
    <tag k="removemelater" v="yes"/>
  </node>
  <node id="-875" lat="50.464355362738694" lon="-3.701064000952384">
    <tag k="addr:postcode" v="TQ9 6PH"/>
    <tag k="removemelater" v="yes"/>
  </node>
  <node id="-876" lat="50.464995960088714" lon="-3.684854709031848">
    <tag k="addr:postcode" v="TQ9 6PJ"/>
    <tag k="removemelater" v="yes"/>
  </node>
  <node id="-877" lat="50.324431839955146" lon="-3.6766607804258817">
    <tag k="addr:postcode" v="TQ9 7AG"/>
    <tag k="removemelater" v="yes"/>
  </node>
  <node id="-878" lat="50.33235302795353" lon="-3.681815415212189">
    <tag k="addr:postcode" v="TQ9 7AH"/>
    <tag k="removemelater" v="yes"/>
  </node>
  <node id="-879" lat="50.333308434636024" lon="-3.6471279681050994">
    <tag k="addr:postcode" v="TQ9 7AW"/>
    <tag k="removemelater" v="yes"/>
  </node>
  <node id="-880" lat="50.34721835687705" lon="-3.6549884409125917">
    <tag k="addr:postcode" v="TQ9 7DD"/>
    <tag k="removemelater" v="yes"/>
  </node>
  <node id="-881" lat="50.34677924356708" lon="-3.678712832900836">
    <tag k="addr:postcode" v="TQ9 7FJ"/>
    <tag k="removemelater" v="yes"/>
  </node>
  <node id="-882" lat="50.37200178087428" lon="-3.653361637115399">
    <tag k="addr:postcode" v="TQ9 7HL"/>
    <tag k="removemelater" v="yes"/>
  </node>
  <node id="-883" lat="50.38543027152619" lon="-3.6233176930690254">
    <tag k="addr:postcode" v="TQ9 7HQ"/>
    <tag k="removemelater" v="yes"/>
  </node>
  <node id="-884" lat="50.36144043146539" lon="-3.737409742367129">
    <tag k="addr:postcode" v="TQ9 7JJ"/>
    <tag k="removemelater" v="yes"/>
  </node>
  <node id="-885" lat="50.42208407946827" lon="-3.7745132753307153">
    <tag k="addr:postcode" v="TQ9 7LW"/>
    <tag k="removemelater" v="yes"/>
  </node>
  <node id="-886" lat="50.32615071073562" lon="-3.733607361642692">
    <tag k="addr:postcode" v="TQ9 7RP"/>
    <tag k="removemelater" v="yes"/>
  </node>
  <node id="-887" lat="50.42096398114187" lon="-3.719146750244202">
    <tag k="addr:postcode" v="TQ9 7RZ"/>
    <tag k="removemelater" v="yes"/>
  </node>
  <node id="-888" lat="50.393811120755636" lon="-3.711847028351922">
    <tag k="addr:postcode" v="TQ9 7TF"/>
    <tag k="removemelater" v="yes"/>
  </node>
  <node id="-889" lat="50.39206697940942" lon="-3.7130222627125162">
    <tag k="addr:postcode" v="TQ9 7TS"/>
    <tag k="removemelater" v="yes"/>
  </node>
  <node id="-890" lat="50.436429785676815" lon="-3.6862199577300627">
    <tag k="addr:postcode" v="TQ9 7WA"/>
    <tag k="removemelater" v="yes"/>
  </node>
  <node id="-891" lat="50.436429785676815" lon="-3.6862199577300627">
    <tag k="addr:postcode" v="TQ9 7YZ"/>
    <tag k="removemelater" v="yes"/>
  </node>
  <node id="-892" lat="50.436429785676815" lon="-3.6862199577300627">
    <tag k="addr:postcode" v="TQ9 9BJ"/>
    <tag k="removemelater" v="yes"/>
  </node>
  <node id="-893" lat="50.436429785676815" lon="-3.6862199577300627">
    <tag k="addr:postcode" v="TQ9 9BR"/>
    <tag k="removemelater" v="yes"/>
  </node>
  <node id="-894" lat="50.436429785676815" lon="-3.6862199577300627">
    <tag k="addr:postcode" v="TQ9 9BS"/>
    <tag k="removemelater" v="yes"/>
  </node>
  <node id="-895" lat="50.436429785676815" lon="-3.6862199577300627">
    <tag k="addr:postcode" v="TQ9 9BT"/>
    <tag k="removemelater" v="yes"/>
  </node>
  <node id="-896" lat="50.436429785676815" lon="-3.6862199577300627">
    <tag k="addr:postcode" v="TQ9 9DD"/>
    <tag k="removemelater" v="yes"/>
  </node>
  <node id="-897" lat="50.436429785676815" lon="-3.6862199577300627">
    <tag k="addr:postcode" v="TQ9 9DL"/>
    <tag k="removemelater" v="yes"/>
  </node>
  <node id="-898" lat="50.436429785676815" lon="-3.6862199577300627">
    <tag k="addr:postcode" v="TQ9 9DQ"/>
    <tag k="removemelater" v="yes"/>
  </node>
  <node id="-899" lat="50.436429785676815" lon="-3.6862199577300627">
    <tag k="addr:postcode" v="TQ9 9DT"/>
    <tag k="removemelater" v="yes"/>
  </node>
  <node id="-900" lat="50.436429785676815" lon="-3.6862199577300627">
    <tag k="addr:postcode" v="TQ9 9DY"/>
    <tag k="removemelater" v="yes"/>
  </node>
  <node id="-901" lat="50.436429785676815" lon="-3.6862199577300627">
    <tag k="addr:postcode" v="TQ9 9EN"/>
    <tag k="removemelater" v="yes"/>
  </node>
  <node id="-902" lat="50.436429785676815" lon="-3.6862199577300627">
    <tag k="addr:postcode" v="TQ9 9EW"/>
    <tag k="removemelater" v="yes"/>
  </node>
  <node id="-903" lat="50.436429785676815" lon="-3.6862199577300627">
    <tag k="addr:postcode" v="TQ9 9FQ"/>
    <tag k="removemelater" v="yes"/>
  </node>
  <node id="-904" lat="50.43153539594539" lon="-3.7091382036956313">
    <tag k="addr:postcode" v="TQ9 9SA"/>
    <tag k="removemelater" v="yes"/>
  </node>
  <node id="-905" lat="50.431562776873186" lon="-3.709111028632279">
    <tag k="addr:postcode" v="TQ9 9SB"/>
    <tag k="removemelater" v="yes"/>
  </node>
  <node id="-906" lat="50.43153539594539" lon="-3.7091382036956313">
    <tag k="addr:postcode" v="TQ9 9SD"/>
    <tag k="removemelater" v="yes"/>
  </node>
  <node id="-907" lat="50.43153539594539" lon="-3.7091382036956313">
    <tag k="addr:postcode" v="TQ9 9SE"/>
    <tag k="removemelater" v="yes"/>
  </node>
  <node id="-908" lat="50.43153539594539" lon="-3.7091382036956313">
    <tag k="addr:postcode" v="TQ9 9SF"/>
    <tag k="removemelater" v="yes"/>
  </node>
  <node id="-909" lat="50.43153539594539" lon="-3.7091382036956313">
    <tag k="addr:postcode" v="TQ9 9SG"/>
    <tag k="removemelater" v="yes"/>
  </node>
  <node id="-910" lat="50.43153539594539" lon="-3.7091382036956313">
    <tag k="addr:postcode" v="TQ9 9SH"/>
    <tag k="removemelater" v="yes"/>
  </node>
  <node id="-911" lat="50.43153539594539" lon="-3.7091382036956313">
    <tag k="addr:postcode" v="TQ9 9SJ"/>
    <tag k="removemelater" v="yes"/>
  </node>
  <node id="-912" lat="50.43153539594539" lon="-3.7091382036956313">
    <tag k="addr:postcode" v="TQ9 9SL"/>
    <tag k="removemelater" v="yes"/>
  </node>
  <node id="-913" lat="50.43153539594539" lon="-3.7091382036956313">
    <tag k="addr:postcode" v="TQ9 9SN"/>
    <tag k="removemelater" v="yes"/>
  </node>
  <node id="-914" lat="50.43153539594539" lon="-3.7091382036956313">
    <tag k="addr:postcode" v="TQ9 9SP"/>
    <tag k="removemelater" v="yes"/>
  </node>
  <node id="-915" lat="50.43153539594539" lon="-3.7091382036956313">
    <tag k="addr:postcode" v="TQ9 9SQ"/>
    <tag k="removemelater" v="yes"/>
  </node>
  <node id="-916" lat="50.43153539594539" lon="-3.7091382036956313">
    <tag k="addr:postcode" v="TQ9 9SR"/>
    <tag k="removemelater" v="yes"/>
  </node>
  <node id="-917" lat="50.43153539594539" lon="-3.7091382036956313">
    <tag k="addr:postcode" v="TQ9 9SS"/>
    <tag k="removemelater" v="yes"/>
  </node>
  <node id="-918" lat="50.43153539594539" lon="-3.7091382036956313">
    <tag k="addr:postcode" v="TQ9 9ST"/>
    <tag k="removemelater" v="yes"/>
  </node>
  <node id="-919" lat="50.43153539594539" lon="-3.7091382036956313">
    <tag k="addr:postcode" v="TQ9 9SU"/>
    <tag k="removemelater" v="yes"/>
  </node>
  <node id="-920" lat="50.43153539594539" lon="-3.7091382036956313">
    <tag k="addr:postcode" v="TQ9 9SW"/>
    <tag k="removemelater" v="yes"/>
  </node>
  <node id="-921" lat="50.43153539594539" lon="-3.7091382036956313">
    <tag k="addr:postcode" v="TQ9 9SX"/>
    <tag k="removemelater" v="yes"/>
  </node>
  <node id="-922" lat="50.43153539594539" lon="-3.7091382036956313">
    <tag k="addr:postcode" v="TQ9 9SY"/>
    <tag k="removemelater" v="yes"/>
  </node>
  <node id="-923" lat="50.43153539594539" lon="-3.7091382036956313">
    <tag k="addr:postcode" v="TQ9 9SZ"/>
    <tag k="removemelater" v="yes"/>
  </node>
  <node id="-924" lat="50.43153539594539" lon="-3.7091382036956313">
    <tag k="addr:postcode" v="TQ9 9TA"/>
    <tag k="removemelater" v="yes"/>
  </node>
  <node id="-925" lat="50.43153539594539" lon="-3.7091382036956313">
    <tag k="addr:postcode" v="TQ9 9TB"/>
    <tag k="removemelater" v="yes"/>
  </node>
  <node id="-926" lat="50.43153539594539" lon="-3.7091382036956313">
    <tag k="addr:postcode" v="TQ9 9TD"/>
    <tag k="removemelater" v="yes"/>
  </node>
  <node id="-927" lat="50.43153539594539" lon="-3.7091382036956313">
    <tag k="addr:postcode" v="TQ9 9TE"/>
    <tag k="removemelater" v="yes"/>
  </node>
  <node id="-928" lat="50.43153539594539" lon="-3.7091382036956313">
    <tag k="addr:postcode" v="TQ9 9TF"/>
    <tag k="removemelater" v="yes"/>
  </node>
  <node id="-929" lat="50.43153539594539" lon="-3.7091382036956313">
    <tag k="addr:postcode" v="TQ9 9TG"/>
    <tag k="removemelater" v="yes"/>
  </node>
  <node id="-930" lat="50.43153539594539" lon="-3.7091382036956313">
    <tag k="addr:postcode" v="TQ9 9TH"/>
    <tag k="removemelater" v="yes"/>
  </node>
  <node id="-931" lat="50.43153539594539" lon="-3.7091382036956313">
    <tag k="addr:postcode" v="TQ9 9TJ"/>
    <tag k="removemelater" v="yes"/>
  </node>
  <node id="-932" lat="50.43153539594539" lon="-3.7091382036956313">
    <tag k="addr:postcode" v="TQ9 9TL"/>
    <tag k="removemelater" v="yes"/>
  </node>
  <node id="-933" lat="50.43153539594539" lon="-3.7091382036956313">
    <tag k="addr:postcode" v="TQ9 9TP"/>
    <tag k="removemelater" v="yes"/>
  </node>
  <node id="-934" lat="50.43153539594539" lon="-3.7091382036956313">
    <tag k="addr:postcode" v="TQ9 9TQ"/>
    <tag k="removemelater" v="yes"/>
  </node>
</osm>
