<?xml version="1.0" encoding="UTF-8"?><osm version="0.6" generator="import_postcodes.py" upload="false">
  <node id="-1" lat="51.65687577133132" lon="-0.3986746125320484">
    <tag k="addr:postcode" v="WD17 1AA"/>
    <tag k="removemelater" v="yes"/>
  </node>
  <node id="-2" lat="51.664771367310664" lon="-0.3960827182664773">
    <tag k="addr:postcode" v="WD17 1AB"/>
    <tag k="removemelater" v="yes"/>
  </node>
  <node id="-3" lat="51.65676535730897" lon="-0.3984905618797563">
    <tag k="addr:postcode" v="WD17 1AD"/>
    <tag k="removemelater" v="yes"/>
  </node>
  <node id="-4" lat="51.657877488351545" lon="-0.4002585396329695">
    <tag k="addr:postcode" v="WD17 1AH"/>
    <tag k="removemelater" v="yes"/>
  </node>
  <node id="-5" lat="51.66367540049797" lon="-0.3987963893176266">
    <tag k="addr:postcode" v="WD17 1AP"/>
    <tag k="removemelater" v="yes"/>
  </node>
  <node id="-6" lat="51.66414512507679" lon="-0.3989533438476379">
    <tag k="addr:postcode" v="WD17 1AR"/>
    <tag k="removemelater" v="yes"/>
  </node>
  <node id="-7" lat="51.65883812018697" lon="-0.4014680795901241">
    <tag k="addr:postcode" v="WD17 1AU"/>
    <tag k="removemelater" v="yes"/>
  </node>
  <node id="-8" lat="51.6584375461174" lon="-0.4011062760603988">
    <tag k="addr:postcode" v="WD17 1AW"/>
    <tag k="removemelater" v="yes"/>
  </node>
  <node id="-9" lat="51.65746831669411" lon="-0.39992597163189997">
    <tag k="addr:postcode" v="WD17 1AY"/>
    <tag k="removemelater" v="yes"/>
  </node>
  <node id="-10" lat="51.657238701428035" lon="-0.39957262723244386">
    <tag k="addr:postcode" v="WD17 1AZ"/>
    <tag k="removemelater" v="yes"/>
  </node>
  <node id="-11" lat="51.65893566699162" lon="-0.402028500785865">
    <tag k="addr:postcode" v="WD17 1BA"/>
    <tag k="removemelater" v="yes"/>
  </node>
  <node id="-12" lat="51.65894465471101" lon="-0.40202818464689455">
    <tag k="addr:postcode" v="WD17 1BD"/>
    <tag k="removemelater" v="yes"/>
  </node>
  <node id="-13" lat="51.662048400799655" lon="-0.3955426800672486">
    <tag k="addr:postcode" v="WD17 1BH"/>
    <tag k="removemelater" v="yes"/>
  </node>
  <node id="-14" lat="51.65729870723846" lon="-0.3980380431125139">
    <tag k="addr:postcode" v="WD17 1BJ"/>
    <tag k="removemelater" v="yes"/>
  </node>
  <node id="-15" lat="51.65802079701647" lon="-0.3975788564715688">
    <tag k="addr:postcode" v="WD17 1BP"/>
    <tag k="removemelater" v="yes"/>
  </node>
  <node id="-16" lat="51.64175035316991" lon="-0.4278952928425986">
    <tag k="addr:postcode" v="WD17 1BZ"/>
    <tag k="removemelater" v="yes"/>
  </node>
  <node id="-17" lat="51.66205382068874" lon="-0.39659797998944735">
    <tag k="addr:postcode" v="WD17 1DA"/>
    <tag k="removemelater" v="yes"/>
  </node>
  <node id="-18" lat="51.66180796995051" lon="-0.39769106092441914">
    <tag k="addr:postcode" v="WD17 1DD"/>
    <tag k="removemelater" v="yes"/>
  </node>
  <node id="-19" lat="51.663232757382694" lon="-0.39798782108594144">
    <tag k="addr:postcode" v="WD17 1DG"/>
    <tag k="removemelater" v="yes"/>
  </node>
  <node id="-20" lat="51.66217437751589" lon="-0.39818419496622987">
    <tag k="addr:postcode" v="WD17 1DH"/>
    <tag k="removemelater" v="yes"/>
  </node>
  <node id="-21" lat="51.66505248843893" lon="-0.3988924399873884">
    <tag k="addr:postcode" v="WD17 1DL"/>
    <tag k="removemelater" v="yes"/>
  </node>
  <node id="-22" lat="51.662748917377044" lon="-0.39745544323011284">
    <tag k="addr:postcode" v="WD17 1DS"/>
    <tag k="removemelater" v="yes"/>
  </node>
  <node id="-23" lat="51.661326804135236" lon="-0.3966959345314225">
    <tag k="addr:postcode" v="WD17 1DU"/>
    <tag k="removemelater" v="yes"/>
  </node>
  <node id="-24" lat="51.65687718996767" lon="-0.3974601632593219">
    <tag k="addr:postcode" v="WD17 1DY"/>
    <tag k="removemelater" v="yes"/>
  </node>
  <node id="-25" lat="51.6571413400867" lon="-0.39902668270155023">
    <tag k="addr:postcode" v="WD17 1EA"/>
    <tag k="removemelater" v="yes"/>
  </node>
  <node id="-26" lat="51.65701649706841" lon="-0.39910336783657663">
    <tag k="addr:postcode" v="WD17 1EE"/>
    <tag k="removemelater" v="yes"/>
  </node>
  <node id="-27" lat="51.664011415318996" lon="-0.3983796807491086">
    <tag k="addr:postcode" v="WD17 1EG"/>
    <tag k="removemelater" v="yes"/>
  </node>
  <node id="-28" lat="51.66394495363593" lon="-0.39812175535230904">
    <tag k="addr:postcode" v="WD17 1EQ"/>
    <tag k="removemelater" v="yes"/>
  </node>
  <node id="-29" lat="51.664174058233144" lon="-0.3990969185475617">
    <tag k="addr:postcode" v="WD17 1ER"/>
    <tag k="removemelater" v="yes"/>
  </node>
  <node id="-30" lat="51.66420027392123" lon="-0.39772234532564915">
    <tag k="addr:postcode" v="WD17 1ES"/>
    <tag k="removemelater" v="yes"/>
  </node>
  <node id="-31" lat="51.66387051775085" lon="-0.3966206068017933">
    <tag k="addr:postcode" v="WD17 1ET"/>
    <tag k="removemelater" v="yes"/>
  </node>
  <node id="-32" lat="51.66384513303829" lon="-0.3967371777217989">
    <tag k="addr:postcode" v="WD17 1EU"/>
    <tag k="removemelater" v="yes"/>
  </node>
  <node id="-33" lat="51.64175035316991" lon="-0.4278952928425986">
    <tag k="addr:postcode" v="WD17 1EX"/>
    <tag k="removemelater" v="yes"/>
  </node>
  <node id="-34" lat="51.66367540049797" lon="-0.3987963893176266">
    <tag k="addr:postcode" v="WD17 1EZ"/>
    <tag k="removemelater" v="yes"/>
  </node>
  <node id="-35" lat="51.66067532298413" lon="-0.3977165539471675">
    <tag k="addr:postcode" v="WD17 1FQ"/>
    <tag k="removemelater" v="yes"/>
  </node>
  <node id="-36" lat="51.6603669808965" lon="-0.39752501416312225">
    <tag k="addr:postcode" v="WD17 1FT"/>
    <tag k="removemelater" v="yes"/>
  </node>
  <node id="-37" lat="51.65872928410581" lon="-0.4013996205750352">
    <tag k="addr:postcode" v="WD17 1GA"/>
    <tag k="removemelater" v="yes"/>
  </node>
  <node id="-38" lat="51.64175035316991" lon="-0.4278952928425986">
    <tag k="addr:postcode" v="WD17 1GL"/>
    <tag k="removemelater" v="yes"/>
  </node>
  <node id="-39" lat="51.66036433184309" lon="-0.396672071091876">
    <tag k="addr:postcode" v="WD17 1HE"/>
    <tag k="removemelater" v="yes"/>
  </node>
  <node id="-40" lat="51.65956005972598" lon="-0.3976980579802756">
    <tag k="addr:postcode" v="WD17 1HN"/>
    <tag k="removemelater" v="yes"/>
  </node>
  <node id="-41" lat="51.65979038795052" lon="-0.3974441470205565">
    <tag k="addr:postcode" v="WD17 1HP"/>
    <tag k="removemelater" v="yes"/>
  </node>
  <node id="-42" lat="51.65979038795052" lon="-0.3974441470205565">
    <tag k="addr:postcode" v="WD17 1HX"/>
    <tag k="removemelater" v="yes"/>
  </node>
  <node id="-43" lat="51.659375290884654" lon="-0.3966780617754125">
    <tag k="addr:postcode" v="WD17 1HZ"/>
    <tag k="removemelater" v="yes"/>
  </node>
  <node id="-44" lat="51.658457447796266" lon="-0.3972887598674055">
    <tag k="addr:postcode" v="WD17 1JA"/>
    <tag k="removemelater" v="yes"/>
  </node>
  <node id="-45" lat="51.658789315088114" lon="-0.3965686225321124">
    <tag k="addr:postcode" v="WD17 1JJ"/>
    <tag k="removemelater" v="yes"/>
  </node>
  <node id="-46" lat="51.664193806535714" lon="-0.39922635766392095">
    <tag k="addr:postcode" v="WD17 1JU"/>
    <tag k="removemelater" v="yes"/>
  </node>
  <node id="-47" lat="51.659366500470554" lon="-0.39669282994400507">
    <tag k="addr:postcode" v="WD17 1JW"/>
    <tag k="removemelater" v="yes"/>
  </node>
  <node id="-48" lat="51.65739315210414" lon="-0.3970516165906079">
    <tag k="addr:postcode" v="WD17 1JY"/>
    <tag k="removemelater" v="yes"/>
  </node>
  <node id="-49" lat="51.65718820999394" lon="-0.3971889624702433">
    <tag k="addr:postcode" v="WD17 1JZ"/>
    <tag k="removemelater" v="yes"/>
  </node>
  <node id="-50" lat="51.6603669808965" lon="-0.39752501416312225">
    <tag k="addr:postcode" v="WD17 1LA"/>
    <tag k="removemelater" v="yes"/>
  </node>
  <node id="-51" lat="51.65700893240307" lon="-0.39788923165255685">
    <tag k="addr:postcode" v="WD17 1LB"/>
    <tag k="removemelater" v="yes"/>
  </node>
  <node id="-52" lat="51.64175035316991" lon="-0.4278952928425986">
    <tag k="addr:postcode" v="WD17 1LD"/>
    <tag k="removemelater" v="yes"/>
  </node>
  <node id="-53" lat="51.657891062414954" lon="-0.39927495477260366">
    <tag k="addr:postcode" v="WD17 1LJ"/>
    <tag k="removemelater" v="yes"/>
  </node>
  <node id="-54" lat="51.658404023102285" lon="-0.3999653041873289">
    <tag k="addr:postcode" v="WD17 1LN"/>
    <tag k="removemelater" v="yes"/>
  </node>
  <node id="-55" lat="51.65714788725368" lon="-0.3981879332591757">
    <tag k="addr:postcode" v="WD17 1LQ"/>
    <tag k="removemelater" v="yes"/>
  </node>
  <node id="-56" lat="51.65874109611471" lon="-0.40028596025082575">
    <tag k="addr:postcode" v="WD17 1LU"/>
    <tag k="removemelater" v="yes"/>
  </node>
  <node id="-57" lat="51.65945551871584" lon="-0.40124394364984517">
    <tag k="addr:postcode" v="WD17 1NA"/>
    <tag k="removemelater" v="yes"/>
  </node>
  <node id="-58" lat="51.65964721135891" lon="-0.40145406763559804">
    <tag k="addr:postcode" v="WD17 1NB"/>
    <tag k="removemelater" v="yes"/>
  </node>
  <node id="-59" lat="51.65993835851824" lon="-0.4017040684928656">
    <tag k="addr:postcode" v="WD17 1NJ"/>
    <tag k="removemelater" v="yes"/>
  </node>
  <node id="-60" lat="51.65820872142087" lon="-0.4008107206920188">
    <tag k="addr:postcode" v="WD17 1NN"/>
    <tag k="removemelater" v="yes"/>
  </node>
  <node id="-61" lat="51.660087019310716" lon="-0.40139521698256114">
    <tag k="addr:postcode" v="WD17 1NP"/>
    <tag k="removemelater" v="yes"/>
  </node>
  <node id="-62" lat="51.657886672901554" lon="-0.4002726736768323">
    <tag k="addr:postcode" v="WD17 1PL"/>
    <tag k="removemelater" v="yes"/>
  </node>
  <node id="-63" lat="51.66268005372062" lon="-0.3983398706584756">
    <tag k="addr:postcode" v="WD17 1QR"/>
    <tag k="removemelater" v="yes"/>
  </node>
  <node id="-64" lat="51.66299095617113" lon="-0.3987193031373115">
    <tag k="addr:postcode" v="WD17 1QS"/>
    <tag k="removemelater" v="yes"/>
  </node>
  <node id="-65" lat="51.66309087995141" lon="-0.39945319522473516">
    <tag k="addr:postcode" v="WD17 1QT"/>
    <tag k="removemelater" v="yes"/>
  </node>
  <node id="-66" lat="51.662748362512396" lon="-0.3993929692249404">
    <tag k="addr:postcode" v="WD17 1QU"/>
    <tag k="removemelater" v="yes"/>
  </node>
  <node id="-67" lat="51.66526498972423" lon="-0.39996943420700737">
    <tag k="addr:postcode" v="WD17 1RB"/>
    <tag k="removemelater" v="yes"/>
  </node>
  <node id="-68" lat="51.664681773574166" lon="-0.40006227743168626">
    <tag k="addr:postcode" v="WD17 1RD"/>
    <tag k="removemelater" v="yes"/>
  </node>
  <node id="-69" lat="51.66505248843893" lon="-0.3988924399873884">
    <tag k="addr:postcode" v="WD17 1RP"/>
    <tag k="removemelater" v="yes"/>
  </node>
  <node id="-70" lat="51.658457447796266" lon="-0.3972887598674055">
    <tag k="addr:postcode" v="WD17 1RQ"/>
    <tag k="removemelater" v="yes"/>
  </node>
  <node id="-71" lat="51.659168856419" lon="-0.397364867093094">
    <tag k="addr:postcode" v="WD17 1SB"/>
    <tag k="removemelater" v="yes"/>
  </node>
  <node id="-72" lat="51.659168856419" lon="-0.397364867093094">
    <tag k="addr:postcode" v="WD17 1SZ"/>
    <tag k="removemelater" v="yes"/>
  </node>
  <node id="-73" lat="51.65893576782918" lon="-0.39741646320675067">
    <tag k="addr:postcode" v="WD17 1TB"/>
    <tag k="removemelater" v="yes"/>
  </node>
  <node id="-74" lat="51.66058902418049" lon="-0.39666414067226385">
    <tag k="addr:postcode" v="WD17 1TX"/>
    <tag k="removemelater" v="yes"/>
  </node>
  <node id="-75" lat="51.664544595367325" lon="-0.3998935946607087">
    <tag k="addr:postcode" v="WD17 1UH"/>
    <tag k="removemelater" v="yes"/>
  </node>
  <node id="-76" lat="51.64175035316991" lon="-0.4278952928425986">
    <tag k="addr:postcode" v="WD17 1XL"/>
    <tag k="removemelater" v="yes"/>
  </node>
  <node id="-77" lat="51.64175035316991" lon="-0.4278952928425986">
    <tag k="addr:postcode" v="WD17 1XP"/>
    <tag k="removemelater" v="yes"/>
  </node>
  <node id="-78" lat="51.64175035316991" lon="-0.4278952928425986">
    <tag k="addr:postcode" v="WD17 1ZG"/>
    <tag k="removemelater" v="yes"/>
  </node>
  <node id="-79" lat="51.64175035316991" lon="-0.4278952928425986">
    <tag k="addr:postcode" v="WD17 1ZH"/>
    <tag k="removemelater" v="yes"/>
  </node>
  <node id="-80" lat="51.65592181431764" lon="-0.3979564794431251">
    <tag k="addr:postcode" v="WD17 2AF"/>
    <tag k="removemelater" v="yes"/>
  </node>
  <node id="-81" lat="51.65887544312526" lon="-0.3962908849800532">
    <tag k="addr:postcode" v="WD17 2AQ"/>
    <tag k="removemelater" v="yes"/>
  </node>
  <node id="-82" lat="51.656032173801826" lon="-0.3961599366262239">
    <tag k="addr:postcode" v="WD17 2AU"/>
    <tag k="removemelater" v="yes"/>
  </node>
  <node id="-83" lat="51.65526170280735" lon="-0.3930789592622822">
    <tag k="addr:postcode" v="WD17 2BB"/>
    <tag k="removemelater" v="yes"/>
  </node>
  <node id="-84" lat="51.65416550846474" lon="-0.39511269340444194">
    <tag k="addr:postcode" v="WD17 2BE"/>
    <tag k="removemelater" v="yes"/>
  </node>
  <node id="-85" lat="51.65429696680442" lon="-0.39486229276929496">
    <tag k="addr:postcode" v="WD17 2BJ"/>
    <tag k="removemelater" v="yes"/>
  </node>
  <node id="-86" lat="51.65527117917979" lon="-0.39640364862017274">
    <tag k="addr:postcode" v="WD17 2BP"/>
    <tag k="removemelater" v="yes"/>
  </node>
  <node id="-87" lat="51.656140001134865" lon="-0.39747170833548623">
    <tag k="addr:postcode" v="WD17 2BS"/>
    <tag k="removemelater" v="yes"/>
  </node>
  <node id="-88" lat="51.65583966028361" lon="-0.3972076223786101">
    <tag k="addr:postcode" v="WD17 2BT"/>
    <tag k="removemelater" v="yes"/>
  </node>
  <node id="-89" lat="51.65469854685203" lon="-0.3952962559990156">
    <tag k="addr:postcode" v="WD17 2BW"/>
    <tag k="removemelater" v="yes"/>
  </node>
  <node id="-90" lat="51.65050109264519" lon="-0.38951788471139104">
    <tag k="addr:postcode" v="WD17 2DB"/>
    <tag k="removemelater" v="yes"/>
  </node>
  <node id="-91" lat="51.6552947983618" lon="-0.3948414984953339">
    <tag k="addr:postcode" v="WD17 2DH"/>
    <tag k="removemelater" v="yes"/>
  </node>
  <node id="-92" lat="51.656032173801826" lon="-0.3961599366262239">
    <tag k="addr:postcode" v="WD17 2DJ"/>
    <tag k="removemelater" v="yes"/>
  </node>
  <node id="-93" lat="51.65536037377882" lon="-0.3956921245228891">
    <tag k="addr:postcode" v="WD17 2DN"/>
    <tag k="removemelater" v="yes"/>
  </node>
  <node id="-94" lat="51.654842846099434" lon="-0.39466953055990056">
    <tag k="addr:postcode" v="WD17 2DQ"/>
    <tag k="removemelater" v="yes"/>
  </node>
  <node id="-95" lat="51.65543227535503" lon="-0.3956895857039837">
    <tag k="addr:postcode" v="WD17 2DS"/>
    <tag k="removemelater" v="yes"/>
  </node>
  <node id="-96" lat="51.653168056600244" lon="-0.39253139438093115">
    <tag k="addr:postcode" v="WD17 2EG"/>
    <tag k="removemelater" v="yes"/>
  </node>
  <node id="-97" lat="51.654707827073736" lon="-0.39334430754282507">
    <tag k="addr:postcode" v="WD17 2EJ"/>
    <tag k="removemelater" v="yes"/>
  </node>
  <node id="-98" lat="51.65363611762113" lon="-0.3932231852786569">
    <tag k="addr:postcode" v="WD17 2EN"/>
    <tag k="removemelater" v="yes"/>
  </node>
  <node id="-99" lat="51.65336824577828" lon="-0.3920472634935528">
    <tag k="addr:postcode" v="WD17 2ET"/>
    <tag k="removemelater" v="yes"/>
  </node>
  <node id="-100" lat="51.65228362454005" lon="-0.38967154495096346">
    <tag k="addr:postcode" v="WD17 2EU"/>
    <tag k="removemelater" v="yes"/>
  </node>
  <node id="-101" lat="51.65540915134824" lon="-0.39663008575028535">
    <tag k="addr:postcode" v="WD17 2GZ"/>
    <tag k="removemelater" v="yes"/>
  </node>
  <node id="-102" lat="51.65566042829028" lon="-0.3939611761374601">
    <tag k="addr:postcode" v="WD17 2HS"/>
    <tag k="removemelater" v="yes"/>
  </node>
  <node id="-103" lat="51.647326825262546" lon="-0.38558321713524524">
    <tag k="addr:postcode" v="WD17 2JG"/>
    <tag k="removemelater" v="yes"/>
  </node>
  <node id="-104" lat="51.648153142202325" lon="-0.38486005389130784">
    <tag k="addr:postcode" v="WD17 2JX"/>
    <tag k="removemelater" v="yes"/>
  </node>
  <node id="-105" lat="51.65055796415642" lon="-0.3858008983395189">
    <tag k="addr:postcode" v="WD17 2JZ"/>
    <tag k="removemelater" v="yes"/>
  </node>
  <node id="-106" lat="51.65509726266956" lon="-0.3935473853961856">
    <tag k="addr:postcode" v="WD17 2LH"/>
    <tag k="removemelater" v="yes"/>
  </node>
  <node id="-107" lat="51.65511543570062" lon="-0.39356119944226436">
    <tag k="addr:postcode" v="WD17 2LJ"/>
    <tag k="removemelater" v="yes"/>
  </node>
  <node id="-108" lat="51.6525739661497" lon="-0.39182962210085803">
    <tag k="addr:postcode" v="WD17 2NW"/>
    <tag k="removemelater" v="yes"/>
  </node>
  <node id="-109" lat="51.658265965362126" lon="-0.39577746923419416">
    <tag k="addr:postcode" v="WD17 2PT"/>
    <tag k="removemelater" v="yes"/>
  </node>
  <node id="-110" lat="51.656896768764405" lon="-0.3962595298473993">
    <tag k="addr:postcode" v="WD17 2RT"/>
    <tag k="removemelater" v="yes"/>
  </node>
  <node id="-111" lat="51.648075472903216" lon="-0.3870598757269781">
    <tag k="addr:postcode" v="WD17 2SD"/>
    <tag k="removemelater" v="yes"/>
  </node>
  <node id="-112" lat="51.65411670760366" lon="-0.3928592402128388">
    <tag k="addr:postcode" v="WD17 2TA"/>
    <tag k="removemelater" v="yes"/>
  </node>
  <node id="-113" lat="51.654707827073736" lon="-0.39334430754282507">
    <tag k="addr:postcode" v="WD17 2TB"/>
    <tag k="removemelater" v="yes"/>
  </node>
  <node id="-114" lat="51.65571386217935" lon="-0.3945809284590453">
    <tag k="addr:postcode" v="WD17 2TD"/>
    <tag k="removemelater" v="yes"/>
  </node>
  <node id="-115" lat="51.656079394331606" lon="-0.394351159138761">
    <tag k="addr:postcode" v="WD17 2TE"/>
    <tag k="removemelater" v="yes"/>
  </node>
  <node id="-116" lat="51.65503325380575" lon="-0.39281236420983484">
    <tag k="addr:postcode" v="WD17 2TF"/>
    <tag k="removemelater" v="yes"/>
  </node>
  <node id="-117" lat="51.65471701244035" lon="-0.39335843919821156">
    <tag k="addr:postcode" v="WD17 2TH"/>
    <tag k="removemelater" v="yes"/>
  </node>
  <node id="-118" lat="51.6557136646482" lon="-0.3945664786692746">
    <tag k="addr:postcode" v="WD17 2TJ"/>
    <tag k="removemelater" v="yes"/>
  </node>
  <node id="-119" lat="51.65575307150339" lon="-0.39416029632898864">
    <tag k="addr:postcode" v="WD17 2TL"/>
    <tag k="removemelater" v="yes"/>
  </node>
  <node id="-120" lat="51.655068018035735" lon="-0.39272439510722346">
    <tag k="addr:postcode" v="WD17 2TN"/>
    <tag k="removemelater" v="yes"/>
  </node>
  <node id="-121" lat="51.65416836810389" lon="-0.3933489264752654">
    <tag k="addr:postcode" v="WD17 2TQ"/>
    <tag k="removemelater" v="yes"/>
  </node>
  <node id="-122" lat="51.65412954119075" lon="-0.39248292330955004">
    <tag k="addr:postcode" v="WD17 2TR"/>
    <tag k="removemelater" v="yes"/>
  </node>
  <node id="-123" lat="51.65461230476285" lon="-0.39227791004025353">
    <tag k="addr:postcode" v="WD17 2TW"/>
    <tag k="removemelater" v="yes"/>
  </node>
  <node id="-124" lat="51.64175035316991" lon="-0.4278952928425986">
    <tag k="addr:postcode" v="WD17 2TZ"/>
    <tag k="removemelater" v="yes"/>
  </node>
  <node id="-125" lat="51.65411670760366" lon="-0.3928592402128388">
    <tag k="addr:postcode" v="WD17 2UB"/>
    <tag k="removemelater" v="yes"/>
  </node>
  <node id="-126" lat="51.6543543418813" lon="-0.39313996172619603">
    <tag k="addr:postcode" v="WD17 2UE"/>
    <tag k="removemelater" v="yes"/>
  </node>
  <node id="-127" lat="51.6541385288756" lon="-0.3924826053370231">
    <tag k="addr:postcode" v="WD17 2WH"/>
    <tag k="removemelater" v="yes"/>
  </node>
  <node id="-128" lat="51.64175035316991" lon="-0.4278952928425986">
    <tag k="addr:postcode" v="WD17 2ZL"/>
    <tag k="removemelater" v="yes"/>
  </node>
  <node id="-129" lat="51.64175035316991" lon="-0.4278952928425986">
    <tag k="addr:postcode" v="WD17 3BF"/>
    <tag k="removemelater" v="yes"/>
  </node>
  <node id="-130" lat="51.669928030722836" lon="-0.4229576348176718">
    <tag k="addr:postcode" v="WD17 3BT"/>
    <tag k="removemelater" v="yes"/>
  </node>
  <node id="-131" lat="51.66020908290948" lon="-0.40309698777545677">
    <tag k="addr:postcode" v="WD17 3EU"/>
    <tag k="removemelater" v="yes"/>
  </node>
  <node id="-132" lat="51.658946379495745" lon="-0.4041389605705677">
    <tag k="addr:postcode" v="WD17 3EW"/>
    <tag k="removemelater" v="yes"/>
  </node>
  <node id="-133" lat="51.65921964742091" lon="-0.40307393653408774">
    <tag k="addr:postcode" v="WD17 3EX"/>
    <tag k="removemelater" v="yes"/>
  </node>
  <node id="-134" lat="51.660242226027854" lon="-0.40487418082036336">
    <tag k="addr:postcode" v="WD17 3HA"/>
    <tag k="removemelater" v="yes"/>
  </node>
  <node id="-135" lat="51.658963915200474" lon="-0.403444370687584">
    <tag k="addr:postcode" v="WD17 3HB"/>
    <tag k="removemelater" v="yes"/>
  </node>
  <node id="-136" lat="51.658963915200474" lon="-0.403444370687584">
    <tag k="addr:postcode" v="WD17 3HP"/>
    <tag k="removemelater" v="yes"/>
  </node>
  <node id="-137" lat="51.67350489351164" lon="-0.4214739424242965">
    <tag k="addr:postcode" v="WD17 3JL"/>
    <tag k="removemelater" v="yes"/>
  </node>
  <node id="-138" lat="51.658963915200474" lon="-0.403444370687584">
    <tag k="addr:postcode" v="WD17 3JN"/>
    <tag k="removemelater" v="yes"/>
  </node>
  <node id="-139" lat="51.66817508760773" lon="-0.42433442953825495">
    <tag k="addr:postcode" v="WD17 3PB"/>
    <tag k="removemelater" v="yes"/>
  </node>
  <node id="-140" lat="51.658654496593826" lon="-0.4044961983240397">
    <tag k="addr:postcode" v="WD17 3PH"/>
    <tag k="removemelater" v="yes"/>
  </node>
  <node id="-141" lat="51.64175035316991" lon="-0.4278952928425986">
    <tag k="addr:postcode" v="WD17 3WA"/>
    <tag k="removemelater" v="yes"/>
  </node>
  <node id="-142" lat="51.65912386205168" lon="-0.4052893530205987">
    <tag k="addr:postcode" v="WD17 3XE"/>
    <tag k="removemelater" v="yes"/>
  </node>
  <node id="-143" lat="51.64175035316991" lon="-0.4278952928425986">
    <tag k="addr:postcode" v="WD17 3XJ"/>
    <tag k="removemelater" v="yes"/>
  </node>
  <node id="-144" lat="51.658963915200474" lon="-0.403444370687584">
    <tag k="addr:postcode" v="WD17 3ZU"/>
    <tag k="removemelater" v="yes"/>
  </node>
  <node id="-145" lat="51.64175035316991" lon="-0.4278952928425986">
    <tag k="addr:postcode" v="WD17 3ZW"/>
    <tag k="removemelater" v="yes"/>
  </node>
  <node id="-146" lat="51.64175035316991" lon="-0.4278952928425986">
    <tag k="addr:postcode" v="WD17 4AR"/>
    <tag k="removemelater" v="yes"/>
  </node>
  <node id="-147" lat="51.682187246738124" lon="-0.4238625487113538">
    <tag k="addr:postcode" v="WD17 4JR"/>
    <tag k="removemelater" v="yes"/>
  </node>
  <node id="-148" lat="51.66477835879461" lon="-0.4058427321331209">
    <tag k="addr:postcode" v="WD17 4NQ"/>
    <tag k="removemelater" v="yes"/>
  </node>
  <node id="-149" lat="51.665633682331304" lon="-0.39997090571476135">
    <tag k="addr:postcode" v="WD17 4QP"/>
    <tag k="removemelater" v="yes"/>
  </node>
  <node id="-150" lat="51.66302861783788" lon="-0.4047907920017828">
    <tag k="addr:postcode" v="WD17 4QU"/>
    <tag k="removemelater" v="yes"/>
  </node>
  <node id="-151" lat="51.66348208382276" lon="-0.4044133859102511">
    <tag k="addr:postcode" v="WD17 4QZ"/>
    <tag k="removemelater" v="yes"/>
  </node>
  <node id="-152" lat="51.665680066017586" lon="-0.400735648181147">
    <tag k="addr:postcode" v="WD17 4RE"/>
    <tag k="removemelater" v="yes"/>
  </node>
  <node id="-153" lat="51.669399363818506" lon="-0.4090933441107811">
    <tag k="addr:postcode" v="WD17 4RG"/>
    <tag k="removemelater" v="yes"/>
  </node>
  <node id="-154" lat="51.68122122183842" lon="-0.42424324706938604">
    <tag k="addr:postcode" v="WD17 4RJ"/>
    <tag k="removemelater" v="yes"/>
  </node>
  <node id="-155" lat="51.662733789451856" lon="-0.40493127684459035">
    <tag k="addr:postcode" v="WD17 4UA"/>
    <tag k="removemelater" v="yes"/>
  </node>
  <node id="-156" lat="51.66497003740659" lon="-0.40076064888311064">
    <tag k="addr:postcode" v="WD17 4UJ"/>
    <tag k="removemelater" v="yes"/>
  </node>
  <node id="-157" lat="51.66534069794371" lon="-0.4009066558175676">
    <tag k="addr:postcode" v="WD17 4YE"/>
    <tag k="removemelater" v="yes"/>
  </node>
  <node id="-158" lat="51.6569800947245" lon="-0.4003913381441175">
    <tag k="addr:postcode" v="WD18 0AF"/>
    <tag k="removemelater" v="yes"/>
  </node>
  <node id="-159" lat="51.65415029734539" lon="-0.3953156184633636">
    <tag k="addr:postcode" v="WD18 0BG"/>
    <tag k="removemelater" v="yes"/>
  </node>
  <node id="-160" lat="51.65357113569957" lon="-0.39504695025125675">
    <tag k="addr:postcode" v="WD18 0BN"/>
    <tag k="removemelater" v="yes"/>
  </node>
  <node id="-161" lat="51.65348560256223" lon="-0.39536800470402034">
    <tag k="addr:postcode" v="WD18 0BP"/>
    <tag k="removemelater" v="yes"/>
  </node>
  <node id="-162" lat="51.65349744500923" lon="-0.3962349502132929">
    <tag k="addr:postcode" v="WD18 0BS"/>
    <tag k="removemelater" v="yes"/>
  </node>
  <node id="-163" lat="51.65467283630055" lon="-0.39736443426972423">
    <tag k="addr:postcode" v="WD18 0BU"/>
    <tag k="removemelater" v="yes"/>
  </node>
  <node id="-164" lat="51.65366150137566" lon="-0.3957376519038377">
    <tag k="addr:postcode" v="WD18 0BX"/>
    <tag k="removemelater" v="yes"/>
  </node>
  <node id="-165" lat="51.65114411246674" lon="-0.4003799477692126">
    <tag k="addr:postcode" v="WD18 0DH"/>
    <tag k="removemelater" v="yes"/>
  </node>
  <node id="-166" lat="51.6506581176721" lon="-0.3996887526033856">
    <tag k="addr:postcode" v="WD18 0DL"/>
    <tag k="removemelater" v="yes"/>
  </node>
  <node id="-167" lat="51.64957446445781" lon="-0.3960553911459352">
    <tag k="addr:postcode" v="WD18 0DU"/>
    <tag k="removemelater" v="yes"/>
  </node>
  <node id="-168" lat="51.65121122127179" lon="-0.399365712530182">
    <tag k="addr:postcode" v="WD18 0EA"/>
    <tag k="removemelater" v="yes"/>
  </node>
  <node id="-169" lat="51.654579825740726" lon="-0.3958208795589611">
    <tag k="addr:postcode" v="WD18 0EG"/>
    <tag k="removemelater" v="yes"/>
  </node>
  <node id="-170" lat="51.65391076936417" lon="-0.39687089030763323">
    <tag k="addr:postcode" v="WD18 0EQ"/>
    <tag k="removemelater" v="yes"/>
  </node>
  <node id="-171" lat="51.64926981001061" lon="-0.4007494703494104">
    <tag k="addr:postcode" v="WD18 0ER"/>
    <tag k="removemelater" v="yes"/>
  </node>
  <node id="-172" lat="51.65040449670017" lon="-0.40417875490876903">
    <tag k="addr:postcode" v="WD18 0EX"/>
    <tag k="removemelater" v="yes"/>
  </node>
  <node id="-173" lat="51.649305367412985" lon="-0.40071930962688324">
    <tag k="addr:postcode" v="WD18 0FA"/>
    <tag k="removemelater" v="yes"/>
  </node>
  <node id="-174" lat="51.64175035316991" lon="-0.4278952928425986">
    <tag k="addr:postcode" v="WD18 0FJ"/>
    <tag k="removemelater" v="yes"/>
  </node>
  <node id="-175" lat="51.65699885741647" lon="-0.4004485062210472">
    <tag k="addr:postcode" v="WD18 0FQ"/>
    <tag k="removemelater" v="yes"/>
  </node>
  <node id="-176" lat="51.656150469302894" lon="-0.40021815040680536">
    <tag k="addr:postcode" v="WD18 0GA"/>
    <tag k="removemelater" v="yes"/>
  </node>
  <node id="-177" lat="51.65614646184253" lon="-0.3992641361894813">
    <tag k="addr:postcode" v="WD18 0GB"/>
    <tag k="removemelater" v="yes"/>
  </node>
  <node id="-178" lat="51.649305367412985" lon="-0.40071930962688324">
    <tag k="addr:postcode" v="WD18 0GL"/>
    <tag k="removemelater" v="yes"/>
  </node>
  <node id="-179" lat="51.6501087889719" lon="-0.4029315565412019">
    <tag k="addr:postcode" v="WD18 0GN"/>
    <tag k="removemelater" v="yes"/>
  </node>
  <node id="-180" lat="51.65386308777643" lon="-0.3940391615304437">
    <tag k="addr:postcode" v="WD18 0GP"/>
    <tag k="removemelater" v="yes"/>
  </node>
  <node id="-181" lat="51.653524716669686" lon="-0.3942824179975424">
    <tag k="addr:postcode" v="WD18 0GQ"/>
    <tag k="removemelater" v="yes"/>
  </node>
  <node id="-182" lat="51.65429696680442" lon="-0.39486229276929496">
    <tag k="addr:postcode" v="WD18 0GR"/>
    <tag k="removemelater" v="yes"/>
  </node>
  <node id="-183" lat="51.65853857497626" lon="-0.40126175465701736">
    <tag k="addr:postcode" v="WD18 0GT"/>
    <tag k="removemelater" v="yes"/>
  </node>
  <node id="-184" lat="51.65868485194173" lon="-0.40276020816114166">
    <tag k="addr:postcode" v="WD18 0GX"/>
    <tag k="removemelater" v="yes"/>
  </node>
  <node id="-185" lat="51.65695732534227" lon="-0.399380138837901">
    <tag k="addr:postcode" v="WD18 0JD"/>
    <tag k="removemelater" v="yes"/>
  </node>
  <node id="-186" lat="51.65868485194173" lon="-0.40276020816114166">
    <tag k="addr:postcode" v="WD18 0JE"/>
    <tag k="removemelater" v="yes"/>
  </node>
  <node id="-187" lat="51.65677875274211" lon="-0.3994731725873529">
    <tag k="addr:postcode" v="WD18 0JG"/>
    <tag k="removemelater" v="yes"/>
  </node>
  <node id="-188" lat="51.658274217484504" lon="-0.403642099357947">
    <tag k="addr:postcode" v="WD18 0JQ"/>
    <tag k="removemelater" v="yes"/>
  </node>
  <node id="-189" lat="51.65836629451374" lon="-0.4018172062370576">
    <tag k="addr:postcode" v="WD18 0JR"/>
    <tag k="removemelater" v="yes"/>
  </node>
  <node id="-190" lat="51.656503926234116" lon="-0.4024031702848458">
    <tag k="addr:postcode" v="WD18 0JS"/>
    <tag k="removemelater" v="yes"/>
  </node>
  <node id="-191" lat="51.65843987669107" lon="-0.4032603801718205">
    <tag k="addr:postcode" v="WD18 0JU"/>
    <tag k="removemelater" v="yes"/>
  </node>
  <node id="-192" lat="51.657963813481885" lon="-0.4019759394790975">
    <tag k="addr:postcode" v="WD18 0JW"/>
    <tag k="removemelater" v="yes"/>
  </node>
  <node id="-193" lat="51.65789244287329" lon="-0.4013567794783652">
    <tag k="addr:postcode" v="WD18 0JX"/>
    <tag k="removemelater" v="yes"/>
  </node>
  <node id="-194" lat="51.65755548992853" lon="-0.4023661928029987">
    <tag k="addr:postcode" v="WD18 0JY"/>
    <tag k="removemelater" v="yes"/>
  </node>
  <node id="-195" lat="51.657101582082184" lon="-0.4020496388479496">
    <tag k="addr:postcode" v="WD18 0JZ"/>
    <tag k="removemelater" v="yes"/>
  </node>
  <node id="-196" lat="51.65131458650109" lon="-0.407630534557805">
    <tag k="addr:postcode" v="WD18 0LA"/>
    <tag k="removemelater" v="yes"/>
  </node>
  <node id="-197" lat="51.6574185116335" lon="-0.40221197937745745">
    <tag k="addr:postcode" v="WD18 0LB"/>
    <tag k="removemelater" v="yes"/>
  </node>
  <node id="-198" lat="51.65546158512139" lon="-0.397177589458988">
    <tag k="addr:postcode" v="WD18 0LG"/>
    <tag k="removemelater" v="yes"/>
  </node>
  <node id="-199" lat="51.656150272464096" lon="-0.400203700438379">
    <tag k="addr:postcode" v="WD18 0LL"/>
    <tag k="removemelater" v="yes"/>
  </node>
  <node id="-200" lat="51.65502414553899" lon="-0.39740986899331765">
    <tag k="addr:postcode" v="WD18 0PA"/>
    <tag k="removemelater" v="yes"/>
  </node>
  <node id="-201" lat="51.65519956121308" lon="-0.3970856365896663">
    <tag k="addr:postcode" v="WD18 0PB"/>
    <tag k="removemelater" v="yes"/>
  </node>
  <node id="-202" lat="51.65522857820122" lon="-0.39789418308373004">
    <tag k="addr:postcode" v="WD18 0PD"/>
    <tag k="removemelater" v="yes"/>
  </node>
  <node id="-203" lat="51.655014133346775" lon="-0.3986534846741346">
    <tag k="addr:postcode" v="WD18 0PJ"/>
    <tag k="removemelater" v="yes"/>
  </node>
  <node id="-204" lat="51.654284277533634" lon="-0.39788411013805086">
    <tag k="addr:postcode" v="WD18 0PL"/>
    <tag k="removemelater" v="yes"/>
  </node>
  <node id="-205" lat="51.65414007995605" lon="-0.397860281986335">
    <tag k="addr:postcode" v="WD18 0PP"/>
    <tag k="removemelater" v="yes"/>
  </node>
  <node id="-206" lat="51.65659871719201" lon="-0.402761263077199">
    <tag k="addr:postcode" v="WD18 0QJ"/>
    <tag k="removemelater" v="yes"/>
  </node>
  <node id="-207" lat="51.65685233871049" lon="-0.40289691802086586">
    <tag k="addr:postcode" v="WD18 0QR"/>
    <tag k="removemelater" v="yes"/>
  </node>
  <node id="-208" lat="51.657684514759076" lon="-0.40325801336221817">
    <tag k="addr:postcode" v="WD18 0QS"/>
    <tag k="removemelater" v="yes"/>
  </node>
  <node id="-209" lat="51.654586587695874" lon="-0.39829268635438114">
    <tag k="addr:postcode" v="WD18 0QU"/>
    <tag k="removemelater" v="yes"/>
  </node>
  <node id="-210" lat="51.653226637336935" lon="-0.3935267846401451">
    <tag k="addr:postcode" v="WD18 0QW"/>
    <tag k="removemelater" v="yes"/>
  </node>
  <node id="-211" lat="51.64175035316991" lon="-0.4278952928425986">
    <tag k="addr:postcode" v="WD18 0RJ"/>
    <tag k="removemelater" v="yes"/>
  </node>
  <node id="-212" lat="51.65379986948536" lon="-0.3959929774496402">
    <tag k="addr:postcode" v="WD18 0SQ"/>
    <tag k="removemelater" v="yes"/>
  </node>
  <node id="-213" lat="51.65383167581018" lon="-0.40294526877383113">
    <tag k="addr:postcode" v="WD18 0WN"/>
    <tag k="removemelater" v="yes"/>
  </node>
  <node id="-214" lat="51.64175035316991" lon="-0.4278952928425986">
    <tag k="addr:postcode" v="WD18 0WP"/>
    <tag k="removemelater" v="yes"/>
  </node>
  <node id="-215" lat="51.65108384332095" lon="-0.4078554492149274">
    <tag k="addr:postcode" v="WD18 0WR"/>
    <tag k="removemelater" v="yes"/>
  </node>
  <node id="-216" lat="51.64175035316991" lon="-0.4278952928425986">
    <tag k="addr:postcode" v="WD18 0XR"/>
    <tag k="removemelater" v="yes"/>
  </node>
  <node id="-217" lat="51.65303967462109" lon="-0.3936634978642049">
    <tag k="addr:postcode" v="WD18 0XZ"/>
    <tag k="removemelater" v="yes"/>
  </node>
  <node id="-218" lat="51.64175035316991" lon="-0.4278952928425986">
    <tag k="addr:postcode" v="WD18 0YD"/>
    <tag k="removemelater" v="yes"/>
  </node>
  <node id="-219" lat="51.64175035316991" lon="-0.4278952928425986">
    <tag k="addr:postcode" v="WD18 0YP"/>
    <tag k="removemelater" v="yes"/>
  </node>
  <node id="-220" lat="51.64175035316991" lon="-0.4278952928425986">
    <tag k="addr:postcode" v="WD18 0YY"/>
    <tag k="removemelater" v="yes"/>
  </node>
  <node id="-221" lat="51.64175035316991" lon="-0.4278952928425986">
    <tag k="addr:postcode" v="WD18 0ZR"/>
    <tag k="removemelater" v="yes"/>
  </node>
  <node id="-222" lat="51.64175035316991" lon="-0.4278952928425986">
    <tag k="addr:postcode" v="WD18 1AA"/>
    <tag k="removemelater" v="yes"/>
  </node>
  <node id="-223" lat="51.64175035316991" lon="-0.4278952928425986">
    <tag k="addr:postcode" v="WD18 1AD"/>
    <tag k="removemelater" v="yes"/>
  </node>
  <node id="-224" lat="51.64175035316991" lon="-0.4278952928425986">
    <tag k="addr:postcode" v="WD18 1AE"/>
    <tag k="removemelater" v="yes"/>
  </node>
  <node id="-225" lat="51.64175035316991" lon="-0.4278952928425986">
    <tag k="addr:postcode" v="WD18 1AF"/>
    <tag k="removemelater" v="yes"/>
  </node>
  <node id="-226" lat="51.64175035316991" lon="-0.4278952928425986">
    <tag k="addr:postcode" v="WD18 1AQ"/>
    <tag k="removemelater" v="yes"/>
  </node>
  <node id="-227" lat="51.64175035316991" lon="-0.4278952928425986">
    <tag k="addr:postcode" v="WD18 1AS"/>
    <tag k="removemelater" v="yes"/>
  </node>
  <node id="-228" lat="51.64175035316991" lon="-0.4278952928425986">
    <tag k="addr:postcode" v="WD18 1AT"/>
    <tag k="removemelater" v="yes"/>
  </node>
  <node id="-229" lat="51.64175035316991" lon="-0.4278952928425986">
    <tag k="addr:postcode" v="WD18 1BN"/>
    <tag k="removemelater" v="yes"/>
  </node>
  <node id="-230" lat="51.64175035316991" lon="-0.4278952928425986">
    <tag k="addr:postcode" v="WD18 1BT"/>
    <tag k="removemelater" v="yes"/>
  </node>
  <node id="-231" lat="51.64175035316991" lon="-0.4278952928425986">
    <tag k="addr:postcode" v="WD18 1BZ"/>
    <tag k="removemelater" v="yes"/>
  </node>
  <node id="-232" lat="51.64175035316991" lon="-0.4278952928425986">
    <tag k="addr:postcode" v="WD18 1EF"/>
    <tag k="removemelater" v="yes"/>
  </node>
  <node id="-233" lat="51.64175035316991" lon="-0.4278952928425986">
    <tag k="addr:postcode" v="WD18 1ER"/>
    <tag k="removemelater" v="yes"/>
  </node>
  <node id="-234" lat="51.64175035316991" lon="-0.4278952928425986">
    <tag k="addr:postcode" v="WD18 1GN"/>
    <tag k="removemelater" v="yes"/>
  </node>
  <node id="-235" lat="51.64175035316991" lon="-0.4278952928425986">
    <tag k="addr:postcode" v="WD18 1GR"/>
    <tag k="removemelater" v="yes"/>
  </node>
  <node id="-236" lat="51.64175035316991" lon="-0.4278952928425986">
    <tag k="addr:postcode" v="WD18 1GT"/>
    <tag k="removemelater" v="yes"/>
  </node>
  <node id="-237" lat="51.64175035316991" lon="-0.4278952928425986">
    <tag k="addr:postcode" v="WD18 1GZ"/>
    <tag k="removemelater" v="yes"/>
  </node>
  <node id="-238" lat="51.64175035316991" lon="-0.4278952928425986">
    <tag k="addr:postcode" v="WD18 1HL"/>
    <tag k="removemelater" v="yes"/>
  </node>
  <node id="-239" lat="51.64175035316991" lon="-0.4278952928425986">
    <tag k="addr:postcode" v="WD18 1JT"/>
    <tag k="removemelater" v="yes"/>
  </node>
  <node id="-240" lat="51.64175035316991" lon="-0.4278952928425986">
    <tag k="addr:postcode" v="WD18 1PB"/>
    <tag k="removemelater" v="yes"/>
  </node>
  <node id="-241" lat="51.64175035316991" lon="-0.4278952928425986">
    <tag k="addr:postcode" v="WD18 1PD"/>
    <tag k="removemelater" v="yes"/>
  </node>
  <node id="-242" lat="51.64175035316991" lon="-0.4278952928425986">
    <tag k="addr:postcode" v="WD18 1PH"/>
    <tag k="removemelater" v="yes"/>
  </node>
  <node id="-243" lat="51.64175035316991" lon="-0.4278952928425986">
    <tag k="addr:postcode" v="WD18 1PN"/>
    <tag k="removemelater" v="yes"/>
  </node>
  <node id="-244" lat="51.64175035316991" lon="-0.4278952928425986">
    <tag k="addr:postcode" v="WD18 1PY"/>
    <tag k="removemelater" v="yes"/>
  </node>
  <node id="-245" lat="51.64175035316991" lon="-0.4278952928425986">
    <tag k="addr:postcode" v="WD18 1QB"/>
    <tag k="removemelater" v="yes"/>
  </node>
  <node id="-246" lat="51.64175035316991" lon="-0.4278952928425986">
    <tag k="addr:postcode" v="WD18 1QD"/>
    <tag k="removemelater" v="yes"/>
  </node>
  <node id="-247" lat="51.64175035316991" lon="-0.4278952928425986">
    <tag k="addr:postcode" v="WD18 1QH"/>
    <tag k="removemelater" v="yes"/>
  </node>
  <node id="-248" lat="51.64175035316991" lon="-0.4278952928425986">
    <tag k="addr:postcode" v="WD18 1QL"/>
    <tag k="removemelater" v="yes"/>
  </node>
  <node id="-249" lat="51.64175035316991" lon="-0.4278952928425986">
    <tag k="addr:postcode" v="WD18 1QU"/>
    <tag k="removemelater" v="yes"/>
  </node>
  <node id="-250" lat="51.64175035316991" lon="-0.4278952928425986">
    <tag k="addr:postcode" v="WD18 1RE"/>
    <tag k="removemelater" v="yes"/>
  </node>
  <node id="-251" lat="51.64175035316991" lon="-0.4278952928425986">
    <tag k="addr:postcode" v="WD18 1RF"/>
    <tag k="removemelater" v="yes"/>
  </node>
  <node id="-252" lat="51.64175035316991" lon="-0.4278952928425986">
    <tag k="addr:postcode" v="WD18 1RH"/>
    <tag k="removemelater" v="yes"/>
  </node>
  <node id="-253" lat="51.64175035316991" lon="-0.4278952928425986">
    <tag k="addr:postcode" v="WD18 1RL"/>
    <tag k="removemelater" v="yes"/>
  </node>
  <node id="-254" lat="51.658963915200474" lon="-0.403444370687584">
    <tag k="addr:postcode" v="WD18 1SA"/>
    <tag k="removemelater" v="yes"/>
  </node>
  <node id="-255" lat="51.658963915200474" lon="-0.403444370687584">
    <tag k="addr:postcode" v="WD18 1SB"/>
    <tag k="removemelater" v="yes"/>
  </node>
  <node id="-256" lat="51.658963915200474" lon="-0.403444370687584">
    <tag k="addr:postcode" v="WD18 1SD"/>
    <tag k="removemelater" v="yes"/>
  </node>
  <node id="-257" lat="51.658963915200474" lon="-0.403444370687584">
    <tag k="addr:postcode" v="WD18 1SE"/>
    <tag k="removemelater" v="yes"/>
  </node>
  <node id="-258" lat="51.658963915200474" lon="-0.403444370687584">
    <tag k="addr:postcode" v="WD18 1SF"/>
    <tag k="removemelater" v="yes"/>
  </node>
  <node id="-259" lat="51.658963915200474" lon="-0.403444370687584">
    <tag k="addr:postcode" v="WD18 1SG"/>
    <tag k="removemelater" v="yes"/>
  </node>
  <node id="-260" lat="51.658963915200474" lon="-0.403444370687584">
    <tag k="addr:postcode" v="WD18 1SH"/>
    <tag k="removemelater" v="yes"/>
  </node>
  <node id="-261" lat="51.658963915200474" lon="-0.403444370687584">
    <tag k="addr:postcode" v="WD18 1SJ"/>
    <tag k="removemelater" v="yes"/>
  </node>
  <node id="-262" lat="51.658963915200474" lon="-0.403444370687584">
    <tag k="addr:postcode" v="WD18 1SL"/>
    <tag k="removemelater" v="yes"/>
  </node>
  <node id="-263" lat="51.658963915200474" lon="-0.403444370687584">
    <tag k="addr:postcode" v="WD18 1SN"/>
    <tag k="removemelater" v="yes"/>
  </node>
  <node id="-264" lat="51.658963915200474" lon="-0.403444370687584">
    <tag k="addr:postcode" v="WD18 1SP"/>
    <tag k="removemelater" v="yes"/>
  </node>
  <node id="-265" lat="51.658963915200474" lon="-0.403444370687584">
    <tag k="addr:postcode" v="WD18 1SQ"/>
    <tag k="removemelater" v="yes"/>
  </node>
  <node id="-266" lat="51.658963915200474" lon="-0.403444370687584">
    <tag k="addr:postcode" v="WD18 1SR"/>
    <tag k="removemelater" v="yes"/>
  </node>
  <node id="-267" lat="51.64175035316991" lon="-0.4278952928425986">
    <tag k="addr:postcode" v="WD18 1SX"/>
    <tag k="removemelater" v="yes"/>
  </node>
  <node id="-268" lat="51.64175035316991" lon="-0.4278952928425986">
    <tag k="addr:postcode" v="WD18 1TD"/>
    <tag k="removemelater" v="yes"/>
  </node>
  <node id="-269" lat="51.64175035316991" lon="-0.4278952928425986">
    <tag k="addr:postcode" v="WD18 1TH"/>
    <tag k="removemelater" v="yes"/>
  </node>
  <node id="-270" lat="51.64175035316991" lon="-0.4278952928425986">
    <tag k="addr:postcode" v="WD18 1TS"/>
    <tag k="removemelater" v="yes"/>
  </node>
  <node id="-271" lat="51.64175035316991" lon="-0.4278952928425986">
    <tag k="addr:postcode" v="WD18 1TT"/>
    <tag k="removemelater" v="yes"/>
  </node>
  <node id="-272" lat="51.64175035316991" lon="-0.4278952928425986">
    <tag k="addr:postcode" v="WD18 1TY"/>
    <tag k="removemelater" v="yes"/>
  </node>
  <node id="-273" lat="51.64175035316991" lon="-0.4278952928425986">
    <tag k="addr:postcode" v="WD18 1TZ"/>
    <tag k="removemelater" v="yes"/>
  </node>
  <node id="-274" lat="51.64175035316991" lon="-0.4278952928425986">
    <tag k="addr:postcode" v="WD18 1UQ"/>
    <tag k="removemelater" v="yes"/>
  </node>
  <node id="-275" lat="51.64175035316991" lon="-0.4278952928425986">
    <tag k="addr:postcode" v="WD18 1UR"/>
    <tag k="removemelater" v="yes"/>
  </node>
  <node id="-276" lat="51.64175035316991" lon="-0.4278952928425986">
    <tag k="addr:postcode" v="WD18 1UZ"/>
    <tag k="removemelater" v="yes"/>
  </node>
  <node id="-277" lat="51.64175035316991" lon="-0.4278952928425986">
    <tag k="addr:postcode" v="WD18 1WS"/>
    <tag k="removemelater" v="yes"/>
  </node>
  <node id="-278" lat="51.64175035316991" lon="-0.4278952928425986">
    <tag k="addr:postcode" v="WD18 1XA"/>
    <tag k="removemelater" v="yes"/>
  </node>
  <node id="-279" lat="51.64175035316991" lon="-0.4278952928425986">
    <tag k="addr:postcode" v="WD18 1XB"/>
    <tag k="removemelater" v="yes"/>
  </node>
  <node id="-280" lat="51.64175035316991" lon="-0.4278952928425986">
    <tag k="addr:postcode" v="WD18 1XE"/>
    <tag k="removemelater" v="yes"/>
  </node>
  <node id="-281" lat="51.64175035316991" lon="-0.4278952928425986">
    <tag k="addr:postcode" v="WD18 1XF"/>
    <tag k="removemelater" v="yes"/>
  </node>
  <node id="-282" lat="51.64175035316991" lon="-0.4278952928425986">
    <tag k="addr:postcode" v="WD18 1XG"/>
    <tag k="removemelater" v="yes"/>
  </node>
  <node id="-283" lat="51.64175035316991" lon="-0.4278952928425986">
    <tag k="addr:postcode" v="WD18 1XH"/>
    <tag k="removemelater" v="yes"/>
  </node>
  <node id="-284" lat="51.64175035316991" lon="-0.4278952928425986">
    <tag k="addr:postcode" v="WD18 1XN"/>
    <tag k="removemelater" v="yes"/>
  </node>
  <node id="-285" lat="51.64175035316991" lon="-0.4278952928425986">
    <tag k="addr:postcode" v="WD18 1XT"/>
    <tag k="removemelater" v="yes"/>
  </node>
  <node id="-286" lat="51.64175035316991" lon="-0.4278952928425986">
    <tag k="addr:postcode" v="WD18 1XU"/>
    <tag k="removemelater" v="yes"/>
  </node>
  <node id="-287" lat="51.64175035316991" lon="-0.4278952928425986">
    <tag k="addr:postcode" v="WD18 1YP"/>
    <tag k="removemelater" v="yes"/>
  </node>
  <node id="-288" lat="51.64175035316991" lon="-0.4278952928425986">
    <tag k="addr:postcode" v="WD18 1YW"/>
    <tag k="removemelater" v="yes"/>
  </node>
  <node id="-289" lat="51.64175035316991" lon="-0.4278952928425986">
    <tag k="addr:postcode" v="WD18 1YY"/>
    <tag k="removemelater" v="yes"/>
  </node>
  <node id="-290" lat="51.64175035316991" lon="-0.4278952928425986">
    <tag k="addr:postcode" v="WD18 1YZ"/>
    <tag k="removemelater" v="yes"/>
  </node>
  <node id="-291" lat="51.658963915200474" lon="-0.403444370687584">
    <tag k="addr:postcode" v="WD18 1ZZ"/>
    <tag k="removemelater" v="yes"/>
  </node>
  <node id="-292" lat="51.646510786975256" lon="-0.41678911462432267">
    <tag k="addr:postcode" v="WD18 6AA"/>
    <tag k="removemelater" v="yes"/>
  </node>
  <node id="-293" lat="51.644274509461056" lon="-0.41832676997200224">
    <tag k="addr:postcode" v="WD18 6LL"/>
    <tag k="removemelater" v="yes"/>
  </node>
  <node id="-294" lat="51.64175035316991" lon="-0.4278952928425986">
    <tag k="addr:postcode" v="WD18 6ZU"/>
    <tag k="removemelater" v="yes"/>
  </node>
  <node id="-295" lat="51.65502524924744" lon="-0.41871875307351986">
    <tag k="addr:postcode" v="WD18 7AH"/>
    <tag k="removemelater" v="yes"/>
  </node>
  <node id="-296" lat="51.65511757056039" lon="-0.4202334767534021">
    <tag k="addr:postcode" v="WD18 7AS"/>
    <tag k="removemelater" v="yes"/>
  </node>
  <node id="-297" lat="51.65531724590852" lon="-0.420371100266688">
    <tag k="addr:postcode" v="WD18 7AT"/>
    <tag k="removemelater" v="yes"/>
  </node>
  <node id="-298" lat="51.655189177976816" lon="-0.42154653401717623">
    <tag k="addr:postcode" v="WD18 7BD"/>
    <tag k="removemelater" v="yes"/>
  </node>
  <node id="-299" lat="51.65287436553781" lon="-0.4079372711472566">
    <tag k="addr:postcode" v="WD18 7BG"/>
    <tag k="removemelater" v="yes"/>
  </node>
  <node id="-300" lat="51.655714458466015" lon="-0.4204874011759351">
    <tag k="addr:postcode" v="WD18 7BH"/>
    <tag k="removemelater" v="yes"/>
  </node>
  <node id="-301" lat="51.65608545589225" lon="-0.41798792584361055">
    <tag k="addr:postcode" v="WD18 7BL"/>
    <tag k="removemelater" v="yes"/>
  </node>
  <node id="-302" lat="51.65608545589225" lon="-0.41798792584361055">
    <tag k="addr:postcode" v="WD18 7BN"/>
    <tag k="removemelater" v="yes"/>
  </node>
  <node id="-303" lat="51.65668744335476" lon="-0.4179525075752442">
    <tag k="addr:postcode" v="WD18 7BP"/>
    <tag k="removemelater" v="yes"/>
  </node>
  <node id="-304" lat="51.6525913785381" lon="-0.4249615923523527">
    <tag k="addr:postcode" v="WD18 7DB"/>
    <tag k="removemelater" v="yes"/>
  </node>
  <node id="-305" lat="51.6528559743567" lon="-0.4245765699064792">
    <tag k="addr:postcode" v="WD18 7DD"/>
    <tag k="removemelater" v="yes"/>
  </node>
  <node id="-306" lat="51.64175035316991" lon="-0.4278952928425986">
    <tag k="addr:postcode" v="WD18 7DF"/>
    <tag k="removemelater" v="yes"/>
  </node>
  <node id="-307" lat="51.65206543318827" lon="-0.42463288868922294">
    <tag k="addr:postcode" v="WD18 7DG"/>
    <tag k="removemelater" v="yes"/>
  </node>
  <node id="-308" lat="51.64175035316991" lon="-0.4278952928425986">
    <tag k="addr:postcode" v="WD18 7FD"/>
    <tag k="removemelater" v="yes"/>
  </node>
  <node id="-309" lat="51.65404392418784" lon="-0.4166278426851691">
    <tag k="addr:postcode" v="WD18 7FR"/>
    <tag k="removemelater" v="yes"/>
  </node>
  <node id="-310" lat="51.64175035316991" lon="-0.4278952928425986">
    <tag k="addr:postcode" v="WD18 7FY"/>
    <tag k="removemelater" v="yes"/>
  </node>
  <node id="-311" lat="51.65447816083098" lon="-0.41882453056889807">
    <tag k="addr:postcode" v="WD18 7GA"/>
    <tag k="removemelater" v="yes"/>
  </node>
  <node id="-312" lat="51.654716161794134" lon="-0.4184692944031551">
    <tag k="addr:postcode" v="WD18 7GE"/>
    <tag k="removemelater" v="yes"/>
  </node>
  <node id="-313" lat="51.65435373088844" lon="-0.4182650649713686">
    <tag k="addr:postcode" v="WD18 7GF"/>
    <tag k="removemelater" v="yes"/>
  </node>
  <node id="-314" lat="51.65395963002391" lon="-0.4183799771313444">
    <tag k="addr:postcode" v="WD18 7GR"/>
    <tag k="removemelater" v="yes"/>
  </node>
  <node id="-315" lat="51.655019947928906" lon="-0.4143241575505627">
    <tag k="addr:postcode" v="WD18 7JF"/>
    <tag k="removemelater" v="yes"/>
  </node>
  <node id="-316" lat="51.65358852213909" lon="-0.4195349228047055">
    <tag k="addr:postcode" v="WD18 7JG"/>
    <tag k="removemelater" v="yes"/>
  </node>
  <node id="-317" lat="51.65428244633201" lon="-0.4176459265891873">
    <tag k="addr:postcode" v="WD18 7JJ"/>
    <tag k="removemelater" v="yes"/>
  </node>
  <node id="-318" lat="51.65417809543908" lon="-0.4232585812822675">
    <tag k="addr:postcode" v="WD18 7JN"/>
    <tag k="removemelater" v="yes"/>
  </node>
  <node id="-319" lat="51.65431400371587" lon="-0.4219961688636972">
    <tag k="addr:postcode" v="WD18 7JP"/>
    <tag k="removemelater" v="yes"/>
  </node>
  <node id="-320" lat="51.65427757548062" lon="-0.42062408839710586">
    <tag k="addr:postcode" v="WD18 7JQ"/>
    <tag k="removemelater" v="yes"/>
  </node>
  <node id="-321" lat="51.65359705436542" lon="-0.42284506213321454">
    <tag k="addr:postcode" v="WD18 7JS"/>
    <tag k="removemelater" v="yes"/>
  </node>
  <node id="-322" lat="51.653650462725246" lon="-0.4241442543153348">
    <tag k="addr:postcode" v="WD18 7JX"/>
    <tag k="removemelater" v="yes"/>
  </node>
  <node id="-323" lat="51.65745221602539" lon="-0.4173186708595217">
    <tag k="addr:postcode" v="WD18 7LE"/>
    <tag k="removemelater" v="yes"/>
  </node>
  <node id="-324" lat="51.65682816871885" lon="-0.4203908546641969">
    <tag k="addr:postcode" v="WD18 7LL"/>
    <tag k="removemelater" v="yes"/>
  </node>
  <node id="-325" lat="51.64175035316991" lon="-0.4278952928425986">
    <tag k="addr:postcode" v="WD18 7LZ"/>
    <tag k="removemelater" v="yes"/>
  </node>
  <node id="-326" lat="51.65400920008733" lon="-0.4240739881690511">
    <tag k="addr:postcode" v="WD18 7PE"/>
    <tag k="removemelater" v="yes"/>
  </node>
  <node id="-327" lat="51.65053174065953" lon="-0.40494040704925643">
    <tag k="addr:postcode" v="WD18 7RA"/>
    <tag k="removemelater" v="yes"/>
  </node>
  <node id="-328" lat="51.65376515326666" lon="-0.4086433225183872">
    <tag k="addr:postcode" v="WD18 7RD"/>
    <tag k="removemelater" v="yes"/>
  </node>
  <node id="-329" lat="51.64175035316991" lon="-0.4278952928425986">
    <tag k="addr:postcode" v="WD18 7TS"/>
    <tag k="removemelater" v="yes"/>
  </node>
  <node id="-330" lat="51.65411627443435" lon="-0.41932863524833525">
    <tag k="addr:postcode" v="WD18 7WR"/>
    <tag k="removemelater" v="yes"/>
  </node>
  <node id="-331" lat="51.64175035316991" lon="-0.4278952928425986">
    <tag k="addr:postcode" v="WD18 7XR"/>
    <tag k="removemelater" v="yes"/>
  </node>
  <node id="-332" lat="51.64175035316991" lon="-0.4278952928425986">
    <tag k="addr:postcode" v="WD18 7YA"/>
    <tag k="removemelater" v="yes"/>
  </node>
  <node id="-333" lat="51.64175035316991" lon="-0.4278952928425986">
    <tag k="addr:postcode" v="WD18 7YU"/>
    <tag k="removemelater" v="yes"/>
  </node>
  <node id="-334" lat="51.64826274944786" lon="-0.4233626338236828">
    <tag k="addr:postcode" v="WD18 8AD"/>
    <tag k="removemelater" v="yes"/>
  </node>
  <node id="-335" lat="51.649955076698134" lon="-0.4261804446507817">
    <tag k="addr:postcode" v="WD18 8AG"/>
    <tag k="removemelater" v="yes"/>
  </node>
  <node id="-336" lat="51.647439449432596" lon="-0.4263398282993638">
    <tag k="addr:postcode" v="WD18 8AH"/>
    <tag k="removemelater" v="yes"/>
  </node>
  <node id="-337" lat="51.647096005848816" lon="-0.4288956191849434">
    <tag k="addr:postcode" v="WD18 8AJ"/>
    <tag k="removemelater" v="yes"/>
  </node>
  <node id="-338" lat="51.65079000746945" lon="-0.42406998711081334">
    <tag k="addr:postcode" v="WD18 8AL"/>
    <tag k="removemelater" v="yes"/>
  </node>
  <node id="-339" lat="51.651429306535675" lon="-0.42413454868172273">
    <tag k="addr:postcode" v="WD18 8AP"/>
    <tag k="removemelater" v="yes"/>
  </node>
  <node id="-340" lat="51.64175035316991" lon="-0.4278952928425986">
    <tag k="addr:postcode" v="WD18 8EF"/>
    <tag k="removemelater" v="yes"/>
  </node>
  <node id="-341" lat="51.648733727964846" lon="-0.4289835486275013">
    <tag k="addr:postcode" v="WD18 8GA"/>
    <tag k="removemelater" v="yes"/>
  </node>
  <node id="-342" lat="51.64175035316991" lon="-0.4278952928425986">
    <tag k="addr:postcode" v="WD18 8HA"/>
    <tag k="removemelater" v="yes"/>
  </node>
  <node id="-343" lat="51.64455462601098" lon="-0.42578931357943284">
    <tag k="addr:postcode" v="WD18 8JA"/>
    <tag k="removemelater" v="yes"/>
  </node>
  <node id="-344" lat="51.643748585050474" lon="-0.424689901560784">
    <tag k="addr:postcode" v="WD18 8JB"/>
    <tag k="removemelater" v="yes"/>
  </node>
  <node id="-345" lat="51.64587893753678" lon="-0.4259747040528035">
    <tag k="addr:postcode" v="WD18 8JF"/>
    <tag k="removemelater" v="yes"/>
  </node>
  <node id="-346" lat="51.64730103186068" lon="-0.4254051082377529">
    <tag k="addr:postcode" v="WD18 8JG"/>
    <tag k="removemelater" v="yes"/>
  </node>
  <node id="-347" lat="51.64300774819883" lon="-0.4257706211806206">
    <tag k="addr:postcode" v="WD18 8JU"/>
    <tag k="removemelater" v="yes"/>
  </node>
  <node id="-348" lat="51.64429662404231" lon="-0.42800957083745744">
    <tag k="addr:postcode" v="WD18 8JY"/>
    <tag k="removemelater" v="yes"/>
  </node>
  <node id="-349" lat="51.64460456160413" lon="-0.42481922077075873">
    <tag k="addr:postcode" v="WD18 8PH"/>
    <tag k="removemelater" v="yes"/>
  </node>
  <node id="-350" lat="51.646472600875626" lon="-0.425318178406024">
    <tag k="addr:postcode" v="WD18 8QU"/>
    <tag k="removemelater" v="yes"/>
  </node>
  <node id="-351" lat="51.641382381832756" lon="-0.4252632735461167">
    <tag k="addr:postcode" v="WD18 8QZ"/>
    <tag k="removemelater" v="yes"/>
  </node>
  <node id="-352" lat="51.64175035316991" lon="-0.4278952928425986">
    <tag k="addr:postcode" v="WD18 8RG"/>
    <tag k="removemelater" v="yes"/>
  </node>
  <node id="-353" lat="51.642211248395284" lon="-0.42941130962758856">
    <tag k="addr:postcode" v="WD18 8RH"/>
    <tag k="removemelater" v="yes"/>
  </node>
  <node id="-354" lat="51.6429958973457" lon="-0.42958653626017784">
    <tag k="addr:postcode" v="WD18 8RJ"/>
    <tag k="removemelater" v="yes"/>
  </node>
  <node id="-355" lat="51.643834181965346" lon="-0.42772205208972924">
    <tag k="addr:postcode" v="WD18 8RL"/>
    <tag k="removemelater" v="yes"/>
  </node>
  <node id="-356" lat="51.64681823637727" lon="-0.426953946594445">
    <tag k="addr:postcode" v="WD18 8SA"/>
    <tag k="removemelater" v="yes"/>
  </node>
  <node id="-357" lat="51.64775888324767" lon="-0.4293786007691179">
    <tag k="addr:postcode" v="WD18 8SS"/>
    <tag k="removemelater" v="yes"/>
  </node>
  <node id="-358" lat="51.64175035316991" lon="-0.4278952928425986">
    <tag k="addr:postcode" v="WD18 8ST"/>
    <tag k="removemelater" v="yes"/>
  </node>
  <node id="-359" lat="51.64680534466542" lon="-0.42532110393866857">
    <tag k="addr:postcode" v="WD18 8TF"/>
    <tag k="removemelater" v="yes"/>
  </node>
  <node id="-360" lat="51.64400948985276" lon="-0.4273835693840072">
    <tag k="addr:postcode" v="WD18 8UA"/>
    <tag k="removemelater" v="yes"/>
  </node>
  <node id="-361" lat="51.64907213853883" lon="-0.42605202055848707">
    <tag k="addr:postcode" v="WD18 8UW"/>
    <tag k="removemelater" v="yes"/>
  </node>
  <node id="-362" lat="51.64405835785464" lon="-0.4256619706016029">
    <tag k="addr:postcode" v="WD18 8XN"/>
    <tag k="removemelater" v="yes"/>
  </node>
  <node id="-363" lat="51.64581720873446" lon="-0.4274077450282583">
    <tag k="addr:postcode" v="WD18 8YA"/>
    <tag k="removemelater" v="yes"/>
  </node>
  <node id="-364" lat="51.64179008275888" lon="-0.4241507762011016">
    <tag k="addr:postcode" v="WD18 8YB"/>
    <tag k="removemelater" v="yes"/>
  </node>
  <node id="-365" lat="51.64824181151456" lon="-0.4285091055676207">
    <tag k="addr:postcode" v="WD18 8YS"/>
    <tag k="removemelater" v="yes"/>
  </node>
  <node id="-366" lat="51.647856393584476" lon="-0.42792980957738785">
    <tag k="addr:postcode" v="WD18 8YU"/>
    <tag k="removemelater" v="yes"/>
  </node>
  <node id="-367" lat="51.64932390942359" lon="-0.42672267106856104">
    <tag k="addr:postcode" v="WD18 8YW"/>
    <tag k="removemelater" v="yes"/>
  </node>
  <node id="-368" lat="51.647764679293346" lon="-0.4298120259679357">
    <tag k="addr:postcode" v="WD18 8YX"/>
    <tag k="removemelater" v="yes"/>
  </node>
  <node id="-369" lat="51.64175035316991" lon="-0.4278952928425986">
    <tag k="addr:postcode" v="WD18 8ZW"/>
    <tag k="removemelater" v="yes"/>
  </node>
  <node id="-370" lat="51.639701191195506" lon="-0.43133338260073784">
    <tag k="addr:postcode" v="WD18 9AA"/>
    <tag k="removemelater" v="yes"/>
  </node>
  <node id="-371" lat="51.6386761839504" lon="-0.43740938655606">
    <tag k="addr:postcode" v="WD18 9AB"/>
    <tag k="removemelater" v="yes"/>
  </node>
  <node id="-372" lat="51.63888030405096" lon="-0.43585607685411265">
    <tag k="addr:postcode" v="WD18 9AE"/>
    <tag k="removemelater" v="yes"/>
  </node>
  <node id="-373" lat="51.640792132950445" lon="-0.4281885658348035">
    <tag k="addr:postcode" v="WD18 9BL"/>
    <tag k="removemelater" v="yes"/>
  </node>
  <node id="-374" lat="51.640329763571614" lon="-0.43126833777140905">
    <tag k="addr:postcode" v="WD18 9DA"/>
    <tag k="removemelater" v="yes"/>
  </node>
  <node id="-375" lat="51.63974096697678" lon="-0.43498827130461404">
    <tag k="addr:postcode" v="WD18 9ER"/>
    <tag k="removemelater" v="yes"/>
  </node>
  <node id="-376" lat="51.63935384756416" lon="-0.43427902265952434">
    <tag k="addr:postcode" v="WD18 9ET"/>
    <tag k="removemelater" v="yes"/>
  </node>
  <node id="-377" lat="51.63910378915958" lon="-0.43508246268847317">
    <tag k="addr:postcode" v="WD18 9EU"/>
    <tag k="removemelater" v="yes"/>
  </node>
  <node id="-378" lat="51.64019857934556" lon="-0.43491471082948224">
    <tag k="addr:postcode" v="WD18 9EZ"/>
    <tag k="removemelater" v="yes"/>
  </node>
  <node id="-379" lat="51.64175035316991" lon="-0.4278952928425986">
    <tag k="addr:postcode" v="WD18 9GD"/>
    <tag k="removemelater" v="yes"/>
  </node>
  <node id="-380" lat="51.64031232957267" lon="-0.4326563130183499">
    <tag k="addr:postcode" v="WD18 9HG"/>
    <tag k="removemelater" v="yes"/>
  </node>
  <node id="-381" lat="51.63994991733426" lon="-0.43649850539188784">
    <tag k="addr:postcode" v="WD18 9NA"/>
    <tag k="removemelater" v="yes"/>
  </node>
  <node id="-382" lat="51.63961788877529" lon="-0.4358740547569944">
    <tag k="addr:postcode" v="WD18 9PX"/>
    <tag k="removemelater" v="yes"/>
  </node>
  <node id="-383" lat="51.63987633355718" lon="-0.43705019923978033">
    <tag k="addr:postcode" v="WD18 9QN"/>
    <tag k="removemelater" v="yes"/>
  </node>
  <node id="-384" lat="51.6377586394363" lon="-0.440764648500336">
    <tag k="addr:postcode" v="WD18 9QP"/>
    <tag k="removemelater" v="yes"/>
  </node>
  <node id="-385" lat="51.638179793678184" lon="-0.4426866542090729">
    <tag k="addr:postcode" v="WD18 9QR"/>
    <tag k="removemelater" v="yes"/>
  </node>
  <node id="-386" lat="51.638271465062466" lon="-0.43943200642805674">
    <tag k="addr:postcode" v="WD18 9RE"/>
    <tag k="removemelater" v="yes"/>
  </node>
  <node id="-387" lat="51.63929288901992" lon="-0.4371280633603295">
    <tag k="addr:postcode" v="WD18 9RF"/>
    <tag k="removemelater" v="yes"/>
  </node>
  <node id="-388" lat="51.63923847299702" lon="-0.43574259384190434">
    <tag k="addr:postcode" v="WD18 9RS"/>
    <tag k="removemelater" v="yes"/>
  </node>
  <node id="-389" lat="51.63905388351108" lon="-0.4414716987190472">
    <tag k="addr:postcode" v="WD18 9RU"/>
    <tag k="removemelater" v="yes"/>
  </node>
  <node id="-390" lat="51.639799514011926" lon="-0.4333098653318664">
    <tag k="addr:postcode" v="WD18 9SB"/>
    <tag k="removemelater" v="yes"/>
  </node>
  <node id="-391" lat="51.63967214387889" lon="-0.4352218661220597">
    <tag k="addr:postcode" v="WD18 9SP"/>
    <tag k="removemelater" v="yes"/>
  </node>
  <node id="-392" lat="51.63841845993735" lon="-0.44305420994812017">
    <tag k="addr:postcode" v="WD18 9SR"/>
    <tag k="removemelater" v="yes"/>
  </node>
  <node id="-393" lat="51.640305918928334" lon="-0.433523642336175">
    <tag k="addr:postcode" v="WD18 9SS"/>
    <tag k="removemelater" v="yes"/>
  </node>
  <node id="-394" lat="51.638413081097326" lon="-0.43790977002782144">
    <tag k="addr:postcode" v="WD18 9TB"/>
    <tag k="removemelater" v="yes"/>
  </node>
  <node id="-395" lat="51.63918273077512" lon="-0.4403400696978799">
    <tag k="addr:postcode" v="WD18 9TD"/>
    <tag k="removemelater" v="yes"/>
  </node>
  <node id="-396" lat="51.63823217032685" lon="-0.44189004792485087">
    <tag k="addr:postcode" v="WD18 9TS"/>
    <tag k="removemelater" v="yes"/>
  </node>
  <node id="-397" lat="51.64175035316991" lon="-0.4278952928425986">
    <tag k="addr:postcode" v="WD18 9TT"/>
    <tag k="removemelater" v="yes"/>
  </node>
  <node id="-398" lat="51.639942425143126" lon="-0.4339119112601061">
    <tag k="addr:postcode" v="WD18 9UN"/>
    <tag k="removemelater" v="yes"/>
  </node>
  <node id="-399" lat="51.64069174854965" lon="-0.43278775100727">
    <tag k="addr:postcode" v="WD18 9UP"/>
    <tag k="removemelater" v="yes"/>
  </node>
  <node id="-400" lat="51.63958939297416" lon="-0.4337362021471617">
    <tag k="addr:postcode" v="WD18 9XD"/>
    <tag k="removemelater" v="yes"/>
  </node>
  <node id="-401" lat="51.63960961206728" lon="-0.4332297001540678">
    <tag k="addr:postcode" v="WD18 9XG"/>
    <tag k="removemelater" v="yes"/>
  </node>
  <node id="-402" lat="51.63924650454732" lon="-0.4336468549961227">
    <tag k="addr:postcode" v="WD18 9XL"/>
    <tag k="removemelater" v="yes"/>
  </node>
  <node id="-403" lat="51.63825867168324" lon="-0.43982262643925796">
    <tag k="addr:postcode" v="WD18 9XT"/>
    <tag k="removemelater" v="yes"/>
  </node>
  <node id="-404" lat="51.64175035316991" lon="-0.4278952928425986">
    <tag k="addr:postcode" v="WD18 9ZH"/>
    <tag k="removemelater" v="yes"/>
  </node>
  <node id="-405" lat="51.64175035316991" lon="-0.4278952928425986">
    <tag k="addr:postcode" v="WD19 4EY"/>
    <tag k="removemelater" v="yes"/>
  </node>
  <node id="-406" lat="51.64175035316991" lon="-0.4278952928425986">
    <tag k="addr:postcode" v="WD19 4EZ"/>
    <tag k="removemelater" v="yes"/>
  </node>
  <node id="-407" lat="51.64251367237948" lon="-0.39656469144301043">
    <tag k="addr:postcode" v="WD19 4JX"/>
    <tag k="removemelater" v="yes"/>
  </node>
  <node id="-408" lat="51.64594590213974" lon="-0.38586352704254123">
    <tag k="addr:postcode" v="WD19 4PN"/>
    <tag k="removemelater" v="yes"/>
  </node>
  <node id="-409" lat="51.64175035316991" lon="-0.4278952928425986">
    <tag k="addr:postcode" v="WD19 4SD"/>
    <tag k="removemelater" v="yes"/>
  </node>
  <node id="-410" lat="51.64175035316991" lon="-0.4278952928425986">
    <tag k="addr:postcode" v="WD19 4XB"/>
    <tag k="removemelater" v="yes"/>
  </node>
  <node id="-411" lat="51.64175035316991" lon="-0.4278952928425986">
    <tag k="addr:postcode" v="WD19 5JD"/>
    <tag k="removemelater" v="yes"/>
  </node>
  <node id="-412" lat="51.64175035316991" lon="-0.4278952928425986">
    <tag k="addr:postcode" v="WD19 5SF"/>
    <tag k="removemelater" v="yes"/>
  </node>
  <node id="-413" lat="51.64175035316991" lon="-0.4278952928425986">
    <tag k="addr:postcode" v="WD19 5ZZ"/>
    <tag k="removemelater" v="yes"/>
  </node>
  <node id="-414" lat="51.64175035316991" lon="-0.4278952928425986">
    <tag k="addr:postcode" v="WD19 6FZ"/>
    <tag k="removemelater" v="yes"/>
  </node>
  <node id="-415" lat="51.627281532002726" lon="-0.38805747511483385">
    <tag k="addr:postcode" v="WD19 7AB"/>
    <tag k="removemelater" v="yes"/>
  </node>
  <node id="-416" lat="51.627059085362745" lon="-0.3875741383566483">
    <tag k="addr:postcode" v="WD19 7AD"/>
    <tag k="removemelater" v="yes"/>
  </node>
  <node id="-417" lat="51.62660163804018" lon="-0.38831273168391506">
    <tag k="addr:postcode" v="WD19 7AE"/>
    <tag k="removemelater" v="yes"/>
  </node>
  <node id="-418" lat="51.627515144454655" lon="-0.38869934683446494">
    <tag k="addr:postcode" v="WD19 7AF"/>
    <tag k="removemelater" v="yes"/>
  </node>
  <node id="-419" lat="51.62745057411789" lon="-0.38923620260126646">
    <tag k="addr:postcode" v="WD19 7AG"/>
    <tag k="removemelater" v="yes"/>
  </node>
  <node id="-420" lat="51.62770104317356" lon="-0.38717573445530035">
    <tag k="addr:postcode" v="WD19 7ED"/>
    <tag k="removemelater" v="yes"/>
  </node>
  <node id="-421" lat="51.62687840107106" lon="-0.386858163519354">
    <tag k="addr:postcode" v="WD19 7EE"/>
    <tag k="removemelater" v="yes"/>
  </node>
  <node id="-422" lat="51.626643331965575" lon="-0.38676536809105067">
    <tag k="addr:postcode" v="WD19 7EF"/>
    <tag k="removemelater" v="yes"/>
  </node>
  <node id="-423" lat="51.62657995461695" lon="-0.38935372089888054">
    <tag k="addr:postcode" v="WD19 7EH"/>
    <tag k="removemelater" v="yes"/>
  </node>
  <node id="-424" lat="51.62666230285071" lon="-0.3888017983064909">
    <tag k="addr:postcode" v="WD19 7EJ"/>
    <tag k="removemelater" v="yes"/>
  </node>
  <node id="-425" lat="51.626325723276445" lon="-0.3891749071990749">
    <tag k="addr:postcode" v="WD19 7EL"/>
    <tag k="removemelater" v="yes"/>
  </node>
  <node id="-426" lat="51.62640066840082" lon="-0.3887388292895614">
    <tag k="addr:postcode" v="WD19 7EN"/>
    <tag k="removemelater" v="yes"/>
  </node>
  <node id="-427" lat="51.62681608235418" lon="-0.3869037165911202">
    <tag k="addr:postcode" v="WD19 7EY"/>
    <tag k="removemelater" v="yes"/>
  </node>
  <node id="-428" lat="51.62522994148818" lon="-0.3978097240526548">
    <tag k="addr:postcode" v="WD19 7HR"/>
    <tag k="removemelater" v="yes"/>
  </node>
  <node id="-429" lat="51.62647468620067" lon="-0.38758040878532">
    <tag k="addr:postcode" v="WD19 7SB"/>
    <tag k="removemelater" v="yes"/>
  </node>
  <node id="-430" lat="51.62699855107181" lon="-0.3877496561908122">
    <tag k="addr:postcode" v="WD19 7UD"/>
    <tag k="removemelater" v="yes"/>
  </node>
  <node id="-431" lat="51.62665496961594" lon="-0.388267499245102">
    <tag k="addr:postcode" v="WD19 7UE"/>
    <tag k="removemelater" v="yes"/>
  </node>
  <node id="-432" lat="51.62748719041787" lon="-0.38862809818870303">
    <tag k="addr:postcode" v="WD19 7UF"/>
    <tag k="removemelater" v="yes"/>
  </node>
  <node id="-433" lat="51.63854691789341" lon="-0.3529459431737735">
    <tag k="addr:postcode" v="WD23 1FA"/>
    <tag k="removemelater" v="yes"/>
  </node>
  <node id="-434" lat="51.638194596134234" lon="-0.36505440635606856">
    <tag k="addr:postcode" v="WD23 1FJ"/>
    <tag k="removemelater" v="yes"/>
  </node>
  <node id="-435" lat="51.6336652432074" lon="-0.3389763889602215">
    <tag k="addr:postcode" v="WD23 1GB"/>
    <tag k="removemelater" v="yes"/>
  </node>
  <node id="-436" lat="51.63802344915244" lon="-0.34449649517572856">
    <tag k="addr:postcode" v="WD23 1GH"/>
    <tag k="removemelater" v="yes"/>
  </node>
  <node id="-437" lat="51.63802344915244" lon="-0.34449649517572856">
    <tag k="addr:postcode" v="WD23 1GJ"/>
    <tag k="removemelater" v="yes"/>
  </node>
  <node id="-438" lat="51.63733923327545" lon="-0.331732260833876">
    <tag k="addr:postcode" v="WD23 1RD"/>
    <tag k="removemelater" v="yes"/>
  </node>
  <node id="-439" lat="51.66543349556641" lon="-0.371665515033588">
    <tag k="addr:postcode" v="WD23 2AN"/>
    <tag k="removemelater" v="yes"/>
  </node>
  <node id="-440" lat="51.66464155572802" lon="-0.37097092428269285">
    <tag k="addr:postcode" v="WD23 2BS"/>
    <tag k="removemelater" v="yes"/>
  </node>
  <node id="-441" lat="51.66324924883979" lon="-0.36525163309928144">
    <tag k="addr:postcode" v="WD23 2DL"/>
    <tag k="removemelater" v="yes"/>
  </node>
  <node id="-442" lat="51.66618042695855" lon="-0.3678212578492907">
    <tag k="addr:postcode" v="WD23 2FW"/>
    <tag k="removemelater" v="yes"/>
  </node>
  <node id="-443" lat="51.652248013358424" lon="-0.3701431695247038">
    <tag k="addr:postcode" v="WD23 2LW"/>
    <tag k="removemelater" v="yes"/>
  </node>
  <node id="-444" lat="51.64710008162809" lon="-0.37566133862473217">
    <tag k="addr:postcode" v="WD23 2QL"/>
    <tag k="removemelater" v="yes"/>
  </node>
  <node id="-445" lat="51.652179083632774" lon="-0.36971197137088996">
    <tag k="addr:postcode" v="WD23 2RA"/>
    <tag k="removemelater" v="yes"/>
  </node>
  <node id="-446" lat="51.65260233904911" lon="-0.37040512090526106">
    <tag k="addr:postcode" v="WD23 2RB"/>
    <tag k="removemelater" v="yes"/>
  </node>
  <node id="-447" lat="51.65310447456713" lon="-0.3709508957231425">
    <tag k="addr:postcode" v="WD23 2RE"/>
    <tag k="removemelater" v="yes"/>
  </node>
  <node id="-448" lat="51.65242141563517" lon="-0.36773729313657433">
    <tag k="addr:postcode" v="WD23 2RF"/>
    <tag k="removemelater" v="yes"/>
  </node>
  <node id="-449" lat="51.653229386485705" lon="-0.36893703079184487">
    <tag k="addr:postcode" v="WD23 2RG"/>
    <tag k="removemelater" v="yes"/>
  </node>
  <node id="-450" lat="51.652733062630034" lon="-0.3688102879936297">
    <tag k="addr:postcode" v="WD23 2RH"/>
    <tag k="removemelater" v="yes"/>
  </node>
  <node id="-451" lat="51.65316462179381" lon="-0.36815873155565265">
    <tag k="addr:postcode" v="WD23 2RJ"/>
    <tag k="removemelater" v="yes"/>
  </node>
  <node id="-452" lat="51.65314420072573" lon="-0.37057361572505104">
    <tag k="addr:postcode" v="WD23 2RL"/>
    <tag k="removemelater" v="yes"/>
  </node>
  <node id="-453" lat="51.65317710684644" lon="-0.3697050755969675">
    <tag k="addr:postcode" v="WD23 2RN"/>
    <tag k="removemelater" v="yes"/>
  </node>
  <node id="-454" lat="51.65287614184455" lon="-0.37004835970846417">
    <tag k="addr:postcode" v="WD23 2RP"/>
    <tag k="removemelater" v="yes"/>
  </node>
  <node id="-455" lat="51.65346025391117" lon="-0.3687263581798983">
    <tag k="addr:postcode" v="WD23 2RR"/>
    <tag k="removemelater" v="yes"/>
  </node>
  <node id="-456" lat="51.65323627249112" lon="-0.3674911812179419">
    <tag k="addr:postcode" v="WD23 2RT"/>
    <tag k="removemelater" v="yes"/>
  </node>
  <node id="-457" lat="51.65562310212107" lon="-0.37360738001337596">
    <tag k="addr:postcode" v="WD23 2TD"/>
    <tag k="removemelater" v="yes"/>
  </node>
  <node id="-458" lat="51.66020700968983" lon="-0.3669804379387917">
    <tag k="addr:postcode" v="WD23 2TS"/>
    <tag k="removemelater" v="yes"/>
  </node>
  <node id="-459" lat="51.66020700968983" lon="-0.3669804379387917">
    <tag k="addr:postcode" v="WD23 2TW"/>
    <tag k="removemelater" v="yes"/>
  </node>
  <node id="-460" lat="51.658482145575874" lon="-0.36903760241589795">
    <tag k="addr:postcode" v="WD23 2TY"/>
    <tag k="removemelater" v="yes"/>
  </node>
  <node id="-461" lat="51.64257981512176" lon="-0.3590433639597827">
    <tag k="addr:postcode" v="WD23 3BX"/>
    <tag k="removemelater" v="yes"/>
  </node>
  <node id="-462" lat="51.64222566667951" lon="-0.35879600299731873">
    <tag k="addr:postcode" v="WD23 3BY"/>
    <tag k="removemelater" v="yes"/>
  </node>
  <node id="-463" lat="51.64807442572464" lon="-0.3565033635577895">
    <tag k="addr:postcode" v="WD23 3NR"/>
    <tag k="removemelater" v="yes"/>
  </node>
  <node id="-464" lat="51.64952884011894" lon="-0.35441262906637383">
    <tag k="addr:postcode" v="WD23 3PS"/>
    <tag k="removemelater" v="yes"/>
  </node>
  <node id="-465" lat="51.64831850445875" lon="-0.35659571817106755">
    <tag k="addr:postcode" v="WD23 3PX"/>
    <tag k="removemelater" v="yes"/>
  </node>
  <node id="-466" lat="51.650590501019316" lon="-0.3550969441343167">
    <tag k="addr:postcode" v="WD23 3PY"/>
    <tag k="removemelater" v="yes"/>
  </node>
  <node id="-467" lat="51.647963078883485" lon="-0.34664950766163943">
    <tag k="addr:postcode" v="WD23 4SA"/>
    <tag k="removemelater" v="yes"/>
  </node>
  <node id="-468" lat="51.666361180017404" lon="-0.397270148221359">
    <tag k="addr:postcode" v="WD24 4AD"/>
    <tag k="removemelater" v="yes"/>
  </node>
  <node id="-469" lat="51.667891079785285" lon="-0.39604484535252216">
    <tag k="addr:postcode" v="WD24 4AJ"/>
    <tag k="removemelater" v="yes"/>
  </node>
  <node id="-470" lat="51.66999180984306" lon="-0.39711309159772934">
    <tag k="addr:postcode" v="WD24 4AS"/>
    <tag k="removemelater" v="yes"/>
  </node>
  <node id="-471" lat="51.67030964507151" lon="-0.39668249189768284">
    <tag k="addr:postcode" v="WD24 4AT"/>
    <tag k="removemelater" v="yes"/>
  </node>
  <node id="-472" lat="51.67107103241908" lon="-0.3964676076480271">
    <tag k="addr:postcode" v="WD24 4AU"/>
    <tag k="removemelater" v="yes"/>
  </node>
  <node id="-473" lat="51.664008742983484" lon="-0.39094763790410547">
    <tag k="addr:postcode" v="WD24 4BL"/>
    <tag k="removemelater" v="yes"/>
  </node>
  <node id="-474" lat="51.664019744211444" lon="-0.3924076495046939">
    <tag k="addr:postcode" v="WD24 4BN"/>
    <tag k="removemelater" v="yes"/>
  </node>
  <node id="-475" lat="51.66414506179381" lon="-0.39170916013270196">
    <tag k="addr:postcode" v="WD24 4BP"/>
    <tag k="removemelater" v="yes"/>
  </node>
  <node id="-476" lat="51.66752879024964" lon="-0.3971711011722128">
    <tag k="addr:postcode" v="WD24 4BX"/>
    <tag k="removemelater" v="yes"/>
  </node>
  <node id="-477" lat="51.64175035316991" lon="-0.4278952928425986">
    <tag k="addr:postcode" v="WD24 4EW"/>
    <tag k="removemelater" v="yes"/>
  </node>
  <node id="-478" lat="51.66896374874973" lon="-0.39755428540863175">
    <tag k="addr:postcode" v="WD24 4FS"/>
    <tag k="removemelater" v="yes"/>
  </node>
  <node id="-479" lat="51.66896374874973" lon="-0.39755428540863175">
    <tag k="addr:postcode" v="WD24 4FT"/>
    <tag k="removemelater" v="yes"/>
  </node>
  <node id="-480" lat="51.662129613826046" lon="-0.38833932083512485">
    <tag k="addr:postcode" v="WD24 4GT"/>
    <tag k="removemelater" v="yes"/>
  </node>
  <node id="-481" lat="51.66293632100615" lon="-0.38815164819655434">
    <tag k="addr:postcode" v="WD24 4GU"/>
    <tag k="removemelater" v="yes"/>
  </node>
  <node id="-482" lat="51.66365176261853" lon="-0.3878659924567651">
    <tag k="addr:postcode" v="WD24 4GX"/>
    <tag k="removemelater" v="yes"/>
  </node>
  <node id="-483" lat="51.66320767082234" lon="-0.38892281412329616">
    <tag k="addr:postcode" v="WD24 4GY"/>
    <tag k="removemelater" v="yes"/>
  </node>
  <node id="-484" lat="51.66331347259564" lon="-0.3894251333983757">
    <tag k="addr:postcode" v="WD24 4GZ"/>
    <tag k="removemelater" v="yes"/>
  </node>
  <node id="-485" lat="51.64175035316991" lon="-0.4278952928425986">
    <tag k="addr:postcode" v="WD24 4JA"/>
    <tag k="removemelater" v="yes"/>
  </node>
  <node id="-486" lat="51.667840709737575" lon="-0.3936750808289526">
    <tag k="addr:postcode" v="WD24 4JH"/>
    <tag k="removemelater" v="yes"/>
  </node>
  <node id="-487" lat="51.66654326261744" lon="-0.3869246638814349">
    <tag k="addr:postcode" v="WD24 4JL"/>
    <tag k="removemelater" v="yes"/>
  </node>
  <node id="-488" lat="51.66426661300532" lon="-0.3907360697817125">
    <tag k="addr:postcode" v="WD24 4PH"/>
    <tag k="removemelater" v="yes"/>
  </node>
  <node id="-489" lat="51.66654524339365" lon="-0.3910023777908973">
    <tag k="addr:postcode" v="WD24 4PR"/>
    <tag k="removemelater" v="yes"/>
  </node>
  <node id="-490" lat="51.66724853523358" lon="-0.39048580641478653">
    <tag k="addr:postcode" v="WD24 4PT"/>
    <tag k="removemelater" v="yes"/>
  </node>
  <node id="-491" lat="51.66585856927172" lon="-0.3927329847065828">
    <tag k="addr:postcode" v="WD24 4PX"/>
    <tag k="removemelater" v="yes"/>
  </node>
  <node id="-492" lat="51.663480107279014" lon="-0.3937136213340981">
    <tag k="addr:postcode" v="WD24 4QL"/>
    <tag k="removemelater" v="yes"/>
  </node>
  <node id="-493" lat="51.66476481488797" lon="-0.3916582959084373">
    <tag k="addr:postcode" v="WD24 4QN"/>
    <tag k="removemelater" v="yes"/>
  </node>
  <node id="-494" lat="51.66476481488797" lon="-0.3916582959084373">
    <tag k="addr:postcode" v="WD24 4QP"/>
    <tag k="removemelater" v="yes"/>
  </node>
  <node id="-495" lat="51.664713486983615" lon="-0.39316391588006316">
    <tag k="addr:postcode" v="WD24 4QQ"/>
    <tag k="removemelater" v="yes"/>
  </node>
  <node id="-496" lat="51.64175035316991" lon="-0.4278952928425986">
    <tag k="addr:postcode" v="WD24 4QU"/>
    <tag k="removemelater" v="yes"/>
  </node>
  <node id="-497" lat="51.661629189490704" lon="-0.39119097321906104">
    <tag k="addr:postcode" v="WD24 4QX"/>
    <tag k="removemelater" v="yes"/>
  </node>
  <node id="-498" lat="51.66340648986311" lon="-0.39161963749467626">
    <tag k="addr:postcode" v="WD24 4RA"/>
    <tag k="removemelater" v="yes"/>
  </node>
  <node id="-499" lat="51.66340648986311" lon="-0.39161963749467626">
    <tag k="addr:postcode" v="WD24 4RB"/>
    <tag k="removemelater" v="yes"/>
  </node>
  <node id="-500" lat="51.66340648986311" lon="-0.39161963749467626">
    <tag k="addr:postcode" v="WD24 4RD"/>
    <tag k="removemelater" v="yes"/>
  </node>
  <node id="-501" lat="51.66340648986311" lon="-0.39161963749467626">
    <tag k="addr:postcode" v="WD24 4RE"/>
    <tag k="removemelater" v="yes"/>
  </node>
  <node id="-502" lat="51.66328319511606" lon="-0.39049618682272597">
    <tag k="addr:postcode" v="WD24 4RF"/>
    <tag k="removemelater" v="yes"/>
  </node>
  <node id="-503" lat="51.66352439912505" lon="-0.3910370918980245">
    <tag k="addr:postcode" v="WD24 4RG"/>
    <tag k="removemelater" v="yes"/>
  </node>
  <node id="-504" lat="51.663697419762244" lon="-0.39053934623862735">
    <tag k="addr:postcode" v="WD24 4RH"/>
    <tag k="removemelater" v="yes"/>
  </node>
  <node id="-505" lat="51.66368166084504" lon="-0.39201475445721407">
    <tag k="addr:postcode" v="WD24 4RJ"/>
    <tag k="removemelater" v="yes"/>
  </node>
  <node id="-506" lat="51.66382735593869" lon="-0.39280486127019293">
    <tag k="addr:postcode" v="WD24 4RL"/>
    <tag k="removemelater" v="yes"/>
  </node>
  <node id="-507" lat="51.66298957282896" lon="-0.3907234773674322">
    <tag k="addr:postcode" v="WD24 4RR"/>
    <tag k="removemelater" v="yes"/>
  </node>
  <node id="-508" lat="51.66298957282896" lon="-0.3907234773674322">
    <tag k="addr:postcode" v="WD24 4RS"/>
    <tag k="removemelater" v="yes"/>
  </node>
  <node id="-509" lat="51.66298957282896" lon="-0.3907234773674322">
    <tag k="addr:postcode" v="WD24 4RT"/>
    <tag k="removemelater" v="yes"/>
  </node>
  <node id="-510" lat="51.66342912946087" lon="-0.3926165227197946">
    <tag k="addr:postcode" v="WD24 4RU"/>
    <tag k="removemelater" v="yes"/>
  </node>
  <node id="-511" lat="51.66350922731287" lon="-0.3925558512242448">
    <tag k="addr:postcode" v="WD24 4RW"/>
    <tag k="removemelater" v="yes"/>
  </node>
  <node id="-512" lat="51.66460504855928" lon="-0.3878755358320833">
    <tag k="addr:postcode" v="WD24 4TP"/>
    <tag k="removemelater" v="yes"/>
  </node>
  <node id="-513" lat="51.64175035316991" lon="-0.4278952928425986">
    <tag k="addr:postcode" v="WD24 4WG"/>
    <tag k="removemelater" v="yes"/>
  </node>
  <node id="-514" lat="51.66728205098053" lon="-0.3889951911196702">
    <tag k="addr:postcode" v="WD24 4WH"/>
    <tag k="removemelater" v="yes"/>
  </node>
  <node id="-515" lat="51.66654935436424" lon="-0.38999001628318936">
    <tag k="addr:postcode" v="WD24 4WP"/>
    <tag k="removemelater" v="yes"/>
  </node>
  <node id="-516" lat="51.64175035316991" lon="-0.4278952928425986">
    <tag k="addr:postcode" v="WD24 4WT"/>
    <tag k="removemelater" v="yes"/>
  </node>
  <node id="-517" lat="51.66748660916021" lon="-0.3921114083676205">
    <tag k="addr:postcode" v="WD24 4XE"/>
    <tag k="removemelater" v="yes"/>
  </node>
  <node id="-518" lat="51.66807694031438" lon="-0.3925387900181133">
    <tag k="addr:postcode" v="WD24 4XX"/>
    <tag k="removemelater" v="yes"/>
  </node>
  <node id="-519" lat="51.670601524061766" lon="-0.39041035151701364">
    <tag k="addr:postcode" v="WD24 4YF"/>
    <tag k="removemelater" v="yes"/>
  </node>
  <node id="-520" lat="51.669008010115256" lon="-0.3928962808848046">
    <tag k="addr:postcode" v="WD24 4YH"/>
    <tag k="removemelater" v="yes"/>
  </node>
  <node id="-521" lat="51.67032013357712" lon="-0.3902178654191326">
    <tag k="addr:postcode" v="WD24 4YJ"/>
    <tag k="removemelater" v="yes"/>
  </node>
  <node id="-522" lat="51.66873976569752" lon="-0.3897243704917904">
    <tag k="addr:postcode" v="WD24 4YP"/>
    <tag k="removemelater" v="yes"/>
  </node>
  <node id="-523" lat="51.6661285234194" lon="-0.3881540421640883">
    <tag k="addr:postcode" v="WD24 4YT"/>
    <tag k="removemelater" v="yes"/>
  </node>
  <node id="-524" lat="51.66488168175095" lon="-0.38772112006563536">
    <tag k="addr:postcode" v="WD24 4YW"/>
    <tag k="removemelater" v="yes"/>
  </node>
  <node id="-525" lat="51.66801826627328" lon="-0.3921938101969729">
    <tag k="addr:postcode" v="WD24 4YX"/>
    <tag k="removemelater" v="yes"/>
  </node>
  <node id="-526" lat="51.666778913965786" lon="-0.39888941920694954">
    <tag k="addr:postcode" v="WD24 5BB"/>
    <tag k="removemelater" v="yes"/>
  </node>
  <node id="-527" lat="51.67147509434815" lon="-0.40170296594453664">
    <tag k="addr:postcode" v="WD24 5DG"/>
    <tag k="removemelater" v="yes"/>
  </node>
  <node id="-528" lat="51.6689221221498" lon="-0.3991175389769961">
    <tag k="addr:postcode" v="WD24 5EJ"/>
    <tag k="removemelater" v="yes"/>
  </node>
  <node id="-529" lat="51.684499886100056" lon="-0.41730151954343797">
    <tag k="addr:postcode" v="WD24 5GR"/>
    <tag k="removemelater" v="yes"/>
  </node>
  <node id="-530" lat="51.68466634052435" lon="-0.41764289818938743">
    <tag k="addr:postcode" v="WD24 5GS"/>
    <tag k="removemelater" v="yes"/>
  </node>
  <node id="-531" lat="51.64175035316991" lon="-0.4278952928425986">
    <tag k="addr:postcode" v="WD24 6SD"/>
    <tag k="removemelater" v="yes"/>
  </node>
  <node id="-532" lat="51.680495316080254" lon="-0.4024557770364162">
    <tag k="addr:postcode" v="WD24 6SH"/>
    <tag k="removemelater" v="yes"/>
  </node>
  <node id="-533" lat="51.68158784501001" lon="-0.4041097318998199">
    <tag k="addr:postcode" v="WD24 6ST"/>
    <tag k="removemelater" v="yes"/>
  </node>
  <node id="-534" lat="51.64175035316991" lon="-0.4278952928425986">
    <tag k="addr:postcode" v="WD24 6TN"/>
    <tag k="removemelater" v="yes"/>
  </node>
  <node id="-535" lat="51.672224426695934" lon="-0.3789567335516487">
    <tag k="addr:postcode" v="WD24 7AB"/>
    <tag k="removemelater" v="yes"/>
  </node>
  <node id="-536" lat="51.67495054430492" lon="-0.3934669436811058">
    <tag k="addr:postcode" v="WD24 7DN"/>
    <tag k="removemelater" v="yes"/>
  </node>
  <node id="-537" lat="51.67947913544715" lon="-0.3899364927264399">
    <tag k="addr:postcode" v="WD24 7RS"/>
    <tag k="removemelater" v="yes"/>
  </node>
  <node id="-538" lat="51.64175035316991" lon="-0.4278952928425986">
    <tag k="addr:postcode" v="WD24 7WB"/>
    <tag k="removemelater" v="yes"/>
  </node>
  <node id="-539" lat="51.64175035316991" lon="-0.4278952928425986">
    <tag k="addr:postcode" v="WD24 7WN"/>
    <tag k="removemelater" v="yes"/>
  </node>
  <node id="-540" lat="51.64175035316991" lon="-0.4278952928425986">
    <tag k="addr:postcode" v="WD24 7XT"/>
    <tag k="removemelater" v="yes"/>
  </node>
  <node id="-541" lat="51.64175035316991" lon="-0.4278952928425986">
    <tag k="addr:postcode" v="WD24 7YS"/>
    <tag k="removemelater" v="yes"/>
  </node>
  <node id="-542" lat="51.68337359383747" lon="-0.4031790124163251">
    <tag k="addr:postcode" v="WD25 0AW"/>
    <tag k="removemelater" v="yes"/>
  </node>
  <node id="-543" lat="51.64175035316991" lon="-0.4278952928425986">
    <tag k="addr:postcode" v="WD25 0FP"/>
    <tag k="removemelater" v="yes"/>
  </node>
  <node id="-544" lat="51.701971443299406" lon="-0.3934652193423966">
    <tag k="addr:postcode" v="WD25 0JX"/>
    <tag k="removemelater" v="yes"/>
  </node>
  <node id="-545" lat="51.69093745266122" lon="-0.3861878549690785">
    <tag k="addr:postcode" v="WD25 0LH"/>
    <tag k="removemelater" v="yes"/>
  </node>
  <node id="-546" lat="51.691030082851576" lon="-0.38900582750808393">
    <tag k="addr:postcode" v="WD25 0NE"/>
    <tag k="removemelater" v="yes"/>
  </node>
  <node id="-547" lat="51.70256341127179" lon="-0.3815629739403677">
    <tag k="addr:postcode" v="WD25 0PR"/>
    <tag k="removemelater" v="yes"/>
  </node>
  <node id="-548" lat="51.69271427876751" lon="-0.4083338947336623">
    <tag k="addr:postcode" v="WD25 7BP"/>
    <tag k="removemelater" v="yes"/>
  </node>
  <node id="-549" lat="51.69491869526894" lon="-0.41375487302611447">
    <tag k="addr:postcode" v="WD25 7DY"/>
    <tag k="removemelater" v="yes"/>
  </node>
  <node id="-550" lat="51.698237114635205" lon="-0.4011799144713914">
    <tag k="addr:postcode" v="WD25 7EN"/>
    <tag k="removemelater" v="yes"/>
  </node>
  <node id="-551" lat="51.69727896353847" lon="-0.3994917507212233">
    <tag k="addr:postcode" v="WD25 7ER"/>
    <tag k="removemelater" v="yes"/>
  </node>
  <node id="-552" lat="51.696745220808666" lon="-0.3999157358681672">
    <tag k="addr:postcode" v="WD25 7ES"/>
    <tag k="removemelater" v="yes"/>
  </node>
  <node id="-553" lat="51.69751718294222" lon="-0.40179855990783775">
    <tag k="addr:postcode" v="WD25 7EU"/>
    <tag k="removemelater" v="yes"/>
  </node>
  <node id="-554" lat="51.690570475731924" lon="-0.40739634106820827">
    <tag k="addr:postcode" v="WD25 7FB"/>
    <tag k="removemelater" v="yes"/>
  </node>
  <node id="-555" lat="51.69049033866822" lon="-0.4067915046545423">
    <tag k="addr:postcode" v="WD25 7FE"/>
    <tag k="removemelater" v="yes"/>
  </node>
  <node id="-556" lat="51.69291403648279" lon="-0.4144615729118349">
    <tag k="addr:postcode" v="WD25 7GR"/>
    <tag k="removemelater" v="yes"/>
  </node>
  <node id="-557" lat="51.694373766826246" lon="-0.41202316787197774">
    <tag k="addr:postcode" v="WD25 7GS"/>
    <tag k="removemelater" v="yes"/>
  </node>
  <node id="-558" lat="51.69494923080286" lon="-0.3928457246888781">
    <tag k="addr:postcode" v="WD25 7HH"/>
    <tag k="removemelater" v="yes"/>
  </node>
  <node id="-559" lat="51.696414123091834" lon="-0.38557342654646015">
    <tag k="addr:postcode" v="WD25 7HP"/>
    <tag k="removemelater" v="yes"/>
  </node>
  <node id="-560" lat="51.697047883375994" lon="-0.3898195105736019">
    <tag k="addr:postcode" v="WD25 7HR"/>
    <tag k="removemelater" v="yes"/>
  </node>
  <node id="-561" lat="51.692163877293765" lon="-0.3943188782219375">
    <tag k="addr:postcode" v="WD25 7JZ"/>
    <tag k="removemelater" v="yes"/>
  </node>
  <node id="-562" lat="51.64175035316991" lon="-0.4278952928425986">
    <tag k="addr:postcode" v="WD25 7LT"/>
    <tag k="removemelater" v="yes"/>
  </node>
  <node id="-563" lat="51.69518618071918" lon="-0.41292077005793537">
    <tag k="addr:postcode" v="WD25 7NL"/>
    <tag k="removemelater" v="yes"/>
  </node>
  <node id="-564" lat="51.69679692446387" lon="-0.40107150066092795">
    <tag k="addr:postcode" v="WD25 7NW"/>
    <tag k="removemelater" v="yes"/>
  </node>
  <node id="-565" lat="51.697145343874965" lon="-0.40156566971793406">
    <tag k="addr:postcode" v="WD25 7NY"/>
    <tag k="removemelater" v="yes"/>
  </node>
  <node id="-566" lat="51.685001028371225" lon="-0.34470750318922433">
    <tag k="addr:postcode" v="WD25 8BS"/>
    <tag k="removemelater" v="yes"/>
  </node>
  <node id="-567" lat="51.68275169158954" lon="-0.3567813973671616">
    <tag k="addr:postcode" v="WD25 8BZ"/>
    <tag k="removemelater" v="yes"/>
  </node>
  <node id="-568" lat="51.653588306894626" lon="-0.33492325135298934">
    <tag k="addr:postcode" v="WD25 8DB"/>
    <tag k="removemelater" v="yes"/>
  </node>
  <node id="-569" lat="51.663888980010064" lon="-0.35055228414189654">
    <tag k="addr:postcode" v="WD25 8DJ"/>
    <tag k="removemelater" v="yes"/>
  </node>
  <node id="-570" lat="51.66679945881084" lon="-0.36901367982977484">
    <tag k="addr:postcode" v="WD25 8FA"/>
    <tag k="removemelater" v="yes"/>
  </node>
  <node id="-571" lat="51.66640488376764" lon="-0.36521035179155037">
    <tag k="addr:postcode" v="WD25 8HG"/>
    <tag k="removemelater" v="yes"/>
  </node>
  <node id="-572" lat="51.66678188108923" lon="-0.36645483123118494">
    <tag k="addr:postcode" v="WD25 8HL"/>
    <tag k="removemelater" v="yes"/>
  </node>
  <node id="-573" lat="51.6664324499133" lon="-0.36525274023398946">
    <tag k="addr:postcode" v="WD25 8HP"/>
    <tag k="removemelater" v="yes"/>
  </node>
  <node id="-574" lat="51.66640488376764" lon="-0.36521035179155037">
    <tag k="addr:postcode" v="WD25 8HR"/>
    <tag k="removemelater" v="yes"/>
  </node>
  <node id="-575" lat="51.66640488376764" lon="-0.36521035179155037">
    <tag k="addr:postcode" v="WD25 8HU"/>
    <tag k="removemelater" v="yes"/>
  </node>
  <node id="-576" lat="51.657593990317565" lon="-0.34923389816899486">
    <tag k="addr:postcode" v="WD25 8JH"/>
    <tag k="removemelater" v="yes"/>
  </node>
  <node id="-577" lat="51.6664324499133" lon="-0.36525274023398946">
    <tag k="addr:postcode" v="WD25 8JJ"/>
    <tag k="removemelater" v="yes"/>
  </node>
  <node id="-578" lat="51.64175035316991" lon="-0.4278952928425986">
    <tag k="addr:postcode" v="WD25 8LN"/>
    <tag k="removemelater" v="yes"/>
  </node>
  <node id="-579" lat="51.64175035316991" lon="-0.4278952928425986">
    <tag k="addr:postcode" v="WD25 8ZZ"/>
    <tag k="removemelater" v="yes"/>
  </node>
  <node id="-580" lat="51.68130127199975" lon="-0.37989105678978446">
    <tag k="addr:postcode" v="WD25 9AD"/>
    <tag k="removemelater" v="yes"/>
  </node>
  <node id="-581" lat="51.70003455539351" lon="-0.3755464706054351">
    <tag k="addr:postcode" v="WD25 9BA"/>
    <tag k="removemelater" v="yes"/>
  </node>
  <node id="-582" lat="51.68148309656241" lon="-0.3832983073891891">
    <tag k="addr:postcode" v="WD25 9BP"/>
    <tag k="removemelater" v="yes"/>
  </node>
  <node id="-583" lat="51.68138761546859" lon="-0.38354761247442837">
    <tag k="addr:postcode" v="WD25 9BQ"/>
    <tag k="removemelater" v="yes"/>
  </node>
  <node id="-584" lat="51.68022566006856" lon="-0.38275004213537556">
    <tag k="addr:postcode" v="WD25 9DE"/>
    <tag k="removemelater" v="yes"/>
  </node>
  <node id="-585" lat="51.68022566006856" lon="-0.38275004213537556">
    <tag k="addr:postcode" v="WD25 9DF"/>
    <tag k="removemelater" v="yes"/>
  </node>
  <node id="-586" lat="51.681091057365585" lon="-0.3829072536568095">
    <tag k="addr:postcode" v="WD25 9DY"/>
    <tag k="removemelater" v="yes"/>
  </node>
  <node id="-587" lat="51.681091057365585" lon="-0.3829072536568095">
    <tag k="addr:postcode" v="WD25 9DZ"/>
    <tag k="removemelater" v="yes"/>
  </node>
  <node id="-588" lat="51.678216119801185" lon="-0.3804784694686533">
    <tag k="addr:postcode" v="WD25 9ET"/>
    <tag k="removemelater" v="yes"/>
  </node>
  <node id="-589" lat="51.68365083558296" lon="-0.3912061530314989">
    <tag k="addr:postcode" v="WD25 9FG"/>
    <tag k="removemelater" v="yes"/>
  </node>
  <node id="-590" lat="51.685420925293535" lon="-0.3917654582865401">
    <tag k="addr:postcode" v="WD25 9JU"/>
    <tag k="removemelater" v="yes"/>
  </node>
  <node id="-591" lat="51.68511910656232" lon="-0.3920510096646114">
    <tag k="addr:postcode" v="WD25 9JX"/>
    <tag k="removemelater" v="yes"/>
  </node>
  <node id="-592" lat="51.690798908543776" lon="-0.3852668324524298">
    <tag k="addr:postcode" v="WD25 9NN"/>
    <tag k="removemelater" v="yes"/>
  </node>
  <node id="-593" lat="51.69467298942478" lon="-0.3792834001825377">
    <tag k="addr:postcode" v="WD25 9NW"/>
    <tag k="removemelater" v="yes"/>
  </node>
  <node id="-594" lat="51.686102551868025" lon="-0.3903235919174163">
    <tag k="addr:postcode" v="WD25 9PG"/>
    <tag k="removemelater" v="yes"/>
  </node>
  <node id="-595" lat="51.700175674172336" lon="-0.37274851868913833">
    <tag k="addr:postcode" v="WD25 9PR"/>
    <tag k="removemelater" v="yes"/>
  </node>
  <node id="-596" lat="51.6811077322016" lon="-0.3802017269080888">
    <tag k="addr:postcode" v="WD25 9SH"/>
    <tag k="removemelater" v="yes"/>
  </node>
  <node id="-597" lat="51.682557197542415" lon="-0.38359275382834634">
    <tag k="addr:postcode" v="WD25 9TA"/>
    <tag k="removemelater" v="yes"/>
  </node>
  <node id="-598" lat="51.6809737158202" lon="-0.38026436846301176">
    <tag k="addr:postcode" v="WD25 9UJ"/>
    <tag k="removemelater" v="yes"/>
  </node>
  <node id="-599" lat="51.68100013593088" lon="-0.38675814039810597">
    <tag k="addr:postcode" v="WD25 9WY"/>
    <tag k="removemelater" v="yes"/>
  </node>
  <node id="-600" lat="51.699677424235155" lon="-0.3744305360331576">
    <tag k="addr:postcode" v="WD25 9XX"/>
    <tag k="removemelater" v="yes"/>
  </node>
  <node id="-601" lat="51.64175035316991" lon="-0.4278952928425986">
    <tag k="addr:postcode" v="WD25 9ZD"/>
    <tag k="removemelater" v="yes"/>
  </node>
  <node id="-602" lat="51.63908902179903" lon="-0.4701275854205818">
    <tag k="addr:postcode" v="WD3 1AJ"/>
    <tag k="removemelater" v="yes"/>
  </node>
  <node id="-603" lat="51.636533546728685" lon="-0.46930318758938644">
    <tag k="addr:postcode" v="WD3 1DX"/>
    <tag k="removemelater" v="yes"/>
  </node>
  <node id="-604" lat="51.639850935016725" lon="-0.4699429784476348">
    <tag k="addr:postcode" v="WD3 1EA"/>
    <tag k="removemelater" v="yes"/>
  </node>
  <node id="-605" lat="51.63508561109101" lon="-0.4679069221787962">
    <tag k="addr:postcode" v="WD3 1FS"/>
    <tag k="removemelater" v="yes"/>
  </node>
  <node id="-606" lat="51.640699503372815" lon="-0.47227007369696405">
    <tag k="addr:postcode" v="WD3 1FX"/>
    <tag k="removemelater" v="yes"/>
  </node>
  <node id="-607" lat="51.64026476127506" lon="-0.4699579542163295">
    <tag k="addr:postcode" v="WD3 1GY"/>
    <tag k="removemelater" v="yes"/>
  </node>
  <node id="-608" lat="51.63558957152893" lon="-0.4665605180429759">
    <tag k="addr:postcode" v="WD3 1JB"/>
    <tag k="removemelater" v="yes"/>
  </node>
  <node id="-609" lat="51.63415827509064" lon="-0.46712897891026156">
    <tag k="addr:postcode" v="WD3 1JQ"/>
    <tag k="removemelater" v="yes"/>
  </node>
  <node id="-610" lat="51.634420684634215" lon="-0.4679437760202513">
    <tag k="addr:postcode" v="WD3 1LD"/>
    <tag k="removemelater" v="yes"/>
  </node>
  <node id="-611" lat="51.63972796855065" lon="-0.4708575653969607">
    <tag k="addr:postcode" v="WD3 1QA"/>
    <tag k="removemelater" v="yes"/>
  </node>
  <node id="-612" lat="51.63981115602794" lon="-0.47172186264223687">
    <tag k="addr:postcode" v="WD3 1QF"/>
    <tag k="removemelater" v="yes"/>
  </node>
  <node id="-613" lat="51.6400047566353" lon="-0.4713974181863441">
    <tag k="addr:postcode" v="WD3 1QG"/>
    <tag k="removemelater" v="yes"/>
  </node>
  <node id="-614" lat="51.64005996183725" lon="-0.4708030436157663">
    <tag k="addr:postcode" v="WD3 1QQ"/>
    <tag k="removemelater" v="yes"/>
  </node>
  <node id="-615" lat="51.639527829910584" lon="-0.46860986301757596">
    <tag k="addr:postcode" v="WD3 1RL"/>
    <tag k="removemelater" v="yes"/>
  </node>
  <node id="-616" lat="51.63433947101261" lon="-0.46861120556538277">
    <tag k="addr:postcode" v="WD3 1RT"/>
    <tag k="removemelater" v="yes"/>
  </node>
  <node id="-617" lat="51.639527829910584" lon="-0.46860986301757596">
    <tag k="addr:postcode" v="WD3 1ZR"/>
    <tag k="removemelater" v="yes"/>
  </node>
  <node id="-618" lat="51.643663798683036" lon="-0.4589605694880092">
    <tag k="addr:postcode" v="WD3 3AB"/>
    <tag k="removemelater" v="yes"/>
  </node>
  <node id="-619" lat="51.64711414869854" lon="-0.44173011498144354">
    <tag k="addr:postcode" v="WD3 3DG"/>
    <tag k="removemelater" v="yes"/>
  </node>
  <node id="-620" lat="51.647004568356785" lon="-0.4416037866798661">
    <tag k="addr:postcode" v="WD3 3DY"/>
    <tag k="removemelater" v="yes"/>
  </node>
  <node id="-621" lat="51.652191478525765" lon="-0.4327091957217865">
    <tag k="addr:postcode" v="WD3 3LS"/>
    <tag k="removemelater" v="yes"/>
  </node>
  <node id="-622" lat="51.64753983923239" lon="-0.4419612393787734">
    <tag k="addr:postcode" v="WD3 3QZ"/>
    <tag k="removemelater" v="yes"/>
  </node>
  <node id="-623" lat="51.65192301300197" lon="-0.4348289581274077">
    <tag k="addr:postcode" v="WD3 3RE"/>
    <tag k="removemelater" v="yes"/>
  </node>
  <node id="-624" lat="51.652369457795395" lon="-0.4292047906485178">
    <tag k="addr:postcode" v="WD3 3RT"/>
    <tag k="removemelater" v="yes"/>
  </node>
  <node id="-625" lat="51.64076273912536" lon="-0.49106983768048096">
    <tag k="addr:postcode" v="WD3 4FW"/>
    <tag k="removemelater" v="yes"/>
  </node>
  <node id="-626" lat="51.690345637141185" lon="-0.49188123450308363">
    <tag k="addr:postcode" v="WD3 4NL"/>
    <tag k="removemelater" v="yes"/>
  </node>
  <node id="-627" lat="51.6772854419754" lon="-0.4365581915007096">
    <tag k="addr:postcode" v="WD3 4TG"/>
    <tag k="removemelater" v="yes"/>
  </node>
  <node id="-628" lat="51.654713950755784" lon="-0.5204154315138174">
    <tag k="addr:postcode" v="WD3 5EA"/>
    <tag k="removemelater" v="yes"/>
  </node>
  <node id="-629" lat="51.6612026691045" lon="-0.5094760257816358">
    <tag k="addr:postcode" v="WD3 5FL"/>
    <tag k="removemelater" v="yes"/>
  </node>
  <node id="-630" lat="51.65328476883793" lon="-0.5190308423210884">
    <tag k="addr:postcode" v="WD3 5LD"/>
    <tag k="removemelater" v="yes"/>
  </node>
  <node id="-631" lat="51.654280695405475" lon="-0.5202849778332452">
    <tag k="addr:postcode" v="WD3 5LH"/>
    <tag k="removemelater" v="yes"/>
  </node>
  <node id="-632" lat="51.654770538540134" lon="-0.5170597329739998">
    <tag k="addr:postcode" v="WD3 5LN"/>
    <tag k="removemelater" v="yes"/>
  </node>
  <node id="-633" lat="51.65406413239802" lon="-0.5195114033864981">
    <tag k="addr:postcode" v="WD3 5LQ"/>
    <tag k="removemelater" v="yes"/>
  </node>
  <node id="-634" lat="51.654265089173236" lon="-0.5183339106777823">
    <tag k="addr:postcode" v="WD3 5ND"/>
    <tag k="removemelater" v="yes"/>
  </node>
  <node id="-635" lat="51.65511128894128" lon="-0.5219782386870624">
    <tag k="addr:postcode" v="WD3 5NJ"/>
    <tag k="removemelater" v="yes"/>
  </node>
  <node id="-636" lat="51.655174388411886" lon="-0.5219906425786324">
    <tag k="addr:postcode" v="WD3 5NL"/>
    <tag k="removemelater" v="yes"/>
  </node>
  <node id="-637" lat="51.65488531014563" lon="-0.5218843951416261">
    <tag k="addr:postcode" v="WD3 5NN"/>
    <tag k="removemelater" v="yes"/>
  </node>
  <node id="-638" lat="51.654779451782794" lon="-0.5220468576988517">
    <tag k="addr:postcode" v="WD3 5NW"/>
    <tag k="removemelater" v="yes"/>
  </node>
  <node id="-639" lat="51.65459012336123" lon="-0.5184389618301376">
    <tag k="addr:postcode" v="WD3 5PF"/>
    <tag k="removemelater" v="yes"/>
  </node>
  <node id="-640" lat="51.65539236432954" lon="-0.52144866288832">
    <tag k="addr:postcode" v="WD3 5RA"/>
    <tag k="removemelater" v="yes"/>
  </node>
  <node id="-641" lat="51.626924781622414" lon="-0.505889722004687">
    <tag k="addr:postcode" v="WD3 9AB"/>
    <tag k="removemelater" v="yes"/>
  </node>
  <node id="-642" lat="51.624128921184074" lon="-0.5094776203589538">
    <tag k="addr:postcode" v="WD3 9AG"/>
    <tag k="removemelater" v="yes"/>
  </node>
  <node id="-643" lat="51.62529060232604" lon="-0.5074892209080671">
    <tag k="addr:postcode" v="WD3 9AR"/>
    <tag k="removemelater" v="yes"/>
  </node>
  <node id="-644" lat="51.624377076883434" lon="-0.5113186566886443">
    <tag k="addr:postcode" v="WD3 9GA"/>
    <tag k="removemelater" v="yes"/>
  </node>
  <node id="-645" lat="51.62403252842105" lon="-0.5132224252892664">
    <tag k="addr:postcode" v="WD3 9RE"/>
    <tag k="removemelater" v="yes"/>
  </node>
  <node id="-646" lat="51.624358664987696" lon="-0.5134140182076115">
    <tag k="addr:postcode" v="WD3 9RF"/>
    <tag k="removemelater" v="yes"/>
  </node>
  <node id="-647" lat="51.62520072426962" lon="-0.5089079649292204">
    <tag k="addr:postcode" v="WD3 9RN"/>
    <tag k="removemelater" v="yes"/>
  </node>
  <node id="-648" lat="51.62447358997268" lon="-0.509711919672763">
    <tag k="addr:postcode" v="WD3 9RP"/>
    <tag k="removemelater" v="yes"/>
  </node>
  <node id="-649" lat="51.62467940275235" lon="-0.5096329431852876">
    <tag k="addr:postcode" v="WD3 9RQ"/>
    <tag k="removemelater" v="yes"/>
  </node>
  <node id="-650" lat="51.6235896194047" lon="-0.510203163552396">
    <tag k="addr:postcode" v="WD3 9SD"/>
    <tag k="removemelater" v="yes"/>
  </node>
  <node id="-651" lat="51.62393720400193" lon="-0.5057133692417091">
    <tag k="addr:postcode" v="WD3 9SE"/>
    <tag k="removemelater" v="yes"/>
  </node>
  <node id="-652" lat="51.62297769831769" lon="-0.508749693475917">
    <tag k="addr:postcode" v="WD3 9SL"/>
    <tag k="removemelater" v="yes"/>
  </node>
  <node id="-653" lat="51.62351037604404" lon="-0.5067964202347714">
    <tag k="addr:postcode" v="WD3 9SN"/>
    <tag k="removemelater" v="yes"/>
  </node>
  <node id="-654" lat="51.62154195103657" lon="-0.5104002326332264">
    <tag k="addr:postcode" v="WD3 9SP"/>
    <tag k="removemelater" v="yes"/>
  </node>
  <node id="-655" lat="51.61913198279642" lon="-0.5012054716909626">
    <tag k="addr:postcode" v="WD3 9SQ"/>
    <tag k="removemelater" v="yes"/>
  </node>
  <node id="-656" lat="51.61908611556492" lon="-0.5117373492748755">
    <tag k="addr:postcode" v="WD3 9SR"/>
    <tag k="removemelater" v="yes"/>
  </node>
  <node id="-657" lat="51.61955470476157" lon="-0.5139465643107112">
    <tag k="addr:postcode" v="WD3 9ST"/>
    <tag k="removemelater" v="yes"/>
  </node>
  <node id="-658" lat="51.61988416299867" lon="-0.5136902348458015">
    <tag k="addr:postcode" v="WD3 9SU"/>
    <tag k="removemelater" v="yes"/>
  </node>
  <node id="-659" lat="51.62529060232604" lon="-0.5074892209080671">
    <tag k="addr:postcode" v="WD3 9SW"/>
    <tag k="removemelater" v="yes"/>
  </node>
  <node id="-660" lat="51.62441049111365" lon="-0.5075758848543256">
    <tag k="addr:postcode" v="WD3 9SY"/>
    <tag k="removemelater" v="yes"/>
  </node>
  <node id="-661" lat="51.62358336568361" lon="-0.5111279360256424">
    <tag k="addr:postcode" v="WD3 9TA"/>
    <tag k="removemelater" v="yes"/>
  </node>
  <node id="-662" lat="51.62354353053012" lon="-0.5122416092001202">
    <tag k="addr:postcode" v="WD3 9TB"/>
    <tag k="removemelater" v="yes"/>
  </node>
  <node id="-663" lat="51.623261300340076" lon="-0.5148078281239024">
    <tag k="addr:postcode" v="WD3 9TD"/>
    <tag k="removemelater" v="yes"/>
  </node>
  <node id="-664" lat="51.622353423039016" lon="-0.5119916111626835">
    <tag k="addr:postcode" v="WD3 9TE"/>
    <tag k="removemelater" v="yes"/>
  </node>
  <node id="-665" lat="51.62176916387704" lon="-0.5127185653628179">
    <tag k="addr:postcode" v="WD3 9TF"/>
    <tag k="removemelater" v="yes"/>
  </node>
  <node id="-666" lat="51.62052564969995" lon="-0.5132214704132047">
    <tag k="addr:postcode" v="WD3 9TG"/>
    <tag k="removemelater" v="yes"/>
  </node>
  <node id="-667" lat="51.62090793413624" lon="-0.5164303266563345">
    <tag k="addr:postcode" v="WD3 9TH"/>
    <tag k="removemelater" v="yes"/>
  </node>
  <node id="-668" lat="51.6212409107258" lon="-0.5157405241373503">
    <tag k="addr:postcode" v="WD3 9TJ"/>
    <tag k="removemelater" v="yes"/>
  </node>
  <node id="-669" lat="51.620958988788935" lon="-0.5154897024338267">
    <tag k="addr:postcode" v="WD3 9TL"/>
    <tag k="removemelater" v="yes"/>
  </node>
  <node id="-670" lat="51.6211725551698" lon="-0.5146015521084446">
    <tag k="addr:postcode" v="WD3 9TN"/>
    <tag k="removemelater" v="yes"/>
  </node>
  <node id="-671" lat="51.621258085695914" lon="-0.5135442287871833">
    <tag k="addr:postcode" v="WD3 9TP"/>
    <tag k="removemelater" v="yes"/>
  </node>
  <node id="-672" lat="51.620362799172405" lon="-0.5159858524478803">
    <tag k="addr:postcode" v="WD3 9TQ"/>
    <tag k="removemelater" v="yes"/>
  </node>
  <node id="-673" lat="51.62181579410737" lon="-0.5156928762810346">
    <tag k="addr:postcode" v="WD3 9TR"/>
    <tag k="removemelater" v="yes"/>
  </node>
  <node id="-674" lat="51.62087940631907" lon="-0.5177313520491058">
    <tag k="addr:postcode" v="WD3 9TS"/>
    <tag k="removemelater" v="yes"/>
  </node>
  <node id="-675" lat="51.6202792568577" lon="-0.5193398893499214">
    <tag k="addr:postcode" v="WD3 9TT"/>
    <tag k="removemelater" v="yes"/>
  </node>
  <node id="-676" lat="51.62043272711729" lon="-0.5179625856811553">
    <tag k="addr:postcode" v="WD3 9TU"/>
    <tag k="removemelater" v="yes"/>
  </node>
  <node id="-677" lat="51.62140260313296" lon="-0.5171509242826147">
    <tag k="addr:postcode" v="WD3 9TX"/>
    <tag k="removemelater" v="yes"/>
  </node>
  <node id="-678" lat="51.61995476851101" lon="-0.5192782238184362">
    <tag k="addr:postcode" v="WD3 9TY"/>
    <tag k="removemelater" v="yes"/>
  </node>
  <node id="-679" lat="51.62007154858732" lon="-0.5199822398359496">
    <tag k="addr:postcode" v="WD3 9TZ"/>
    <tag k="removemelater" v="yes"/>
  </node>
  <node id="-680" lat="51.620902425827275" lon="-0.5188429060495356">
    <tag k="addr:postcode" v="WD3 9UA"/>
    <tag k="removemelater" v="yes"/>
  </node>
  <node id="-681" lat="51.62114856980227" lon="-0.519109358371431">
    <tag k="addr:postcode" v="WD3 9UB"/>
    <tag k="removemelater" v="yes"/>
  </node>
  <node id="-682" lat="51.62169272486669" lon="-0.5180515505373681">
    <tag k="addr:postcode" v="WD3 9UD"/>
    <tag k="removemelater" v="yes"/>
  </node>
  <node id="-683" lat="51.6221297483024" lon="-0.519192985849797">
    <tag k="addr:postcode" v="WD3 9UE"/>
    <tag k="removemelater" v="yes"/>
  </node>
  <node id="-684" lat="51.62171719838752" lon="-0.5192786433193224">
    <tag k="addr:postcode" v="WD3 9UF"/>
    <tag k="removemelater" v="yes"/>
  </node>
  <node id="-685" lat="51.61884884648719" lon="-0.5192853266625627">
    <tag k="addr:postcode" v="WD3 9UH"/>
    <tag k="removemelater" v="yes"/>
  </node>
  <node id="-686" lat="51.61937466278598" lon="-0.5181992822462562">
    <tag k="addr:postcode" v="WD3 9UJ"/>
    <tag k="removemelater" v="yes"/>
  </node>
  <node id="-687" lat="51.61843417404119" lon="-0.5184899175514956">
    <tag k="addr:postcode" v="WD3 9UL"/>
    <tag k="removemelater" v="yes"/>
  </node>
  <node id="-688" lat="51.62112845471388" lon="-0.5203667782809586">
    <tag k="addr:postcode" v="WD3 9UQ"/>
    <tag k="removemelater" v="yes"/>
  </node>
  <node id="-689" lat="51.62623125020231" lon="-0.5079206665061663">
    <tag k="addr:postcode" v="WD3 9XG"/>
    <tag k="removemelater" v="yes"/>
  </node>
  <node id="-690" lat="51.619455214467536" lon="-0.5103529950098286">
    <tag k="addr:postcode" v="WD3 9XH"/>
    <tag k="removemelater" v="yes"/>
  </node>
  <node id="-691" lat="51.615828160403495" lon="-0.5115117008989056">
    <tag k="addr:postcode" v="WD3 9XL"/>
    <tag k="removemelater" v="yes"/>
  </node>
  <node id="-692" lat="51.6009505909688" lon="-0.5047641378731781">
    <tag k="addr:postcode" v="WD3 9YD"/>
    <tag k="removemelater" v="yes"/>
  </node>
  <node id="-693" lat="51.626506378099556" lon="-0.5062213067082612">
    <tag k="addr:postcode" v="WD3 9YS"/>
    <tag k="removemelater" v="yes"/>
  </node>
  <node id="-694" lat="51.622438929782234" lon="-0.5109342559202008">
    <tag k="addr:postcode" v="WD3 9YZ"/>
    <tag k="removemelater" v="yes"/>
  </node>
  <node id="-695" lat="51.64175035316991" lon="-0.4278952928425986">
    <tag k="addr:postcode" v="WD4 4AG"/>
    <tag k="removemelater" v="yes"/>
  </node>
  <node id="-696" lat="51.64175035316991" lon="-0.4278952928425986">
    <tag k="addr:postcode" v="WD4 4BR"/>
    <tag k="removemelater" v="yes"/>
  </node>
  <node id="-697" lat="51.64175035316991" lon="-0.4278952928425986">
    <tag k="addr:postcode" v="WD4 4BW"/>
    <tag k="removemelater" v="yes"/>
  </node>
  <node id="-698" lat="51.64175035316991" lon="-0.4278952928425986">
    <tag k="addr:postcode" v="WD4 4BX"/>
    <tag k="removemelater" v="yes"/>
  </node>
  <node id="-699" lat="51.64175035316991" lon="-0.4278952928425986">
    <tag k="addr:postcode" v="WD4 4DB"/>
    <tag k="removemelater" v="yes"/>
  </node>
  <node id="-700" lat="51.64175035316991" lon="-0.4278952928425986">
    <tag k="addr:postcode" v="WD4 4DD"/>
    <tag k="removemelater" v="yes"/>
  </node>
  <node id="-701" lat="51.64175035316991" lon="-0.4278952928425986">
    <tag k="addr:postcode" v="WD4 4DR"/>
    <tag k="removemelater" v="yes"/>
  </node>
  <node id="-702" lat="51.72255287613612" lon="-0.4564392078956947">
    <tag k="addr:postcode" v="WD4 8AH"/>
    <tag k="removemelater" v="yes"/>
  </node>
  <node id="-703" lat="51.72594284311813" lon="-0.4530225255149424">
    <tag k="addr:postcode" v="WD4 8AL"/>
    <tag k="removemelater" v="yes"/>
  </node>
  <node id="-704" lat="51.64175035316991" lon="-0.4278952928425986">
    <tag k="addr:postcode" v="WD4 8AQ"/>
    <tag k="removemelater" v="yes"/>
  </node>
  <node id="-705" lat="51.71602438351338" lon="-0.45094350326501653">
    <tag k="addr:postcode" v="WD4 8BR"/>
    <tag k="removemelater" v="yes"/>
  </node>
  <node id="-706" lat="51.70962472697811" lon="-0.4477318140024573">
    <tag k="addr:postcode" v="WD4 8DP"/>
    <tag k="removemelater" v="yes"/>
  </node>
  <node id="-707" lat="51.71737453830465" lon="-0.45651418993127973">
    <tag k="addr:postcode" v="WD4 8DQ"/>
    <tag k="removemelater" v="yes"/>
  </node>
  <node id="-708" lat="51.70770018409464" lon="-0.4463503619336962">
    <tag k="addr:postcode" v="WD4 8DY"/>
    <tag k="removemelater" v="yes"/>
  </node>
  <node id="-709" lat="51.708730529533156" lon="-0.4481097879047913">
    <tag k="addr:postcode" v="WD4 8EA"/>
    <tag k="removemelater" v="yes"/>
  </node>
  <node id="-710" lat="51.713687177687724" lon="-0.4435107398124143">
    <tag k="addr:postcode" v="WD4 8ER"/>
    <tag k="removemelater" v="yes"/>
  </node>
  <node id="-711" lat="51.71329405117925" lon="-0.44846022636848154">
    <tag k="addr:postcode" v="WD4 8ET"/>
    <tag k="removemelater" v="yes"/>
  </node>
  <node id="-712" lat="51.709761459275256" lon="-0.44719159866382013">
    <tag k="addr:postcode" v="WD4 8EW"/>
    <tag k="removemelater" v="yes"/>
  </node>
  <node id="-713" lat="51.69352618954775" lon="-0.43530414991041044">
    <tag k="addr:postcode" v="WD4 8FJ"/>
    <tag k="removemelater" v="yes"/>
  </node>
  <node id="-714" lat="51.69417799584301" lon="-0.43630896855655965">
    <tag k="addr:postcode" v="WD4 8FL"/>
    <tag k="removemelater" v="yes"/>
  </node>
  <node id="-715" lat="51.6943706583993" lon="-0.4352460900689899">
    <tag k="addr:postcode" v="WD4 8FN"/>
    <tag k="removemelater" v="yes"/>
  </node>
  <node id="-716" lat="51.71169298621054" lon="-0.44230543364479447">
    <tag k="addr:postcode" v="WD4 8GU"/>
    <tag k="removemelater" v="yes"/>
  </node>
  <node id="-717" lat="51.71242550841873" lon="-0.4405867201219557">
    <tag k="addr:postcode" v="WD4 8GW"/>
    <tag k="removemelater" v="yes"/>
  </node>
  <node id="-718" lat="51.71165034867635" lon="-0.44248059269340484">
    <tag k="addr:postcode" v="WD4 8GX"/>
    <tag k="removemelater" v="yes"/>
  </node>
  <node id="-719" lat="51.71173562348055" lon="-0.44213027427145146">
    <tag k="addr:postcode" v="WD4 8GY"/>
    <tag k="removemelater" v="yes"/>
  </node>
  <node id="-720" lat="51.711749762212115" lon="-0.4418402972955792">
    <tag k="addr:postcode" v="WD4 8GZ"/>
    <tag k="removemelater" v="yes"/>
  </node>
  <node id="-721" lat="51.71373280576019" lon="-0.44152607196695726">
    <tag k="addr:postcode" v="WD4 8HB"/>
    <tag k="removemelater" v="yes"/>
  </node>
  <node id="-722" lat="51.71379450045742" lon="-0.44550463456148065">
    <tag k="addr:postcode" v="WD4 8HH"/>
    <tag k="removemelater" v="yes"/>
  </node>
  <node id="-723" lat="51.71316494468234" lon="-0.4441366173908061">
    <tag k="addr:postcode" v="WD4 8HL"/>
    <tag k="removemelater" v="yes"/>
  </node>
  <node id="-724" lat="51.713939938819884" lon="-0.44222824006209">
    <tag k="addr:postcode" v="WD4 8HN"/>
    <tag k="removemelater" v="yes"/>
  </node>
  <node id="-725" lat="51.71335424522181" lon="-0.44349321860331675">
    <tag k="addr:postcode" v="WD4 8HP"/>
    <tag k="removemelater" v="yes"/>
  </node>
  <node id="-726" lat="51.71459396553289" lon="-0.44272688608963007">
    <tag k="addr:postcode" v="WD4 8HR"/>
    <tag k="removemelater" v="yes"/>
  </node>
  <node id="-727" lat="51.723268993934624" lon="-0.44936392575941075">
    <tag k="addr:postcode" v="WD4 8JE"/>
    <tag k="removemelater" v="yes"/>
  </node>
  <node id="-728" lat="51.70961228694249" lon="-0.440003190393416">
    <tag k="addr:postcode" v="WD4 8LB"/>
    <tag k="removemelater" v="yes"/>
  </node>
  <node id="-729" lat="51.71021508421206" lon="-0.44070615700816274">
    <tag k="addr:postcode" v="WD4 8LD"/>
    <tag k="removemelater" v="yes"/>
  </node>
  <node id="-730" lat="51.70735587615357" lon="-0.4386913840431285">
    <tag k="addr:postcode" v="WD4 8LE"/>
    <tag k="removemelater" v="yes"/>
  </node>
  <node id="-731" lat="51.71082875098382" lon="-0.4408732205732323">
    <tag k="addr:postcode" v="WD4 8LH"/>
    <tag k="removemelater" v="yes"/>
  </node>
  <node id="-732" lat="51.70597901189662" lon="-0.43860852884187945">
    <tag k="addr:postcode" v="WD4 8LL"/>
    <tag k="removemelater" v="yes"/>
  </node>
  <node id="-733" lat="51.70869145315249" lon="-0.43905066294831646">
    <tag k="addr:postcode" v="WD4 8LQ"/>
    <tag k="removemelater" v="yes"/>
  </node>
  <node id="-734" lat="51.7036657143648" lon="-0.4364015895873971">
    <tag k="addr:postcode" v="WD4 8LT"/>
    <tag k="removemelater" v="yes"/>
  </node>
  <node id="-735" lat="51.70043407912483" lon="-0.4341108037147117">
    <tag k="addr:postcode" v="WD4 8LU"/>
    <tag k="removemelater" v="yes"/>
  </node>
  <node id="-736" lat="51.700423813481514" lon="-0.43468999635841027">
    <tag k="addr:postcode" v="WD4 8LX"/>
    <tag k="removemelater" v="yes"/>
  </node>
  <node id="-737" lat="51.701631520874926" lon="-0.4355744868622447">
    <tag k="addr:postcode" v="WD4 8LY"/>
    <tag k="removemelater" v="yes"/>
  </node>
  <node id="-738" lat="51.6987654332073" lon="-0.434399928415959">
    <tag k="addr:postcode" v="WD4 8PG"/>
    <tag k="removemelater" v="yes"/>
  </node>
  <node id="-739" lat="51.69829105181426" lon="-0.4332152665256664">
    <tag k="addr:postcode" v="WD4 8PH"/>
    <tag k="removemelater" v="yes"/>
  </node>
  <node id="-740" lat="51.69757812257565" lon="-0.43302283732230146">
    <tag k="addr:postcode" v="WD4 8PJ"/>
    <tag k="removemelater" v="yes"/>
  </node>
  <node id="-741" lat="51.697666149225896" lon="-0.4335551897997627">
    <tag k="addr:postcode" v="WD4 8PL"/>
    <tag k="removemelater" v="yes"/>
  </node>
  <node id="-742" lat="51.693714091847056" lon="-0.42514055670414486">
    <tag k="addr:postcode" v="WD4 8PN"/>
    <tag k="removemelater" v="yes"/>
  </node>
  <node id="-743" lat="51.69595562323141" lon="-0.4307058717975225">
    <tag k="addr:postcode" v="WD4 8PP"/>
    <tag k="removemelater" v="yes"/>
  </node>
  <node id="-744" lat="51.69920865427718" lon="-0.43392157401608467">
    <tag k="addr:postcode" v="WD4 8PQ"/>
    <tag k="removemelater" v="yes"/>
  </node>
  <node id="-745" lat="51.69147361931997" lon="-0.4297323669359667">
    <tag k="addr:postcode" v="WD4 8PS"/>
    <tag k="removemelater" v="yes"/>
  </node>
  <node id="-746" lat="51.69430234610202" lon="-0.43147203556779656">
    <tag k="addr:postcode" v="WD4 8PX"/>
    <tag k="removemelater" v="yes"/>
  </node>
  <node id="-747" lat="51.69575977185013" lon="-0.43354866260431385">
    <tag k="addr:postcode" v="WD4 8PY"/>
    <tag k="removemelater" v="yes"/>
  </node>
  <node id="-748" lat="51.69567232404107" lon="-0.43305972077502525">
    <tag k="addr:postcode" v="WD4 8PZ"/>
    <tag k="removemelater" v="yes"/>
  </node>
  <node id="-749" lat="51.69575864742569" lon="-0.4321162238222473">
    <tag k="addr:postcode" v="WD4 8QA"/>
    <tag k="removemelater" v="yes"/>
  </node>
  <node id="-750" lat="51.69594410950101" lon="-0.4318638326364404">
    <tag k="addr:postcode" v="WD4 8QB"/>
    <tag k="removemelater" v="yes"/>
  </node>
  <node id="-751" lat="51.692144669649245" lon="-0.43284877039534275">
    <tag k="addr:postcode" v="WD4 8QL"/>
    <tag k="removemelater" v="yes"/>
  </node>
  <node id="-752" lat="51.694007772671974" lon="-0.43838388835578623">
    <tag k="addr:postcode" v="WD4 8QR"/>
    <tag k="removemelater" v="yes"/>
  </node>
  <node id="-753" lat="51.69266765526106" lon="-0.43430649311225494">
    <tag k="addr:postcode" v="WD4 8QY"/>
    <tag k="removemelater" v="yes"/>
  </node>
  <node id="-754" lat="51.69162981675908" lon="-0.4340240037659172">
    <tag k="addr:postcode" v="WD4 8QZ"/>
    <tag k="removemelater" v="yes"/>
  </node>
  <node id="-755" lat="51.6932535377051" lon="-0.4357620807785822">
    <tag k="addr:postcode" v="WD4 8RE"/>
    <tag k="removemelater" v="yes"/>
  </node>
  <node id="-756" lat="51.69306485338288" lon="-0.43442300494271735">
    <tag k="addr:postcode" v="WD4 8RH"/>
    <tag k="removemelater" v="yes"/>
  </node>
  <node id="-757" lat="51.69088026861829" lon="-0.44461144034311295">
    <tag k="addr:postcode" v="WD4 8RN"/>
    <tag k="removemelater" v="yes"/>
  </node>
  <node id="-758" lat="51.69362132646882" lon="-0.4343459293004709">
    <tag k="addr:postcode" v="WD4 8RQ"/>
    <tag k="removemelater" v="yes"/>
  </node>
  <node id="-759" lat="51.68430703153363" lon="-0.4425655707042665">
    <tag k="addr:postcode" v="WD4 8RR"/>
    <tag k="removemelater" v="yes"/>
  </node>
  <node id="-760" lat="51.7091858657304" lon="-0.4403941768025198">
    <tag k="addr:postcode" v="WD4 8RU"/>
    <tag k="removemelater" v="yes"/>
  </node>
  <node id="-761" lat="51.69016007810631" lon="-0.4438693387276183">
    <tag k="addr:postcode" v="WD4 8RW"/>
    <tag k="removemelater" v="yes"/>
  </node>
  <node id="-762" lat="51.70783876491501" lon="-0.4391668522083332">
    <tag k="addr:postcode" v="WD4 8SD"/>
    <tag k="removemelater" v="yes"/>
  </node>
  <node id="-763" lat="51.70829046122322" lon="-0.4393249874846037">
    <tag k="addr:postcode" v="WD4 8SE"/>
    <tag k="removemelater" v="yes"/>
  </node>
  <node id="-764" lat="51.712300673864924" lon="-0.44134369974185167">
    <tag k="addr:postcode" v="WD4 8SG"/>
    <tag k="removemelater" v="yes"/>
  </node>
  <node id="-765" lat="51.7107333721202" lon="-0.44181732541194274">
    <tag k="addr:postcode" v="WD4 8SL"/>
    <tag k="removemelater" v="yes"/>
  </node>
  <node id="-766" lat="51.7124481542022" lon="-0.44229396591509096">
    <tag k="addr:postcode" v="WD4 8SS"/>
    <tag k="removemelater" v="yes"/>
  </node>
  <node id="-767" lat="51.69355885608291" lon="-0.43708268133506595">
    <tag k="addr:postcode" v="WD4 8SZ"/>
    <tag k="removemelater" v="yes"/>
  </node>
  <node id="-768" lat="51.7131159373896" lon="-0.4424736745770652">
    <tag k="addr:postcode" v="WD4 8TD"/>
    <tag k="removemelater" v="yes"/>
  </node>
  <node id="-769" lat="51.64175035316991" lon="-0.4278952928425986">
    <tag k="addr:postcode" v="WD4 8TZ"/>
    <tag k="removemelater" v="yes"/>
  </node>
  <node id="-770" lat="51.64175035316991" lon="-0.4278952928425986">
    <tag k="addr:postcode" v="WD4 8XQ"/>
    <tag k="removemelater" v="yes"/>
  </node>
  <node id="-771" lat="51.64175035316991" lon="-0.4278952928425986">
    <tag k="addr:postcode" v="WD4 8ZT"/>
    <tag k="removemelater" v="yes"/>
  </node>
  <node id="-772" lat="51.712126125448755" lon="-0.4594719838101739">
    <tag k="addr:postcode" v="WD4 9HG"/>
    <tag k="removemelater" v="yes"/>
  </node>
  <node id="-773" lat="51.71277431664116" lon="-0.46021712916501833">
    <tag k="addr:postcode" v="WD4 9HH"/>
    <tag k="removemelater" v="yes"/>
  </node>
  <node id="-774" lat="51.71891999582124" lon="-0.46397504189395317">
    <tag k="addr:postcode" v="WD4 9LB"/>
    <tag k="removemelater" v="yes"/>
  </node>
  <node id="-775" lat="51.64175035316991" lon="-0.4278952928425986">
    <tag k="addr:postcode" v="WD4 9WB"/>
    <tag k="removemelater" v="yes"/>
  </node>
  <node id="-776" lat="51.705408439729226" lon="-0.41746929136286987">
    <tag k="addr:postcode" v="WD5 0AD"/>
    <tag k="removemelater" v="yes"/>
  </node>
  <node id="-777" lat="51.70513566508032" lon="-0.4179129837797039">
    <tag k="addr:postcode" v="WD5 0AH"/>
    <tag k="removemelater" v="yes"/>
  </node>
  <node id="-778" lat="51.705723567465874" lon="-0.41816745668362965">
    <tag k="addr:postcode" v="WD5 0AW"/>
    <tag k="removemelater" v="yes"/>
  </node>
  <node id="-779" lat="51.705781795849404" lon="-0.42585042271194085">
    <tag k="addr:postcode" v="WD5 0BJ"/>
    <tag k="removemelater" v="yes"/>
  </node>
  <node id="-780" lat="51.7061876013039" lon="-0.4259376474046684">
    <tag k="addr:postcode" v="WD5 0BL"/>
    <tag k="removemelater" v="yes"/>
  </node>
  <node id="-781" lat="51.703494403239574" lon="-0.4329921180985684">
    <tag k="addr:postcode" v="WD5 0BN"/>
    <tag k="removemelater" v="yes"/>
  </node>
  <node id="-782" lat="51.703827337138144" lon="-0.43300955991934487">
    <tag k="addr:postcode" v="WD5 0BP"/>
    <tag k="removemelater" v="yes"/>
  </node>
  <node id="-783" lat="51.70337874735605" lon="-0.43510901125942497">
    <tag k="addr:postcode" v="WD5 0BR"/>
    <tag k="removemelater" v="yes"/>
  </node>
  <node id="-784" lat="51.70259574288259" lon="-0.4249624500933791">
    <tag k="addr:postcode" v="WD5 0BX"/>
    <tag k="removemelater" v="yes"/>
  </node>
  <node id="-785" lat="51.70138538911793" lon="-0.4319506880440708">
    <tag k="addr:postcode" v="WD5 0DA"/>
    <tag k="removemelater" v="yes"/>
  </node>
  <node id="-786" lat="51.70172546490425" lon="-0.4325033157722204">
    <tag k="addr:postcode" v="WD5 0DB"/>
    <tag k="removemelater" v="yes"/>
  </node>
  <node id="-787" lat="51.7020889465007" lon="-0.4280769490110701">
    <tag k="addr:postcode" v="WD5 0DD"/>
    <tag k="removemelater" v="yes"/>
  </node>
  <node id="-788" lat="51.70045713754744" lon="-0.43179465255986155">
    <tag k="addr:postcode" v="WD5 0DE"/>
    <tag k="removemelater" v="yes"/>
  </node>
  <node id="-789" lat="51.70022703632531" lon="-0.4313974220617696">
    <tag k="addr:postcode" v="WD5 0DF"/>
    <tag k="removemelater" v="yes"/>
  </node>
  <node id="-790" lat="51.70299218588995" lon="-0.4297243739564806">
    <tag k="addr:postcode" v="WD5 0DG"/>
    <tag k="removemelater" v="yes"/>
  </node>
  <node id="-791" lat="51.703878789784945" lon="-0.4254244186482526">
    <tag k="addr:postcode" v="WD5 0DH"/>
    <tag k="removemelater" v="yes"/>
  </node>
  <node id="-792" lat="51.7026386737317" lon="-0.42548193979581056">
    <tag k="addr:postcode" v="WD5 0DJ"/>
    <tag k="removemelater" v="yes"/>
  </node>
  <node id="-793" lat="51.70110231186113" lon="-0.42759017679717665">
    <tag k="addr:postcode" v="WD5 0DN"/>
    <tag k="removemelater" v="yes"/>
  </node>
  <node id="-794" lat="51.70248916054525" lon="-0.4304364260186812">
    <tag k="addr:postcode" v="WD5 0DQ"/>
    <tag k="removemelater" v="yes"/>
  </node>
  <node id="-795" lat="51.706595861328324" lon="-0.41483719830668125">
    <tag k="addr:postcode" v="WD5 0DR"/>
    <tag k="removemelater" v="yes"/>
  </node>
  <node id="-796" lat="51.706227178241996" lon="-0.414169860945167">
    <tag k="addr:postcode" v="WD5 0DS"/>
    <tag k="removemelater" v="yes"/>
  </node>
  <node id="-797" lat="51.7065972405492" lon="-0.41360694849018936">
    <tag k="addr:postcode" v="WD5 0EE"/>
    <tag k="removemelater" v="yes"/>
  </node>
  <node id="-798" lat="51.701299557734664" lon="-0.4228512402696951">
    <tag k="addr:postcode" v="WD5 0EU"/>
    <tag k="removemelater" v="yes"/>
  </node>
  <node id="-799" lat="51.702349477975424" lon="-0.42135310390318004">
    <tag k="addr:postcode" v="WD5 0EY"/>
    <tag k="removemelater" v="yes"/>
  </node>
  <node id="-800" lat="51.6985216993013" lon="-0.4255814220833664">
    <tag k="addr:postcode" v="WD5 0FB"/>
    <tag k="removemelater" v="yes"/>
  </node>
  <node id="-801" lat="51.69790607308175" lon="-0.4252699732465122">
    <tag k="addr:postcode" v="WD5 0FE"/>
    <tag k="removemelater" v="yes"/>
  </node>
  <node id="-802" lat="51.70457861515145" lon="-0.40464682470794494">
    <tag k="addr:postcode" v="WD5 0GU"/>
    <tag k="removemelater" v="yes"/>
  </node>
  <node id="-803" lat="51.710475751995205" lon="-0.40917242659773617">
    <tag k="addr:postcode" v="WD5 0GX"/>
    <tag k="removemelater" v="yes"/>
  </node>
  <node id="-804" lat="51.7018934061329" lon="-0.4242198510571165">
    <tag k="addr:postcode" v="WD5 0HA"/>
    <tag k="removemelater" v="yes"/>
  </node>
  <node id="-805" lat="51.700783774443835" lon="-0.4246201749581393">
    <tag k="addr:postcode" v="WD5 0HB"/>
    <tag k="removemelater" v="yes"/>
  </node>
  <node id="-806" lat="51.69934098454079" lon="-0.4270000504238408">
    <tag k="addr:postcode" v="WD5 0HD"/>
    <tag k="removemelater" v="yes"/>
  </node>
  <node id="-807" lat="51.69848157715296" lon="-0.430647436041519">
    <tag k="addr:postcode" v="WD5 0HE"/>
    <tag k="removemelater" v="yes"/>
  </node>
  <node id="-808" lat="51.69918908750981" lon="-0.4317806058205333">
    <tag k="addr:postcode" v="WD5 0HF"/>
    <tag k="removemelater" v="yes"/>
  </node>
  <node id="-809" lat="51.699502222817294" lon="-0.4296425925617431">
    <tag k="addr:postcode" v="WD5 0HG"/>
    <tag k="removemelater" v="yes"/>
  </node>
  <node id="-810" lat="51.69944123127301" lon="-0.42844363977736727">
    <tag k="addr:postcode" v="WD5 0HH"/>
    <tag k="removemelater" v="yes"/>
  </node>
  <node id="-811" lat="51.70032189070241" lon="-0.42638719917149304">
    <tag k="addr:postcode" v="WD5 0HJ"/>
    <tag k="removemelater" v="yes"/>
  </node>
  <node id="-812" lat="51.700451159687" lon="-0.4252973914049485">
    <tag k="addr:postcode" v="WD5 0HL"/>
    <tag k="removemelater" v="yes"/>
  </node>
  <node id="-813" lat="51.70085941264719" lon="-0.42623831246159394">
    <tag k="addr:postcode" v="WD5 0HN"/>
    <tag k="removemelater" v="yes"/>
  </node>
  <node id="-814" lat="51.69919296480782" lon="-0.4293783571202109">
    <tag k="addr:postcode" v="WD5 0HQ"/>
    <tag k="removemelater" v="yes"/>
  </node>
  <node id="-815" lat="51.700258062057586" lon="-0.4290086489398859">
    <tag k="addr:postcode" v="WD5 0HU"/>
    <tag k="removemelater" v="yes"/>
  </node>
  <node id="-816" lat="51.701349227020344" lon="-0.42454265185432366">
    <tag k="addr:postcode" v="WD5 0HY"/>
    <tag k="removemelater" v="yes"/>
  </node>
  <node id="-817" lat="51.69854572045439" lon="-0.4273749143389894">
    <tag k="addr:postcode" v="WD5 0JA"/>
    <tag k="removemelater" v="yes"/>
  </node>
  <node id="-818" lat="51.697953411441915" lon="-0.4281334258877019">
    <tag k="addr:postcode" v="WD5 0JB"/>
    <tag k="removemelater" v="yes"/>
  </node>
  <node id="-819" lat="51.69739685499533" lon="-0.42887620925026854">
    <tag k="addr:postcode" v="WD5 0JD"/>
    <tag k="removemelater" v="yes"/>
  </node>
  <node id="-820" lat="51.697128772351256" lon="-0.430346954389985">
    <tag k="addr:postcode" v="WD5 0JE"/>
    <tag k="removemelater" v="yes"/>
  </node>
  <node id="-821" lat="51.69545288855373" lon="-0.4294210166134713">
    <tag k="addr:postcode" v="WD5 0JF"/>
    <tag k="removemelater" v="yes"/>
  </node>
  <node id="-822" lat="51.69637563025502" lon="-0.4231237029112524">
    <tag k="addr:postcode" v="WD5 0JG"/>
    <tag k="removemelater" v="yes"/>
  </node>
  <node id="-823" lat="51.69775946304923" lon="-0.43044089406666514">
    <tag k="addr:postcode" v="WD5 0JH"/>
    <tag k="removemelater" v="yes"/>
  </node>
  <node id="-824" lat="51.69645496858155" lon="-0.42837344801460175">
    <tag k="addr:postcode" v="WD5 0JJ"/>
    <tag k="removemelater" v="yes"/>
  </node>
  <node id="-825" lat="51.69515717456533" lon="-0.4254666683930601">
    <tag k="addr:postcode" v="WD5 0JL"/>
    <tag k="removemelater" v="yes"/>
  </node>
  <node id="-826" lat="51.69611057969061" lon="-0.4261570607116322">
    <tag k="addr:postcode" v="WD5 0JP"/>
    <tag k="removemelater" v="yes"/>
  </node>
  <node id="-827" lat="51.69608945013725" lon="-0.42458060856636776">
    <tag k="addr:postcode" v="WD5 0JQ"/>
    <tag k="removemelater" v="yes"/>
  </node>
  <node id="-828" lat="51.696289596482956" lon="-0.4274386495189291">
    <tag k="addr:postcode" v="WD5 0JR"/>
    <tag k="removemelater" v="yes"/>
  </node>
  <node id="-829" lat="51.696609362760164" lon="-0.426472562261961">
    <tag k="addr:postcode" v="WD5 0JS"/>
    <tag k="removemelater" v="yes"/>
  </node>
  <node id="-830" lat="51.69777575751619" lon="-0.4269530311632946">
    <tag k="addr:postcode" v="WD5 0JT"/>
    <tag k="removemelater" v="yes"/>
  </node>
  <node id="-831" lat="51.69811833885767" lon="-0.4263478728112723">
    <tag k="addr:postcode" v="WD5 0JU"/>
    <tag k="removemelater" v="yes"/>
  </node>
  <node id="-832" lat="51.69743774018258" lon="-0.42521387935621724">
    <tag k="addr:postcode" v="WD5 0JX"/>
    <tag k="removemelater" v="yes"/>
  </node>
  <node id="-833" lat="51.69709032136973" lon="-0.42344613996572533">
    <tag k="addr:postcode" v="WD5 0JY"/>
    <tag k="removemelater" v="yes"/>
  </node>
  <node id="-834" lat="51.69697212133917" lon="-0.4253602704871679">
    <tag k="addr:postcode" v="WD5 0JZ"/>
    <tag k="removemelater" v="yes"/>
  </node>
  <node id="-835" lat="51.698017291078685" lon="-0.4248464768038832">
    <tag k="addr:postcode" v="WD5 0LA"/>
    <tag k="removemelater" v="yes"/>
  </node>
  <node id="-836" lat="51.69855959477593" lon="-0.4237134281981954">
    <tag k="addr:postcode" v="WD5 0LB"/>
    <tag k="removemelater" v="yes"/>
  </node>
  <node id="-837" lat="51.69788854128835" lon="-0.42262254167303803">
    <tag k="addr:postcode" v="WD5 0LD"/>
    <tag k="removemelater" v="yes"/>
  </node>
  <node id="-838" lat="51.698739321434545" lon="-0.42169579241131">
    <tag k="addr:postcode" v="WD5 0LE"/>
    <tag k="removemelater" v="yes"/>
  </node>
  <node id="-839" lat="51.70145117225345" lon="-0.4267821624494961">
    <tag k="addr:postcode" v="WD5 0LQ"/>
    <tag k="removemelater" v="yes"/>
  </node>
  <node id="-840" lat="51.70202542032138" lon="-0.4060101189883273">
    <tag k="addr:postcode" v="WD5 0NX"/>
    <tag k="removemelater" v="yes"/>
  </node>
  <node id="-841" lat="51.695112198185086" lon="-0.42747945840368196">
    <tag k="addr:postcode" v="WD5 0PB"/>
    <tag k="removemelater" v="yes"/>
  </node>
  <node id="-842" lat="51.69545663723163" lon="-0.4276845611006934">
    <tag k="addr:postcode" v="WD5 0PD"/>
    <tag k="removemelater" v="yes"/>
  </node>
  <node id="-843" lat="51.69566913353398" lon="-0.4267656215857326">
    <tag k="addr:postcode" v="WD5 0PE"/>
    <tag k="removemelater" v="yes"/>
  </node>
  <node id="-844" lat="51.69581150213533" lon="-0.42732499524409717">
    <tag k="addr:postcode" v="WD5 0PF"/>
    <tag k="removemelater" v="yes"/>
  </node>
  <node id="-845" lat="51.700855003558374" lon="-0.41720848971513846">
    <tag k="addr:postcode" v="WD5 0PJ"/>
    <tag k="removemelater" v="yes"/>
  </node>
  <node id="-846" lat="51.700956344248596" lon="-0.4187244247448502">
    <tag k="addr:postcode" v="WD5 0PW"/>
    <tag k="removemelater" v="yes"/>
  </node>
  <node id="-847" lat="51.7121703807915" lon="-0.41480154654826945">
    <tag k="addr:postcode" v="WD5 0QD"/>
    <tag k="removemelater" v="yes"/>
  </node>
  <node id="-848" lat="51.712186168190776" lon="-0.4166392869079957">
    <tag k="addr:postcode" v="WD5 0QJ"/>
    <tag k="removemelater" v="yes"/>
  </node>
  <node id="-849" lat="51.71199139657133" lon="-0.41553153788062">
    <tag k="addr:postcode" v="WD5 0QL"/>
    <tag k="removemelater" v="yes"/>
  </node>
  <node id="-850" lat="51.711520120602" lon="-0.4159243435908285">
    <tag k="addr:postcode" v="WD5 0TB"/>
    <tag k="removemelater" v="yes"/>
  </node>
  <node id="-851" lat="51.64175035316991" lon="-0.4278952928425986">
    <tag k="addr:postcode" v="WD5 0YX"/>
    <tag k="removemelater" v="yes"/>
  </node>
  <node id="-852" lat="51.64175035316991" lon="-0.4278952928425986">
    <tag k="addr:postcode" v="WD5 5AH"/>
    <tag k="removemelater" v="yes"/>
  </node>
  <node id="-853" lat="51.64175035316991" lon="-0.4278952928425986">
    <tag k="addr:postcode" v="WD5 5AN"/>
    <tag k="removemelater" v="yes"/>
  </node>
  <node id="-854" lat="51.64175035316991" lon="-0.4278952928425986">
    <tag k="addr:postcode" v="WD5 5BQ"/>
    <tag k="removemelater" v="yes"/>
  </node>
  <node id="-855" lat="51.6542433926797" lon="-0.27931420484729097">
    <tag k="addr:postcode" v="WD6 1AA"/>
    <tag k="removemelater" v="yes"/>
  </node>
  <node id="-856" lat="51.662269380699584" lon="-0.264984887338353">
    <tag k="addr:postcode" v="WD6 1AJ"/>
    <tag k="removemelater" v="yes"/>
  </node>
  <node id="-857" lat="51.662269380699584" lon="-0.264984887338353">
    <tag k="addr:postcode" v="WD6 1AN"/>
    <tag k="removemelater" v="yes"/>
  </node>
  <node id="-858" lat="51.662269380699584" lon="-0.264984887338353">
    <tag k="addr:postcode" v="WD6 1AZ"/>
    <tag k="removemelater" v="yes"/>
  </node>
  <node id="-859" lat="51.657472916861614" lon="-0.26048383026353217">
    <tag k="addr:postcode" v="WD6 1EU"/>
    <tag k="removemelater" v="yes"/>
  </node>
  <node id="-860" lat="51.658273615166436" lon="-0.2623326856242417">
    <tag k="addr:postcode" v="WD6 1FJ"/>
    <tag k="removemelater" v="yes"/>
  </node>
  <node id="-861" lat="51.65848320576682" lon="-0.26617046233992075">
    <tag k="addr:postcode" v="WD6 1FR"/>
    <tag k="removemelater" v="yes"/>
  </node>
  <node id="-862" lat="51.65848320576682" lon="-0.26617046233992075">
    <tag k="addr:postcode" v="WD6 1FS"/>
    <tag k="removemelater" v="yes"/>
  </node>
  <node id="-863" lat="51.662269380699584" lon="-0.264984887338353">
    <tag k="addr:postcode" v="WD6 1FU"/>
    <tag k="removemelater" v="yes"/>
  </node>
  <node id="-864" lat="51.662269380699584" lon="-0.264984887338353">
    <tag k="addr:postcode" v="WD6 1GE"/>
    <tag k="removemelater" v="yes"/>
  </node>
  <node id="-865" lat="51.65705141964294" lon="-0.2545001370656301">
    <tag k="addr:postcode" v="WD6 1GF"/>
    <tag k="removemelater" v="yes"/>
  </node>
  <node id="-866" lat="51.65822872257447" lon="-0.2544549014268997">
    <tag k="addr:postcode" v="WD6 1GJ"/>
    <tag k="removemelater" v="yes"/>
  </node>
  <node id="-867" lat="51.65642675366449" lon="-0.2584565040535587">
    <tag k="addr:postcode" v="WD6 1GT"/>
    <tag k="removemelater" v="yes"/>
  </node>
  <node id="-868" lat="51.65774209978397" lon="-0.2616590495819964">
    <tag k="addr:postcode" v="WD6 1GW"/>
    <tag k="removemelater" v="yes"/>
  </node>
  <node id="-869" lat="51.65854148348996" lon="-0.26402847057137413">
    <tag k="addr:postcode" v="WD6 1HS"/>
    <tag k="removemelater" v="yes"/>
  </node>
  <node id="-870" lat="51.65714314415833" lon="-0.2637204683369863">
    <tag k="addr:postcode" v="WD6 1HT"/>
    <tag k="removemelater" v="yes"/>
  </node>
  <node id="-871" lat="51.65883523243763" lon="-0.25654246407433257">
    <tag k="addr:postcode" v="WD6 1JD"/>
    <tag k="removemelater" v="yes"/>
  </node>
  <node id="-872" lat="51.65910462129508" lon="-0.265626254152803">
    <tag k="addr:postcode" v="WD6 1JE"/>
    <tag k="removemelater" v="yes"/>
  </node>
  <node id="-873" lat="51.658528729510586" lon="-0.2747567026193815">
    <tag k="addr:postcode" v="WD6 1JF"/>
    <tag k="removemelater" v="yes"/>
  </node>
  <node id="-874" lat="51.65910429753" lon="-0.254074263027631">
    <tag k="addr:postcode" v="WD6 1JH"/>
    <tag k="removemelater" v="yes"/>
  </node>
  <node id="-875" lat="51.65823104539197" lon="-0.26797285187927156">
    <tag k="addr:postcode" v="WD6 1JN"/>
    <tag k="removemelater" v="yes"/>
  </node>
  <node id="-876" lat="51.659066485764804" lon="-0.26669760612965526">
    <tag k="addr:postcode" v="WD6 1JP"/>
    <tag k="removemelater" v="yes"/>
  </node>
  <node id="-877" lat="51.662269380699584" lon="-0.264984887338353">
    <tag k="addr:postcode" v="WD6 1JQ"/>
    <tag k="removemelater" v="yes"/>
  </node>
  <node id="-878" lat="51.65919403994863" lon="-0.2662011639772969">
    <tag k="addr:postcode" v="WD6 1JR"/>
    <tag k="removemelater" v="yes"/>
  </node>
  <node id="-879" lat="51.659688483455014" lon="-0.26741124360719637">
    <tag k="addr:postcode" v="WD6 1JT"/>
    <tag k="removemelater" v="yes"/>
  </node>
  <node id="-880" lat="51.65947535105319" lon="-0.2675928708198658">
    <tag k="addr:postcode" v="WD6 1JU"/>
    <tag k="removemelater" v="yes"/>
  </node>
  <node id="-881" lat="51.66028237988947" lon="-0.2650029486533214">
    <tag k="addr:postcode" v="WD6 1JY"/>
    <tag k="removemelater" v="yes"/>
  </node>
  <node id="-882" lat="51.659604505068785" lon="-0.2647685913944413">
    <tag k="addr:postcode" v="WD6 1LB"/>
    <tag k="removemelater" v="yes"/>
  </node>
  <node id="-883" lat="51.65812168832228" lon="-0.2593601979116176">
    <tag k="addr:postcode" v="WD6 1LT"/>
    <tag k="removemelater" v="yes"/>
  </node>
  <node id="-884" lat="51.65835211422549" lon="-0.25792004268866414">
    <tag k="addr:postcode" v="WD6 1NA"/>
    <tag k="removemelater" v="yes"/>
  </node>
  <node id="-885" lat="51.66087684695119" lon="-0.2754482859008577">
    <tag k="addr:postcode" v="WD6 1NR"/>
    <tag k="removemelater" v="yes"/>
  </node>
  <node id="-886" lat="51.66087684695119" lon="-0.2754482859008577">
    <tag k="addr:postcode" v="WD6 1NS"/>
    <tag k="removemelater" v="yes"/>
  </node>
  <node id="-887" lat="51.66087684695119" lon="-0.2754482859008577">
    <tag k="addr:postcode" v="WD6 1NT"/>
    <tag k="removemelater" v="yes"/>
  </node>
  <node id="-888" lat="51.66071595991611" lon="-0.2596656283179895">
    <tag k="addr:postcode" v="WD6 1PX"/>
    <tag k="removemelater" v="yes"/>
  </node>
  <node id="-889" lat="51.65861384831575" lon="-0.2610184586779925">
    <tag k="addr:postcode" v="WD6 1QB"/>
    <tag k="removemelater" v="yes"/>
  </node>
  <node id="-890" lat="51.65965291635716" lon="-0.2595328564879638">
    <tag k="addr:postcode" v="WD6 1RN"/>
    <tag k="removemelater" v="yes"/>
  </node>
  <node id="-891" lat="51.65634351977039" lon="-0.2534575018870475">
    <tag k="addr:postcode" v="WD6 1RU"/>
    <tag k="removemelater" v="yes"/>
  </node>
  <node id="-892" lat="51.65920738537169" lon="-0.25798845051094627">
    <tag k="addr:postcode" v="WD6 1SA"/>
    <tag k="removemelater" v="yes"/>
  </node>
  <node id="-893" lat="51.65974501887455" lon="-0.25543763291416627">
    <tag k="addr:postcode" v="WD6 1SD"/>
    <tag k="removemelater" v="yes"/>
  </node>
  <node id="-894" lat="51.65349152931707" lon="-0.2789379031355195">
    <tag k="addr:postcode" v="WD6 1SL"/>
    <tag k="removemelater" v="yes"/>
  </node>
  <node id="-895" lat="51.66099834563758" lon="-0.25687874204550654">
    <tag k="addr:postcode" v="WD6 1SN"/>
    <tag k="removemelater" v="yes"/>
  </node>
  <node id="-896" lat="51.65864465753668" lon="-0.27102215974822447">
    <tag k="addr:postcode" v="WD6 1TD"/>
    <tag k="removemelater" v="yes"/>
  </node>
  <node id="-897" lat="51.65864465753668" lon="-0.27102215974822447">
    <tag k="addr:postcode" v="WD6 1TE"/>
    <tag k="removemelater" v="yes"/>
  </node>
  <node id="-898" lat="51.65958925412931" lon="-0.2698295503701842">
    <tag k="addr:postcode" v="WD6 1TF"/>
    <tag k="removemelater" v="yes"/>
  </node>
  <node id="-899" lat="51.65804909059362" lon="-0.25689070535780395">
    <tag k="addr:postcode" v="WD6 1UA"/>
    <tag k="removemelater" v="yes"/>
  </node>
  <node id="-900" lat="51.65961438331861" lon="-0.26848397851622113">
    <tag k="addr:postcode" v="WD6 1WA"/>
    <tag k="removemelater" v="yes"/>
  </node>
  <node id="-901" lat="51.65707320147913" lon="-0.2620316227488972">
    <tag k="addr:postcode" v="WD6 1WG"/>
    <tag k="removemelater" v="yes"/>
  </node>
  <node id="-902" lat="51.65961438331861" lon="-0.26848397851622113">
    <tag k="addr:postcode" v="WD6 1WN"/>
    <tag k="removemelater" v="yes"/>
  </node>
  <node id="-903" lat="51.65961438331861" lon="-0.26848397851622113">
    <tag k="addr:postcode" v="WD6 1ZE"/>
    <tag k="removemelater" v="yes"/>
  </node>
  <node id="-904" lat="51.64782350389236" lon="-0.2525563303276643">
    <tag k="addr:postcode" v="WD6 2AP"/>
    <tag k="removemelater" v="yes"/>
  </node>
  <node id="-905" lat="51.646991186458195" lon="-0.25342667920652195">
    <tag k="addr:postcode" v="WD6 2AX"/>
    <tag k="removemelater" v="yes"/>
  </node>
  <node id="-906" lat="51.64647960431791" lon="-0.2540967728934845">
    <tag k="addr:postcode" v="WD6 2BT"/>
    <tag k="removemelater" v="yes"/>
  </node>
  <node id="-907" lat="51.64604288937681" lon="-0.25435926634338213">
    <tag k="addr:postcode" v="WD6 2BW"/>
    <tag k="removemelater" v="yes"/>
  </node>
  <node id="-908" lat="51.646693360607536" lon="-0.2539584739398541">
    <tag k="addr:postcode" v="WD6 2FR"/>
    <tag k="removemelater" v="yes"/>
  </node>
  <node id="-909" lat="51.64744673282163" lon="-0.2532212647267158">
    <tag k="addr:postcode" v="WD6 2FX"/>
    <tag k="removemelater" v="yes"/>
  </node>
  <node id="-910" lat="51.647609534424916" lon="-0.2526801932406532">
    <tag k="addr:postcode" v="WD6 2HP"/>
    <tag k="removemelater" v="yes"/>
  </node>
  <node id="-911" lat="51.64872213864409" lon="-0.2549357239435737">
    <tag k="addr:postcode" v="WD6 2HX"/>
    <tag k="removemelater" v="yes"/>
  </node>
  <node id="-912" lat="51.650667126776625" lon="-0.25996378530762393">
    <tag k="addr:postcode" v="WD6 2ND"/>
    <tag k="removemelater" v="yes"/>
  </node>
  <node id="-913" lat="51.658804001367514" lon="-0.31602360844753485">
    <tag k="addr:postcode" v="WD6 3AE"/>
    <tag k="removemelater" v="yes"/>
  </node>
  <node id="-914" lat="51.656565942611124" lon="-0.31233324286132724">
    <tag k="addr:postcode" v="WD6 3AF"/>
    <tag k="removemelater" v="yes"/>
  </node>
  <node id="-915" lat="51.66326317333797" lon="-0.3279173418613011">
    <tag k="addr:postcode" v="WD6 3AJ"/>
    <tag k="removemelater" v="yes"/>
  </node>
  <node id="-916" lat="51.64738236869988" lon="-0.3177911002863484">
    <tag k="addr:postcode" v="WD6 3AT"/>
    <tag k="removemelater" v="yes"/>
  </node>
  <node id="-917" lat="51.65028168134767" lon="-0.3074205984194375">
    <tag k="addr:postcode" v="WD6 3AZ"/>
    <tag k="removemelater" v="yes"/>
  </node>
  <node id="-918" lat="51.653585473644384" lon="-0.31267524897871096">
    <tag k="addr:postcode" v="WD6 3BH"/>
    <tag k="removemelater" v="yes"/>
  </node>
  <node id="-919" lat="51.64256271893784" lon="-0.31403833496037237">
    <tag k="addr:postcode" v="WD6 3BS"/>
    <tag k="removemelater" v="yes"/>
  </node>
  <node id="-920" lat="51.65419516325161" lon="-0.3100504509203144">
    <tag k="addr:postcode" v="WD6 3BT"/>
    <tag k="removemelater" v="yes"/>
  </node>
  <node id="-921" lat="51.66303725427958" lon="-0.3278389032445563">
    <tag k="addr:postcode" v="WD6 3BU"/>
    <tag k="removemelater" v="yes"/>
  </node>
  <node id="-922" lat="51.647096252900155" lon="-0.3204178922027503">
    <tag k="addr:postcode" v="WD6 3BX"/>
    <tag k="removemelater" v="yes"/>
  </node>
  <node id="-923" lat="51.644428806825736" lon="-0.29877867179106565">
    <tag k="addr:postcode" v="WD6 3BY"/>
    <tag k="removemelater" v="yes"/>
  </node>
  <node id="-924" lat="51.64267523447449" lon="-0.31686690094216075">
    <tag k="addr:postcode" v="WD6 3EA"/>
    <tag k="removemelater" v="yes"/>
  </node>
  <node id="-925" lat="51.64254472938222" lon="-0.31591785461641875">
    <tag k="addr:postcode" v="WD6 3EE"/>
    <tag k="removemelater" v="yes"/>
  </node>
  <node id="-926" lat="51.647999423529285" lon="-0.29696829270166647">
    <tag k="addr:postcode" v="WD6 3EJ"/>
    <tag k="removemelater" v="yes"/>
  </node>
  <node id="-927" lat="51.64518267717857" lon="-0.2980566824906396">
    <tag k="addr:postcode" v="WD6 3EP"/>
    <tag k="removemelater" v="yes"/>
  </node>
  <node id="-928" lat="51.64458827552529" lon="-0.29861371566801304">
    <tag k="addr:postcode" v="WD6 3ES"/>
    <tag k="removemelater" v="yes"/>
  </node>
  <node id="-929" lat="51.64458827552529" lon="-0.29861371566801304">
    <tag k="addr:postcode" v="WD6 3ET"/>
    <tag k="removemelater" v="yes"/>
  </node>
  <node id="-930" lat="51.6441347254268" lon="-0.2983416284029852">
    <tag k="addr:postcode" v="WD6 3FF"/>
    <tag k="removemelater" v="yes"/>
  </node>
  <node id="-931" lat="51.63953896494214" lon="-0.3101184380730592">
    <tag k="addr:postcode" v="WD6 3FG"/>
    <tag k="removemelater" v="yes"/>
  </node>
  <node id="-932" lat="51.64500399238722" lon="-0.29875714257824915">
    <tag k="addr:postcode" v="WD6 3GA"/>
    <tag k="removemelater" v="yes"/>
  </node>
  <node id="-933" lat="51.64322908915121" lon="-0.29789858570441696">
    <tag k="addr:postcode" v="WD6 3HL"/>
    <tag k="removemelater" v="yes"/>
  </node>
  <node id="-934" lat="51.65232205512176" lon="-0.2807458173669637">
    <tag k="addr:postcode" v="WD6 3HU"/>
    <tag k="removemelater" v="yes"/>
  </node>
  <node id="-935" lat="51.64929367334395" lon="-0.27903907305827524">
    <tag k="addr:postcode" v="WD6 3LD"/>
    <tag k="removemelater" v="yes"/>
  </node>
  <node id="-936" lat="51.648962618407545" lon="-0.29146828679846354">
    <tag k="addr:postcode" v="WD6 3NL"/>
    <tag k="removemelater" v="yes"/>
  </node>
  <node id="-937" lat="51.64945533196085" lon="-0.29257724825721015">
    <tag k="addr:postcode" v="WD6 3NN"/>
    <tag k="removemelater" v="yes"/>
  </node>
  <node id="-938" lat="51.653668651651515" lon="-0.28182245602112915">
    <tag k="addr:postcode" v="WD6 3PJ"/>
    <tag k="removemelater" v="yes"/>
  </node>
  <node id="-939" lat="51.639771059087025" lon="-0.2882730567012741">
    <tag k="addr:postcode" v="WD6 3RG"/>
    <tag k="removemelater" v="yes"/>
  </node>
  <node id="-940" lat="51.66388404434837" lon="-0.329210298192554">
    <tag k="addr:postcode" v="WD6 3RL"/>
    <tag k="removemelater" v="yes"/>
  </node>
  <node id="-941" lat="51.63963344569913" lon="-0.30668985027574464">
    <tag k="addr:postcode" v="WD6 3SB"/>
    <tag k="removemelater" v="yes"/>
  </node>
  <node id="-942" lat="51.64004352932603" lon="-0.30644334410245083">
    <tag k="addr:postcode" v="WD6 3SE"/>
    <tag k="removemelater" v="yes"/>
  </node>
  <node id="-943" lat="51.640488458371834" lon="-0.30736615274119483">
    <tag k="addr:postcode" v="WD6 3SF"/>
    <tag k="removemelater" v="yes"/>
  </node>
  <node id="-944" lat="51.63983946207831" lon="-0.3078816810291077">
    <tag k="addr:postcode" v="WD6 3SG"/>
    <tag k="removemelater" v="yes"/>
  </node>
  <node id="-945" lat="51.64020307789035" lon="-0.3087786206441611">
    <tag k="addr:postcode" v="WD6 3SJ"/>
    <tag k="removemelater" v="yes"/>
  </node>
  <node id="-946" lat="51.640277636783686" lon="-0.3095851587538149">
    <tag k="addr:postcode" v="WD6 3SL"/>
    <tag k="removemelater" v="yes"/>
  </node>
  <node id="-947" lat="51.64079453470788" lon="-0.30926244170865813">
    <tag k="addr:postcode" v="WD6 3SN"/>
    <tag k="removemelater" v="yes"/>
  </node>
  <node id="-948" lat="51.64099553668096" lon="-0.31010764704974453">
    <tag k="addr:postcode" v="WD6 3SR"/>
    <tag k="removemelater" v="yes"/>
  </node>
  <node id="-949" lat="51.640524196564094" lon="-0.3104720188802453">
    <tag k="addr:postcode" v="WD6 3SS"/>
    <tag k="removemelater" v="yes"/>
  </node>
  <node id="-950" lat="51.6405626397969" lon="-0.31064401512358875">
    <tag k="addr:postcode" v="WD6 3ST"/>
    <tag k="removemelater" v="yes"/>
  </node>
  <node id="-951" lat="51.64090182042475" lon="-0.311093880280593">
    <tag k="addr:postcode" v="WD6 3SU"/>
    <tag k="removemelater" v="yes"/>
  </node>
  <node id="-952" lat="51.64526396398291" lon="-0.2974610407706587">
    <tag k="addr:postcode" v="WD6 3SW"/>
    <tag k="removemelater" v="yes"/>
  </node>
  <node id="-953" lat="51.63837563744928" lon="-0.30676560320090596">
    <tag k="addr:postcode" v="WD6 3SY"/>
    <tag k="removemelater" v="yes"/>
  </node>
  <node id="-954" lat="51.638880593670905" lon="-0.3068624080836617">
    <tag k="addr:postcode" v="WD6 3SZ"/>
    <tag k="removemelater" v="yes"/>
  </node>
  <node id="-955" lat="51.641173412322715" lon="-0.30997096387514234">
    <tag k="addr:postcode" v="WD6 3TH"/>
    <tag k="removemelater" v="yes"/>
  </node>
  <node id="-956" lat="51.64081322375811" lon="-0.31306266638352054">
    <tag k="addr:postcode" v="WD6 3TJ"/>
    <tag k="removemelater" v="yes"/>
  </node>
  <node id="-957" lat="51.6400761757373" lon="-0.31183269981078326">
    <tag k="addr:postcode" v="WD6 3TN"/>
    <tag k="removemelater" v="yes"/>
  </node>
  <node id="-958" lat="51.6709554100671" lon="-0.2827013760206583">
    <tag k="addr:postcode" v="WD6 4AL"/>
    <tag k="removemelater" v="yes"/>
  </node>
  <node id="-959" lat="51.65656611699305" lon="-0.28072978650046176">
    <tag k="addr:postcode" v="WD6 4BA"/>
    <tag k="removemelater" v="yes"/>
  </node>
  <node id="-960" lat="51.667075941465626" lon="-0.2861306290682163">
    <tag k="addr:postcode" v="WD6 4EJ"/>
    <tag k="removemelater" v="yes"/>
  </node>
  <node id="-961" lat="51.670004783188595" lon="-0.28103086898545343">
    <tag k="addr:postcode" v="WD6 4EP"/>
    <tag k="removemelater" v="yes"/>
  </node>
  <node id="-962" lat="51.656710546349316" lon="-0.2807676926238187">
    <tag k="addr:postcode" v="WD6 4PJ"/>
    <tag k="removemelater" v="yes"/>
  </node>
  <node id="-963" lat="51.656694105820634" lon="-0.27780457330852665">
    <tag k="addr:postcode" v="WD6 4PR"/>
    <tag k="removemelater" v="yes"/>
  </node>
  <node id="-964" lat="51.65618072531174" lon="-0.28204551059305527">
    <tag k="addr:postcode" v="WD6 4RJ"/>
    <tag k="removemelater" v="yes"/>
  </node>
  <node id="-965" lat="51.65609677134562" lon="-0.28245348344919385">
    <tag k="addr:postcode" v="WD6 4RQ"/>
    <tag k="removemelater" v="yes"/>
  </node>
  <node id="-966" lat="51.65396702112086" lon="-0.2800908608712642">
    <tag k="addr:postcode" v="WD6 4RS"/>
    <tag k="removemelater" v="yes"/>
  </node>
  <node id="-967" lat="51.66019900399383" lon="-0.27093408181175344">
    <tag k="addr:postcode" v="WD6 5HL"/>
    <tag k="removemelater" v="yes"/>
  </node>
  <node id="-968" lat="51.66571394738429" lon="-0.2698998975882413">
    <tag k="addr:postcode" v="WD6 5HY"/>
    <tag k="removemelater" v="yes"/>
  </node>
  <node id="-969" lat="51.66207450786615" lon="-0.2621439048280603">
    <tag k="addr:postcode" v="WD6 5JY"/>
    <tag k="removemelater" v="yes"/>
  </node>
  <node id="-970" lat="51.666756346373525" lon="-0.2540548487215391">
    <tag k="addr:postcode" v="WD6 5PD"/>
    <tag k="removemelater" v="yes"/>
  </node>
  <node id="-971" lat="51.6568540416931" lon="-0.2503006249385541">
    <tag k="addr:postcode" v="WD6 5PU"/>
    <tag k="removemelater" v="yes"/>
  </node>
  <node id="-972" lat="51.66251713369911" lon="-0.2562131710851425">
    <tag k="addr:postcode" v="WD6 5PZ"/>
    <tag k="removemelater" v="yes"/>
  </node>
  <node id="-973" lat="51.659525364429264" lon="-0.2685452044473725">
    <tag k="addr:postcode" v="WD6 9SA"/>
    <tag k="removemelater" v="yes"/>
  </node>
  <node id="-974" lat="51.659525364429264" lon="-0.2685452044473725">
    <tag k="addr:postcode" v="WD6 9SB"/>
    <tag k="removemelater" v="yes"/>
  </node>
  <node id="-975" lat="51.659525364429264" lon="-0.2685452044473725">
    <tag k="addr:postcode" v="WD6 9SD"/>
    <tag k="removemelater" v="yes"/>
  </node>
  <node id="-976" lat="51.659525364429264" lon="-0.2685452044473725">
    <tag k="addr:postcode" v="WD6 9SE"/>
    <tag k="removemelater" v="yes"/>
  </node>
  <node id="-977" lat="51.659525364429264" lon="-0.2685452044473725">
    <tag k="addr:postcode" v="WD6 9SF"/>
    <tag k="removemelater" v="yes"/>
  </node>
  <node id="-978" lat="51.659525364429264" lon="-0.2685452044473725">
    <tag k="addr:postcode" v="WD6 9SG"/>
    <tag k="removemelater" v="yes"/>
  </node>
  <node id="-979" lat="51.659525364429264" lon="-0.2685452044473725">
    <tag k="addr:postcode" v="WD6 9SH"/>
    <tag k="removemelater" v="yes"/>
  </node>
  <node id="-980" lat="51.659525364429264" lon="-0.2685452044473725">
    <tag k="addr:postcode" v="WD6 9SJ"/>
    <tag k="removemelater" v="yes"/>
  </node>
  <node id="-981" lat="51.659525364429264" lon="-0.2685452044473725">
    <tag k="addr:postcode" v="WD6 9SL"/>
    <tag k="removemelater" v="yes"/>
  </node>
  <node id="-982" lat="51.659525364429264" lon="-0.2685452044473725">
    <tag k="addr:postcode" v="WD6 9SN"/>
    <tag k="removemelater" v="yes"/>
  </node>
  <node id="-983" lat="51.659525364429264" lon="-0.2685452044473725">
    <tag k="addr:postcode" v="WD6 9SP"/>
    <tag k="removemelater" v="yes"/>
  </node>
  <node id="-984" lat="51.659525364429264" lon="-0.2685452044473725">
    <tag k="addr:postcode" v="WD6 9SQ"/>
    <tag k="removemelater" v="yes"/>
  </node>
  <node id="-985" lat="51.659525364429264" lon="-0.2685452044473725">
    <tag k="addr:postcode" v="WD6 9SR"/>
    <tag k="removemelater" v="yes"/>
  </node>
  <node id="-986" lat="51.659525364429264" lon="-0.2685452044473725">
    <tag k="addr:postcode" v="WD6 9SS"/>
    <tag k="removemelater" v="yes"/>
  </node>
  <node id="-987" lat="51.659525364429264" lon="-0.2685452044473725">
    <tag k="addr:postcode" v="WD6 9ST"/>
    <tag k="removemelater" v="yes"/>
  </node>
  <node id="-988" lat="51.659525364429264" lon="-0.2685452044473725">
    <tag k="addr:postcode" v="WD6 9SU"/>
    <tag k="removemelater" v="yes"/>
  </node>
  <node id="-989" lat="51.659525364429264" lon="-0.2685452044473725">
    <tag k="addr:postcode" v="WD6 9ZZ"/>
    <tag k="removemelater" v="yes"/>
  </node>
  <node id="-990" lat="51.70024720942922" lon="-0.3190728433853877">
    <tag k="addr:postcode" v="WD7 7HJ"/>
    <tag k="removemelater" v="yes"/>
  </node>
  <node id="-991" lat="51.69424594112871" lon="-0.3352402100054022">
    <tag k="addr:postcode" v="WD7 7HP"/>
    <tag k="removemelater" v="yes"/>
  </node>
  <node id="-992" lat="51.679984127344575" lon="-0.3156574765711139">
    <tag k="addr:postcode" v="WD7 7JJ"/>
    <tag k="removemelater" v="yes"/>
  </node>
  <node id="-993" lat="51.67336215014095" lon="-0.29916998487065505">
    <tag k="addr:postcode" v="WD7 7LS"/>
    <tag k="removemelater" v="yes"/>
  </node>
  <node id="-994" lat="51.67625272536989" lon="-0.3019399259498592">
    <tag k="addr:postcode" v="WD7 7LT"/>
    <tag k="removemelater" v="yes"/>
  </node>
  <node id="-995" lat="51.66963926097753" lon="-0.3066268754025137">
    <tag k="addr:postcode" v="WD7 7LY"/>
    <tag k="removemelater" v="yes"/>
  </node>
  <node id="-996" lat="51.679349740261145" lon="-0.3316931250433004">
    <tag k="addr:postcode" v="WD7 8NN"/>
    <tag k="removemelater" v="yes"/>
  </node>
</osm>
