<?xml version="1.0" encoding="UTF-8"?><osm version="0.6" generator="import_postcodes.py" upload="false">
  <node id="-1" lat="53.54696697062433" lon="-2.6350888941332777">
    <tag k="addr:postcode" v="WN1 1AA"/>
    <tag k="removemelater" v="yes"/>
  </node>
  <node id="-2" lat="53.54542488608018" lon="-2.6326511562865553">
    <tag k="addr:postcode" v="WN1 1AD"/>
    <tag k="removemelater" v="yes"/>
  </node>
  <node id="-3" lat="53.54962776437187" lon="-2.62824633090119">
    <tag k="addr:postcode" v="WN1 1AE"/>
    <tag k="removemelater" v="yes"/>
  </node>
  <node id="-4" lat="53.54867013809506" lon="-2.629167888261026">
    <tag k="addr:postcode" v="WN1 1AH"/>
    <tag k="removemelater" v="yes"/>
  </node>
  <node id="-5" lat="53.548173390970675" lon="-2.6330241975317863">
    <tag k="addr:postcode" v="WN1 1AW"/>
    <tag k="removemelater" v="yes"/>
  </node>
  <node id="-6" lat="53.54584511152378" lon="-2.6296692745088337">
    <tag k="addr:postcode" v="WN1 1AZ"/>
    <tag k="removemelater" v="yes"/>
  </node>
  <node id="-7" lat="53.54442268665232" lon="-2.6334964021973573">
    <tag k="addr:postcode" v="WN1 1BA"/>
    <tag k="removemelater" v="yes"/>
  </node>
  <node id="-8" lat="53.54473893807714" lon="-2.6331842094136375">
    <tag k="addr:postcode" v="WN1 1BB"/>
    <tag k="removemelater" v="yes"/>
  </node>
  <node id="-9" lat="53.544462074529655" lon="-2.632848069783234">
    <tag k="addr:postcode" v="WN1 1BE"/>
    <tag k="removemelater" v="yes"/>
  </node>
  <node id="-10" lat="53.54657479143109" lon="-2.629363178642902">
    <tag k="addr:postcode" v="WN1 1BH"/>
    <tag k="removemelater" v="yes"/>
  </node>
  <node id="-11" lat="53.543731906104384" lon="-2.633244629062486">
    <tag k="addr:postcode" v="WN1 1BJ"/>
    <tag k="removemelater" v="yes"/>
  </node>
  <node id="-12" lat="53.547110072497816" lon="-2.62842031955603">
    <tag k="addr:postcode" v="WN1 1BN"/>
    <tag k="removemelater" v="yes"/>
  </node>
  <node id="-13" lat="53.55016147538988" lon="-2.6293107631888524">
    <tag k="addr:postcode" v="WN1 1BP"/>
    <tag k="removemelater" v="yes"/>
  </node>
  <node id="-14" lat="53.54472011721474" lon="-2.6316446186695415">
    <tag k="addr:postcode" v="WN1 1BS"/>
    <tag k="removemelater" v="yes"/>
  </node>
  <node id="-15" lat="53.54408032330836" lon="-2.6302467137172525">
    <tag k="addr:postcode" v="WN1 1BT"/>
    <tag k="removemelater" v="yes"/>
  </node>
  <node id="-16" lat="53.54521624980523" lon="-2.6330102385931804">
    <tag k="addr:postcode" v="WN1 1BZ"/>
    <tag k="removemelater" v="yes"/>
  </node>
  <node id="-17" lat="53.54502888985453" lon="-2.6310455623733504">
    <tag k="addr:postcode" v="WN1 1DE"/>
    <tag k="removemelater" v="yes"/>
  </node>
  <node id="-18" lat="53.54451977039438" lon="-2.6304343387353932">
    <tag k="addr:postcode" v="WN1 1DF"/>
    <tag k="removemelater" v="yes"/>
  </node>
  <node id="-19" lat="53.54393906335274" lon="-2.6297617027404354">
    <tag k="addr:postcode" v="WN1 1DG"/>
    <tag k="removemelater" v="yes"/>
  </node>
  <node id="-20" lat="53.543085046680055" lon="-2.628073955205795">
    <tag k="addr:postcode" v="WN1 1DL"/>
    <tag k="removemelater" v="yes"/>
  </node>
  <node id="-21" lat="53.54459153490666" lon="-2.633861113854684">
    <tag k="addr:postcode" v="WN1 1DP"/>
    <tag k="removemelater" v="yes"/>
  </node>
  <node id="-22" lat="53.54521572757281" lon="-2.6297052038239777">
    <tag k="addr:postcode" v="WN1 1DQ"/>
    <tag k="removemelater" v="yes"/>
  </node>
  <node id="-23" lat="53.54284875673716" lon="-2.6302736841188428">
    <tag k="addr:postcode" v="WN1 1DU"/>
    <tag k="removemelater" v="yes"/>
  </node>
  <node id="-24" lat="53.5432924984631" lon="-2.629646466550736">
    <tag k="addr:postcode" v="WN1 1EA"/>
    <tag k="removemelater" v="yes"/>
  </node>
  <node id="-25" lat="53.54327476129525" lon="-2.6296009309541244">
    <tag k="addr:postcode" v="WN1 1EB"/>
    <tag k="removemelater" v="yes"/>
  </node>
  <node id="-26" lat="53.54620589883487" lon="-2.6362244732201954">
    <tag k="addr:postcode" v="WN1 1HE"/>
    <tag k="removemelater" v="yes"/>
  </node>
  <node id="-27" lat="53.54822782779881" lon="-2.6363151799446056">
    <tag k="addr:postcode" v="WN1 1HH"/>
    <tag k="removemelater" v="yes"/>
  </node>
  <node id="-28" lat="53.545993563444846" lon="-2.635587435020994">
    <tag k="addr:postcode" v="WN1 1HN"/>
    <tag k="removemelater" v="yes"/>
  </node>
  <node id="-29" lat="53.54673569247613" lon="-2.6346326706781467">
    <tag k="addr:postcode" v="WN1 1HP"/>
    <tag k="removemelater" v="yes"/>
  </node>
  <node id="-30" lat="53.545993563444846" lon="-2.635587435020994">
    <tag k="addr:postcode" v="WN1 1HR"/>
    <tag k="removemelater" v="yes"/>
  </node>
  <node id="-31" lat="53.545993563444846" lon="-2.635587435020994">
    <tag k="addr:postcode" v="WN1 1HS"/>
    <tag k="removemelater" v="yes"/>
  </node>
  <node id="-32" lat="53.54633100488269" lon="-2.636362176815044">
    <tag k="addr:postcode" v="WN1 1HW"/>
    <tag k="removemelater" v="yes"/>
  </node>
  <node id="-33" lat="53.54557584119898" lon="-2.6330005145449595">
    <tag k="addr:postcode" v="WN1 1JQ"/>
    <tag k="removemelater" v="yes"/>
  </node>
  <node id="-34" lat="53.545298977189674" lon="-2.6326643694337353">
    <tag k="addr:postcode" v="WN1 1JU"/>
    <tag k="removemelater" v="yes"/>
  </node>
  <node id="-35" lat="53.54536500482788" lon="-2.6320767859152605">
    <tag k="addr:postcode" v="WN1 1LD"/>
    <tag k="removemelater" v="yes"/>
  </node>
  <node id="-36" lat="53.54527831686585" lon="-2.631471835064504">
    <tag k="addr:postcode" v="WN1 1LF"/>
    <tag k="removemelater" v="yes"/>
  </node>
  <node id="-37" lat="53.54516027973269" lon="-2.63169644887381">
    <tag k="addr:postcode" v="WN1 1LL"/>
    <tag k="removemelater" v="yes"/>
  </node>
  <node id="-38" lat="53.544944493033" lon="-2.6317083259772556">
    <tag k="addr:postcode" v="WN1 1LN"/>
    <tag k="removemelater" v="yes"/>
  </node>
  <node id="-39" lat="53.54517766078472" lon="-2.6335076799614527">
    <tag k="addr:postcode" v="WN1 1LP"/>
    <tag k="removemelater" v="yes"/>
  </node>
  <node id="-40" lat="53.54471399851806" lon="-2.6311012418563595">
    <tag k="addr:postcode" v="WN1 1LU"/>
    <tag k="removemelater" v="yes"/>
  </node>
  <node id="-41" lat="53.54575794614582" lon="-2.6342558390604323">
    <tag k="addr:postcode" v="WN1 1NA"/>
    <tag k="removemelater" v="yes"/>
  </node>
  <node id="-42" lat="53.546498397214954" lon="-2.636998548897261">
    <tag k="addr:postcode" v="WN1 1NF"/>
    <tag k="removemelater" v="yes"/>
  </node>
  <node id="-43" lat="53.545297647243736" lon="-2.6312155678003264">
    <tag k="addr:postcode" v="WN1 1NN"/>
    <tag k="removemelater" v="yes"/>
  </node>
  <node id="-44" lat="53.544547847686175" lon="-2.6302234791934342">
    <tag k="addr:postcode" v="WN1 1NU"/>
    <tag k="removemelater" v="yes"/>
  </node>
  <node id="-45" lat="53.54696697062433" lon="-2.6350888941332777">
    <tag k="addr:postcode" v="WN1 1PA"/>
    <tag k="removemelater" v="yes"/>
  </node>
  <node id="-46" lat="53.54862360687287" lon="-2.631174521453121">
    <tag k="addr:postcode" v="WN1 1QP"/>
    <tag k="removemelater" v="yes"/>
  </node>
  <node id="-47" lat="53.54927700503155" lon="-2.631697405925031">
    <tag k="addr:postcode" v="WN1 1QX"/>
    <tag k="removemelater" v="yes"/>
  </node>
  <node id="-48" lat="53.54696697062433" lon="-2.6350888941332777">
    <tag k="addr:postcode" v="WN1 1RS"/>
    <tag k="removemelater" v="yes"/>
  </node>
  <node id="-49" lat="53.5525842459622" lon="-2.6368786659853054">
    <tag k="addr:postcode" v="WN1 1TU"/>
    <tag k="removemelater" v="yes"/>
  </node>
  <node id="-50" lat="53.55481473978165" lon="-2.636625371837581">
    <tag k="addr:postcode" v="WN1 1TY"/>
    <tag k="removemelater" v="yes"/>
  </node>
  <node id="-51" lat="53.547317121499745" lon="-2.6300684369735556">
    <tag k="addr:postcode" v="WN1 1UF"/>
    <tag k="removemelater" v="yes"/>
  </node>
  <node id="-52" lat="53.54689151250246" lon="-2.630665794901423">
    <tag k="addr:postcode" v="WN1 1UG"/>
    <tag k="removemelater" v="yes"/>
  </node>
  <node id="-53" lat="53.54842102834807" lon="-2.630386691521391">
    <tag k="addr:postcode" v="WN1 1UW"/>
    <tag k="removemelater" v="yes"/>
  </node>
  <node id="-54" lat="53.54980267881649" lon="-2.629169600266681">
    <tag k="addr:postcode" v="WN1 1XA"/>
    <tag k="removemelater" v="yes"/>
  </node>
  <node id="-55" lat="53.5491082961174" lon="-2.627891499149752">
    <tag k="addr:postcode" v="WN1 1XD"/>
    <tag k="removemelater" v="yes"/>
  </node>
  <node id="-56" lat="53.55133321393566" lon="-2.625267970909165">
    <tag k="addr:postcode" v="WN1 1XE"/>
    <tag k="removemelater" v="yes"/>
  </node>
  <node id="-57" lat="53.5493541354494" lon="-2.6272914229130504">
    <tag k="addr:postcode" v="WN1 1XG"/>
    <tag k="removemelater" v="yes"/>
  </node>
  <node id="-58" lat="53.550012184776165" lon="-2.63034997494423">
    <tag k="addr:postcode" v="WN1 1XH"/>
    <tag k="removemelater" v="yes"/>
  </node>
  <node id="-59" lat="53.54320125377231" lon="-2.628196401954885">
    <tag k="addr:postcode" v="WN1 1XN"/>
    <tag k="removemelater" v="yes"/>
  </node>
  <node id="-60" lat="53.5431637956347" lon="-2.628482570708482">
    <tag k="addr:postcode" v="WN1 1XQ"/>
    <tag k="removemelater" v="yes"/>
  </node>
  <node id="-61" lat="53.54955452380128" lon="-2.630207334317128">
    <tag k="addr:postcode" v="WN1 1XX"/>
    <tag k="removemelater" v="yes"/>
  </node>
  <node id="-62" lat="53.545106442981385" lon="-2.6299752264276632">
    <tag k="addr:postcode" v="WN1 1YN"/>
    <tag k="removemelater" v="yes"/>
  </node>
  <node id="-63" lat="53.551787291163066" lon="-2.6278104227341292">
    <tag k="addr:postcode" v="WN1 2AW"/>
    <tag k="removemelater" v="yes"/>
  </node>
  <node id="-64" lat="53.56605701903744" lon="-2.6147348190453874">
    <tag k="addr:postcode" v="WN1 2SG"/>
    <tag k="removemelater" v="yes"/>
  </node>
  <node id="-65" lat="53.56918564558288" lon="-2.630151982184569">
    <tag k="addr:postcode" v="WN1 2SJ"/>
    <tag k="removemelater" v="yes"/>
  </node>
  <node id="-66" lat="53.565249811952725" lon="-2.6213513802642456">
    <tag k="addr:postcode" v="WN1 2SQ"/>
    <tag k="removemelater" v="yes"/>
  </node>
  <node id="-67" lat="53.5913103791247" lon="-2.62248918672504">
    <tag k="addr:postcode" v="WN1 2UG"/>
    <tag k="removemelater" v="yes"/>
  </node>
  <node id="-68" lat="53.590803498486046" lon="-2.6214393041546007">
    <tag k="addr:postcode" v="WN1 2UH"/>
    <tag k="removemelater" v="yes"/>
  </node>
  <node id="-69" lat="53.5835834265361" lon="-2.6270581836583085">
    <tag k="addr:postcode" v="WN1 2UW"/>
    <tag k="removemelater" v="yes"/>
  </node>
  <node id="-70" lat="53.59253099146331" lon="-2.6348052911332136">
    <tag k="addr:postcode" v="WN1 2XN"/>
    <tag k="removemelater" v="yes"/>
  </node>
  <node id="-71" lat="53.54696697062433" lon="-2.6350888941332777">
    <tag k="addr:postcode" v="WN1 2ZP"/>
    <tag k="removemelater" v="yes"/>
  </node>
  <node id="-72" lat="53.540562496992614" lon="-2.6223024823489576">
    <tag k="addr:postcode" v="WN1 3AJ"/>
    <tag k="removemelater" v="yes"/>
  </node>
  <node id="-73" lat="53.544315753939784" lon="-2.614374354612262">
    <tag k="addr:postcode" v="WN1 3BT"/>
    <tag k="removemelater" v="yes"/>
  </node>
  <node id="-74" lat="53.54399466126224" lon="-2.6121362353687263">
    <tag k="addr:postcode" v="WN1 3DP"/>
    <tag k="removemelater" v="yes"/>
  </node>
  <node id="-75" lat="53.54696697062433" lon="-2.6350888941332777">
    <tag k="addr:postcode" v="WN1 3DS"/>
    <tag k="removemelater" v="yes"/>
  </node>
  <node id="-76" lat="53.547618868608964" lon="-2.6222249255865187">
    <tag k="addr:postcode" v="WN1 3QQ"/>
    <tag k="removemelater" v="yes"/>
  </node>
  <node id="-77" lat="53.546587240889274" lon="-2.6269939299949416">
    <tag k="addr:postcode" v="WN1 3RH"/>
    <tag k="removemelater" v="yes"/>
  </node>
  <node id="-78" lat="53.546587240889274" lon="-2.6269939299949416">
    <tag k="addr:postcode" v="WN1 3RQ"/>
    <tag k="removemelater" v="yes"/>
  </node>
  <node id="-79" lat="53.54717089350553" lon="-2.6271082047206753">
    <tag k="addr:postcode" v="WN1 3SL"/>
    <tag k="removemelater" v="yes"/>
  </node>
  <node id="-80" lat="53.54696697062433" lon="-2.6350888941332777">
    <tag k="addr:postcode" v="WN1 9AJ"/>
    <tag k="removemelater" v="yes"/>
  </node>
  <node id="-81" lat="53.54696697062433" lon="-2.6350888941332777">
    <tag k="addr:postcode" v="WN1 9AW"/>
    <tag k="removemelater" v="yes"/>
  </node>
  <node id="-82" lat="53.54696697062433" lon="-2.6350888941332777">
    <tag k="addr:postcode" v="WN1 9BQ"/>
    <tag k="removemelater" v="yes"/>
  </node>
  <node id="-83" lat="53.54696697062433" lon="-2.6350888941332777">
    <tag k="addr:postcode" v="WN1 9BZ"/>
    <tag k="removemelater" v="yes"/>
  </node>
  <node id="-84" lat="53.54696697062433" lon="-2.6350888941332777">
    <tag k="addr:postcode" v="WN1 9DE"/>
    <tag k="removemelater" v="yes"/>
  </node>
  <node id="-85" lat="53.54696697062433" lon="-2.6350888941332777">
    <tag k="addr:postcode" v="WN1 9DT"/>
    <tag k="removemelater" v="yes"/>
  </node>
  <node id="-86" lat="53.54696697062433" lon="-2.6350888941332777">
    <tag k="addr:postcode" v="WN1 9FH"/>
    <tag k="removemelater" v="yes"/>
  </node>
  <node id="-87" lat="53.54696697062433" lon="-2.6350888941332777">
    <tag k="addr:postcode" v="WN1 9FJ"/>
    <tag k="removemelater" v="yes"/>
  </node>
  <node id="-88" lat="53.54696697062433" lon="-2.6350888941332777">
    <tag k="addr:postcode" v="WN1 9FR"/>
    <tag k="removemelater" v="yes"/>
  </node>
  <node id="-89" lat="53.54696697062433" lon="-2.6350888941332777">
    <tag k="addr:postcode" v="WN1 9GF"/>
    <tag k="removemelater" v="yes"/>
  </node>
  <node id="-90" lat="53.54696697062433" lon="-2.6350888941332777">
    <tag k="addr:postcode" v="WN1 9GU"/>
    <tag k="removemelater" v="yes"/>
  </node>
  <node id="-91" lat="53.54696697062433" lon="-2.6350888941332777">
    <tag k="addr:postcode" v="WN1 9GZ"/>
    <tag k="removemelater" v="yes"/>
  </node>
  <node id="-92" lat="53.54696697062433" lon="-2.6350888941332777">
    <tag k="addr:postcode" v="WN1 9HA"/>
    <tag k="removemelater" v="yes"/>
  </node>
  <node id="-93" lat="53.54696697062433" lon="-2.6350888941332777">
    <tag k="addr:postcode" v="WN1 9HL"/>
    <tag k="removemelater" v="yes"/>
  </node>
  <node id="-94" lat="53.54696697062433" lon="-2.6350888941332777">
    <tag k="addr:postcode" v="WN1 9HN"/>
    <tag k="removemelater" v="yes"/>
  </node>
  <node id="-95" lat="53.54696697062433" lon="-2.6350888941332777">
    <tag k="addr:postcode" v="WN1 9HP"/>
    <tag k="removemelater" v="yes"/>
  </node>
  <node id="-96" lat="53.54696697062433" lon="-2.6350888941332777">
    <tag k="addr:postcode" v="WN1 9HR"/>
    <tag k="removemelater" v="yes"/>
  </node>
  <node id="-97" lat="53.54696697062433" lon="-2.6350888941332777">
    <tag k="addr:postcode" v="WN1 9JG"/>
    <tag k="removemelater" v="yes"/>
  </node>
  <node id="-98" lat="53.54696697062433" lon="-2.6350888941332777">
    <tag k="addr:postcode" v="WN1 9LB"/>
    <tag k="removemelater" v="yes"/>
  </node>
  <node id="-99" lat="53.54696697062433" lon="-2.6350888941332777">
    <tag k="addr:postcode" v="WN1 9LN"/>
    <tag k="removemelater" v="yes"/>
  </node>
  <node id="-100" lat="53.54696697062433" lon="-2.6350888941332777">
    <tag k="addr:postcode" v="WN1 9LS"/>
    <tag k="removemelater" v="yes"/>
  </node>
  <node id="-101" lat="53.54696697062433" lon="-2.6350888941332777">
    <tag k="addr:postcode" v="WN1 9LX"/>
    <tag k="removemelater" v="yes"/>
  </node>
  <node id="-102" lat="53.54696697062433" lon="-2.6350888941332777">
    <tag k="addr:postcode" v="WN1 9PD"/>
    <tag k="removemelater" v="yes"/>
  </node>
  <node id="-103" lat="53.54696697062433" lon="-2.6350888941332777">
    <tag k="addr:postcode" v="WN1 9PF"/>
    <tag k="removemelater" v="yes"/>
  </node>
  <node id="-104" lat="53.54696697062433" lon="-2.6350888941332777">
    <tag k="addr:postcode" v="WN1 9PP"/>
    <tag k="removemelater" v="yes"/>
  </node>
  <node id="-105" lat="53.54696697062433" lon="-2.6350888941332777">
    <tag k="addr:postcode" v="WN1 9PQ"/>
    <tag k="removemelater" v="yes"/>
  </node>
  <node id="-106" lat="53.54696697062433" lon="-2.6350888941332777">
    <tag k="addr:postcode" v="WN1 9PS"/>
    <tag k="removemelater" v="yes"/>
  </node>
  <node id="-107" lat="53.54696697062433" lon="-2.6350888941332777">
    <tag k="addr:postcode" v="WN1 9PT"/>
    <tag k="removemelater" v="yes"/>
  </node>
  <node id="-108" lat="53.54696697062433" lon="-2.6350888941332777">
    <tag k="addr:postcode" v="WN1 9PU"/>
    <tag k="removemelater" v="yes"/>
  </node>
  <node id="-109" lat="53.54696697062433" lon="-2.6350888941332777">
    <tag k="addr:postcode" v="WN1 9PX"/>
    <tag k="removemelater" v="yes"/>
  </node>
  <node id="-110" lat="53.54696697062433" lon="-2.6350888941332777">
    <tag k="addr:postcode" v="WN1 9PY"/>
    <tag k="removemelater" v="yes"/>
  </node>
  <node id="-111" lat="53.54696697062433" lon="-2.6350888941332777">
    <tag k="addr:postcode" v="WN1 9QB"/>
    <tag k="removemelater" v="yes"/>
  </node>
  <node id="-112" lat="53.54696697062433" lon="-2.6350888941332777">
    <tag k="addr:postcode" v="WN1 9QD"/>
    <tag k="removemelater" v="yes"/>
  </node>
  <node id="-113" lat="53.54696697062433" lon="-2.6350888941332777">
    <tag k="addr:postcode" v="WN1 9QJ"/>
    <tag k="removemelater" v="yes"/>
  </node>
  <node id="-114" lat="53.54696697062433" lon="-2.6350888941332777">
    <tag k="addr:postcode" v="WN1 9QP"/>
    <tag k="removemelater" v="yes"/>
  </node>
  <node id="-115" lat="53.54696697062433" lon="-2.6350888941332777">
    <tag k="addr:postcode" v="WN1 9QR"/>
    <tag k="removemelater" v="yes"/>
  </node>
  <node id="-116" lat="53.54696697062433" lon="-2.6350888941332777">
    <tag k="addr:postcode" v="WN1 9QS"/>
    <tag k="removemelater" v="yes"/>
  </node>
  <node id="-117" lat="53.54696697062433" lon="-2.6350888941332777">
    <tag k="addr:postcode" v="WN1 9QU"/>
    <tag k="removemelater" v="yes"/>
  </node>
  <node id="-118" lat="53.54696697062433" lon="-2.6350888941332777">
    <tag k="addr:postcode" v="WN1 9QW"/>
    <tag k="removemelater" v="yes"/>
  </node>
  <node id="-119" lat="53.54696697062433" lon="-2.6350888941332777">
    <tag k="addr:postcode" v="WN1 9QY"/>
    <tag k="removemelater" v="yes"/>
  </node>
  <node id="-120" lat="53.54696697062433" lon="-2.6350888941332777">
    <tag k="addr:postcode" v="WN1 9RA"/>
    <tag k="removemelater" v="yes"/>
  </node>
  <node id="-121" lat="53.54696697062433" lon="-2.6350888941332777">
    <tag k="addr:postcode" v="WN1 9RF"/>
    <tag k="removemelater" v="yes"/>
  </node>
  <node id="-122" lat="53.54696697062433" lon="-2.6350888941332777">
    <tag k="addr:postcode" v="WN1 9RH"/>
    <tag k="removemelater" v="yes"/>
  </node>
  <node id="-123" lat="53.54696697062433" lon="-2.6350888941332777">
    <tag k="addr:postcode" v="WN1 9RL"/>
    <tag k="removemelater" v="yes"/>
  </node>
  <node id="-124" lat="53.54696697062433" lon="-2.6350888941332777">
    <tag k="addr:postcode" v="WN1 9RN"/>
    <tag k="removemelater" v="yes"/>
  </node>
  <node id="-125" lat="53.54696697062433" lon="-2.6350888941332777">
    <tag k="addr:postcode" v="WN1 9RR"/>
    <tag k="removemelater" v="yes"/>
  </node>
  <node id="-126" lat="53.54696697062433" lon="-2.6350888941332777">
    <tag k="addr:postcode" v="WN1 9RS"/>
    <tag k="removemelater" v="yes"/>
  </node>
  <node id="-127" lat="53.54696697062433" lon="-2.6350888941332777">
    <tag k="addr:postcode" v="WN1 9RT"/>
    <tag k="removemelater" v="yes"/>
  </node>
  <node id="-128" lat="53.54696697062433" lon="-2.6350888941332777">
    <tag k="addr:postcode" v="WN1 9RU"/>
    <tag k="removemelater" v="yes"/>
  </node>
  <node id="-129" lat="53.54696697062433" lon="-2.6350888941332777">
    <tag k="addr:postcode" v="WN1 9RW"/>
    <tag k="removemelater" v="yes"/>
  </node>
  <node id="-130" lat="53.54509753470859" lon="-2.6299600026913406">
    <tag k="addr:postcode" v="WN1 9SA"/>
    <tag k="removemelater" v="yes"/>
  </node>
  <node id="-131" lat="53.54509753470859" lon="-2.6299600026913406">
    <tag k="addr:postcode" v="WN1 9SB"/>
    <tag k="removemelater" v="yes"/>
  </node>
  <node id="-132" lat="53.54509753470859" lon="-2.6299600026913406">
    <tag k="addr:postcode" v="WN1 9SD"/>
    <tag k="removemelater" v="yes"/>
  </node>
  <node id="-133" lat="53.545106442981385" lon="-2.6299752264276632">
    <tag k="addr:postcode" v="WN1 9SE"/>
    <tag k="removemelater" v="yes"/>
  </node>
  <node id="-134" lat="53.54509753470859" lon="-2.6299600026913406">
    <tag k="addr:postcode" v="WN1 9SF"/>
    <tag k="removemelater" v="yes"/>
  </node>
  <node id="-135" lat="53.54509753470859" lon="-2.6299600026913406">
    <tag k="addr:postcode" v="WN1 9SG"/>
    <tag k="removemelater" v="yes"/>
  </node>
  <node id="-136" lat="53.54509753470859" lon="-2.6299600026913406">
    <tag k="addr:postcode" v="WN1 9SH"/>
    <tag k="removemelater" v="yes"/>
  </node>
  <node id="-137" lat="53.54509753470859" lon="-2.6299600026913406">
    <tag k="addr:postcode" v="WN1 9SJ"/>
    <tag k="removemelater" v="yes"/>
  </node>
  <node id="-138" lat="53.54509753470859" lon="-2.6299600026913406">
    <tag k="addr:postcode" v="WN1 9SL"/>
    <tag k="removemelater" v="yes"/>
  </node>
  <node id="-139" lat="53.54509753470859" lon="-2.6299600026913406">
    <tag k="addr:postcode" v="WN1 9SN"/>
    <tag k="removemelater" v="yes"/>
  </node>
  <node id="-140" lat="53.54509753470859" lon="-2.6299600026913406">
    <tag k="addr:postcode" v="WN1 9SP"/>
    <tag k="removemelater" v="yes"/>
  </node>
  <node id="-141" lat="53.54509753470859" lon="-2.6299600026913406">
    <tag k="addr:postcode" v="WN1 9SQ"/>
    <tag k="removemelater" v="yes"/>
  </node>
  <node id="-142" lat="53.54509753470859" lon="-2.6299600026913406">
    <tag k="addr:postcode" v="WN1 9SR"/>
    <tag k="removemelater" v="yes"/>
  </node>
  <node id="-143" lat="53.54509753470859" lon="-2.6299600026913406">
    <tag k="addr:postcode" v="WN1 9SS"/>
    <tag k="removemelater" v="yes"/>
  </node>
  <node id="-144" lat="53.54509753470859" lon="-2.6299600026913406">
    <tag k="addr:postcode" v="WN1 9ST"/>
    <tag k="removemelater" v="yes"/>
  </node>
  <node id="-145" lat="53.54509753470859" lon="-2.6299600026913406">
    <tag k="addr:postcode" v="WN1 9SU"/>
    <tag k="removemelater" v="yes"/>
  </node>
  <node id="-146" lat="53.54509753470859" lon="-2.6299600026913406">
    <tag k="addr:postcode" v="WN1 9SW"/>
    <tag k="removemelater" v="yes"/>
  </node>
  <node id="-147" lat="53.54509753470859" lon="-2.6299600026913406">
    <tag k="addr:postcode" v="WN1 9SX"/>
    <tag k="removemelater" v="yes"/>
  </node>
  <node id="-148" lat="53.54509753470859" lon="-2.6299600026913406">
    <tag k="addr:postcode" v="WN1 9SY"/>
    <tag k="removemelater" v="yes"/>
  </node>
  <node id="-149" lat="53.54509753470859" lon="-2.6299600026913406">
    <tag k="addr:postcode" v="WN1 9SZ"/>
    <tag k="removemelater" v="yes"/>
  </node>
  <node id="-150" lat="53.54509753470859" lon="-2.6299600026913406">
    <tag k="addr:postcode" v="WN1 9TA"/>
    <tag k="removemelater" v="yes"/>
  </node>
  <node id="-151" lat="53.54509753470859" lon="-2.6299600026913406">
    <tag k="addr:postcode" v="WN1 9TB"/>
    <tag k="removemelater" v="yes"/>
  </node>
  <node id="-152" lat="53.54509753470859" lon="-2.6299600026913406">
    <tag k="addr:postcode" v="WN1 9TD"/>
    <tag k="removemelater" v="yes"/>
  </node>
  <node id="-153" lat="53.54509753470859" lon="-2.6299600026913406">
    <tag k="addr:postcode" v="WN1 9TE"/>
    <tag k="removemelater" v="yes"/>
  </node>
  <node id="-154" lat="53.54509753470859" lon="-2.6299600026913406">
    <tag k="addr:postcode" v="WN1 9TF"/>
    <tag k="removemelater" v="yes"/>
  </node>
  <node id="-155" lat="53.54509753470859" lon="-2.6299600026913406">
    <tag k="addr:postcode" v="WN1 9TG"/>
    <tag k="removemelater" v="yes"/>
  </node>
  <node id="-156" lat="53.54509753470859" lon="-2.6299600026913406">
    <tag k="addr:postcode" v="WN1 9TH"/>
    <tag k="removemelater" v="yes"/>
  </node>
  <node id="-157" lat="53.54509753470859" lon="-2.6299600026913406">
    <tag k="addr:postcode" v="WN1 9TQ"/>
    <tag k="removemelater" v="yes"/>
  </node>
  <node id="-158" lat="53.554415625314284" lon="-2.58636910732026">
    <tag k="addr:postcode" v="WN2 1JA"/>
    <tag k="removemelater" v="yes"/>
  </node>
  <node id="-159" lat="53.580523592506545" lon="-2.622617612205417">
    <tag k="addr:postcode" v="WN2 1LX"/>
    <tag k="removemelater" v="yes"/>
  </node>
  <node id="-160" lat="53.586731610944575" lon="-2.6249144001840614">
    <tag k="addr:postcode" v="WN2 1NA"/>
    <tag k="removemelater" v="yes"/>
  </node>
  <node id="-161" lat="53.574925588432436" lon="-2.606527200010986">
    <tag k="addr:postcode" v="WN2 1PD"/>
    <tag k="removemelater" v="yes"/>
  </node>
  <node id="-162" lat="53.57298592244657" lon="-2.609700908445645">
    <tag k="addr:postcode" v="WN2 1PE"/>
    <tag k="removemelater" v="yes"/>
  </node>
  <node id="-163" lat="53.56569223439681" lon="-2.590813167185268">
    <tag k="addr:postcode" v="WN2 1PH"/>
    <tag k="removemelater" v="yes"/>
  </node>
  <node id="-164" lat="53.566896551403346" lon="-2.5871910684867188">
    <tag k="addr:postcode" v="WN2 1PP"/>
    <tag k="removemelater" v="yes"/>
  </node>
  <node id="-165" lat="53.56622216400544" lon="-2.59270791726725">
    <tag k="addr:postcode" v="WN2 1PQ"/>
    <tag k="removemelater" v="yes"/>
  </node>
  <node id="-166" lat="53.54696697062433" lon="-2.6350888941332777">
    <tag k="addr:postcode" v="WN2 1WA"/>
    <tag k="removemelater" v="yes"/>
  </node>
  <node id="-167" lat="53.54696697062433" lon="-2.6350888941332777">
    <tag k="addr:postcode" v="WN2 1WY"/>
    <tag k="removemelater" v="yes"/>
  </node>
  <node id="-168" lat="53.543912825137234" lon="-2.6087999505782076">
    <tag k="addr:postcode" v="WN2 2AF"/>
    <tag k="removemelater" v="yes"/>
  </node>
  <node id="-169" lat="53.53674321185054" lon="-2.601062314962374">
    <tag k="addr:postcode" v="WN2 2AG"/>
    <tag k="removemelater" v="yes"/>
  </node>
  <node id="-170" lat="53.53642577718443" lon="-2.596244651369971">
    <tag k="addr:postcode" v="WN2 2AH"/>
    <tag k="removemelater" v="yes"/>
  </node>
  <node id="-171" lat="53.543125807828794" lon="-2.6097846382963117">
    <tag k="addr:postcode" v="WN2 2BG"/>
    <tag k="removemelater" v="yes"/>
  </node>
  <node id="-172" lat="53.54459705276808" lon="-2.608583404882263">
    <tag k="addr:postcode" v="WN2 2BH"/>
    <tag k="removemelater" v="yes"/>
  </node>
  <node id="-173" lat="53.54054463108507" lon="-2.6047679062908653">
    <tag k="addr:postcode" v="WN2 2DY"/>
    <tag k="removemelater" v="yes"/>
  </node>
  <node id="-174" lat="53.546133957307184" lon="-2.5870393557839675">
    <tag k="addr:postcode" v="WN2 2ER"/>
    <tag k="removemelater" v="yes"/>
  </node>
  <node id="-175" lat="53.53645076315963" lon="-2.607349995555667">
    <tag k="addr:postcode" v="WN2 2LE"/>
    <tag k="removemelater" v="yes"/>
  </node>
  <node id="-176" lat="53.54335833522182" lon="-2.590320900264468">
    <tag k="addr:postcode" v="WN2 2PP"/>
    <tag k="removemelater" v="yes"/>
  </node>
  <node id="-177" lat="53.534976578052685" lon="-2.5820719535438417">
    <tag k="addr:postcode" v="WN2 3AX"/>
    <tag k="removemelater" v="yes"/>
  </node>
  <node id="-178" lat="53.54696697062433" lon="-2.6350888941332777">
    <tag k="addr:postcode" v="WN2 4FA"/>
    <tag k="removemelater" v="yes"/>
  </node>
  <node id="-179" lat="53.54696697062433" lon="-2.6350888941332777">
    <tag k="addr:postcode" v="WN2 4XZ"/>
    <tag k="removemelater" v="yes"/>
  </node>
  <node id="-180" lat="53.51188495979907" lon="-2.582102170205566">
    <tag k="addr:postcode" v="WN2 5TB"/>
    <tag k="removemelater" v="yes"/>
  </node>
  <node id="-181" lat="53.51155894715839" lon="-2.57890085824382">
    <tag k="addr:postcode" v="WN2 5TD"/>
    <tag k="removemelater" v="yes"/>
  </node>
  <node id="-182" lat="53.507046931269315" lon="-2.5917007524742974">
    <tag k="addr:postcode" v="WN2 5YW"/>
    <tag k="removemelater" v="yes"/>
  </node>
  <node id="-183" lat="53.54339316365455" lon="-2.641147152576326">
    <tag k="addr:postcode" v="WN3 4AF"/>
    <tag k="removemelater" v="yes"/>
  </node>
  <node id="-184" lat="53.54300949665763" lon="-2.6389381147779276">
    <tag k="addr:postcode" v="WN3 4AG"/>
    <tag k="removemelater" v="yes"/>
  </node>
  <node id="-185" lat="53.54326903386816" lon="-2.6408283700396256">
    <tag k="addr:postcode" v="WN3 4AJ"/>
    <tag k="removemelater" v="yes"/>
  </node>
  <node id="-186" lat="53.54296659067193" lon="-2.643585390392345">
    <tag k="addr:postcode" v="WN3 4AP"/>
    <tag k="removemelater" v="yes"/>
  </node>
  <node id="-187" lat="53.54296821850812" lon="-2.639933476138392">
    <tag k="addr:postcode" v="WN3 4AQ"/>
    <tag k="removemelater" v="yes"/>
  </node>
  <node id="-188" lat="53.54253891236851" lon="-2.6428847373730964">
    <tag k="addr:postcode" v="WN3 4AR"/>
    <tag k="removemelater" v="yes"/>
  </node>
  <node id="-189" lat="53.54301014824262" lon="-2.643842592811177">
    <tag k="addr:postcode" v="WN3 4AS"/>
    <tag k="removemelater" v="yes"/>
  </node>
  <node id="-190" lat="53.54020599050639" lon="-2.6353950796936507">
    <tag k="addr:postcode" v="WN3 4AT"/>
    <tag k="removemelater" v="yes"/>
  </node>
  <node id="-191" lat="53.54020599050639" lon="-2.6353950796936507">
    <tag k="addr:postcode" v="WN3 4AW"/>
    <tag k="removemelater" v="yes"/>
  </node>
  <node id="-192" lat="53.542709930776226" lon="-2.6411670052265284">
    <tag k="addr:postcode" v="WN3 4AZ"/>
    <tag k="removemelater" v="yes"/>
  </node>
  <node id="-193" lat="53.541563943868745" lon="-2.6369546182975356">
    <tag k="addr:postcode" v="WN3 4BE"/>
    <tag k="removemelater" v="yes"/>
  </node>
  <node id="-194" lat="53.54230445845446" lon="-2.637991887622281">
    <tag k="addr:postcode" v="WN3 4BF"/>
    <tag k="removemelater" v="yes"/>
  </node>
  <node id="-195" lat="53.54225984164118" lon="-2.6379308548724327">
    <tag k="addr:postcode" v="WN3 4BG"/>
    <tag k="removemelater" v="yes"/>
  </node>
  <node id="-196" lat="53.5411462419819" lon="-2.637748115783268">
    <tag k="addr:postcode" v="WN3 4BL"/>
    <tag k="removemelater" v="yes"/>
  </node>
  <node id="-197" lat="53.5411462419819" lon="-2.637748115783268">
    <tag k="addr:postcode" v="WN3 4BN"/>
    <tag k="removemelater" v="yes"/>
  </node>
  <node id="-198" lat="53.54441647488114" lon="-2.641404081582751">
    <tag k="addr:postcode" v="WN3 4BS"/>
    <tag k="removemelater" v="yes"/>
  </node>
  <node id="-199" lat="53.543931367946364" lon="-2.643026572911465">
    <tag k="addr:postcode" v="WN3 4BT"/>
    <tag k="removemelater" v="yes"/>
  </node>
  <node id="-200" lat="53.54397598036078" lon="-2.639737408061413">
    <tag k="addr:postcode" v="WN3 4BW"/>
    <tag k="removemelater" v="yes"/>
  </node>
  <node id="-201" lat="53.54515229619458" lon="-2.638276192520791">
    <tag k="addr:postcode" v="WN3 4BZ"/>
    <tag k="removemelater" v="yes"/>
  </node>
  <node id="-202" lat="53.54476960627273" lon="-2.6375611420127805">
    <tag k="addr:postcode" v="WN3 4DP"/>
    <tag k="removemelater" v="yes"/>
  </node>
  <node id="-203" lat="53.54003978743387" lon="-2.6311373205065336">
    <tag k="addr:postcode" v="WN3 4DQ"/>
    <tag k="removemelater" v="yes"/>
  </node>
  <node id="-204" lat="53.5411462419819" lon="-2.637748115783268">
    <tag k="addr:postcode" v="WN3 4DU"/>
    <tag k="removemelater" v="yes"/>
  </node>
  <node id="-205" lat="53.542549706425554" lon="-2.634132407980234">
    <tag k="addr:postcode" v="WN3 4DZ"/>
    <tag k="removemelater" v="yes"/>
  </node>
  <node id="-206" lat="53.543055360158334" lon="-2.6353924950057337">
    <tag k="addr:postcode" v="WN3 4EA"/>
    <tag k="removemelater" v="yes"/>
  </node>
  <node id="-207" lat="53.540883681946895" lon="-2.6347261858156403">
    <tag k="addr:postcode" v="WN3 4ET"/>
    <tag k="removemelater" v="yes"/>
  </node>
  <node id="-208" lat="53.54235475938207" lon="-2.6386717138766533">
    <tag k="addr:postcode" v="WN3 4EU"/>
    <tag k="removemelater" v="yes"/>
  </node>
  <node id="-209" lat="53.538308525455435" lon="-2.6270526233414704">
    <tag k="addr:postcode" v="WN3 4HE"/>
    <tag k="removemelater" v="yes"/>
  </node>
  <node id="-210" lat="53.54003978743387" lon="-2.6311373205065336">
    <tag k="addr:postcode" v="WN3 4HS"/>
    <tag k="removemelater" v="yes"/>
  </node>
  <node id="-211" lat="53.541947329721076" lon="-2.6324634701521155">
    <tag k="addr:postcode" v="WN3 4HW"/>
    <tag k="removemelater" v="yes"/>
  </node>
  <node id="-212" lat="53.54696697062433" lon="-2.6350888941332777">
    <tag k="addr:postcode" v="WN3 4WY"/>
    <tag k="removemelater" v="yes"/>
  </node>
  <node id="-213" lat="53.54094379139092" lon="-2.6419853435402887">
    <tag k="addr:postcode" v="WN3 5AB"/>
    <tag k="removemelater" v="yes"/>
  </node>
  <node id="-214" lat="53.54280656102569" lon="-2.64492602554976">
    <tag k="addr:postcode" v="WN3 5AT"/>
    <tag k="removemelater" v="yes"/>
  </node>
  <node id="-215" lat="53.54136160220405" lon="-2.6411768029072635">
    <tag k="addr:postcode" v="WN3 5AW"/>
    <tag k="removemelater" v="yes"/>
  </node>
  <node id="-216" lat="53.54087310442903" lon="-2.6417579249634966">
    <tag k="addr:postcode" v="WN3 5DN"/>
    <tag k="removemelater" v="yes"/>
  </node>
  <node id="-217" lat="53.53250355502139" lon="-2.645327622059815">
    <tag k="addr:postcode" v="WN3 5TW"/>
    <tag k="removemelater" v="yes"/>
  </node>
  <node id="-218" lat="53.51674581969727" lon="-2.6586612744068754">
    <tag k="addr:postcode" v="WN3 6BB"/>
    <tag k="removemelater" v="yes"/>
  </node>
  <node id="-219" lat="53.52576077454643" lon="-2.679632962548016">
    <tag k="addr:postcode" v="WN3 6BD"/>
    <tag k="removemelater" v="yes"/>
  </node>
  <node id="-220" lat="53.522607427842374" lon="-2.688768294419159">
    <tag k="addr:postcode" v="WN3 6BE"/>
    <tag k="removemelater" v="yes"/>
  </node>
  <node id="-221" lat="53.52568823542966" lon="-2.6907189470410393">
    <tag k="addr:postcode" v="WN3 6BG"/>
    <tag k="removemelater" v="yes"/>
  </node>
  <node id="-222" lat="53.54696697062433" lon="-2.6350888941332777">
    <tag k="addr:postcode" v="WN3 6BX"/>
    <tag k="removemelater" v="yes"/>
  </node>
  <node id="-223" lat="53.5139881639612" lon="-2.683938457796331">
    <tag k="addr:postcode" v="WN3 6DL"/>
    <tag k="removemelater" v="yes"/>
  </node>
  <node id="-224" lat="53.521290768401904" lon="-2.668958053491731">
    <tag k="addr:postcode" v="WN3 6JN"/>
    <tag k="removemelater" v="yes"/>
  </node>
  <node id="-225" lat="53.52003751466146" lon="-2.6550472980339115">
    <tag k="addr:postcode" v="WN3 6XA"/>
    <tag k="removemelater" v="yes"/>
  </node>
  <node id="-226" lat="53.51726239967755" lon="-2.648021728498432">
    <tag k="addr:postcode" v="WN3 6XD"/>
    <tag k="removemelater" v="yes"/>
  </node>
  <node id="-227" lat="53.5189596101003" lon="-2.656553960265425">
    <tag k="addr:postcode" v="WN3 6XE"/>
    <tag k="removemelater" v="yes"/>
  </node>
  <node id="-228" lat="53.519085635649844" lon="-2.6548817874363544">
    <tag k="addr:postcode" v="WN3 6XJ"/>
    <tag k="removemelater" v="yes"/>
  </node>
  <node id="-229" lat="53.51743822495743" lon="-2.6553389845030266">
    <tag k="addr:postcode" v="WN3 6XP"/>
    <tag k="removemelater" v="yes"/>
  </node>
  <node id="-230" lat="53.51875037446039" lon="-2.653730378714478">
    <tag k="addr:postcode" v="WN3 6XR"/>
    <tag k="removemelater" v="yes"/>
  </node>
  <node id="-231" lat="53.51877575122756" lon="-2.655661274418241">
    <tag k="addr:postcode" v="WN3 6YD"/>
    <tag k="removemelater" v="yes"/>
  </node>
  <node id="-232" lat="53.4853647248711" lon="-2.660646370146175">
    <tag k="addr:postcode" v="WN4 0AD"/>
    <tag k="removemelater" v="yes"/>
  </node>
  <node id="-233" lat="53.51074501207274" lon="-2.6481484495369707">
    <tag k="addr:postcode" v="WN4 0BW"/>
    <tag k="removemelater" v="yes"/>
  </node>
  <node id="-234" lat="53.51174468877744" lon="-2.6494454724608327">
    <tag k="addr:postcode" v="WN4 0BZ"/>
    <tag k="removemelater" v="yes"/>
  </node>
  <node id="-235" lat="53.508613044328065" lon="-2.6534084476229736">
    <tag k="addr:postcode" v="WN4 0DA"/>
    <tag k="removemelater" v="yes"/>
  </node>
  <node id="-236" lat="53.507301042900515" lon="-2.648397445534724">
    <tag k="addr:postcode" v="WN4 0EJ"/>
    <tag k="removemelater" v="yes"/>
  </node>
  <node id="-237" lat="53.51514372616742" lon="-2.6358192091882393">
    <tag k="addr:postcode" v="WN4 0EL"/>
    <tag k="removemelater" v="yes"/>
  </node>
  <node id="-238" lat="53.5070971701457" lon="-2.6495251766674484">
    <tag k="addr:postcode" v="WN4 0EP"/>
    <tag k="removemelater" v="yes"/>
  </node>
  <node id="-239" lat="53.50941519898499" lon="-2.659557840723854">
    <tag k="addr:postcode" v="WN4 0JA"/>
    <tag k="removemelater" v="yes"/>
  </node>
  <node id="-240" lat="53.49676112670876" lon="-2.6673205835856915">
    <tag k="addr:postcode" v="WN4 0QE"/>
    <tag k="removemelater" v="yes"/>
  </node>
  <node id="-241" lat="53.54696697062433" lon="-2.6350888941332777">
    <tag k="addr:postcode" v="WN4 0TW"/>
    <tag k="removemelater" v="yes"/>
  </node>
  <node id="-242" lat="53.48825295277097" lon="-2.664986573562118">
    <tag k="addr:postcode" v="WN4 0YA"/>
    <tag k="removemelater" v="yes"/>
  </node>
  <node id="-243" lat="53.486620436625984" lon="-2.6611330802118673">
    <tag k="addr:postcode" v="WN4 0YU"/>
    <tag k="removemelater" v="yes"/>
  </node>
  <node id="-244" lat="53.49754399250105" lon="-2.634153839891771">
    <tag k="addr:postcode" v="WN4 8BT"/>
    <tag k="removemelater" v="yes"/>
  </node>
  <node id="-245" lat="53.49916332640168" lon="-2.633891586892054">
    <tag k="addr:postcode" v="WN4 8DE"/>
    <tag k="removemelater" v="yes"/>
  </node>
  <node id="-246" lat="53.50115872419903" lon="-2.6372832675993436">
    <tag k="addr:postcode" v="WN4 8DT"/>
    <tag k="removemelater" v="yes"/>
  </node>
  <node id="-247" lat="53.50199145681768" lon="-2.63788372923081">
    <tag k="addr:postcode" v="WN4 8DU"/>
    <tag k="removemelater" v="yes"/>
  </node>
  <node id="-248" lat="53.50216803961677" lon="-2.6418363353153844">
    <tag k="addr:postcode" v="WN4 8DY"/>
    <tag k="removemelater" v="yes"/>
  </node>
  <node id="-249" lat="53.54696697062433" lon="-2.6350888941332777">
    <tag k="addr:postcode" v="WN4 8FA"/>
    <tag k="removemelater" v="yes"/>
  </node>
  <node id="-250" lat="53.49957876881159" lon="-2.6385861857182866">
    <tag k="addr:postcode" v="WN4 8SS"/>
    <tag k="removemelater" v="yes"/>
  </node>
  <node id="-251" lat="53.49488015063131" lon="-2.6070871862620693">
    <tag k="addr:postcode" v="WN4 8YF"/>
    <tag k="removemelater" v="yes"/>
  </node>
  <node id="-252" lat="53.496394047864285" lon="-2.6081037092186463">
    <tag k="addr:postcode" v="WN4 8YG"/>
    <tag k="removemelater" v="yes"/>
  </node>
  <node id="-253" lat="53.54696697062433" lon="-2.6350888941332777">
    <tag k="addr:postcode" v="WN4 8YJ"/>
    <tag k="removemelater" v="yes"/>
  </node>
  <node id="-254" lat="53.48711319298414" lon="-2.636605434935769">
    <tag k="addr:postcode" v="WN4 9AB"/>
    <tag k="removemelater" v="yes"/>
  </node>
  <node id="-255" lat="53.486498563339694" lon="-2.6372442641731797">
    <tag k="addr:postcode" v="WN4 9AG"/>
    <tag k="removemelater" v="yes"/>
  </node>
  <node id="-256" lat="53.48635797102604" lon="-2.6366393340571013">
    <tag k="addr:postcode" v="WN4 9AN"/>
    <tag k="removemelater" v="yes"/>
  </node>
  <node id="-257" lat="53.48769652103749" lon="-2.6367799542930435">
    <tag k="addr:postcode" v="WN4 9AP"/>
    <tag k="removemelater" v="yes"/>
  </node>
  <node id="-258" lat="53.48764780155746" lon="-2.6408483971302967">
    <tag k="addr:postcode" v="WN4 9AZ"/>
    <tag k="removemelater" v="yes"/>
  </node>
  <node id="-259" lat="53.487825112259195" lon="-2.6396303138628046">
    <tag k="addr:postcode" v="WN4 9BA"/>
    <tag k="removemelater" v="yes"/>
  </node>
  <node id="-260" lat="53.48690719459142" lon="-2.636466712503287">
    <tag k="addr:postcode" v="WN4 9BL"/>
    <tag k="removemelater" v="yes"/>
  </node>
  <node id="-261" lat="53.50261062924734" lon="-2.6414359626540973">
    <tag k="addr:postcode" v="WN4 9DW"/>
    <tag k="removemelater" v="yes"/>
  </node>
  <node id="-262" lat="53.50445235461189" lon="-2.6382523822614132">
    <tag k="addr:postcode" v="WN4 9GD"/>
    <tag k="removemelater" v="yes"/>
  </node>
  <node id="-263" lat="53.48977237640394" lon="-2.6452512492938602">
    <tag k="addr:postcode" v="WN4 9QL"/>
    <tag k="removemelater" v="yes"/>
  </node>
  <node id="-264" lat="53.492646352522186" lon="-2.650660805780016">
    <tag k="addr:postcode" v="WN4 9RN"/>
    <tag k="removemelater" v="yes"/>
  </node>
  <node id="-265" lat="53.497950052184365" lon="-2.6439433583500094">
    <tag k="addr:postcode" v="WN4 9TA"/>
    <tag k="removemelater" v="yes"/>
  </node>
  <node id="-266" lat="53.49343417267572" lon="-2.6446134960265435">
    <tag k="addr:postcode" v="WN4 9TP"/>
    <tag k="removemelater" v="yes"/>
  </node>
  <node id="-267" lat="53.54696697062433" lon="-2.6350888941332777">
    <tag k="addr:postcode" v="WN5 0FB"/>
    <tag k="removemelater" v="yes"/>
  </node>
  <node id="-268" lat="53.54696697062433" lon="-2.6350888941332777">
    <tag k="addr:postcode" v="WN5 0FS"/>
    <tag k="removemelater" v="yes"/>
  </node>
  <node id="-269" lat="53.55250793138158" lon="-2.689525635623271">
    <tag k="addr:postcode" v="WN5 0JL"/>
    <tag k="removemelater" v="yes"/>
  </node>
  <node id="-270" lat="53.55207456485577" lon="-2.680447132641634">
    <tag k="addr:postcode" v="WN5 0JZ"/>
    <tag k="removemelater" v="yes"/>
  </node>
  <node id="-271" lat="53.55320351306695" lon="-2.6731445016674584">
    <tag k="addr:postcode" v="WN5 0LA"/>
    <tag k="removemelater" v="yes"/>
  </node>
  <node id="-272" lat="53.55310178749827" lon="-2.6815805968728754">
    <tag k="addr:postcode" v="WN5 0LB"/>
    <tag k="removemelater" v="yes"/>
  </node>
  <node id="-273" lat="53.55342735678647" lon="-2.670098985992984">
    <tag k="addr:postcode" v="WN5 0LE"/>
    <tag k="removemelater" v="yes"/>
  </node>
  <node id="-274" lat="53.554870933067185" lon="-2.6755257847799054">
    <tag k="addr:postcode" v="WN5 0LF"/>
    <tag k="removemelater" v="yes"/>
  </node>
  <node id="-275" lat="53.55579764297542" lon="-2.6737744074063303">
    <tag k="addr:postcode" v="WN5 0LG"/>
    <tag k="removemelater" v="yes"/>
  </node>
  <node id="-276" lat="53.55419914447001" lon="-2.6985797720681077">
    <tag k="addr:postcode" v="WN5 0LJ"/>
    <tag k="removemelater" v="yes"/>
  </node>
  <node id="-277" lat="53.55330060625383" lon="-2.671863022623912">
    <tag k="addr:postcode" v="WN5 0LP"/>
    <tag k="removemelater" v="yes"/>
  </node>
  <node id="-278" lat="53.553693971038804" lon="-2.6754315587208097">
    <tag k="addr:postcode" v="WN5 0LR"/>
    <tag k="removemelater" v="yes"/>
  </node>
  <node id="-279" lat="53.55533889018986" lon="-2.6754275758913963">
    <tag k="addr:postcode" v="WN5 0LS"/>
    <tag k="removemelater" v="yes"/>
  </node>
  <node id="-280" lat="53.54059033587688" lon="-2.6524825056301498">
    <tag k="addr:postcode" v="WN5 0TQ"/>
    <tag k="removemelater" v="yes"/>
  </node>
  <node id="-281" lat="53.5463186141676" lon="-2.6569321863904936">
    <tag k="addr:postcode" v="WN5 0UJ"/>
    <tag k="removemelater" v="yes"/>
  </node>
  <node id="-282" lat="53.54573370572259" lon="-2.655413960352767">
    <tag k="addr:postcode" v="WN5 0UL"/>
    <tag k="removemelater" v="yes"/>
  </node>
  <node id="-283" lat="53.54951027963203" lon="-2.658430561404908">
    <tag k="addr:postcode" v="WN5 0UN"/>
    <tag k="removemelater" v="yes"/>
  </node>
  <node id="-284" lat="53.540967881813984" lon="-2.6508284185375253">
    <tag k="addr:postcode" v="WN5 0UU"/>
    <tag k="removemelater" v="yes"/>
  </node>
  <node id="-285" lat="53.543173085806906" lon="-2.650273719147669">
    <tag k="addr:postcode" v="WN5 0UW"/>
    <tag k="removemelater" v="yes"/>
  </node>
  <node id="-286" lat="53.54303010234357" lon="-2.650120620018529">
    <tag k="addr:postcode" v="WN5 0UX"/>
    <tag k="removemelater" v="yes"/>
  </node>
  <node id="-287" lat="53.54696697062433" lon="-2.6350888941332777">
    <tag k="addr:postcode" v="WN5 0WA"/>
    <tag k="removemelater" v="yes"/>
  </node>
  <node id="-288" lat="53.543232715390836" lon="-2.6508782637565433">
    <tag k="addr:postcode" v="WN5 0XA"/>
    <tag k="removemelater" v="yes"/>
  </node>
  <node id="-289" lat="53.54137326945204" lon="-2.6490087372703743">
    <tag k="addr:postcode" v="WN5 0XD"/>
    <tag k="removemelater" v="yes"/>
  </node>
  <node id="-290" lat="53.54428515394327" lon="-2.6474234553938123">
    <tag k="addr:postcode" v="WN5 0XN"/>
    <tag k="removemelater" v="yes"/>
  </node>
  <node id="-291" lat="53.527513012862464" lon="-2.71515652954328">
    <tag k="addr:postcode" v="WN5 7BD"/>
    <tag k="removemelater" v="yes"/>
  </node>
  <node id="-292" lat="53.520914259926094" lon="-2.7153470066506054">
    <tag k="addr:postcode" v="WN5 7DL"/>
    <tag k="removemelater" v="yes"/>
  </node>
  <node id="-293" lat="53.52356020277055" lon="-2.716296630439756">
    <tag k="addr:postcode" v="WN5 7DN"/>
    <tag k="removemelater" v="yes"/>
  </node>
  <node id="-294" lat="53.51726536376249" lon="-2.727184898557107">
    <tag k="addr:postcode" v="WN5 7DP"/>
    <tag k="removemelater" v="yes"/>
  </node>
  <node id="-295" lat="53.52081955151403" lon="-2.7191462895657845">
    <tag k="addr:postcode" v="WN5 7DR"/>
    <tag k="removemelater" v="yes"/>
  </node>
  <node id="-296" lat="53.521651471804745" lon="-2.716822496088633">
    <tag k="addr:postcode" v="WN5 7DS"/>
    <tag k="removemelater" v="yes"/>
  </node>
  <node id="-297" lat="53.51861549081945" lon="-2.7149613817848657">
    <tag k="addr:postcode" v="WN5 7DT"/>
    <tag k="removemelater" v="yes"/>
  </node>
  <node id="-298" lat="53.515993125002005" lon="-2.716078466986374">
    <tag k="addr:postcode" v="WN5 7DU"/>
    <tag k="removemelater" v="yes"/>
  </node>
  <node id="-299" lat="53.521499248929814" lon="-2.7182226532251024">
    <tag k="addr:postcode" v="WN5 7DW"/>
    <tag k="removemelater" v="yes"/>
  </node>
  <node id="-300" lat="53.51809501739576" lon="-2.7148168791676732">
    <tag k="addr:postcode" v="WN5 7DX"/>
    <tag k="removemelater" v="yes"/>
  </node>
  <node id="-301" lat="53.517080221402274" lon="-2.7146640585848436">
    <tag k="addr:postcode" v="WN5 7DY"/>
    <tag k="removemelater" v="yes"/>
  </node>
  <node id="-302" lat="53.51748171676102" lon="-2.7136603459261526">
    <tag k="addr:postcode" v="WN5 7DZ"/>
    <tag k="removemelater" v="yes"/>
  </node>
  <node id="-303" lat="53.51704546052376" lon="-2.7129592628649575">
    <tag k="addr:postcode" v="WN5 7EA"/>
    <tag k="removemelater" v="yes"/>
  </node>
  <node id="-304" lat="53.51646707493337" lon="-2.714985525751924">
    <tag k="addr:postcode" v="WN5 7EB"/>
    <tag k="removemelater" v="yes"/>
  </node>
  <node id="-305" lat="53.517869627559456" lon="-2.7134255582060556">
    <tag k="addr:postcode" v="WN5 7ED"/>
    <tag k="removemelater" v="yes"/>
  </node>
  <node id="-306" lat="53.51842722379047" lon="-2.71337460096913">
    <tag k="addr:postcode" v="WN5 7EF"/>
    <tag k="removemelater" v="yes"/>
  </node>
  <node id="-307" lat="53.51453502109957" lon="-2.7118916241319275">
    <tag k="addr:postcode" v="WN5 7EH"/>
    <tag k="removemelater" v="yes"/>
  </node>
  <node id="-308" lat="53.51505555800099" lon="-2.7150371590988818">
    <tag k="addr:postcode" v="WN5 7EJ"/>
    <tag k="removemelater" v="yes"/>
  </node>
  <node id="-309" lat="53.51507876286287" lon="-2.714162862828016">
    <tag k="addr:postcode" v="WN5 7EL"/>
    <tag k="removemelater" v="yes"/>
  </node>
  <node id="-310" lat="53.51595865454651" lon="-2.714328475118106">
    <tag k="addr:postcode" v="WN5 7EN"/>
    <tag k="removemelater" v="yes"/>
  </node>
  <node id="-311" lat="53.515379499432385" lon="-2.713474199348984">
    <tag k="addr:postcode" v="WN5 7EP"/>
    <tag k="removemelater" v="yes"/>
  </node>
  <node id="-312" lat="53.51527219115661" lon="-2.711873822918952">
    <tag k="addr:postcode" v="WN5 7EQ"/>
    <tag k="removemelater" v="yes"/>
  </node>
  <node id="-313" lat="53.514323536050156" lon="-2.7111792927379805">
    <tag k="addr:postcode" v="WN5 7ER"/>
    <tag k="removemelater" v="yes"/>
  </node>
  <node id="-314" lat="53.516670062521946" lon="-2.720101532019719">
    <tag k="addr:postcode" v="WN5 7EU"/>
    <tag k="removemelater" v="yes"/>
  </node>
  <node id="-315" lat="53.516531723028365" lon="-2.713191936576141">
    <tag k="addr:postcode" v="WN5 7EW"/>
    <tag k="removemelater" v="yes"/>
  </node>
  <node id="-316" lat="53.51518070887151" lon="-2.7166529176961367">
    <tag k="addr:postcode" v="WN5 7EX"/>
    <tag k="removemelater" v="yes"/>
  </node>
  <node id="-317" lat="53.51201000016818" lon="-2.719268513565964">
    <tag k="addr:postcode" v="WN5 7EZ"/>
    <tag k="removemelater" v="yes"/>
  </node>
  <node id="-318" lat="53.52004239012888" lon="-2.7228132729544834">
    <tag k="addr:postcode" v="WN5 7FP"/>
    <tag k="removemelater" v="yes"/>
  </node>
  <node id="-319" lat="53.5206875312014" lon="-2.7216628820448086">
    <tag k="addr:postcode" v="WN5 7FQ"/>
    <tag k="removemelater" v="yes"/>
  </node>
  <node id="-320" lat="53.52042557476861" lon="-2.723362775695038">
    <tag k="addr:postcode" v="WN5 7FR"/>
    <tag k="removemelater" v="yes"/>
  </node>
  <node id="-321" lat="53.51973904305002" lon="-2.7239242108375237">
    <tag k="addr:postcode" v="WN5 7FS"/>
    <tag k="removemelater" v="yes"/>
  </node>
  <node id="-322" lat="53.51426158297958" lon="-2.709504317572529">
    <tag k="addr:postcode" v="WN5 7JH"/>
    <tag k="removemelater" v="yes"/>
  </node>
  <node id="-323" lat="53.513981274130025" lon="-2.7143102872145786">
    <tag k="addr:postcode" v="WN5 7JU"/>
    <tag k="removemelater" v="yes"/>
  </node>
  <node id="-324" lat="53.514032044658286" lon="-2.714838956768467">
    <tag k="addr:postcode" v="WN5 7JX"/>
    <tag k="removemelater" v="yes"/>
  </node>
  <node id="-325" lat="53.51364712594707" lon="-2.7130680808278207">
    <tag k="addr:postcode" v="WN5 7JY"/>
    <tag k="removemelater" v="yes"/>
  </node>
  <node id="-326" lat="53.51338243251361" lon="-2.7137422448802067">
    <tag k="addr:postcode" v="WN5 7JZ"/>
    <tag k="removemelater" v="yes"/>
  </node>
  <node id="-327" lat="53.49823067517224" lon="-2.6949305529609187">
    <tag k="addr:postcode" v="WN5 7TA"/>
    <tag k="removemelater" v="yes"/>
  </node>
  <node id="-328" lat="53.49671623609874" lon="-2.6910316922969986">
    <tag k="addr:postcode" v="WN5 7TB"/>
    <tag k="removemelater" v="yes"/>
  </node>
  <node id="-329" lat="53.49171082203225" lon="-2.7107404907836847">
    <tag k="addr:postcode" v="WN5 7TT"/>
    <tag k="removemelater" v="yes"/>
  </node>
  <node id="-330" lat="53.52916502822128" lon="-2.704880761625206">
    <tag k="addr:postcode" v="WN5 7XB"/>
    <tag k="removemelater" v="yes"/>
  </node>
  <node id="-331" lat="53.5240791013177" lon="-2.701553232717634">
    <tag k="addr:postcode" v="WN5 7XF"/>
    <tag k="removemelater" v="yes"/>
  </node>
  <node id="-332" lat="53.509357489285776" lon="-2.6857788757749765">
    <tag k="addr:postcode" v="WN5 7XX"/>
    <tag k="removemelater" v="yes"/>
  </node>
  <node id="-333" lat="53.53336022266945" lon="-2.6741422243195943">
    <tag k="addr:postcode" v="WN5 8DB"/>
    <tag k="removemelater" v="yes"/>
  </node>
  <node id="-334" lat="53.53331157356984" lon="-2.676389451994127">
    <tag k="addr:postcode" v="WN5 8EA"/>
    <tag k="removemelater" v="yes"/>
  </node>
  <node id="-335" lat="53.53171995236685" lon="-2.681252166934953">
    <tag k="addr:postcode" v="WN5 8EG"/>
    <tag k="removemelater" v="yes"/>
  </node>
  <node id="-336" lat="53.53158602969522" lon="-2.6779309551530037">
    <tag k="addr:postcode" v="WN5 8EN"/>
    <tag k="removemelater" v="yes"/>
  </node>
  <node id="-337" lat="53.53444682480158" lon="-2.6727261629976575">
    <tag k="addr:postcode" v="WN5 8ET"/>
    <tag k="removemelater" v="yes"/>
  </node>
  <node id="-338" lat="53.54696697062433" lon="-2.6350888941332777">
    <tag k="addr:postcode" v="WN5 8FQ"/>
    <tag k="removemelater" v="yes"/>
  </node>
  <node id="-339" lat="53.53166605529978" lon="-2.679667200945737">
    <tag k="addr:postcode" v="WN5 8FR"/>
    <tag k="removemelater" v="yes"/>
  </node>
  <node id="-340" lat="53.54009389251114" lon="-2.649562567932352">
    <tag k="addr:postcode" v="WN5 9AD"/>
    <tag k="removemelater" v="yes"/>
  </node>
  <node id="-341" lat="53.535275874417984" lon="-2.6691483777396727">
    <tag k="addr:postcode" v="WN5 9HF"/>
    <tag k="removemelater" v="yes"/>
  </node>
  <node id="-342" lat="53.57340516749717" lon="-2.6445913614235925">
    <tag k="addr:postcode" v="WN6 0AD"/>
    <tag k="removemelater" v="yes"/>
  </node>
  <node id="-343" lat="53.57654386620921" lon="-2.647599234670052">
    <tag k="addr:postcode" v="WN6 0AH"/>
    <tag k="removemelater" v="yes"/>
  </node>
  <node id="-344" lat="53.57973146028106" lon="-2.6580846675131142">
    <tag k="addr:postcode" v="WN6 0AR"/>
    <tag k="removemelater" v="yes"/>
  </node>
  <node id="-345" lat="53.575650809887506" lon="-2.648189673906121">
    <tag k="addr:postcode" v="WN6 0AS"/>
    <tag k="removemelater" v="yes"/>
  </node>
  <node id="-346" lat="53.576197423031175" lon="-2.648500087888242">
    <tag k="addr:postcode" v="WN6 0AT"/>
    <tag k="removemelater" v="yes"/>
  </node>
  <node id="-347" lat="53.57564327152603" lon="-2.6495789698319454">
    <tag k="addr:postcode" v="WN6 0AU"/>
    <tag k="removemelater" v="yes"/>
  </node>
  <node id="-348" lat="53.57682538130409" lon="-2.6503824385987844">
    <tag k="addr:postcode" v="WN6 0AX"/>
    <tag k="removemelater" v="yes"/>
  </node>
  <node id="-349" lat="53.57833723936715" lon="-2.6533507880674696">
    <tag k="addr:postcode" v="WN6 0AY"/>
    <tag k="removemelater" v="yes"/>
  </node>
  <node id="-350" lat="53.58027520665217" lon="-2.657277502412917">
    <tag k="addr:postcode" v="WN6 0AZ"/>
    <tag k="removemelater" v="yes"/>
  </node>
  <node id="-351" lat="53.578505035835285" lon="-2.652250833950705">
    <tag k="addr:postcode" v="WN6 0BQ"/>
    <tag k="removemelater" v="yes"/>
  </node>
  <node id="-352" lat="53.583500541626336" lon="-2.657554136354963">
    <tag k="addr:postcode" v="WN6 0EP"/>
    <tag k="removemelater" v="yes"/>
  </node>
  <node id="-353" lat="53.585849744070075" lon="-2.6634819334714708">
    <tag k="addr:postcode" v="WN6 0HA"/>
    <tag k="removemelater" v="yes"/>
  </node>
  <node id="-354" lat="53.585965829594464" lon="-2.6636197062326525">
    <tag k="addr:postcode" v="WN6 0HB"/>
    <tag k="removemelater" v="yes"/>
  </node>
  <node id="-355" lat="53.584553011995" lon="-2.660667102226578">
    <tag k="addr:postcode" v="WN6 0HD"/>
    <tag k="removemelater" v="yes"/>
  </node>
  <node id="-356" lat="53.58529322756653" lon="-2.6617209471594223">
    <tag k="addr:postcode" v="WN6 0HF"/>
    <tag k="removemelater" v="yes"/>
  </node>
  <node id="-357" lat="53.58692162245017" lon="-2.66307575116475">
    <tag k="addr:postcode" v="WN6 0HN"/>
    <tag k="removemelater" v="yes"/>
  </node>
  <node id="-358" lat="53.58702251732492" lon="-2.6643311595161476">
    <tag k="addr:postcode" v="WN6 0HP"/>
    <tag k="removemelater" v="yes"/>
  </node>
  <node id="-359" lat="53.586240987067185" lon="-2.662627016646961">
    <tag k="addr:postcode" v="WN6 0HQ"/>
    <tag k="removemelater" v="yes"/>
  </node>
  <node id="-360" lat="53.58677178538127" lon="-2.664161056782415">
    <tag k="addr:postcode" v="WN6 0HR"/>
    <tag k="removemelater" v="yes"/>
  </node>
  <node id="-361" lat="53.58788894740302" lon="-2.6653115805067795">
    <tag k="addr:postcode" v="WN6 0JL"/>
    <tag k="removemelater" v="yes"/>
  </node>
  <node id="-362" lat="53.58809779965095" lon="-2.661689242197332">
    <tag k="addr:postcode" v="WN6 0JR"/>
    <tag k="removemelater" v="yes"/>
  </node>
  <node id="-363" lat="53.58553890209374" lon="-2.661180976099691">
    <tag k="addr:postcode" v="WN6 0JS"/>
    <tag k="removemelater" v="yes"/>
  </node>
  <node id="-364" lat="53.58771383590429" lon="-2.661230043677792">
    <tag k="addr:postcode" v="WN6 0JZ"/>
    <tag k="removemelater" v="yes"/>
  </node>
  <node id="-365" lat="53.59303606061955" lon="-2.6802743592641596">
    <tag k="addr:postcode" v="WN6 0PR"/>
    <tag k="removemelater" v="yes"/>
  </node>
  <node id="-366" lat="53.59392115574337" lon="-2.6779467117176785">
    <tag k="addr:postcode" v="WN6 0PS"/>
    <tag k="removemelater" v="yes"/>
  </node>
  <node id="-367" lat="53.595767172284866" lon="-2.6661455428733594">
    <tag k="addr:postcode" v="WN6 0QQ"/>
    <tag k="removemelater" v="yes"/>
  </node>
  <node id="-368" lat="53.585621029366266" lon="-2.665819759408944">
    <tag k="addr:postcode" v="WN6 0TG"/>
    <tag k="removemelater" v="yes"/>
  </node>
  <node id="-369" lat="53.58298594213009" lon="-2.6628479746200426">
    <tag k="addr:postcode" v="WN6 0TN"/>
    <tag k="removemelater" v="yes"/>
  </node>
  <node id="-370" lat="53.58388808450786" lon="-2.6638741465982925">
    <tag k="addr:postcode" v="WN6 0TP"/>
    <tag k="removemelater" v="yes"/>
  </node>
  <node id="-371" lat="53.58236424706017" lon="-2.6614939256381316">
    <tag k="addr:postcode" v="WN6 0TR"/>
    <tag k="removemelater" v="yes"/>
  </node>
  <node id="-372" lat="53.58366277932167" lon="-2.6623600978840165">
    <tag k="addr:postcode" v="WN6 0TT"/>
    <tag k="removemelater" v="yes"/>
  </node>
  <node id="-373" lat="53.58201769956574" lon="-2.662394787692686">
    <tag k="addr:postcode" v="WN6 0TU"/>
    <tag k="removemelater" v="yes"/>
  </node>
  <node id="-374" lat="53.58367615114185" lon="-2.663191091500875">
    <tag k="addr:postcode" v="WN6 0TW"/>
    <tag k="removemelater" v="yes"/>
  </node>
  <node id="-375" lat="53.5810932524849" lon="-2.6637699205944685">
    <tag k="addr:postcode" v="WN6 0TX"/>
    <tag k="removemelater" v="yes"/>
  </node>
  <node id="-376" lat="53.577578227451625" lon="-2.6540791272794593">
    <tag k="addr:postcode" v="WN6 0UA"/>
    <tag k="removemelater" v="yes"/>
  </node>
  <node id="-377" lat="53.57702362914599" lon="-2.6519410698994417">
    <tag k="addr:postcode" v="WN6 0UB"/>
    <tag k="removemelater" v="yes"/>
  </node>
  <node id="-378" lat="53.57744654524451" lon="-2.651856961329695">
    <tag k="addr:postcode" v="WN6 0UD"/>
    <tag k="removemelater" v="yes"/>
  </node>
  <node id="-379" lat="53.58249029708374" lon="-2.6646981014028386">
    <tag k="addr:postcode" v="WN6 0UF"/>
    <tag k="removemelater" v="yes"/>
  </node>
  <node id="-380" lat="53.57680743188335" lon="-2.653674554685288">
    <tag k="addr:postcode" v="WN6 0UH"/>
    <tag k="removemelater" v="yes"/>
  </node>
  <node id="-381" lat="53.57717072354742" lon="-2.65463164016345">
    <tag k="addr:postcode" v="WN6 0UJ"/>
    <tag k="removemelater" v="yes"/>
  </node>
  <node id="-382" lat="53.57800395178454" lon="-2.6534815755120373">
    <tag k="addr:postcode" v="WN6 0UP"/>
    <tag k="removemelater" v="yes"/>
  </node>
  <node id="-383" lat="53.54696697062433" lon="-2.6350888941332777">
    <tag k="addr:postcode" v="WN6 0WT"/>
    <tag k="removemelater" v="yes"/>
  </node>
  <node id="-384" lat="53.588963242326855" lon="-2.646429539432703">
    <tag k="addr:postcode" v="WN6 0XD"/>
    <tag k="removemelater" v="yes"/>
  </node>
  <node id="-385" lat="53.57093315822893" lon="-2.6610889325133003">
    <tag k="addr:postcode" v="WN6 0YA"/>
    <tag k="removemelater" v="yes"/>
  </node>
  <node id="-386" lat="53.596294735103314" lon="-2.648656849077173">
    <tag k="addr:postcode" v="WN6 0YR"/>
    <tag k="removemelater" v="yes"/>
  </node>
  <node id="-387" lat="53.59254238523004" lon="-2.6477683966402425">
    <tag k="addr:postcode" v="WN6 0YS"/>
    <tag k="removemelater" v="yes"/>
  </node>
  <node id="-388" lat="53.54709166808925" lon="-2.6403579116210754">
    <tag k="addr:postcode" v="WN6 7DB"/>
    <tag k="removemelater" v="yes"/>
  </node>
  <node id="-389" lat="53.54696697062433" lon="-2.6350888941332777">
    <tag k="addr:postcode" v="WN6 7JZ"/>
    <tag k="removemelater" v="yes"/>
  </node>
  <node id="-390" lat="53.549470956351534" lon="-2.6508381811076305">
    <tag k="addr:postcode" v="WN6 7LA"/>
    <tag k="removemelater" v="yes"/>
  </node>
  <node id="-391" lat="53.54946722775554" lon="-2.6448914920457725">
    <tag k="addr:postcode" v="WN6 7LB"/>
    <tag k="removemelater" v="yes"/>
  </node>
  <node id="-392" lat="53.54938840277901" lon="-2.647833417439498">
    <tag k="addr:postcode" v="WN6 7LH"/>
    <tag k="removemelater" v="yes"/>
  </node>
  <node id="-393" lat="53.55016534523883" lon="-2.6487659747078696">
    <tag k="addr:postcode" v="WN6 7LL"/>
    <tag k="removemelater" v="yes"/>
  </node>
  <node id="-394" lat="53.54904237521075" lon="-2.6469980255245202">
    <tag k="addr:postcode" v="WN6 7LQ"/>
    <tag k="removemelater" v="yes"/>
  </node>
  <node id="-395" lat="53.545638277827415" lon="-2.644863447394568">
    <tag k="addr:postcode" v="WN6 7TL"/>
    <tag k="removemelater" v="yes"/>
  </node>
  <node id="-396" lat="53.54578838259365" lon="-2.6453637548084354">
    <tag k="addr:postcode" v="WN6 7TN"/>
    <tag k="removemelater" v="yes"/>
  </node>
  <node id="-397" lat="53.54683747446719" lon="-2.644172357634975">
    <tag k="addr:postcode" v="WN6 7TP"/>
    <tag k="removemelater" v="yes"/>
  </node>
  <node id="-398" lat="53.57621599835275" lon="-2.6791584754758913">
    <tag k="addr:postcode" v="WN6 8AG"/>
    <tag k="removemelater" v="yes"/>
  </node>
  <node id="-399" lat="53.56244948354225" lon="-2.6941411673538527">
    <tag k="addr:postcode" v="WN6 8FP"/>
    <tag k="removemelater" v="yes"/>
  </node>
  <node id="-400" lat="53.56322628582453" lon="-2.6682307923998505">
    <tag k="addr:postcode" v="WN6 8LB"/>
    <tag k="removemelater" v="yes"/>
  </node>
  <node id="-401" lat="53.56252105461511" lon="-2.64274997532769">
    <tag k="addr:postcode" v="WN6 8RN"/>
    <tag k="removemelater" v="yes"/>
  </node>
  <node id="-402" lat="53.564672182635235" lon="-2.6554652469396545">
    <tag k="addr:postcode" v="WN6 8RY"/>
    <tag k="removemelater" v="yes"/>
  </node>
  <node id="-403" lat="53.54696697062433" lon="-2.6350888941332777">
    <tag k="addr:postcode" v="WN6 8WR"/>
    <tag k="removemelater" v="yes"/>
  </node>
  <node id="-404" lat="53.54696697062433" lon="-2.6350888941332777">
    <tag k="addr:postcode" v="WN6 8WY"/>
    <tag k="removemelater" v="yes"/>
  </node>
  <node id="-405" lat="53.578773118579626" lon="-2.7228786816086745">
    <tag k="addr:postcode" v="WN6 9AB"/>
    <tag k="removemelater" v="yes"/>
  </node>
  <node id="-406" lat="53.59164232103543" lon="-2.7127795842911016">
    <tag k="addr:postcode" v="WN6 9EN"/>
    <tag k="removemelater" v="yes"/>
  </node>
  <node id="-407" lat="53.58984202571229" lon="-2.711706865115194">
    <tag k="addr:postcode" v="WN6 9EP"/>
    <tag k="removemelater" v="yes"/>
  </node>
  <node id="-408" lat="53.59100302871079" lon="-2.709943657316364">
    <tag k="addr:postcode" v="WN6 9ES"/>
    <tag k="removemelater" v="yes"/>
  </node>
  <node id="-409" lat="53.496697874778086" lon="-2.5105631919601543">
    <tag k="addr:postcode" v="WN7 1BP"/>
    <tag k="removemelater" v="yes"/>
  </node>
  <node id="-410" lat="53.4977716298654" lon="-2.5200278124055533">
    <tag k="addr:postcode" v="WN7 1EB"/>
    <tag k="removemelater" v="yes"/>
  </node>
  <node id="-411" lat="53.50441176656187" lon="-2.5122540728913556">
    <tag k="addr:postcode" v="WN7 1HS"/>
    <tag k="removemelater" v="yes"/>
  </node>
  <node id="-412" lat="53.50349580085668" lon="-2.5224347638926443">
    <tag k="addr:postcode" v="WN7 1RD"/>
    <tag k="removemelater" v="yes"/>
  </node>
  <node id="-413" lat="53.49592277551333" lon="-2.511051313265758">
    <tag k="addr:postcode" v="WN7 1YB"/>
    <tag k="removemelater" v="yes"/>
  </node>
  <node id="-414" lat="53.49866879270765" lon="-2.520415666504819">
    <tag k="addr:postcode" v="WN7 1YL"/>
    <tag k="removemelater" v="yes"/>
  </node>
  <node id="-415" lat="53.49352049053348" lon="-2.4901614012253837">
    <tag k="addr:postcode" v="WN7 2LU"/>
    <tag k="removemelater" v="yes"/>
  </node>
  <node id="-416" lat="53.493133734824205" lon="-2.50955569670415">
    <tag k="addr:postcode" v="WN7 2PW"/>
    <tag k="removemelater" v="yes"/>
  </node>
  <node id="-417" lat="53.503813619012895" lon="-2.4832243324899346">
    <tag k="addr:postcode" v="WN7 2XY"/>
    <tag k="removemelater" v="yes"/>
  </node>
  <node id="-418" lat="53.48958346074395" lon="-2.505278002120101">
    <tag k="addr:postcode" v="WN7 3EQ"/>
    <tag k="removemelater" v="yes"/>
  </node>
  <node id="-419" lat="53.47764412579798" lon="-2.542744248114073">
    <tag k="addr:postcode" v="WN7 3GP"/>
    <tag k="removemelater" v="yes"/>
  </node>
  <node id="-420" lat="53.489069681392216" lon="-2.52438245187725">
    <tag k="addr:postcode" v="WN7 3JG"/>
    <tag k="removemelater" v="yes"/>
  </node>
  <node id="-421" lat="53.4786747787371" lon="-2.5414314447051427">
    <tag k="addr:postcode" v="WN7 3PF"/>
    <tag k="removemelater" v="yes"/>
  </node>
  <node id="-422" lat="53.47973495704961" lon="-2.541535357200833">
    <tag k="addr:postcode" v="WN7 3PG"/>
    <tag k="removemelater" v="yes"/>
  </node>
  <node id="-423" lat="53.4793996611981" lon="-2.5460816253543928">
    <tag k="addr:postcode" v="WN7 3PT"/>
    <tag k="removemelater" v="yes"/>
  </node>
  <node id="-424" lat="53.478046839689455" lon="-2.5490325515691015">
    <tag k="addr:postcode" v="WN7 3QA"/>
    <tag k="removemelater" v="yes"/>
  </node>
  <node id="-425" lat="53.48167333549625" lon="-2.5362558304430536">
    <tag k="addr:postcode" v="WN7 3TS"/>
    <tag k="removemelater" v="yes"/>
  </node>
  <node id="-426" lat="53.48829601950564" lon="-2.5265732928422024">
    <tag k="addr:postcode" v="WN7 3UR"/>
    <tag k="removemelater" v="yes"/>
  </node>
  <node id="-427" lat="53.48556642886423" lon="-2.5050795378940434">
    <tag k="addr:postcode" v="WN7 3XH"/>
    <tag k="removemelater" v="yes"/>
  </node>
  <node id="-428" lat="53.48580005515541" lon="-2.5050973848205604">
    <tag k="addr:postcode" v="WN7 3XJ"/>
    <tag k="removemelater" v="yes"/>
  </node>
  <node id="-429" lat="53.493116596688054" lon="-2.51564492347914">
    <tag k="addr:postcode" v="WN7 4BA"/>
    <tag k="removemelater" v="yes"/>
  </node>
  <node id="-430" lat="53.49343854798226" lon="-2.556089644033634">
    <tag k="addr:postcode" v="WN7 4FN"/>
    <tag k="removemelater" v="yes"/>
  </node>
  <node id="-431" lat="53.48916526028434" lon="-2.5292064989540592">
    <tag k="addr:postcode" v="WN7 4GX"/>
    <tag k="removemelater" v="yes"/>
  </node>
  <node id="-432" lat="53.49299934223688" lon="-2.5301134055063836">
    <tag k="addr:postcode" v="WN7 4GY"/>
    <tag k="removemelater" v="yes"/>
  </node>
  <node id="-433" lat="53.492013834137765" lon="-2.519143424072737">
    <tag k="addr:postcode" v="WN7 4HB"/>
    <tag k="removemelater" v="yes"/>
  </node>
  <node id="-434" lat="53.490559512508725" lon="-2.5248982126069817">
    <tag k="addr:postcode" v="WN7 4JF"/>
    <tag k="removemelater" v="yes"/>
  </node>
  <node id="-435" lat="53.48945357267154" lon="-2.5310789638172944">
    <tag k="addr:postcode" v="WN7 4JY"/>
    <tag k="removemelater" v="yes"/>
  </node>
  <node id="-436" lat="53.49551236858661" lon="-2.516608572425954">
    <tag k="addr:postcode" v="WN7 4PG"/>
    <tag k="removemelater" v="yes"/>
  </node>
  <node id="-437" lat="53.494312448407015" lon="-2.567134746524482">
    <tag k="addr:postcode" v="WN7 4PS"/>
    <tag k="removemelater" v="yes"/>
  </node>
  <node id="-438" lat="53.50523366522426" lon="-2.527868843188823">
    <tag k="addr:postcode" v="WN7 5RS"/>
    <tag k="removemelater" v="yes"/>
  </node>
  <node id="-439" lat="53.50384388954593" lon="-2.5250473089547043">
    <tag k="addr:postcode" v="WN7 5RZ"/>
    <tag k="removemelater" v="yes"/>
  </node>
  <node id="-440" lat="53.4994004403761" lon="-2.5277963490675">
    <tag k="addr:postcode" v="WN7 5SJ"/>
    <tag k="removemelater" v="yes"/>
  </node>
  <node id="-441" lat="53.5369336204451" lon="-2.7313997638257366">
    <tag k="addr:postcode" v="WN8 0DT"/>
    <tag k="removemelater" v="yes"/>
  </node>
  <node id="-442" lat="53.55277824679702" lon="-2.7800954359323575">
    <tag k="addr:postcode" v="WN8 6DX"/>
    <tag k="removemelater" v="yes"/>
  </node>
  <node id="-443" lat="53.54991842489984" lon="-2.7734017890012104">
    <tag k="addr:postcode" v="WN8 6HA"/>
    <tag k="removemelater" v="yes"/>
  </node>
  <node id="-444" lat="53.54991842489984" lon="-2.7734017890012104">
    <tag k="addr:postcode" v="WN8 6HB"/>
    <tag k="removemelater" v="yes"/>
  </node>
  <node id="-445" lat="53.54991842489984" lon="-2.7734017890012104">
    <tag k="addr:postcode" v="WN8 6HD"/>
    <tag k="removemelater" v="yes"/>
  </node>
  <node id="-446" lat="53.56121308367389" lon="-2.7918604826538678">
    <tag k="addr:postcode" v="WN8 6JN"/>
    <tag k="removemelater" v="yes"/>
  </node>
  <node id="-447" lat="53.562678138312606" lon="-2.7918727564031873">
    <tag k="addr:postcode" v="WN8 6JW"/>
    <tag k="removemelater" v="yes"/>
  </node>
  <node id="-448" lat="53.55404147229456" lon="-2.7779752274051557">
    <tag k="addr:postcode" v="WN8 6LA"/>
    <tag k="removemelater" v="yes"/>
  </node>
  <node id="-449" lat="53.54991842489984" lon="-2.7734017890012104">
    <tag k="addr:postcode" v="WN8 6LB"/>
    <tag k="removemelater" v="yes"/>
  </node>
  <node id="-450" lat="53.54991842489984" lon="-2.7734017890012104">
    <tag k="addr:postcode" v="WN8 6LD"/>
    <tag k="removemelater" v="yes"/>
  </node>
  <node id="-451" lat="53.54991842489984" lon="-2.7734017890012104">
    <tag k="addr:postcode" v="WN8 6LE"/>
    <tag k="removemelater" v="yes"/>
  </node>
  <node id="-452" lat="53.55404147229456" lon="-2.7779752274051557">
    <tag k="addr:postcode" v="WN8 6LH"/>
    <tag k="removemelater" v="yes"/>
  </node>
  <node id="-453" lat="53.54991842489984" lon="-2.7734017890012104">
    <tag k="addr:postcode" v="WN8 6LJ"/>
    <tag k="removemelater" v="yes"/>
  </node>
  <node id="-454" lat="53.54991842489984" lon="-2.7734017890012104">
    <tag k="addr:postcode" v="WN8 6LL"/>
    <tag k="removemelater" v="yes"/>
  </node>
  <node id="-455" lat="53.54987671178978" lon="-2.774291529389515">
    <tag k="addr:postcode" v="WN8 6LN"/>
    <tag k="removemelater" v="yes"/>
  </node>
  <node id="-456" lat="53.54991842489984" lon="-2.7734017890012104">
    <tag k="addr:postcode" v="WN8 6LQ"/>
    <tag k="removemelater" v="yes"/>
  </node>
  <node id="-457" lat="53.55048980776705" lon="-2.7753894539302286">
    <tag k="addr:postcode" v="WN8 6LT"/>
    <tag k="removemelater" v="yes"/>
  </node>
  <node id="-458" lat="53.54991842489984" lon="-2.7734017890012104">
    <tag k="addr:postcode" v="WN8 6NA"/>
    <tag k="removemelater" v="yes"/>
  </node>
  <node id="-459" lat="53.54991842489984" lon="-2.7734017890012104">
    <tag k="addr:postcode" v="WN8 6NB"/>
    <tag k="removemelater" v="yes"/>
  </node>
  <node id="-460" lat="53.54991842489984" lon="-2.7734017890012104">
    <tag k="addr:postcode" v="WN8 6ND"/>
    <tag k="removemelater" v="yes"/>
  </node>
  <node id="-461" lat="53.54991842489984" lon="-2.7734017890012104">
    <tag k="addr:postcode" v="WN8 6NG"/>
    <tag k="removemelater" v="yes"/>
  </node>
  <node id="-462" lat="53.55011466027506" lon="-2.7764089401657546">
    <tag k="addr:postcode" v="WN8 6NL"/>
    <tag k="removemelater" v="yes"/>
  </node>
  <node id="-463" lat="53.54991842489984" lon="-2.7734017890012104">
    <tag k="addr:postcode" v="WN8 6NQ"/>
    <tag k="removemelater" v="yes"/>
  </node>
  <node id="-464" lat="53.54987524071821" lon="-2.768948496328813">
    <tag k="addr:postcode" v="WN8 6NY"/>
    <tag k="removemelater" v="yes"/>
  </node>
  <node id="-465" lat="53.558226678570776" lon="-2.7687829604084766">
    <tag k="addr:postcode" v="WN8 6RG"/>
    <tag k="removemelater" v="yes"/>
  </node>
  <node id="-466" lat="53.56489466956414" lon="-2.777359122537703">
    <tag k="addr:postcode" v="WN8 6UQ"/>
    <tag k="removemelater" v="yes"/>
  </node>
  <node id="-467" lat="53.591764166477375" lon="-2.7699810229651014">
    <tag k="addr:postcode" v="WN8 7HA"/>
    <tag k="removemelater" v="yes"/>
  </node>
  <node id="-468" lat="53.592828455006135" lon="-2.7652109725433167">
    <tag k="addr:postcode" v="WN8 7HS"/>
    <tag k="removemelater" v="yes"/>
  </node>
  <node id="-469" lat="53.59247050252255" lon="-2.764962768286039">
    <tag k="addr:postcode" v="WN8 7HT"/>
    <tag k="removemelater" v="yes"/>
  </node>
  <node id="-470" lat="53.59140239167593" lon="-2.784160892661681">
    <tag k="addr:postcode" v="WN8 7XA"/>
    <tag k="removemelater" v="yes"/>
  </node>
  <node id="-471" lat="53.560268130353386" lon="-2.805490486655405">
    <tag k="addr:postcode" v="WN8 8DY"/>
    <tag k="removemelater" v="yes"/>
  </node>
  <node id="-472" lat="53.5586721499651" lon="-2.7954965359294346">
    <tag k="addr:postcode" v="WN8 8DZ"/>
    <tag k="removemelater" v="yes"/>
  </node>
  <node id="-473" lat="53.55937061956528" lon="-2.7985893593095335">
    <tag k="addr:postcode" v="WN8 8EB"/>
    <tag k="removemelater" v="yes"/>
  </node>
  <node id="-474" lat="53.550040852853435" lon="-2.789055781209869">
    <tag k="addr:postcode" v="WN8 8NY"/>
    <tag k="removemelater" v="yes"/>
  </node>
  <node id="-475" lat="53.52987726026182" lon="-2.7616766252703213">
    <tag k="addr:postcode" v="WN8 9PD"/>
    <tag k="removemelater" v="yes"/>
  </node>
  <node id="-476" lat="53.53393514834798" lon="-2.7638617297519037">
    <tag k="addr:postcode" v="WN8 9PF"/>
    <tag k="removemelater" v="yes"/>
  </node>
  <node id="-477" lat="53.53210938110726" lon="-2.7598006562151602">
    <tag k="addr:postcode" v="WN8 9PH"/>
    <tag k="removemelater" v="yes"/>
  </node>
  <node id="-478" lat="53.53364002171684" lon="-2.7650332379905405">
    <tag k="addr:postcode" v="WN8 9PP"/>
    <tag k="removemelater" v="yes"/>
  </node>
  <node id="-479" lat="53.53127986156532" lon="-2.75879008615267">
    <tag k="addr:postcode" v="WN8 9PW"/>
    <tag k="removemelater" v="yes"/>
  </node>
  <node id="-480" lat="53.52517033613752" lon="-2.7353452425531932">
    <tag k="addr:postcode" v="WN8 9QJ"/>
    <tag k="removemelater" v="yes"/>
  </node>
  <node id="-481" lat="53.543937974071405" lon="-2.791719008173575">
    <tag k="addr:postcode" v="WN8 9SG"/>
    <tag k="removemelater" v="yes"/>
  </node>
  <node id="-482" lat="53.54544501830379" lon="-2.794886211793426">
    <tag k="addr:postcode" v="WN8 9SP"/>
    <tag k="removemelater" v="yes"/>
  </node>
  <node id="-483" lat="53.544356129546536" lon="-2.7991215506584664">
    <tag k="addr:postcode" v="WN8 9SY"/>
    <tag k="removemelater" v="yes"/>
  </node>
  <node id="-484" lat="53.54111308542867" lon="-2.783909949736287">
    <tag k="addr:postcode" v="WN8 9TA"/>
    <tag k="removemelater" v="yes"/>
  </node>
  <node id="-485" lat="53.53799854565925" lon="-2.7914119993157436">
    <tag k="addr:postcode" v="WN8 9TG"/>
    <tag k="removemelater" v="yes"/>
  </node>
  <node id="-486" lat="53.54264528303889" lon="-2.7995722191706625">
    <tag k="addr:postcode" v="WN8 9TH"/>
    <tag k="removemelater" v="yes"/>
  </node>
  <node id="-487" lat="53.53835034795188" lon="-2.7898643792080065">
    <tag k="addr:postcode" v="WN8 9TN"/>
    <tag k="removemelater" v="yes"/>
  </node>
  <node id="-488" lat="53.53895451044786" lon="-2.7922899283489406">
    <tag k="addr:postcode" v="WN8 9TQ"/>
    <tag k="removemelater" v="yes"/>
  </node>
  <node id="-489" lat="53.53730599944973" lon="-2.7928325145534583">
    <tag k="addr:postcode" v="WN8 9TW"/>
    <tag k="removemelater" v="yes"/>
  </node>
</osm>
