<?xml version="1.0" encoding="UTF-8"?><osm version="0.6" generator="import_postcodes.py" upload="false">
  <node id="-1" lat="60.15322170294834" lon="-1.1415953348426255">
    <tag k="addr:postcode" v="ZE1 0AA"/>
    <tag k="removemelater" v="yes"/>
  </node>
  <node id="-2" lat="60.15322170294834" lon="-1.1415953348426255">
    <tag k="addr:postcode" v="ZE1 0AD"/>
    <tag k="removemelater" v="yes"/>
  </node>
  <node id="-3" lat="60.15147295385592" lon="-1.1377865085486403">
    <tag k="addr:postcode" v="ZE1 0AH"/>
    <tag k="removemelater" v="yes"/>
  </node>
  <node id="-4" lat="60.15201884042262" lon="-1.1375020469400103">
    <tag k="addr:postcode" v="ZE1 0AW"/>
    <tag k="removemelater" v="yes"/>
  </node>
  <node id="-5" lat="60.15661200020397" lon="-1.1451638124301138">
    <tag k="addr:postcode" v="ZE1 0AZ"/>
    <tag k="removemelater" v="yes"/>
  </node>
  <node id="-6" lat="60.1495365038466" lon="-1.134127099768134">
    <tag k="addr:postcode" v="ZE1 0BB"/>
    <tag k="removemelater" v="yes"/>
  </node>
  <node id="-7" lat="60.15130197357448" lon="-1.1418795065781084">
    <tag k="addr:postcode" v="ZE1 0BP"/>
    <tag k="removemelater" v="yes"/>
  </node>
  <node id="-8" lat="60.168576438702424" lon="-1.1683879343938903">
    <tag k="addr:postcode" v="ZE1 0DG"/>
    <tag k="removemelater" v="yes"/>
  </node>
  <node id="-9" lat="60.15255720815553" lon="-1.1443684562325964">
    <tag k="addr:postcode" v="ZE1 0EA"/>
    <tag k="removemelater" v="yes"/>
  </node>
  <node id="-10" lat="60.14499346342886" lon="-1.1692713412457654">
    <tag k="addr:postcode" v="ZE1 0EF"/>
    <tag k="removemelater" v="yes"/>
  </node>
  <node id="-11" lat="60.15322170294834" lon="-1.1415953348426255">
    <tag k="addr:postcode" v="ZE1 0EH"/>
    <tag k="removemelater" v="yes"/>
  </node>
  <node id="-12" lat="60.152415916029625" lon="-1.1475241753189358">
    <tag k="addr:postcode" v="ZE1 0EP"/>
    <tag k="removemelater" v="yes"/>
  </node>
  <node id="-13" lat="60.156234419754625" lon="-1.1492807579315998">
    <tag k="addr:postcode" v="ZE1 0ES"/>
    <tag k="removemelater" v="yes"/>
  </node>
  <node id="-14" lat="60.15322870690126" lon="-1.1496465847273014">
    <tag k="addr:postcode" v="ZE1 0ET"/>
    <tag k="removemelater" v="yes"/>
  </node>
  <node id="-15" lat="60.154116551940334" lon="-1.1438956444132298">
    <tag k="addr:postcode" v="ZE1 0EX"/>
    <tag k="removemelater" v="yes"/>
  </node>
  <node id="-16" lat="60.14478940668931" lon="-1.1754170351694597">
    <tag k="addr:postcode" v="ZE1 0EY"/>
    <tag k="removemelater" v="yes"/>
  </node>
  <node id="-17" lat="60.15111596767817" lon="-1.145054288565122">
    <tag k="addr:postcode" v="ZE1 0GQ"/>
    <tag k="removemelater" v="yes"/>
  </node>
  <node id="-18" lat="60.154447036402885" lon="-1.1464088491150504">
    <tag k="addr:postcode" v="ZE1 0HB"/>
    <tag k="removemelater" v="yes"/>
  </node>
  <node id="-19" lat="60.15465170600544" lon="-1.1447283421276269">
    <tag k="addr:postcode" v="ZE1 0JD"/>
    <tag k="removemelater" v="yes"/>
  </node>
  <node id="-20" lat="60.154875650073926" lon="-1.146037479757687">
    <tag k="addr:postcode" v="ZE1 0JE"/>
    <tag k="removemelater" v="yes"/>
  </node>
  <node id="-21" lat="60.154696711148965" lon="-1.1447451864043512">
    <tag k="addr:postcode" v="ZE1 0JL"/>
    <tag k="removemelater" v="yes"/>
  </node>
  <node id="-22" lat="60.15423299363643" lon="-1.152232496369801">
    <tag k="addr:postcode" v="ZE1 0LF"/>
    <tag k="removemelater" v="yes"/>
  </node>
  <node id="-23" lat="60.15116107019413" lon="-1.1506725552034651">
    <tag k="addr:postcode" v="ZE1 0LN"/>
    <tag k="removemelater" v="yes"/>
  </node>
  <node id="-24" lat="60.15704699792409" lon="-1.1457830197118093">
    <tag k="addr:postcode" v="ZE1 0LQ"/>
    <tag k="removemelater" v="yes"/>
  </node>
  <node id="-25" lat="60.15607286847811" lon="-1.1451057513082583">
    <tag k="addr:postcode" v="ZE1 0LR"/>
    <tag k="removemelater" v="yes"/>
  </node>
  <node id="-26" lat="60.15652849127382" lon="-1.1461387337729354">
    <tag k="addr:postcode" v="ZE1 0LW"/>
    <tag k="removemelater" v="yes"/>
  </node>
  <node id="-27" lat="60.15704699792409" lon="-1.1457830197118093">
    <tag k="addr:postcode" v="ZE1 0LX"/>
    <tag k="removemelater" v="yes"/>
  </node>
  <node id="-28" lat="60.15792873624257" lon="-1.1516509608690182">
    <tag k="addr:postcode" v="ZE1 0NH"/>
    <tag k="removemelater" v="yes"/>
  </node>
  <node id="-29" lat="60.157923446333385" lon="-1.1536327147066456">
    <tag k="addr:postcode" v="ZE1 0NY"/>
    <tag k="removemelater" v="yes"/>
  </node>
  <node id="-30" lat="60.16696403264102" lon="-1.1647166247100107">
    <tag k="addr:postcode" v="ZE1 0PS"/>
    <tag k="removemelater" v="yes"/>
  </node>
  <node id="-31" lat="60.16934347608598" lon="-1.1661339615464783">
    <tag k="addr:postcode" v="ZE1 0PX"/>
    <tag k="removemelater" v="yes"/>
  </node>
  <node id="-32" lat="60.15354112728811" lon="-1.1535652024935816">
    <tag k="addr:postcode" v="ZE1 0QA"/>
    <tag k="removemelater" v="yes"/>
  </node>
  <node id="-33" lat="60.14359562574236" lon="-1.1697387461354471">
    <tag k="addr:postcode" v="ZE1 0SD"/>
    <tag k="removemelater" v="yes"/>
  </node>
  <node id="-34" lat="60.142890480879416" lon="-1.1732857751588355">
    <tag k="addr:postcode" v="ZE1 0SN"/>
    <tag k="removemelater" v="yes"/>
  </node>
  <node id="-35" lat="60.130110318901686" lon="-1.267436868385963">
    <tag k="addr:postcode" v="ZE1 0US"/>
    <tag k="removemelater" v="yes"/>
  </node>
  <node id="-36" lat="60.15988024541579" lon="-1.1705712763119103">
    <tag k="addr:postcode" v="ZE1 0WU"/>
    <tag k="removemelater" v="yes"/>
  </node>
  <node id="-37" lat="60.15322170294834" lon="-1.1415953348426255">
    <tag k="addr:postcode" v="ZE1 0WW"/>
    <tag k="removemelater" v="yes"/>
  </node>
  <node id="-38" lat="60.156222086158614" lon="-1.1459665399006245">
    <tag k="addr:postcode" v="ZE1 0XU"/>
    <tag k="removemelater" v="yes"/>
  </node>
  <node id="-39" lat="60.154436898632454" lon="-1.146228983726228">
    <tag k="addr:postcode" v="ZE1 9SA"/>
    <tag k="removemelater" v="yes"/>
  </node>
  <node id="-40" lat="60.154436898632454" lon="-1.146228983726228">
    <tag k="addr:postcode" v="ZE1 9SB"/>
    <tag k="removemelater" v="yes"/>
  </node>
  <node id="-41" lat="60.154436898632454" lon="-1.146228983726228">
    <tag k="addr:postcode" v="ZE1 9SD"/>
    <tag k="removemelater" v="yes"/>
  </node>
  <node id="-42" lat="60.154447036402885" lon="-1.1464088491150504">
    <tag k="addr:postcode" v="ZE1 9SE"/>
    <tag k="removemelater" v="yes"/>
  </node>
  <node id="-43" lat="60.154436898632454" lon="-1.146228983726228">
    <tag k="addr:postcode" v="ZE1 9SF"/>
    <tag k="removemelater" v="yes"/>
  </node>
  <node id="-44" lat="60.154436898632454" lon="-1.146228983726228">
    <tag k="addr:postcode" v="ZE1 9SG"/>
    <tag k="removemelater" v="yes"/>
  </node>
  <node id="-45" lat="60.154436898632454" lon="-1.146228983726228">
    <tag k="addr:postcode" v="ZE1 9SH"/>
    <tag k="removemelater" v="yes"/>
  </node>
  <node id="-46" lat="60.154436898632454" lon="-1.146228983726228">
    <tag k="addr:postcode" v="ZE1 9SJ"/>
    <tag k="removemelater" v="yes"/>
  </node>
  <node id="-47" lat="60.154436898632454" lon="-1.146228983726228">
    <tag k="addr:postcode" v="ZE1 9SL"/>
    <tag k="removemelater" v="yes"/>
  </node>
  <node id="-48" lat="60.154436898632454" lon="-1.146228983726228">
    <tag k="addr:postcode" v="ZE1 9SN"/>
    <tag k="removemelater" v="yes"/>
  </node>
  <node id="-49" lat="60.154436898632454" lon="-1.146228983726228">
    <tag k="addr:postcode" v="ZE1 9SP"/>
    <tag k="removemelater" v="yes"/>
  </node>
  <node id="-50" lat="60.154436898632454" lon="-1.146228983726228">
    <tag k="addr:postcode" v="ZE1 9SQ"/>
    <tag k="removemelater" v="yes"/>
  </node>
  <node id="-51" lat="60.154436898632454" lon="-1.146228983726228">
    <tag k="addr:postcode" v="ZE1 9SR"/>
    <tag k="removemelater" v="yes"/>
  </node>
  <node id="-52" lat="60.154436898632454" lon="-1.146228983726228">
    <tag k="addr:postcode" v="ZE1 9SS"/>
    <tag k="removemelater" v="yes"/>
  </node>
  <node id="-53" lat="60.154436898632454" lon="-1.146228983726228">
    <tag k="addr:postcode" v="ZE1 9ST"/>
    <tag k="removemelater" v="yes"/>
  </node>
  <node id="-54" lat="60.154436898632454" lon="-1.146228983726228">
    <tag k="addr:postcode" v="ZE1 9SU"/>
    <tag k="removemelater" v="yes"/>
  </node>
  <node id="-55" lat="60.154436898632454" lon="-1.146228983726228">
    <tag k="addr:postcode" v="ZE1 9SW"/>
    <tag k="removemelater" v="yes"/>
  </node>
  <node id="-56" lat="60.154436898632454" lon="-1.146228983726228">
    <tag k="addr:postcode" v="ZE1 9SX"/>
    <tag k="removemelater" v="yes"/>
  </node>
  <node id="-57" lat="60.154436898632454" lon="-1.146228983726228">
    <tag k="addr:postcode" v="ZE1 9SY"/>
    <tag k="removemelater" v="yes"/>
  </node>
  <node id="-58" lat="60.154436898632454" lon="-1.146228983726228">
    <tag k="addr:postcode" v="ZE1 9SZ"/>
    <tag k="removemelater" v="yes"/>
  </node>
  <node id="-59" lat="60.154436898632454" lon="-1.146228983726228">
    <tag k="addr:postcode" v="ZE1 9TA"/>
    <tag k="removemelater" v="yes"/>
  </node>
  <node id="-60" lat="60.154436898632454" lon="-1.146228983726228">
    <tag k="addr:postcode" v="ZE1 9TB"/>
    <tag k="removemelater" v="yes"/>
  </node>
  <node id="-61" lat="60.36136566438445" lon="-0.9998513131427574">
    <tag k="addr:postcode" v="ZE2 9AL"/>
    <tag k="removemelater" v="yes"/>
  </node>
  <node id="-62" lat="60.57756201280497" lon="-1.1789433307000423">
    <tag k="addr:postcode" v="ZE2 9BH"/>
    <tag k="removemelater" v="yes"/>
  </node>
  <node id="-63" lat="60.597558988010086" lon="-1.0759289442020272">
    <tag k="addr:postcode" v="ZE2 9BJ"/>
    <tag k="removemelater" v="yes"/>
  </node>
  <node id="-64" lat="60.58532436437289" lon="-1.0221232958393318">
    <tag k="addr:postcode" v="ZE2 9BU"/>
    <tag k="removemelater" v="yes"/>
  </node>
  <node id="-65" lat="60.63030725801115" lon="-1.0468626938194252">
    <tag k="addr:postcode" v="ZE2 9DB"/>
    <tag k="removemelater" v="yes"/>
  </node>
  <node id="-66" lat="60.71343279421905" lon="-1.0232187631228276">
    <tag k="addr:postcode" v="ZE2 9DD"/>
    <tag k="removemelater" v="yes"/>
  </node>
  <node id="-67" lat="60.667686352692755" lon="-1.006158982679912">
    <tag k="addr:postcode" v="ZE2 9DF"/>
    <tag k="removemelater" v="yes"/>
  </node>
  <node id="-68" lat="60.666997215855034" lon="-1.0586792151709812">
    <tag k="addr:postcode" v="ZE2 9DQ"/>
    <tag k="removemelater" v="yes"/>
  </node>
  <node id="-69" lat="60.751266156196614" lon="-0.849534359595172">
    <tag k="addr:postcode" v="ZE2 9DT"/>
    <tag k="removemelater" v="yes"/>
  </node>
  <node id="-70" lat="60.716049011498434" lon="-0.9250728483534771">
    <tag k="addr:postcode" v="ZE2 9DW"/>
    <tag k="removemelater" v="yes"/>
  </node>
  <node id="-71" lat="60.75728468359032" lon="-0.884955784136493">
    <tag k="addr:postcode" v="ZE2 9DX"/>
    <tag k="removemelater" v="yes"/>
  </node>
  <node id="-72" lat="60.76627064925146" lon="-0.8945008575669953">
    <tag k="addr:postcode" v="ZE2 9DZ"/>
    <tag k="removemelater" v="yes"/>
  </node>
  <node id="-73" lat="60.12839939234267" lon="-1.2088181709897323">
    <tag k="addr:postcode" v="ZE2 9FG"/>
    <tag k="removemelater" v="yes"/>
  </node>
  <node id="-74" lat="60.00634320287102" lon="-1.251973815005592">
    <tag k="addr:postcode" v="ZE2 9FS"/>
    <tag k="removemelater" v="yes"/>
  </node>
  <node id="-75" lat="60.047987457955315" lon="-1.228194107870266">
    <tag k="addr:postcode" v="ZE2 9HB"/>
    <tag k="removemelater" v="yes"/>
  </node>
  <node id="-76" lat="60.05333973617882" lon="-1.226758308895776">
    <tag k="addr:postcode" v="ZE2 9HD"/>
    <tag k="removemelater" v="yes"/>
  </node>
  <node id="-77" lat="60.05296779572638" lon="-1.2276469133550563">
    <tag k="addr:postcode" v="ZE2 9HE"/>
    <tag k="removemelater" v="yes"/>
  </node>
  <node id="-78" lat="60.05398846845461" lon="-1.2271382144678047">
    <tag k="addr:postcode" v="ZE2 9HQ"/>
    <tag k="removemelater" v="yes"/>
  </node>
  <node id="-79" lat="60.006032680943136" lon="-1.2291894553345495">
    <tag k="addr:postcode" v="ZE2 9HZ"/>
    <tag k="removemelater" v="yes"/>
  </node>
  <node id="-80" lat="59.92325561465406" lon="-1.2792257710414945">
    <tag k="addr:postcode" v="ZE2 9JJ"/>
    <tag k="removemelater" v="yes"/>
  </node>
  <node id="-81" lat="60.00478705800997" lon="-1.2499109978791363">
    <tag k="addr:postcode" v="ZE2 9JN"/>
    <tag k="removemelater" v="yes"/>
  </node>
  <node id="-82" lat="60.198180143022626" lon="-1.2803680513384783">
    <tag k="addr:postcode" v="ZE2 9LJ"/>
    <tag k="removemelater" v="yes"/>
  </node>
  <node id="-83" lat="60.18237491930607" lon="-1.3052496036750652">
    <tag k="addr:postcode" v="ZE2 9LL"/>
    <tag k="removemelater" v="yes"/>
  </node>
  <node id="-84" lat="60.24292407048781" lon="-1.3521189088936763">
    <tag k="addr:postcode" v="ZE2 9LT"/>
    <tag k="removemelater" v="yes"/>
  </node>
  <node id="-85" lat="60.28390063115685" lon="-1.3796638374772003">
    <tag k="addr:postcode" v="ZE2 9NB"/>
    <tag k="removemelater" v="yes"/>
  </node>
  <node id="-86" lat="60.24445494202476" lon="-1.5202606912698415">
    <tag k="addr:postcode" v="ZE2 9NP"/>
    <tag k="removemelater" v="yes"/>
  </node>
  <node id="-87" lat="60.28319303978269" lon="-1.374288468970129">
    <tag k="addr:postcode" v="ZE2 9NW"/>
    <tag k="removemelater" v="yes"/>
  </node>
  <node id="-88" lat="59.99558284785788" lon="-1.2498503757105304">
    <tag k="addr:postcode" v="ZE2 9NZ"/>
    <tag k="removemelater" v="yes"/>
  </node>
  <node id="-89" lat="60.224573332030936" lon="-1.5583669740335426">
    <tag k="addr:postcode" v="ZE2 9PF"/>
    <tag k="removemelater" v="yes"/>
  </node>
  <node id="-90" lat="60.22542042161766" lon="-1.5702511918761066">
    <tag k="addr:postcode" v="ZE2 9PG"/>
    <tag k="removemelater" v="yes"/>
  </node>
  <node id="-91" lat="60.23519966582396" lon="-1.5651396684429149">
    <tag k="addr:postcode" v="ZE2 9PH"/>
    <tag k="removemelater" v="yes"/>
  </node>
  <node id="-92" lat="60.242210253910365" lon="-1.556432080294685">
    <tag k="addr:postcode" v="ZE2 9PJ"/>
    <tag k="removemelater" v="yes"/>
  </node>
  <node id="-93" lat="60.1359420212588" lon="-2.0480328264258776">
    <tag k="addr:postcode" v="ZE2 9PN"/>
    <tag k="removemelater" v="yes"/>
  </node>
  <node id="-94" lat="60.22782964870901" lon="-1.5683783384241183">
    <tag k="addr:postcode" v="ZE2 9PQ"/>
    <tag k="removemelater" v="yes"/>
  </node>
  <node id="-95" lat="60.36630789878029" lon="-1.2616914475143444">
    <tag k="addr:postcode" v="ZE2 9PT"/>
    <tag k="removemelater" v="yes"/>
  </node>
  <node id="-96" lat="60.35751029776571" lon="-1.2619990327720612">
    <tag k="addr:postcode" v="ZE2 9PU"/>
    <tag k="removemelater" v="yes"/>
  </node>
  <node id="-97" lat="60.348641242511704" lon="-1.268885436259541">
    <tag k="addr:postcode" v="ZE2 9PX"/>
    <tag k="removemelater" v="yes"/>
  </node>
  <node id="-98" lat="60.37753551804907" lon="-1.1622352945383985">
    <tag k="addr:postcode" v="ZE2 9QE"/>
    <tag k="removemelater" v="yes"/>
  </node>
  <node id="-99" lat="60.37175857960849" lon="-1.3496004161601955">
    <tag k="addr:postcode" v="ZE2 9QL"/>
    <tag k="removemelater" v="yes"/>
  </node>
  <node id="-100" lat="60.38654678246077" lon="-1.37399475980865">
    <tag k="addr:postcode" v="ZE2 9QN"/>
    <tag k="removemelater" v="yes"/>
  </node>
  <node id="-101" lat="60.44282421631426" lon="-1.2582304549430836">
    <tag k="addr:postcode" v="ZE2 9QR"/>
    <tag k="removemelater" v="yes"/>
  </node>
  <node id="-102" lat="60.23239543717872" lon="-1.5670183903074588">
    <tag k="addr:postcode" v="ZE2 9QX"/>
    <tag k="removemelater" v="yes"/>
  </node>
  <node id="-103" lat="60.358859975777676" lon="-1.2625122968363724">
    <tag k="addr:postcode" v="ZE2 9QZ"/>
    <tag k="removemelater" v="yes"/>
  </node>
  <node id="-104" lat="60.46015452667407" lon="-1.1802175328060789">
    <tag k="addr:postcode" v="ZE2 9RA"/>
    <tag k="removemelater" v="yes"/>
  </node>
  <node id="-105" lat="60.50802771180914" lon="-1.4603096515927443">
    <tag k="addr:postcode" v="ZE2 9RL"/>
    <tag k="removemelater" v="yes"/>
  </node>
  <node id="-106" lat="60.494888713780355" lon="-1.567929891433566">
    <tag k="addr:postcode" v="ZE2 9RS"/>
    <tag k="removemelater" v="yes"/>
  </node>
  <node id="-107" lat="60.58714975249013" lon="-1.3318973403965304">
    <tag k="addr:postcode" v="ZE2 9RY"/>
    <tag k="removemelater" v="yes"/>
  </node>
  <node id="-108" lat="60.39921497399914" lon="-1.3513032388971788">
    <tag k="addr:postcode" v="ZE2 9SN"/>
    <tag k="removemelater" v="yes"/>
  </node>
  <node id="-109" lat="60.39954202696841" lon="-1.3502441703459092">
    <tag k="addr:postcode" v="ZE2 9SW"/>
    <tag k="removemelater" v="yes"/>
  </node>
  <node id="-110" lat="60.39756569339788" lon="-1.3518804372668483">
    <tag k="addr:postcode" v="ZE2 9SX"/>
    <tag k="removemelater" v="yes"/>
  </node>
  <node id="-111" lat="60.446775986785475" lon="-1.2024182205437681">
    <tag k="addr:postcode" v="ZE2 9TE"/>
    <tag k="removemelater" v="yes"/>
  </node>
  <node id="-112" lat="60.459586600451736" lon="-1.1798500332547088">
    <tag k="addr:postcode" v="ZE2 9TH"/>
    <tag k="removemelater" v="yes"/>
  </node>
  <node id="-113" lat="60.46014081553404" lon="-1.1809087870149946">
    <tag k="addr:postcode" v="ZE2 9TQ"/>
    <tag k="removemelater" v="yes"/>
  </node>
  <node id="-114" lat="60.13856597203853" lon="-1.2016785995306365">
    <tag k="addr:postcode" v="ZE2 9TX"/>
    <tag k="removemelater" v="yes"/>
  </node>
  <node id="-115" lat="60.39070460289201" lon="-1.3722277148780702">
    <tag k="addr:postcode" v="ZE2 9TZ"/>
    <tag k="removemelater" v="yes"/>
  </node>
  <node id="-116" lat="60.464740442142805" lon="-1.2548394016159716">
    <tag k="addr:postcode" v="ZE2 9UN"/>
    <tag k="removemelater" v="yes"/>
  </node>
  <node id="-117" lat="60.446045807859875" lon="-1.2775302459269202">
    <tag k="addr:postcode" v="ZE2 9UR"/>
    <tag k="removemelater" v="yes"/>
  </node>
  <node id="-118" lat="60.06745420506373" lon="-1.3392488459429632">
    <tag k="addr:postcode" v="ZE2 9UY"/>
    <tag k="removemelater" v="yes"/>
  </node>
  <node id="-119" lat="60.38982220027649" lon="-1.3717004269931896">
    <tag k="addr:postcode" v="ZE2 9WL"/>
    <tag k="removemelater" v="yes"/>
  </node>
  <node id="-120" lat="60.2307261641638" lon="-1.5645128478141601">
    <tag k="addr:postcode" v="ZE2 9XB"/>
    <tag k="removemelater" v="yes"/>
  </node>
  <node id="-121" lat="60.35800299248012" lon="-1.2601754289466576">
    <tag k="addr:postcode" v="ZE2 9XF"/>
    <tag k="removemelater" v="yes"/>
  </node>
  <node id="-122" lat="60.359422739758095" lon="-1.2701304304800383">
    <tag k="addr:postcode" v="ZE2 9XQ"/>
    <tag k="removemelater" v="yes"/>
  </node>
  <node id="-123" lat="60.19447337160208" lon="-1.2218009286824325">
    <tag k="addr:postcode" v="ZE2 9XT"/>
    <tag k="removemelater" v="yes"/>
  </node>
  <node id="-124" lat="59.86754316183368" lon="-1.281841886916735">
    <tag k="addr:postcode" v="ZE3 9JN"/>
    <tag k="removemelater" v="yes"/>
  </node>
  <node id="-125" lat="59.87678296527039" lon="-1.2968076084241305">
    <tag k="addr:postcode" v="ZE3 9JP"/>
    <tag k="removemelater" v="yes"/>
  </node>
  <node id="-126" lat="59.89178480182373" lon="-1.3115731318213009">
    <tag k="addr:postcode" v="ZE3 9JR"/>
    <tag k="removemelater" v="yes"/>
  </node>
  <node id="-127" lat="59.87261538532651" lon="-1.30677206069362">
    <tag k="addr:postcode" v="ZE3 9JT"/>
    <tag k="removemelater" v="yes"/>
  </node>
  <node id="-128" lat="59.873651346828765" lon="-1.3056967420359344">
    <tag k="addr:postcode" v="ZE3 9JW"/>
    <tag k="removemelater" v="yes"/>
  </node>
  <node id="-129" lat="59.891572168130004" lon="-1.313847017035842">
    <tag k="addr:postcode" v="ZE3 9JY"/>
    <tag k="removemelater" v="yes"/>
  </node>
  <node id="-130" lat="59.892391886008724" lon="-1.310899371820403">
    <tag k="addr:postcode" v="ZE3 9JZ"/>
    <tag k="removemelater" v="yes"/>
  </node>
</osm>
