<?xml version="1.0" encoding="UTF-8"?><osm version="0.6" generator="import_postcodes.py" upload="false">
  <node id="-1" lat="52.19225424787171" lon="0.1371793535700088">
    <tag k="addr:postcode" v="CB1 0AD"/>
    <tag k="removemelater" v="yes"/>
  </node>
  <node id="-2" lat="52.19225424787171" lon="0.1371793535700088">
    <tag k="addr:postcode" v="CB1 0AH"/>
    <tag k="removemelater" v="yes"/>
  </node>
  <node id="-3" lat="52.19225424787171" lon="0.1371793535700088">
    <tag k="addr:postcode" v="CB1 0AN"/>
    <tag k="removemelater" v="yes"/>
  </node>
  <node id="-4" lat="52.19225424787171" lon="0.1371793535700088">
    <tag k="addr:postcode" v="CB1 0AU"/>
    <tag k="removemelater" v="yes"/>
  </node>
  <node id="-5" lat="52.19225424787171" lon="0.1371793535700088">
    <tag k="addr:postcode" v="CB1 0AZ"/>
    <tag k="removemelater" v="yes"/>
  </node>
  <node id="-6" lat="52.19225424787171" lon="0.1371793535700088">
    <tag k="addr:postcode" v="CB1 0BB"/>
    <tag k="removemelater" v="yes"/>
  </node>
  <node id="-7" lat="52.19225424787171" lon="0.1371793535700088">
    <tag k="addr:postcode" v="CB1 0BE"/>
    <tag k="removemelater" v="yes"/>
  </node>
  <node id="-8" lat="52.19225424787171" lon="0.1371793535700088">
    <tag k="addr:postcode" v="CB1 0BF"/>
    <tag k="removemelater" v="yes"/>
  </node>
  <node id="-9" lat="52.19225424787171" lon="0.1371793535700088">
    <tag k="addr:postcode" v="CB1 0BG"/>
    <tag k="removemelater" v="yes"/>
  </node>
  <node id="-10" lat="52.19225424787171" lon="0.1371793535700088">
    <tag k="addr:postcode" v="CB1 0BQ"/>
    <tag k="removemelater" v="yes"/>
  </node>
  <node id="-11" lat="52.19225424787171" lon="0.1371793535700088">
    <tag k="addr:postcode" v="CB1 0BR"/>
    <tag k="removemelater" v="yes"/>
  </node>
  <node id="-12" lat="52.19225424787171" lon="0.1371793535700088">
    <tag k="addr:postcode" v="CB1 0BX"/>
    <tag k="removemelater" v="yes"/>
  </node>
  <node id="-13" lat="52.19225424787171" lon="0.1371793535700088">
    <tag k="addr:postcode" v="CB1 0BZ"/>
    <tag k="removemelater" v="yes"/>
  </node>
  <node id="-14" lat="52.19225424787171" lon="0.1371793535700088">
    <tag k="addr:postcode" v="CB1 0DD"/>
    <tag k="removemelater" v="yes"/>
  </node>
  <node id="-15" lat="52.19225424787171" lon="0.1371793535700088">
    <tag k="addr:postcode" v="CB1 0DG"/>
    <tag k="removemelater" v="yes"/>
  </node>
  <node id="-16" lat="52.19225424787171" lon="0.1371793535700088">
    <tag k="addr:postcode" v="CB1 0DN"/>
    <tag k="removemelater" v="yes"/>
  </node>
  <node id="-17" lat="52.19225424787171" lon="0.1371793535700088">
    <tag k="addr:postcode" v="CB1 0DP"/>
    <tag k="removemelater" v="yes"/>
  </node>
  <node id="-18" lat="52.19225424787171" lon="0.1371793535700088">
    <tag k="addr:postcode" v="CB1 0DR"/>
    <tag k="removemelater" v="yes"/>
  </node>
  <node id="-19" lat="52.19225424787171" lon="0.1371793535700088">
    <tag k="addr:postcode" v="CB1 0DW"/>
    <tag k="removemelater" v="yes"/>
  </node>
  <node id="-20" lat="52.19225424787171" lon="0.1371793535700088">
    <tag k="addr:postcode" v="CB1 0DZ"/>
    <tag k="removemelater" v="yes"/>
  </node>
  <node id="-21" lat="52.19225424787171" lon="0.1371793535700088">
    <tag k="addr:postcode" v="CB1 0EA"/>
    <tag k="removemelater" v="yes"/>
  </node>
  <node id="-22" lat="52.19225424787171" lon="0.1371793535700088">
    <tag k="addr:postcode" v="CB1 0ED"/>
    <tag k="removemelater" v="yes"/>
  </node>
  <node id="-23" lat="52.19225424787171" lon="0.1371793535700088">
    <tag k="addr:postcode" v="CB1 0EE"/>
    <tag k="removemelater" v="yes"/>
  </node>
  <node id="-24" lat="52.19225424787171" lon="0.1371793535700088">
    <tag k="addr:postcode" v="CB1 0EJ"/>
    <tag k="removemelater" v="yes"/>
  </node>
  <node id="-25" lat="52.19225424787171" lon="0.1371793535700088">
    <tag k="addr:postcode" v="CB1 0EP"/>
    <tag k="removemelater" v="yes"/>
  </node>
  <node id="-26" lat="52.19225424787171" lon="0.1371793535700088">
    <tag k="addr:postcode" v="CB1 0EW"/>
    <tag k="removemelater" v="yes"/>
  </node>
  <node id="-27" lat="52.19225424787171" lon="0.1371793535700088">
    <tag k="addr:postcode" v="CB1 0EY"/>
    <tag k="removemelater" v="yes"/>
  </node>
  <node id="-28" lat="52.19225424787171" lon="0.1371793535700088">
    <tag k="addr:postcode" v="CB1 0EZ"/>
    <tag k="removemelater" v="yes"/>
  </node>
  <node id="-29" lat="52.19225424787171" lon="0.1371793535700088">
    <tag k="addr:postcode" v="CB1 0FD"/>
    <tag k="removemelater" v="yes"/>
  </node>
  <node id="-30" lat="52.19225424787171" lon="0.1371793535700088">
    <tag k="addr:postcode" v="CB1 0FE"/>
    <tag k="removemelater" v="yes"/>
  </node>
  <node id="-31" lat="52.19225424787171" lon="0.1371793535700088">
    <tag k="addr:postcode" v="CB1 0FF"/>
    <tag k="removemelater" v="yes"/>
  </node>
  <node id="-32" lat="52.19225424787171" lon="0.1371793535700088">
    <tag k="addr:postcode" v="CB1 0FG"/>
    <tag k="removemelater" v="yes"/>
  </node>
  <node id="-33" lat="52.19225424787171" lon="0.1371793535700088">
    <tag k="addr:postcode" v="CB1 0FJ"/>
    <tag k="removemelater" v="yes"/>
  </node>
  <node id="-34" lat="52.19225424787171" lon="0.1371793535700088">
    <tag k="addr:postcode" v="CB1 0FP"/>
    <tag k="removemelater" v="yes"/>
  </node>
  <node id="-35" lat="52.19225424787171" lon="0.1371793535700088">
    <tag k="addr:postcode" v="CB1 0FQ"/>
    <tag k="removemelater" v="yes"/>
  </node>
  <node id="-36" lat="52.19225424787171" lon="0.1371793535700088">
    <tag k="addr:postcode" v="CB1 0FR"/>
    <tag k="removemelater" v="yes"/>
  </node>
  <node id="-37" lat="52.19225424787171" lon="0.1371793535700088">
    <tag k="addr:postcode" v="CB1 0FY"/>
    <tag k="removemelater" v="yes"/>
  </node>
  <node id="-38" lat="52.19225424787171" lon="0.1371793535700088">
    <tag k="addr:postcode" v="CB1 0GJ"/>
    <tag k="removemelater" v="yes"/>
  </node>
  <node id="-39" lat="52.19225424787171" lon="0.1371793535700088">
    <tag k="addr:postcode" v="CB1 0GT"/>
    <tag k="removemelater" v="yes"/>
  </node>
  <node id="-40" lat="52.19225424787171" lon="0.1371793535700088">
    <tag k="addr:postcode" v="CB1 0HN"/>
    <tag k="removemelater" v="yes"/>
  </node>
  <node id="-41" lat="52.19225424787171" lon="0.1371793535700088">
    <tag k="addr:postcode" v="CB1 0HQ"/>
    <tag k="removemelater" v="yes"/>
  </node>
  <node id="-42" lat="52.19225424787171" lon="0.1371793535700088">
    <tag k="addr:postcode" v="CB1 0HU"/>
    <tag k="removemelater" v="yes"/>
  </node>
  <node id="-43" lat="52.19225424787171" lon="0.1371793535700088">
    <tag k="addr:postcode" v="CB1 0JH"/>
    <tag k="removemelater" v="yes"/>
  </node>
  <node id="-44" lat="52.19225424787171" lon="0.1371793535700088">
    <tag k="addr:postcode" v="CB1 0NB"/>
    <tag k="removemelater" v="yes"/>
  </node>
  <node id="-45" lat="52.19225424787171" lon="0.1371793535700088">
    <tag k="addr:postcode" v="CB1 0PG"/>
    <tag k="removemelater" v="yes"/>
  </node>
  <node id="-46" lat="52.19225424787171" lon="0.1371793535700088">
    <tag k="addr:postcode" v="CB1 0PL"/>
    <tag k="removemelater" v="yes"/>
  </node>
  <node id="-47" lat="52.19225424787171" lon="0.1371793535700088">
    <tag k="addr:postcode" v="CB1 0QF"/>
    <tag k="removemelater" v="yes"/>
  </node>
  <node id="-48" lat="52.19225424787171" lon="0.1371793535700088">
    <tag k="addr:postcode" v="CB1 0QX"/>
    <tag k="removemelater" v="yes"/>
  </node>
  <node id="-49" lat="52.19225424787171" lon="0.1371793535700088">
    <tag k="addr:postcode" v="CB1 0QY"/>
    <tag k="removemelater" v="yes"/>
  </node>
  <node id="-50" lat="52.19225424787171" lon="0.1371793535700088">
    <tag k="addr:postcode" v="CB1 0RL"/>
    <tag k="removemelater" v="yes"/>
  </node>
  <node id="-51" lat="52.19225424787171" lon="0.1371793535700088">
    <tag k="addr:postcode" v="CB1 0RW"/>
    <tag k="removemelater" v="yes"/>
  </node>
  <node id="-52" lat="52.20482515829952" lon="0.1192247999709348">
    <tag k="addr:postcode" v="CB1 0SA"/>
    <tag k="removemelater" v="yes"/>
  </node>
  <node id="-53" lat="52.20482515829952" lon="0.1192247999709348">
    <tag k="addr:postcode" v="CB1 0SB"/>
    <tag k="removemelater" v="yes"/>
  </node>
  <node id="-54" lat="52.20482515829952" lon="0.1192247999709348">
    <tag k="addr:postcode" v="CB1 0SD"/>
    <tag k="removemelater" v="yes"/>
  </node>
  <node id="-55" lat="52.20482515829952" lon="0.1192247999709348">
    <tag k="addr:postcode" v="CB1 0SE"/>
    <tag k="removemelater" v="yes"/>
  </node>
  <node id="-56" lat="52.20482515829952" lon="0.1192247999709348">
    <tag k="addr:postcode" v="CB1 0SF"/>
    <tag k="removemelater" v="yes"/>
  </node>
  <node id="-57" lat="52.20482515829952" lon="0.1192247999709348">
    <tag k="addr:postcode" v="CB1 0SG"/>
    <tag k="removemelater" v="yes"/>
  </node>
  <node id="-58" lat="52.20482515829952" lon="0.1192247999709348">
    <tag k="addr:postcode" v="CB1 0SH"/>
    <tag k="removemelater" v="yes"/>
  </node>
  <node id="-59" lat="52.20482515829952" lon="0.1192247999709348">
    <tag k="addr:postcode" v="CB1 0SJ"/>
    <tag k="removemelater" v="yes"/>
  </node>
  <node id="-60" lat="52.20482515829952" lon="0.1192247999709348">
    <tag k="addr:postcode" v="CB1 0SL"/>
    <tag k="removemelater" v="yes"/>
  </node>
  <node id="-61" lat="52.22308944216271" lon="-0.07778203055496964">
    <tag k="addr:postcode" v="CB1 0SN"/>
    <tag k="removemelater" v="yes"/>
  </node>
  <node id="-62" lat="52.20482515829952" lon="0.1192247999709348">
    <tag k="addr:postcode" v="CB1 0SP"/>
    <tag k="removemelater" v="yes"/>
  </node>
  <node id="-63" lat="52.20482515829952" lon="0.1192247999709348">
    <tag k="addr:postcode" v="CB1 0SQ"/>
    <tag k="removemelater" v="yes"/>
  </node>
  <node id="-64" lat="52.20482515829952" lon="0.1192247999709348">
    <tag k="addr:postcode" v="CB1 0SR"/>
    <tag k="removemelater" v="yes"/>
  </node>
  <node id="-65" lat="52.20482515829952" lon="0.1192247999709348">
    <tag k="addr:postcode" v="CB1 0SS"/>
    <tag k="removemelater" v="yes"/>
  </node>
  <node id="-66" lat="52.20482515829952" lon="0.1192247999709348">
    <tag k="addr:postcode" v="CB1 0ST"/>
    <tag k="removemelater" v="yes"/>
  </node>
  <node id="-67" lat="52.20482515829952" lon="0.1192247999709348">
    <tag k="addr:postcode" v="CB1 0SU"/>
    <tag k="removemelater" v="yes"/>
  </node>
  <node id="-68" lat="52.22308944216271" lon="-0.07778203055496964">
    <tag k="addr:postcode" v="CB1 0SW"/>
    <tag k="removemelater" v="yes"/>
  </node>
  <node id="-69" lat="52.22308944216271" lon="-0.07778203055496964">
    <tag k="addr:postcode" v="CB1 0SX"/>
    <tag k="removemelater" v="yes"/>
  </node>
  <node id="-70" lat="52.22308944216271" lon="-0.07778203055496964">
    <tag k="addr:postcode" v="CB1 0SY"/>
    <tag k="removemelater" v="yes"/>
  </node>
  <node id="-71" lat="52.22308944216271" lon="-0.07778203055496964">
    <tag k="addr:postcode" v="CB1 0SZ"/>
    <tag k="removemelater" v="yes"/>
  </node>
  <node id="-72" lat="52.22308944216271" lon="-0.07778203055496964">
    <tag k="addr:postcode" v="CB1 0TA"/>
    <tag k="removemelater" v="yes"/>
  </node>
  <node id="-73" lat="52.22308944216271" lon="-0.07778203055496964">
    <tag k="addr:postcode" v="CB1 0TB"/>
    <tag k="removemelater" v="yes"/>
  </node>
  <node id="-74" lat="52.22308944216271" lon="-0.07778203055496964">
    <tag k="addr:postcode" v="CB1 0TD"/>
    <tag k="removemelater" v="yes"/>
  </node>
  <node id="-75" lat="52.22308944216271" lon="-0.07778203055496964">
    <tag k="addr:postcode" v="CB1 0TE"/>
    <tag k="removemelater" v="yes"/>
  </node>
  <node id="-76" lat="52.22308944216271" lon="-0.07778203055496964">
    <tag k="addr:postcode" v="CB1 0TF"/>
    <tag k="removemelater" v="yes"/>
  </node>
  <node id="-77" lat="52.22308944216271" lon="-0.07778203055496964">
    <tag k="addr:postcode" v="CB1 0TG"/>
    <tag k="removemelater" v="yes"/>
  </node>
  <node id="-78" lat="52.22308944216271" lon="-0.07778203055496964">
    <tag k="addr:postcode" v="CB1 0TH"/>
    <tag k="removemelater" v="yes"/>
  </node>
  <node id="-79" lat="52.22308944216271" lon="-0.07778203055496964">
    <tag k="addr:postcode" v="CB1 0TJ"/>
    <tag k="removemelater" v="yes"/>
  </node>
  <node id="-80" lat="52.22308944216271" lon="-0.07778203055496964">
    <tag k="addr:postcode" v="CB1 0TL"/>
    <tag k="removemelater" v="yes"/>
  </node>
  <node id="-81" lat="52.22308944216271" lon="-0.07778203055496964">
    <tag k="addr:postcode" v="CB1 0TN"/>
    <tag k="removemelater" v="yes"/>
  </node>
  <node id="-82" lat="52.22308944216271" lon="-0.07778203055496964">
    <tag k="addr:postcode" v="CB1 0TP"/>
    <tag k="removemelater" v="yes"/>
  </node>
  <node id="-83" lat="52.22308944216271" lon="-0.07778203055496964">
    <tag k="addr:postcode" v="CB1 0TQ"/>
    <tag k="removemelater" v="yes"/>
  </node>
  <node id="-84" lat="52.22308944216271" lon="-0.07778203055496964">
    <tag k="addr:postcode" v="CB1 0TR"/>
    <tag k="removemelater" v="yes"/>
  </node>
  <node id="-85" lat="52.22308944216271" lon="-0.07778203055496964">
    <tag k="addr:postcode" v="CB1 0TS"/>
    <tag k="removemelater" v="yes"/>
  </node>
  <node id="-86" lat="52.22308944216271" lon="-0.07778203055496964">
    <tag k="addr:postcode" v="CB1 0TT"/>
    <tag k="removemelater" v="yes"/>
  </node>
  <node id="-87" lat="52.22308944216271" lon="-0.07778203055496964">
    <tag k="addr:postcode" v="CB1 0TU"/>
    <tag k="removemelater" v="yes"/>
  </node>
  <node id="-88" lat="52.22308944216271" lon="-0.07778203055496964">
    <tag k="addr:postcode" v="CB1 0TW"/>
    <tag k="removemelater" v="yes"/>
  </node>
  <node id="-89" lat="52.22308944216271" lon="-0.07778203055496964">
    <tag k="addr:postcode" v="CB1 0TX"/>
    <tag k="removemelater" v="yes"/>
  </node>
  <node id="-90" lat="52.22308944216271" lon="-0.07778203055496964">
    <tag k="addr:postcode" v="CB1 0TY"/>
    <tag k="removemelater" v="yes"/>
  </node>
  <node id="-91" lat="52.22308944216271" lon="-0.07778203055496964">
    <tag k="addr:postcode" v="CB1 0TZ"/>
    <tag k="removemelater" v="yes"/>
  </node>
  <node id="-92" lat="52.22308944216271" lon="-0.07778203055496964">
    <tag k="addr:postcode" v="CB1 0UA"/>
    <tag k="removemelater" v="yes"/>
  </node>
  <node id="-93" lat="52.22308944216271" lon="-0.07778203055496964">
    <tag k="addr:postcode" v="CB1 0UB"/>
    <tag k="removemelater" v="yes"/>
  </node>
  <node id="-94" lat="52.22308944216271" lon="-0.07778203055496964">
    <tag k="addr:postcode" v="CB1 0UD"/>
    <tag k="removemelater" v="yes"/>
  </node>
  <node id="-95" lat="52.22308944216271" lon="-0.07778203055496964">
    <tag k="addr:postcode" v="CB1 0UE"/>
    <tag k="removemelater" v="yes"/>
  </node>
  <node id="-96" lat="52.22308944216271" lon="-0.07778203055496964">
    <tag k="addr:postcode" v="CB1 0UF"/>
    <tag k="removemelater" v="yes"/>
  </node>
  <node id="-97" lat="52.22308944216271" lon="-0.07778203055496964">
    <tag k="addr:postcode" v="CB1 0UG"/>
    <tag k="removemelater" v="yes"/>
  </node>
  <node id="-98" lat="52.22308944216271" lon="-0.07778203055496964">
    <tag k="addr:postcode" v="CB1 0UH"/>
    <tag k="removemelater" v="yes"/>
  </node>
  <node id="-99" lat="52.22308944216271" lon="-0.07778203055496964">
    <tag k="addr:postcode" v="CB1 0UJ"/>
    <tag k="removemelater" v="yes"/>
  </node>
  <node id="-100" lat="52.22308944216271" lon="-0.07778203055496964">
    <tag k="addr:postcode" v="CB1 0UL"/>
    <tag k="removemelater" v="yes"/>
  </node>
  <node id="-101" lat="52.22308944216271" lon="-0.07778203055496964">
    <tag k="addr:postcode" v="CB1 0UN"/>
    <tag k="removemelater" v="yes"/>
  </node>
  <node id="-102" lat="52.19225424787171" lon="0.1371793535700088">
    <tag k="addr:postcode" v="CB1 0UP"/>
    <tag k="removemelater" v="yes"/>
  </node>
  <node id="-103" lat="52.19225424787171" lon="0.1371793535700088">
    <tag k="addr:postcode" v="CB1 0UQ"/>
    <tag k="removemelater" v="yes"/>
  </node>
  <node id="-104" lat="52.19225424787171" lon="0.1371793535700088">
    <tag k="addr:postcode" v="CB1 0UR"/>
    <tag k="removemelater" v="yes"/>
  </node>
  <node id="-105" lat="52.19225424787171" lon="0.1371793535700088">
    <tag k="addr:postcode" v="CB1 0UU"/>
    <tag k="removemelater" v="yes"/>
  </node>
  <node id="-106" lat="52.19225424787171" lon="0.1371793535700088">
    <tag k="addr:postcode" v="CB1 0UW"/>
    <tag k="removemelater" v="yes"/>
  </node>
  <node id="-107" lat="52.19225424787171" lon="0.1371793535700088">
    <tag k="addr:postcode" v="CB1 0WP"/>
    <tag k="removemelater" v="yes"/>
  </node>
  <node id="-108" lat="52.19225424787171" lon="0.1371793535700088">
    <tag k="addr:postcode" v="CB1 0WQ"/>
    <tag k="removemelater" v="yes"/>
  </node>
  <node id="-109" lat="52.19225424787171" lon="0.1371793535700088">
    <tag k="addr:postcode" v="CB1 0WR"/>
    <tag k="removemelater" v="yes"/>
  </node>
  <node id="-110" lat="52.19225424787171" lon="0.1371793535700088">
    <tag k="addr:postcode" v="CB1 0WW"/>
    <tag k="removemelater" v="yes"/>
  </node>
  <node id="-111" lat="52.19225424787171" lon="0.1371793535700088">
    <tag k="addr:postcode" v="CB1 0WX"/>
    <tag k="removemelater" v="yes"/>
  </node>
  <node id="-112" lat="52.19225424787171" lon="0.1371793535700088">
    <tag k="addr:postcode" v="CB1 0XD"/>
    <tag k="removemelater" v="yes"/>
  </node>
  <node id="-113" lat="52.19225424787171" lon="0.1371793535700088">
    <tag k="addr:postcode" v="CB1 0XN"/>
    <tag k="removemelater" v="yes"/>
  </node>
  <node id="-114" lat="52.19225424787171" lon="0.1371793535700088">
    <tag k="addr:postcode" v="CB1 0XQ"/>
    <tag k="removemelater" v="yes"/>
  </node>
  <node id="-115" lat="52.19225424787171" lon="0.1371793535700088">
    <tag k="addr:postcode" v="CB1 0XR"/>
    <tag k="removemelater" v="yes"/>
  </node>
  <node id="-116" lat="52.19225424787171" lon="0.1371793535700088">
    <tag k="addr:postcode" v="CB1 0XT"/>
    <tag k="removemelater" v="yes"/>
  </node>
  <node id="-117" lat="52.19225424787171" lon="0.1371793535700088">
    <tag k="addr:postcode" v="CB1 0XU"/>
    <tag k="removemelater" v="yes"/>
  </node>
  <node id="-118" lat="52.19225424787171" lon="0.1371793535700088">
    <tag k="addr:postcode" v="CB1 0XX"/>
    <tag k="removemelater" v="yes"/>
  </node>
  <node id="-119" lat="52.19225424787171" lon="0.1371793535700088">
    <tag k="addr:postcode" v="CB1 0YA"/>
    <tag k="removemelater" v="yes"/>
  </node>
  <node id="-120" lat="52.19225424787171" lon="0.1371793535700088">
    <tag k="addr:postcode" v="CB1 0YB"/>
    <tag k="removemelater" v="yes"/>
  </node>
  <node id="-121" lat="52.19225424787171" lon="0.1371793535700088">
    <tag k="addr:postcode" v="CB1 0YG"/>
    <tag k="removemelater" v="yes"/>
  </node>
  <node id="-122" lat="52.19225424787171" lon="0.1371793535700088">
    <tag k="addr:postcode" v="CB1 0YJ"/>
    <tag k="removemelater" v="yes"/>
  </node>
  <node id="-123" lat="52.19225424787171" lon="0.1371793535700088">
    <tag k="addr:postcode" v="CB1 0YP"/>
    <tag k="removemelater" v="yes"/>
  </node>
  <node id="-124" lat="52.19225424787171" lon="0.1371793535700088">
    <tag k="addr:postcode" v="CB1 0YY"/>
    <tag k="removemelater" v="yes"/>
  </node>
  <node id="-125" lat="52.20934502892909" lon="0.14823085968790595">
    <tag k="addr:postcode" v="CB1 0ZA"/>
    <tag k="removemelater" v="yes"/>
  </node>
  <node id="-126" lat="52.20934502892909" lon="0.14823085968790595">
    <tag k="addr:postcode" v="CB1 0ZY"/>
    <tag k="removemelater" v="yes"/>
  </node>
  <node id="-127" lat="52.20934502892909" lon="0.14823085968790595">
    <tag k="addr:postcode" v="CB1 0ZZ"/>
    <tag k="removemelater" v="yes"/>
  </node>
  <node id="-128" lat="52.205894620884514" lon="0.13571173327720085">
    <tag k="addr:postcode" v="CB1 1BS"/>
    <tag k="removemelater" v="yes"/>
  </node>
  <node id="-129" lat="52.20545732488529" lon="0.13503215413543845">
    <tag k="addr:postcode" v="CB1 1BW"/>
    <tag k="removemelater" v="yes"/>
  </node>
  <node id="-130" lat="52.20564048220861" lon="0.13086974359088563">
    <tag k="addr:postcode" v="CB1 1DP"/>
    <tag k="removemelater" v="yes"/>
  </node>
  <node id="-131" lat="52.19225424787171" lon="0.1371793535700088">
    <tag k="addr:postcode" v="CB1 1EA"/>
    <tag k="removemelater" v="yes"/>
  </node>
  <node id="-132" lat="52.20387350170989" lon="0.13012661423028413">
    <tag k="addr:postcode" v="CB1 1EE"/>
    <tag k="removemelater" v="yes"/>
  </node>
  <node id="-133" lat="52.204413349954336" lon="0.13060613187164746">
    <tag k="addr:postcode" v="CB1 1EG"/>
    <tag k="removemelater" v="yes"/>
  </node>
  <node id="-134" lat="52.204375012663" lon="0.12924321133541913">
    <tag k="addr:postcode" v="CB1 1EQ"/>
    <tag k="removemelater" v="yes"/>
  </node>
  <node id="-135" lat="52.20660759726164" lon="0.13059402822937075">
    <tag k="addr:postcode" v="CB1 1EW"/>
    <tag k="removemelater" v="yes"/>
  </node>
  <node id="-136" lat="52.20629048754345" lon="0.12923234693995456">
    <tag k="addr:postcode" v="CB1 1EX"/>
    <tag k="removemelater" v="yes"/>
  </node>
  <node id="-137" lat="52.2061958561405" lon="0.12799840377494834">
    <tag k="addr:postcode" v="CB1 1EY"/>
    <tag k="removemelater" v="yes"/>
  </node>
  <node id="-138" lat="52.20689716405169" lon="0.12850027503088382">
    <tag k="addr:postcode" v="CB1 1EZ"/>
    <tag k="removemelater" v="yes"/>
  </node>
  <node id="-139" lat="52.20322110565355" lon="0.13139792167322">
    <tag k="addr:postcode" v="CB1 1HS"/>
    <tag k="removemelater" v="yes"/>
  </node>
  <node id="-140" lat="52.202970866514256" lon="0.13081518550466786">
    <tag k="addr:postcode" v="CB1 1JF"/>
    <tag k="removemelater" v="yes"/>
  </node>
  <node id="-141" lat="52.204845328699875" lon="0.12809485914297142">
    <tag k="addr:postcode" v="CB1 1JU"/>
    <tag k="removemelater" v="yes"/>
  </node>
  <node id="-142" lat="52.2072874405908" lon="0.1282993858584988">
    <tag k="addr:postcode" v="CB1 1LA"/>
    <tag k="removemelater" v="yes"/>
  </node>
  <node id="-143" lat="52.20745953514509" lon="0.12423870779946584">
    <tag k="addr:postcode" v="CB1 1LE"/>
    <tag k="removemelater" v="yes"/>
  </node>
  <node id="-144" lat="52.20766669817509" lon="0.12421931767269791">
    <tag k="addr:postcode" v="CB1 1LJ"/>
    <tag k="removemelater" v="yes"/>
  </node>
  <node id="-145" lat="52.20527897134686" lon="0.12897908404399971">
    <tag k="addr:postcode" v="CB1 1PR"/>
    <tag k="removemelater" v="yes"/>
  </node>
  <node id="-146" lat="52.20194612633234" lon="0.13427844940711645">
    <tag k="addr:postcode" v="CB1 2AL"/>
    <tag k="removemelater" v="yes"/>
  </node>
  <node id="-147" lat="52.20227696881887" lon="0.13338695505289055">
    <tag k="addr:postcode" v="CB1 2AQ"/>
    <tag k="removemelater" v="yes"/>
  </node>
  <node id="-148" lat="52.199408748002" lon="0.13834210918031797">
    <tag k="addr:postcode" v="CB1 2BE"/>
    <tag k="removemelater" v="yes"/>
  </node>
  <node id="-149" lat="52.19870387279228" lon="0.13555717447155047">
    <tag k="addr:postcode" v="CB1 2DW"/>
    <tag k="removemelater" v="yes"/>
  </node>
  <node id="-150" lat="52.19218349991672" lon="0.1351275716632676">
    <tag k="addr:postcode" v="CB1 2FT"/>
    <tag k="removemelater" v="yes"/>
  </node>
  <node id="-151" lat="52.194917545417574" lon="0.13659013960755323">
    <tag k="addr:postcode" v="CB1 2GA"/>
    <tag k="removemelater" v="yes"/>
  </node>
  <node id="-152" lat="52.19415124557688" lon="0.13669970822694297">
    <tag k="addr:postcode" v="CB1 2JH"/>
    <tag k="removemelater" v="yes"/>
  </node>
  <node id="-153" lat="52.20797087429408" lon="0.1387386235441911">
    <tag k="addr:postcode" v="CB1 2JQ"/>
    <tag k="removemelater" v="yes"/>
  </node>
  <node id="-154" lat="52.20297727018369" lon="0.1389085857923397">
    <tag k="addr:postcode" v="CB1 2LG"/>
    <tag k="removemelater" v="yes"/>
  </node>
  <node id="-155" lat="52.20778167783921" lon="0.13875880917299355">
    <tag k="addr:postcode" v="CB1 2LQ"/>
    <tag k="removemelater" v="yes"/>
  </node>
  <node id="-156" lat="52.200520099899855" lon="0.1390393643209266">
    <tag k="addr:postcode" v="CB1 2LW"/>
    <tag k="removemelater" v="yes"/>
  </node>
  <node id="-157" lat="52.19225424787171" lon="0.1371793535700088">
    <tag k="addr:postcode" v="CB1 2NT"/>
    <tag k="removemelater" v="yes"/>
  </node>
  <node id="-158" lat="52.20177409784968" lon="0.14029961955937317">
    <tag k="addr:postcode" v="CB1 2SN"/>
    <tag k="removemelater" v="yes"/>
  </node>
  <node id="-159" lat="52.19225424787171" lon="0.1371793535700088">
    <tag k="addr:postcode" v="CB1 2WS"/>
    <tag k="removemelater" v="yes"/>
  </node>
  <node id="-160" lat="52.19225424787171" lon="0.1371793535700088">
    <tag k="addr:postcode" v="CB1 2WW"/>
    <tag k="removemelater" v="yes"/>
  </node>
  <node id="-161" lat="52.19577052709142" lon="0.13616280930091934">
    <tag k="addr:postcode" v="CB1 2XL"/>
    <tag k="removemelater" v="yes"/>
  </node>
  <node id="-162" lat="52.199290567257286" lon="0.14287287979926064">
    <tag k="addr:postcode" v="CB1 3AD"/>
    <tag k="removemelater" v="yes"/>
  </node>
  <node id="-163" lat="52.198622089177725" lon="0.14502110879857713">
    <tag k="addr:postcode" v="CB1 3AJ"/>
    <tag k="removemelater" v="yes"/>
  </node>
  <node id="-164" lat="52.19833078670509" lon="0.15311398191636108">
    <tag k="addr:postcode" v="CB1 3DL"/>
    <tag k="removemelater" v="yes"/>
  </node>
  <node id="-165" lat="52.191174165811866" lon="0.13971723479244472">
    <tag k="addr:postcode" v="CB1 3FD"/>
    <tag k="removemelater" v="yes"/>
  </node>
  <node id="-166" lat="52.20828725844111" lon="0.14409619786765324">
    <tag k="addr:postcode" v="CB1 3HB"/>
    <tag k="removemelater" v="yes"/>
  </node>
  <node id="-167" lat="52.19581755775783" lon="0.17101987036239694">
    <tag k="addr:postcode" v="CB1 3JH"/>
    <tag k="removemelater" v="yes"/>
  </node>
  <node id="-168" lat="52.19383733762261" lon="0.14853649432373023">
    <tag k="addr:postcode" v="CB1 3PS"/>
    <tag k="removemelater" v="yes"/>
  </node>
  <node id="-169" lat="52.19340008373332" lon="0.15722131844792087">
    <tag k="addr:postcode" v="CB1 3TY"/>
    <tag k="removemelater" v="yes"/>
  </node>
  <node id="-170" lat="52.19225424787171" lon="0.1371793535700088">
    <tag k="addr:postcode" v="CB1 3WX"/>
    <tag k="removemelater" v="yes"/>
  </node>
  <node id="-171" lat="52.18792986401564" lon="0.1391225457472782">
    <tag k="addr:postcode" v="CB1 7AB"/>
    <tag k="removemelater" v="yes"/>
  </node>
  <node id="-172" lat="52.18767592244981" lon="0.13924202413400397">
    <tag k="addr:postcode" v="CB1 7AD"/>
    <tag k="removemelater" v="yes"/>
  </node>
  <node id="-173" lat="52.19225424787171" lon="0.1371793535700088">
    <tag k="addr:postcode" v="CB1 7QQ"/>
    <tag k="removemelater" v="yes"/>
  </node>
  <node id="-174" lat="52.185868193413135" lon="0.14025243995606493">
    <tag k="addr:postcode" v="CB1 7TP"/>
    <tag k="removemelater" v="yes"/>
  </node>
  <node id="-175" lat="52.184889983738756" lon="0.14014694491391688">
    <tag k="addr:postcode" v="CB1 7UW"/>
    <tag k="removemelater" v="yes"/>
  </node>
  <node id="-176" lat="52.19225424787171" lon="0.1371793535700088">
    <tag k="addr:postcode" v="CB1 8TN"/>
    <tag k="removemelater" v="yes"/>
  </node>
  <node id="-177" lat="52.19225424787171" lon="0.1371793535700088">
    <tag k="addr:postcode" v="CB1 8ZQ"/>
    <tag k="removemelater" v="yes"/>
  </node>
  <node id="-178" lat="52.18738685792086" lon="0.19075443223226826">
    <tag k="addr:postcode" v="CB1 9LT"/>
    <tag k="removemelater" v="yes"/>
  </node>
  <node id="-179" lat="52.18817471176667" lon="0.18172247644310655">
    <tag k="addr:postcode" v="CB1 9SB"/>
    <tag k="removemelater" v="yes"/>
  </node>
  <node id="-180" lat="52.19225424787171" lon="0.1371793535700088">
    <tag k="addr:postcode" v="CB1 9TS"/>
    <tag k="removemelater" v="yes"/>
  </node>
  <node id="-181" lat="52.022300576513324" lon="0.23713298896442578">
    <tag k="addr:postcode" v="CB10 1AG"/>
    <tag k="removemelater" v="yes"/>
  </node>
  <node id="-182" lat="52.022975857047086" lon="0.23850770642855007">
    <tag k="addr:postcode" v="CB10 1AS"/>
    <tag k="removemelater" v="yes"/>
  </node>
  <node id="-183" lat="52.02272071938466" lon="0.24199324667190697">
    <tag k="addr:postcode" v="CB10 1DT"/>
    <tag k="removemelater" v="yes"/>
  </node>
  <node id="-184" lat="52.02302755362495" lon="0.24193571236833208">
    <tag k="addr:postcode" v="CB10 1EH"/>
    <tag k="removemelater" v="yes"/>
  </node>
  <node id="-185" lat="52.07860080488969" lon="0.19749251079285096">
    <tag k="addr:postcode" v="CB10 1FE"/>
    <tag k="removemelater" v="yes"/>
  </node>
  <node id="-186" lat="52.02332184824842" lon="0.24111957881365634">
    <tag k="addr:postcode" v="CB10 1HB"/>
    <tag k="removemelater" v="yes"/>
  </node>
  <node id="-187" lat="52.02332184824842" lon="0.24111957881365634">
    <tag k="addr:postcode" v="CB10 1HY"/>
    <tag k="removemelater" v="yes"/>
  </node>
  <node id="-188" lat="52.022975857047086" lon="0.23850770642855007">
    <tag k="addr:postcode" v="CB10 1QJ"/>
    <tag k="removemelater" v="yes"/>
  </node>
  <node id="-189" lat="52.022975857047086" lon="0.23850770642855007">
    <tag k="addr:postcode" v="CB10 1QT"/>
    <tag k="removemelater" v="yes"/>
  </node>
  <node id="-190" lat="52.022975857047086" lon="0.23850770642855007">
    <tag k="addr:postcode" v="CB10 1RX"/>
    <tag k="removemelater" v="yes"/>
  </node>
  <node id="-191" lat="52.022975857047086" lon="0.23850770642855007">
    <tag k="addr:postcode" v="CB10 1WG"/>
    <tag k="removemelater" v="yes"/>
  </node>
  <node id="-192" lat="52.022975857047086" lon="0.23850770642855007">
    <tag k="addr:postcode" v="CB10 1WQ"/>
    <tag k="removemelater" v="yes"/>
  </node>
  <node id="-193" lat="52.022975857047086" lon="0.23850770642855007">
    <tag k="addr:postcode" v="CB10 1XX"/>
    <tag k="removemelater" v="yes"/>
  </node>
  <node id="-194" lat="52.022975857047086" lon="0.23850770642855007">
    <tag k="addr:postcode" v="CB10 1ZP"/>
    <tag k="removemelater" v="yes"/>
  </node>
  <node id="-195" lat="52.025218768943134" lon="0.24586448874212027">
    <tag k="addr:postcode" v="CB10 2AA"/>
    <tag k="removemelater" v="yes"/>
  </node>
  <node id="-196" lat="52.02765585696501" lon="0.24207976770930267">
    <tag k="addr:postcode" v="CB10 2DU"/>
    <tag k="removemelater" v="yes"/>
  </node>
  <node id="-197" lat="52.022975857047086" lon="0.23850770642855007">
    <tag k="addr:postcode" v="CB10 2ES"/>
    <tag k="removemelater" v="yes"/>
  </node>
  <node id="-198" lat="52.022975857047086" lon="0.23850770642855007">
    <tag k="addr:postcode" v="CB10 2FX"/>
    <tag k="removemelater" v="yes"/>
  </node>
  <node id="-199" lat="52.07006648544062" lon="0.30529950971223685">
    <tag k="addr:postcode" v="CB10 2HY"/>
    <tag k="removemelater" v="yes"/>
  </node>
  <node id="-200" lat="52.04123271794971" lon="0.3142270855927139">
    <tag k="addr:postcode" v="CB10 2NA"/>
    <tag k="removemelater" v="yes"/>
  </node>
  <node id="-201" lat="51.99352219403342" lon="0.3905727693254579">
    <tag k="addr:postcode" v="CB10 2RF"/>
    <tag k="removemelater" v="yes"/>
  </node>
  <node id="-202" lat="52.022975857047086" lon="0.23850770642855007">
    <tag k="addr:postcode" v="CB10 2ZF"/>
    <tag k="removemelater" v="yes"/>
  </node>
  <node id="-203" lat="52.022975857047086" lon="0.23850770642855007">
    <tag k="addr:postcode" v="CB10 2ZZ"/>
    <tag k="removemelater" v="yes"/>
  </node>
  <node id="-204" lat="52.022975857047086" lon="0.23850770642855007">
    <tag k="addr:postcode" v="CB10 9AQ"/>
    <tag k="removemelater" v="yes"/>
  </node>
  <node id="-205" lat="52.022975857047086" lon="0.23850770642855007">
    <tag k="addr:postcode" v="CB10 9AZ"/>
    <tag k="removemelater" v="yes"/>
  </node>
  <node id="-206" lat="52.022975857047086" lon="0.23850770642855007">
    <tag k="addr:postcode" v="CB10 9BE"/>
    <tag k="removemelater" v="yes"/>
  </node>
  <node id="-207" lat="52.022975857047086" lon="0.23850770642855007">
    <tag k="addr:postcode" v="CB10 9BP"/>
    <tag k="removemelater" v="yes"/>
  </node>
  <node id="-208" lat="52.022975857047086" lon="0.23850770642855007">
    <tag k="addr:postcode" v="CB10 9BS"/>
    <tag k="removemelater" v="yes"/>
  </node>
  <node id="-209" lat="52.022975857047086" lon="0.23850770642855007">
    <tag k="addr:postcode" v="CB10 9BT"/>
    <tag k="removemelater" v="yes"/>
  </node>
  <node id="-210" lat="52.022975857047086" lon="0.23850770642855007">
    <tag k="addr:postcode" v="CB10 9DN"/>
    <tag k="removemelater" v="yes"/>
  </node>
  <node id="-211" lat="52.022975857047086" lon="0.23850770642855007">
    <tag k="addr:postcode" v="CB10 9DR"/>
    <tag k="removemelater" v="yes"/>
  </node>
  <node id="-212" lat="52.022975857047086" lon="0.23850770642855007">
    <tag k="addr:postcode" v="CB10 9DZ"/>
    <tag k="removemelater" v="yes"/>
  </node>
  <node id="-213" lat="52.022975857047086" lon="0.23850770642855007">
    <tag k="addr:postcode" v="CB10 9EB"/>
    <tag k="removemelater" v="yes"/>
  </node>
  <node id="-214" lat="52.022975857047086" lon="0.23850770642855007">
    <tag k="addr:postcode" v="CB10 9EG"/>
    <tag k="removemelater" v="yes"/>
  </node>
  <node id="-215" lat="52.022975857047086" lon="0.23850770642855007">
    <tag k="addr:postcode" v="CB10 9EL"/>
    <tag k="removemelater" v="yes"/>
  </node>
  <node id="-216" lat="52.022975857047086" lon="0.23850770642855007">
    <tag k="addr:postcode" v="CB10 9EN"/>
    <tag k="removemelater" v="yes"/>
  </node>
  <node id="-217" lat="52.022975857047086" lon="0.23850770642855007">
    <tag k="addr:postcode" v="CB10 9EQ"/>
    <tag k="removemelater" v="yes"/>
  </node>
  <node id="-218" lat="52.022975857047086" lon="0.23850770642855007">
    <tag k="addr:postcode" v="CB10 9ES"/>
    <tag k="removemelater" v="yes"/>
  </node>
  <node id="-219" lat="52.022975857047086" lon="0.23850770642855007">
    <tag k="addr:postcode" v="CB10 9ET"/>
    <tag k="removemelater" v="yes"/>
  </node>
  <node id="-220" lat="52.022975857047086" lon="0.23850770642855007">
    <tag k="addr:postcode" v="CB10 9EU"/>
    <tag k="removemelater" v="yes"/>
  </node>
  <node id="-221" lat="52.022975857047086" lon="0.23850770642855007">
    <tag k="addr:postcode" v="CB10 9EW"/>
    <tag k="removemelater" v="yes"/>
  </node>
  <node id="-222" lat="52.022975857047086" lon="0.23850770642855007">
    <tag k="addr:postcode" v="CB10 9EY"/>
    <tag k="removemelater" v="yes"/>
  </node>
  <node id="-223" lat="52.01895459536576" lon="0.23670366597836057">
    <tag k="addr:postcode" v="CB10 9SA"/>
    <tag k="removemelater" v="yes"/>
  </node>
  <node id="-224" lat="52.01895459536576" lon="0.23670366597836057">
    <tag k="addr:postcode" v="CB10 9SB"/>
    <tag k="removemelater" v="yes"/>
  </node>
  <node id="-225" lat="52.01895459536576" lon="0.23670366597836057">
    <tag k="addr:postcode" v="CB10 9SD"/>
    <tag k="removemelater" v="yes"/>
  </node>
  <node id="-226" lat="52.01895459536576" lon="0.23670366597836057">
    <tag k="addr:postcode" v="CB10 9SE"/>
    <tag k="removemelater" v="yes"/>
  </node>
  <node id="-227" lat="52.01895459536576" lon="0.23670366597836057">
    <tag k="addr:postcode" v="CB10 9SF"/>
    <tag k="removemelater" v="yes"/>
  </node>
  <node id="-228" lat="52.01895459536576" lon="0.23670366597836057">
    <tag k="addr:postcode" v="CB10 9SG"/>
    <tag k="removemelater" v="yes"/>
  </node>
  <node id="-229" lat="52.01895459536576" lon="0.23670366597836057">
    <tag k="addr:postcode" v="CB10 9SH"/>
    <tag k="removemelater" v="yes"/>
  </node>
  <node id="-230" lat="52.01895459536576" lon="0.23670366597836057">
    <tag k="addr:postcode" v="CB10 9SJ"/>
    <tag k="removemelater" v="yes"/>
  </node>
  <node id="-231" lat="52.01895459536576" lon="0.23670366597836057">
    <tag k="addr:postcode" v="CB10 9SL"/>
    <tag k="removemelater" v="yes"/>
  </node>
  <node id="-232" lat="52.01895459536576" lon="0.23670366597836057">
    <tag k="addr:postcode" v="CB10 9SN"/>
    <tag k="removemelater" v="yes"/>
  </node>
  <node id="-233" lat="52.01895459536576" lon="0.23670366597836057">
    <tag k="addr:postcode" v="CB10 9SP"/>
    <tag k="removemelater" v="yes"/>
  </node>
  <node id="-234" lat="52.01895459536576" lon="0.23670366597836057">
    <tag k="addr:postcode" v="CB10 9SQ"/>
    <tag k="removemelater" v="yes"/>
  </node>
  <node id="-235" lat="52.01895459536576" lon="0.23670366597836057">
    <tag k="addr:postcode" v="CB10 9SR"/>
    <tag k="removemelater" v="yes"/>
  </node>
  <node id="-236" lat="52.01895459536576" lon="0.23670366597836057">
    <tag k="addr:postcode" v="CB10 9SS"/>
    <tag k="removemelater" v="yes"/>
  </node>
  <node id="-237" lat="52.01895459536576" lon="0.23670366597836057">
    <tag k="addr:postcode" v="CB10 9ST"/>
    <tag k="removemelater" v="yes"/>
  </node>
  <node id="-238" lat="52.01895459536576" lon="0.23670366597836057">
    <tag k="addr:postcode" v="CB10 9SU"/>
    <tag k="removemelater" v="yes"/>
  </node>
  <node id="-239" lat="52.01895459536576" lon="0.23670366597836057">
    <tag k="addr:postcode" v="CB10 9SW"/>
    <tag k="removemelater" v="yes"/>
  </node>
  <node id="-240" lat="52.01895459536576" lon="0.23670366597836057">
    <tag k="addr:postcode" v="CB10 9SX"/>
    <tag k="removemelater" v="yes"/>
  </node>
  <node id="-241" lat="52.01895459536576" lon="0.23670366597836057">
    <tag k="addr:postcode" v="CB10 9SY"/>
    <tag k="removemelater" v="yes"/>
  </node>
  <node id="-242" lat="52.01895459536576" lon="0.23670366597836057">
    <tag k="addr:postcode" v="CB10 9SZ"/>
    <tag k="removemelater" v="yes"/>
  </node>
  <node id="-243" lat="52.01895459536576" lon="0.23670366597836057">
    <tag k="addr:postcode" v="CB10 9TA"/>
    <tag k="removemelater" v="yes"/>
  </node>
  <node id="-244" lat="52.01895459536576" lon="0.23670366597836057">
    <tag k="addr:postcode" v="CB10 9TB"/>
    <tag k="removemelater" v="yes"/>
  </node>
  <node id="-245" lat="52.01895459536576" lon="0.23670366597836057">
    <tag k="addr:postcode" v="CB10 9TD"/>
    <tag k="removemelater" v="yes"/>
  </node>
  <node id="-246" lat="52.01895459536576" lon="0.23670366597836057">
    <tag k="addr:postcode" v="CB10 9TE"/>
    <tag k="removemelater" v="yes"/>
  </node>
  <node id="-247" lat="52.01895459536576" lon="0.23670366597836057">
    <tag k="addr:postcode" v="CB10 9TF"/>
    <tag k="removemelater" v="yes"/>
  </node>
  <node id="-248" lat="52.01895459536576" lon="0.23670366597836057">
    <tag k="addr:postcode" v="CB10 9TG"/>
    <tag k="removemelater" v="yes"/>
  </node>
  <node id="-249" lat="52.01895459536576" lon="0.23670366597836057">
    <tag k="addr:postcode" v="CB10 9TH"/>
    <tag k="removemelater" v="yes"/>
  </node>
  <node id="-250" lat="52.01895459536576" lon="0.23670366597836057">
    <tag k="addr:postcode" v="CB10 9TJ"/>
    <tag k="removemelater" v="yes"/>
  </node>
  <node id="-251" lat="52.01895459536576" lon="0.23670366597836057">
    <tag k="addr:postcode" v="CB10 9TL"/>
    <tag k="removemelater" v="yes"/>
  </node>
  <node id="-252" lat="52.01895459536576" lon="0.23670366597836057">
    <tag k="addr:postcode" v="CB10 9TN"/>
    <tag k="removemelater" v="yes"/>
  </node>
  <node id="-253" lat="52.01895459536576" lon="0.23670366597836057">
    <tag k="addr:postcode" v="CB10 9TP"/>
    <tag k="removemelater" v="yes"/>
  </node>
  <node id="-254" lat="52.01895459536576" lon="0.23670366597836057">
    <tag k="addr:postcode" v="CB10 9TQ"/>
    <tag k="removemelater" v="yes"/>
  </node>
  <node id="-255" lat="52.01895459536576" lon="0.23670366597836057">
    <tag k="addr:postcode" v="CB10 9TR"/>
    <tag k="removemelater" v="yes"/>
  </node>
  <node id="-256" lat="52.0229477985461" lon="0.23856461017049196">
    <tag k="addr:postcode" v="CB10 9ZZ"/>
    <tag k="removemelater" v="yes"/>
  </node>
  <node id="-257" lat="52.01840863061616" lon="0.25402041848832885">
    <tag k="addr:postcode" v="CB11 3AP"/>
    <tag k="removemelater" v="yes"/>
  </node>
  <node id="-258" lat="52.01854450087214" lon="0.253968950389541">
    <tag k="addr:postcode" v="CB11 3AZ"/>
    <tag k="removemelater" v="yes"/>
  </node>
  <node id="-259" lat="52.022975857047086" lon="0.23850770642855007">
    <tag k="addr:postcode" v="CB11 3FH"/>
    <tag k="removemelater" v="yes"/>
  </node>
  <node id="-260" lat="52.022975857047086" lon="0.23850770642855007">
    <tag k="addr:postcode" v="CB11 3GX"/>
    <tag k="removemelater" v="yes"/>
  </node>
  <node id="-261" lat="52.022975857047086" lon="0.23850770642855007">
    <tag k="addr:postcode" v="CB11 3ND"/>
    <tag k="removemelater" v="yes"/>
  </node>
  <node id="-262" lat="52.022975857047086" lon="0.23850770642855007">
    <tag k="addr:postcode" v="CB11 3WW"/>
    <tag k="removemelater" v="yes"/>
  </node>
  <node id="-263" lat="52.022975857047086" lon="0.23850770642855007">
    <tag k="addr:postcode" v="CB11 3XT"/>
    <tag k="removemelater" v="yes"/>
  </node>
  <node id="-264" lat="52.022975857047086" lon="0.23850770642855007">
    <tag k="addr:postcode" v="CB11 3YY"/>
    <tag k="removemelater" v="yes"/>
  </node>
  <node id="-265" lat="52.022975857047086" lon="0.23850770642855007">
    <tag k="addr:postcode" v="CB11 4EJ"/>
    <tag k="removemelater" v="yes"/>
  </node>
  <node id="-266" lat="52.01901416341608" lon="0.2368815374697663">
    <tag k="addr:postcode" v="CB11 4ER"/>
    <tag k="removemelater" v="yes"/>
  </node>
  <node id="-267" lat="51.956092763957805" lon="0.14716354149302346">
    <tag k="addr:postcode" v="CB11 4PG"/>
    <tag k="removemelater" v="yes"/>
  </node>
  <node id="-268" lat="52.022975857047086" lon="0.23850770642855007">
    <tag k="addr:postcode" v="CB11 4RA"/>
    <tag k="removemelater" v="yes"/>
  </node>
  <node id="-269" lat="52.022975857047086" lon="0.23850770642855007">
    <tag k="addr:postcode" v="CB11 4WW"/>
    <tag k="removemelater" v="yes"/>
  </node>
  <node id="-270" lat="52.022975857047086" lon="0.23850770642855007">
    <tag k="addr:postcode" v="CB11 4WX"/>
    <tag k="removemelater" v="yes"/>
  </node>
  <node id="-271" lat="52.022975857047086" lon="0.23850770642855007">
    <tag k="addr:postcode" v="CB11 4WY"/>
    <tag k="removemelater" v="yes"/>
  </node>
  <node id="-272" lat="52.17639209673284" lon="0.14264955997615233">
    <tag k="addr:postcode" v="CB2 0AH"/>
    <tag k="removemelater" v="yes"/>
  </node>
  <node id="-273" lat="52.17320704019934" lon="0.13631006084342676">
    <tag k="addr:postcode" v="CB2 0AT"/>
    <tag k="removemelater" v="yes"/>
  </node>
  <node id="-274" lat="52.19003549332162" lon="0.13506853134103078">
    <tag k="addr:postcode" v="CB2 0NT"/>
    <tag k="removemelater" v="yes"/>
  </node>
  <node id="-275" lat="52.18923115223339" lon="0.1347959040115009">
    <tag k="addr:postcode" v="CB2 0NU"/>
    <tag k="removemelater" v="yes"/>
  </node>
  <node id="-276" lat="52.173740688748666" lon="0.139114437022424">
    <tag k="addr:postcode" v="CB2 0QQ"/>
    <tag k="removemelater" v="yes"/>
  </node>
  <node id="-277" lat="52.173740688748666" lon="0.139114437022424">
    <tag k="addr:postcode" v="CB2 0QW"/>
    <tag k="removemelater" v="yes"/>
  </node>
  <node id="-278" lat="52.17844323863198" lon="0.13615144884558525">
    <tag k="addr:postcode" v="CB2 0SZ"/>
    <tag k="removemelater" v="yes"/>
  </node>
  <node id="-279" lat="52.19225424787171" lon="0.1371793535700088">
    <tag k="addr:postcode" v="CB2 1AH"/>
    <tag k="removemelater" v="yes"/>
  </node>
  <node id="-280" lat="52.20210867235618" lon="0.12427617871572022">
    <tag k="addr:postcode" v="CB2 1AX"/>
    <tag k="removemelater" v="yes"/>
  </node>
  <node id="-281" lat="52.19225424787171" lon="0.1371793535700088">
    <tag k="addr:postcode" v="CB2 1FH"/>
    <tag k="removemelater" v="yes"/>
  </node>
  <node id="-282" lat="52.19729253329942" lon="0.12757305239895186">
    <tag k="addr:postcode" v="CB2 1JH"/>
    <tag k="removemelater" v="yes"/>
  </node>
  <node id="-283" lat="52.194699627489875" lon="0.1312389476646165">
    <tag k="addr:postcode" v="CB2 1LU"/>
    <tag k="removemelater" v="yes"/>
  </node>
  <node id="-284" lat="52.19555570201086" lon="0.12814856159451146">
    <tag k="addr:postcode" v="CB2 1NB"/>
    <tag k="removemelater" v="yes"/>
  </node>
  <node id="-285" lat="52.195720036390135" lon="0.1275125827737084">
    <tag k="addr:postcode" v="CB2 1ND"/>
    <tag k="removemelater" v="yes"/>
  </node>
  <node id="-286" lat="52.194994972620485" lon="0.1278291299365205">
    <tag k="addr:postcode" v="CB2 1NN"/>
    <tag k="removemelater" v="yes"/>
  </node>
  <node id="-287" lat="52.19867343989425" lon="0.12279533740191373">
    <tag k="addr:postcode" v="CB2 1PD"/>
    <tag k="removemelater" v="yes"/>
  </node>
  <node id="-288" lat="52.19167037235305" lon="0.13366912666783912">
    <tag k="addr:postcode" v="CB2 1PQ"/>
    <tag k="removemelater" v="yes"/>
  </node>
  <node id="-289" lat="52.19845545083822" lon="0.12291664913460949">
    <tag k="addr:postcode" v="CB2 1QN"/>
    <tag k="removemelater" v="yes"/>
  </node>
  <node id="-290" lat="52.20128837178393" lon="0.12289069814398278">
    <tag k="addr:postcode" v="CB2 1QP"/>
    <tag k="removemelater" v="yes"/>
  </node>
  <node id="-291" lat="52.19845545083822" lon="0.12291664913460949">
    <tag k="addr:postcode" v="CB2 1QR"/>
    <tag k="removemelater" v="yes"/>
  </node>
  <node id="-292" lat="52.200763866184" lon="0.12005594569501922">
    <tag k="addr:postcode" v="CB2 1QU"/>
    <tag k="removemelater" v="yes"/>
  </node>
  <node id="-293" lat="52.20128837178393" lon="0.12289069814398278">
    <tag k="addr:postcode" v="CB2 1QW"/>
    <tag k="removemelater" v="yes"/>
  </node>
  <node id="-294" lat="52.20200650095689" lon="0.11695403718299013">
    <tag k="addr:postcode" v="CB2 1SB"/>
    <tag k="removemelater" v="yes"/>
  </node>
  <node id="-295" lat="52.204840069918866" lon="0.11789368237912505">
    <tag k="addr:postcode" v="CB2 1SR"/>
    <tag k="removemelater" v="yes"/>
  </node>
  <node id="-296" lat="52.20815793362105" lon="0.11840276413851271">
    <tag k="addr:postcode" v="CB2 1TR"/>
    <tag k="removemelater" v="yes"/>
  </node>
  <node id="-297" lat="52.20529552006304" lon="0.1170664772755516">
    <tag k="addr:postcode" v="CB2 1TS"/>
    <tag k="removemelater" v="yes"/>
  </node>
  <node id="-298" lat="52.20529552006304" lon="0.1170664772755516">
    <tag k="addr:postcode" v="CB2 1TT"/>
    <tag k="removemelater" v="yes"/>
  </node>
  <node id="-299" lat="52.20851557190414" lon="0.11951752932863881">
    <tag k="addr:postcode" v="CB2 1UB"/>
    <tag k="removemelater" v="yes"/>
  </node>
  <node id="-300" lat="52.19225424787171" lon="0.1371793535700088">
    <tag k="addr:postcode" v="CB2 1YG"/>
    <tag k="removemelater" v="yes"/>
  </node>
  <node id="-301" lat="52.20469680685446" lon="0.12286291227062851">
    <tag k="addr:postcode" v="CB2 3DD"/>
    <tag k="removemelater" v="yes"/>
  </node>
  <node id="-302" lat="52.20288664930237" lon="0.12151803328093716">
    <tag k="addr:postcode" v="CB2 3DY"/>
    <tag k="removemelater" v="yes"/>
  </node>
  <node id="-303" lat="52.20288664930237" lon="0.12151803328093716">
    <tag k="addr:postcode" v="CB2 3EA"/>
    <tag k="removemelater" v="yes"/>
  </node>
  <node id="-304" lat="52.20288664930237" lon="0.12151803328093716">
    <tag k="addr:postcode" v="CB2 3EB"/>
    <tag k="removemelater" v="yes"/>
  </node>
  <node id="-305" lat="52.20288664930237" lon="0.12151803328093716">
    <tag k="addr:postcode" v="CB2 3EG"/>
    <tag k="removemelater" v="yes"/>
  </node>
  <node id="-306" lat="52.20288664930237" lon="0.12151803328093716">
    <tag k="addr:postcode" v="CB2 3EH"/>
    <tag k="removemelater" v="yes"/>
  </node>
  <node id="-307" lat="52.20288664930237" lon="0.12151803328093716">
    <tag k="addr:postcode" v="CB2 3EN"/>
    <tag k="removemelater" v="yes"/>
  </node>
  <node id="-308" lat="52.20469006566399" lon="0.12123805902070704">
    <tag k="addr:postcode" v="CB2 3ET"/>
    <tag k="removemelater" v="yes"/>
  </node>
  <node id="-309" lat="52.20594261689203" lon="0.11908771283132547">
    <tag k="addr:postcode" v="CB2 3LP"/>
    <tag k="removemelater" v="yes"/>
  </node>
  <node id="-310" lat="52.204595136105446" lon="0.12051640327378423">
    <tag k="addr:postcode" v="CB2 3QD"/>
    <tag k="removemelater" v="yes"/>
  </node>
  <node id="-311" lat="52.204033120470505" lon="0.12076771165287031">
    <tag k="addr:postcode" v="CB2 3QF"/>
    <tag k="removemelater" v="yes"/>
  </node>
  <node id="-312" lat="52.2023143560936" lon="0.11933948052838439">
    <tag k="addr:postcode" v="CB2 3QG"/>
    <tag k="removemelater" v="yes"/>
  </node>
  <node id="-313" lat="52.20357303763312" lon="0.12035065610614837">
    <tag k="addr:postcode" v="CB2 3QZ"/>
    <tag k="removemelater" v="yes"/>
  </node>
  <node id="-314" lat="52.20369524699996" lon="0.11905395157361888">
    <tag k="addr:postcode" v="CB2 3RH"/>
    <tag k="removemelater" v="yes"/>
  </node>
  <node id="-315" lat="52.202905577118145" lon="0.12046522692447725">
    <tag k="addr:postcode" v="CB2 3RQ"/>
    <tag k="removemelater" v="yes"/>
  </node>
  <node id="-316" lat="52.204595136105446" lon="0.12051640327378423">
    <tag k="addr:postcode" v="CB2 3TA"/>
    <tag k="removemelater" v="yes"/>
  </node>
  <node id="-317" lat="52.19225424787171" lon="0.1371793535700088">
    <tag k="addr:postcode" v="CB2 3UG"/>
    <tag k="removemelater" v="yes"/>
  </node>
  <node id="-318" lat="52.19225424787171" lon="0.1371793535700088">
    <tag k="addr:postcode" v="CB2 3WD"/>
    <tag k="removemelater" v="yes"/>
  </node>
  <node id="-319" lat="52.18866408113114" lon="0.12935556998617725">
    <tag k="addr:postcode" v="CB2 8BF"/>
    <tag k="removemelater" v="yes"/>
  </node>
  <node id="-320" lat="52.189535782681666" lon="0.12838772562989917">
    <tag k="addr:postcode" v="CB2 8BZ"/>
    <tag k="removemelater" v="yes"/>
  </node>
  <node id="-321" lat="52.18865588854868" lon="0.1293112879791978">
    <tag k="addr:postcode" v="CB2 8DJ"/>
    <tag k="removemelater" v="yes"/>
  </node>
  <node id="-322" lat="52.190972181844685" lon="0.1280174130212583">
    <tag k="addr:postcode" v="CB2 8DP"/>
    <tag k="removemelater" v="yes"/>
  </node>
  <node id="-323" lat="52.18865588854868" lon="0.1293112879791978">
    <tag k="addr:postcode" v="CB2 8DU"/>
    <tag k="removemelater" v="yes"/>
  </node>
  <node id="-324" lat="52.19094362835748" lon="0.12760638359754728">
    <tag k="addr:postcode" v="CB2 8DW"/>
    <tag k="removemelater" v="yes"/>
  </node>
  <node id="-325" lat="52.191318111258795" lon="0.12927757372944346">
    <tag k="addr:postcode" v="CB2 8DX"/>
    <tag k="removemelater" v="yes"/>
  </node>
  <node id="-326" lat="52.18865588854868" lon="0.1293112879791978">
    <tag k="addr:postcode" v="CB2 8HJ"/>
    <tag k="removemelater" v="yes"/>
  </node>
  <node id="-327" lat="52.18922400876733" lon="0.1351905817292623">
    <tag k="addr:postcode" v="CB2 8NX"/>
    <tag k="removemelater" v="yes"/>
  </node>
  <node id="-328" lat="52.1665049103411" lon="0.12553360782963222">
    <tag k="addr:postcode" v="CB2 9AN"/>
    <tag k="removemelater" v="yes"/>
  </node>
  <node id="-329" lat="52.16926285315603" lon="0.12268181759705124">
    <tag k="addr:postcode" v="CB2 9BE"/>
    <tag k="removemelater" v="yes"/>
  </node>
  <node id="-330" lat="52.1684469058299" lon="0.12305243482543594">
    <tag k="addr:postcode" v="CB2 9BN"/>
    <tag k="removemelater" v="yes"/>
  </node>
  <node id="-331" lat="52.16898581287037" lon="0.12458433377437349">
    <tag k="addr:postcode" v="CB2 9DT"/>
    <tag k="removemelater" v="yes"/>
  </node>
  <node id="-332" lat="52.16949630016811" lon="0.12419918859274658">
    <tag k="addr:postcode" v="CB2 9DU"/>
    <tag k="removemelater" v="yes"/>
  </node>
  <node id="-333" lat="52.169777278248894" lon="0.12207747656419365">
    <tag k="addr:postcode" v="CB2 9EH"/>
    <tag k="removemelater" v="yes"/>
  </node>
  <node id="-334" lat="52.16977220430442" lon="0.10781889911151345">
    <tag k="addr:postcode" v="CB2 9FT"/>
    <tag k="removemelater" v="yes"/>
  </node>
  <node id="-335" lat="52.1686022953993" lon="0.10182644635309274">
    <tag k="addr:postcode" v="CB2 9FX"/>
    <tag k="removemelater" v="yes"/>
  </node>
  <node id="-336" lat="52.16837338798238" lon="0.10256145271719484">
    <tag k="addr:postcode" v="CB2 9FY"/>
    <tag k="removemelater" v="yes"/>
  </node>
  <node id="-337" lat="52.17411031468603" lon="0.11211908918229616">
    <tag k="addr:postcode" v="CB2 9HE"/>
    <tag k="removemelater" v="yes"/>
  </node>
  <node id="-338" lat="52.17598078490464" lon="0.11862850985732999">
    <tag k="addr:postcode" v="CB2 9NL"/>
    <tag k="removemelater" v="yes"/>
  </node>
  <node id="-339" lat="52.12156586805621" lon="0.30344265328982795">
    <tag k="addr:postcode" v="CB21 4HB"/>
    <tag k="removemelater" v="yes"/>
  </node>
  <node id="-340" lat="52.096276319324645" lon="0.2725737873926153">
    <tag k="addr:postcode" v="CB21 4NN"/>
    <tag k="removemelater" v="yes"/>
  </node>
  <node id="-341" lat="52.10004524398112" lon="0.35270902226276485">
    <tag k="addr:postcode" v="CB21 4SJ"/>
    <tag k="removemelater" v="yes"/>
  </node>
  <node id="-342" lat="52.10004524398112" lon="0.35270902226276485">
    <tag k="addr:postcode" v="CB21 4UY"/>
    <tag k="removemelater" v="yes"/>
  </node>
  <node id="-343" lat="52.10004524398112" lon="0.35270902226276485">
    <tag k="addr:postcode" v="CB21 4WD"/>
    <tag k="removemelater" v="yes"/>
  </node>
  <node id="-344" lat="52.10004524398112" lon="0.35270902226276485">
    <tag k="addr:postcode" v="CB21 4WE"/>
    <tag k="removemelater" v="yes"/>
  </node>
  <node id="-345" lat="52.10004524398112" lon="0.35270902226276485">
    <tag k="addr:postcode" v="CB21 4XR"/>
    <tag k="removemelater" v="yes"/>
  </node>
  <node id="-346" lat="52.10004524398112" lon="0.35270902226276485">
    <tag k="addr:postcode" v="CB21 4XX"/>
    <tag k="removemelater" v="yes"/>
  </node>
  <node id="-347" lat="52.10004524398112" lon="0.35270902226276485">
    <tag k="addr:postcode" v="CB21 4YZ"/>
    <tag k="removemelater" v="yes"/>
  </node>
  <node id="-348" lat="52.19745141241717" lon="0.265367052373688">
    <tag k="addr:postcode" v="CB21 5AG"/>
    <tag k="removemelater" v="yes"/>
  </node>
  <node id="-349" lat="52.19225424787171" lon="0.1371793535700088">
    <tag k="addr:postcode" v="CB21 5BE"/>
    <tag k="removemelater" v="yes"/>
  </node>
  <node id="-350" lat="52.170086522293445" lon="0.19170308350846335">
    <tag k="addr:postcode" v="CB21 5EQ"/>
    <tag k="removemelater" v="yes"/>
  </node>
  <node id="-351" lat="52.189564159303046" lon="0.23905492201542472">
    <tag k="addr:postcode" v="CB21 5EU"/>
    <tag k="removemelater" v="yes"/>
  </node>
  <node id="-352" lat="52.19225424787171" lon="0.1371793535700088">
    <tag k="addr:postcode" v="CB21 5XY"/>
    <tag k="removemelater" v="yes"/>
  </node>
  <node id="-353" lat="52.113869001791336" lon="0.23569758257023504">
    <tag k="addr:postcode" v="CB21 6AE"/>
    <tag k="removemelater" v="yes"/>
  </node>
  <node id="-354" lat="52.122117465123395" lon="0.21890153142997698">
    <tag k="addr:postcode" v="CB21 6AN"/>
    <tag k="removemelater" v="yes"/>
  </node>
  <node id="-355" lat="52.109172251474114" lon="0.22348701621102046">
    <tag k="addr:postcode" v="CB21 6AS"/>
    <tag k="removemelater" v="yes"/>
  </node>
  <node id="-356" lat="52.11982658137117" lon="0.2533937370608982">
    <tag k="addr:postcode" v="CB21 6DD"/>
    <tag k="removemelater" v="yes"/>
  </node>
  <node id="-357" lat="52.1180148456179" lon="0.2204506070788683">
    <tag k="addr:postcode" v="CB21 6DG"/>
    <tag k="removemelater" v="yes"/>
  </node>
  <node id="-358" lat="52.1180148456179" lon="0.2204506070788683">
    <tag k="addr:postcode" v="CB21 6GB"/>
    <tag k="removemelater" v="yes"/>
  </node>
  <node id="-359" lat="52.19225424787171" lon="0.1371793535700088">
    <tag k="addr:postcode" v="CB21 6WA"/>
    <tag k="removemelater" v="yes"/>
  </node>
  <node id="-360" lat="52.1655519825105" lon="0.1616352978630786">
    <tag k="addr:postcode" v="CB22 3AB"/>
    <tag k="removemelater" v="yes"/>
  </node>
  <node id="-361" lat="52.16492619226907" lon="0.1619266592234946">
    <tag k="addr:postcode" v="CB22 3AD"/>
    <tag k="removemelater" v="yes"/>
  </node>
  <node id="-362" lat="52.15788090215034" lon="0.18170254270934216">
    <tag k="addr:postcode" v="CB22 3AE"/>
    <tag k="removemelater" v="yes"/>
  </node>
  <node id="-363" lat="52.1308359230704" lon="0.21049486776181284">
    <tag k="addr:postcode" v="CB22 3AL"/>
    <tag k="removemelater" v="yes"/>
  </node>
  <node id="-364" lat="52.1450387575436" lon="0.23079844970309726">
    <tag k="addr:postcode" v="CB22 3AX"/>
    <tag k="removemelater" v="yes"/>
  </node>
  <node id="-365" lat="52.16894719293017" lon="0.15938696403023922">
    <tag k="addr:postcode" v="CB22 3AY"/>
    <tag k="removemelater" v="yes"/>
  </node>
  <node id="-366" lat="52.111605046995926" lon="0.1832980422319166">
    <tag k="addr:postcode" v="CB22 3EN"/>
    <tag k="removemelater" v="yes"/>
  </node>
  <node id="-367" lat="52.11532189946626" lon="0.19764775990004357">
    <tag k="addr:postcode" v="CB22 3EY"/>
    <tag k="removemelater" v="yes"/>
  </node>
  <node id="-368" lat="52.11642903806245" lon="0.21344821158147245">
    <tag k="addr:postcode" v="CB22 3FF"/>
    <tag k="removemelater" v="yes"/>
  </node>
  <node id="-369" lat="52.104073259964544" lon="0.17678241925372065">
    <tag k="addr:postcode" v="CB22 3HD"/>
    <tag k="removemelater" v="yes"/>
  </node>
  <node id="-370" lat="52.115603911289305" lon="0.16687146175210651">
    <tag k="addr:postcode" v="CB22 3HS"/>
    <tag k="removemelater" v="yes"/>
  </node>
  <node id="-371" lat="52.120960704218994" lon="0.16553903796841615">
    <tag k="addr:postcode" v="CB22 3HW"/>
    <tag k="removemelater" v="yes"/>
  </node>
  <node id="-372" lat="52.19225424787171" lon="0.1371793535700088">
    <tag k="addr:postcode" v="CB22 3WU"/>
    <tag k="removemelater" v="yes"/>
  </node>
  <node id="-373" lat="52.19225424787171" lon="0.1371793535700088">
    <tag k="addr:postcode" v="CB22 3WW"/>
    <tag k="removemelater" v="yes"/>
  </node>
  <node id="-374" lat="52.09310821336074" lon="0.12325450750611278">
    <tag k="addr:postcode" v="CB22 4AL"/>
    <tag k="removemelater" v="yes"/>
  </node>
  <node id="-375" lat="52.09657697749858" lon="0.15606488813991878">
    <tag k="addr:postcode" v="CB22 4AP"/>
    <tag k="removemelater" v="yes"/>
  </node>
  <node id="-376" lat="52.093427756627946" lon="0.12398503018808874">
    <tag k="addr:postcode" v="CB22 4AR"/>
    <tag k="removemelater" v="yes"/>
  </node>
  <node id="-377" lat="52.115758177318654" lon="0.1367461033549124">
    <tag k="addr:postcode" v="CB22 4PB"/>
    <tag k="removemelater" v="yes"/>
  </node>
  <node id="-378" lat="52.116651564429574" lon="0.13756298118092747">
    <tag k="addr:postcode" v="CB22 4PG"/>
    <tag k="removemelater" v="yes"/>
  </node>
  <node id="-379" lat="52.0879341365691" lon="0.16007114366366218">
    <tag k="addr:postcode" v="CB22 4QB"/>
    <tag k="removemelater" v="yes"/>
  </node>
  <node id="-380" lat="52.100521576808255" lon="0.13895256976393974">
    <tag k="addr:postcode" v="CB22 4QT"/>
    <tag k="removemelater" v="yes"/>
  </node>
  <node id="-381" lat="52.151548404724885" lon="0.09352403055805841">
    <tag k="addr:postcode" v="CB22 5FT"/>
    <tag k="removemelater" v="yes"/>
  </node>
  <node id="-382" lat="52.15098118162987" lon="0.13618130704329656">
    <tag k="addr:postcode" v="CB22 5UY"/>
    <tag k="removemelater" v="yes"/>
  </node>
  <node id="-383" lat="52.11672199007441" lon="0.055229464226604935">
    <tag k="addr:postcode" v="CB22 6SE"/>
    <tag k="removemelater" v="yes"/>
  </node>
  <node id="-384" lat="52.144479753843385" lon="0.08952393195758211">
    <tag k="addr:postcode" v="CB22 7AD"/>
    <tag k="removemelater" v="yes"/>
  </node>
  <node id="-385" lat="52.13833675724326" lon="0.08096511009462246">
    <tag k="addr:postcode" v="CB22 7PX"/>
    <tag k="removemelater" v="yes"/>
  </node>
  <node id="-386" lat="52.143107984268745" lon="0.08726744241078681">
    <tag k="addr:postcode" v="CB22 7QE"/>
    <tag k="removemelater" v="yes"/>
  </node>
  <node id="-387" lat="52.12689592508168" lon="0.02433057950966565">
    <tag k="addr:postcode" v="CB22 7SE"/>
    <tag k="removemelater" v="yes"/>
  </node>
  <node id="-388" lat="52.143107984268745" lon="0.08726744241078681">
    <tag k="addr:postcode" v="CB22 7TN"/>
    <tag k="removemelater" v="yes"/>
  </node>
  <node id="-389" lat="52.15338851404718" lon="0.025751604252687858">
    <tag k="addr:postcode" v="CB23 1EN"/>
    <tag k="removemelater" v="yes"/>
  </node>
  <node id="-390" lat="52.16756273850979" lon="0.03288802578148455">
    <tag k="addr:postcode" v="CB23 1EX"/>
    <tag k="removemelater" v="yes"/>
  </node>
  <node id="-391" lat="52.153777768227535" lon="0.049538976438908165">
    <tag k="addr:postcode" v="CB23 1GL"/>
    <tag k="removemelater" v="yes"/>
  </node>
  <node id="-392" lat="52.147826705034745" lon="0.05822562887249699">
    <tag k="addr:postcode" v="CB23 1JN"/>
    <tag k="removemelater" v="yes"/>
  </node>
  <node id="-393" lat="52.14909294981018" lon="0.05574067035674596">
    <tag k="addr:postcode" v="CB23 1JT"/>
    <tag k="removemelater" v="yes"/>
  </node>
  <node id="-394" lat="52.153777768227535" lon="0.049538976438908165">
    <tag k="addr:postcode" v="CB23 1WD"/>
    <tag k="removemelater" v="yes"/>
  </node>
  <node id="-395" lat="52.153777768227535" lon="0.049538976438908165">
    <tag k="addr:postcode" v="CB23 1WW"/>
    <tag k="removemelater" v="yes"/>
  </node>
  <node id="-396" lat="52.18726890685462" lon="-0.007994844594820276">
    <tag k="addr:postcode" v="CB23 2RQ"/>
    <tag k="removemelater" v="yes"/>
  </node>
  <node id="-397" lat="52.20484677312921" lon="-0.05427528937546267">
    <tag k="addr:postcode" v="CB23 2TA"/>
    <tag k="removemelater" v="yes"/>
  </node>
  <node id="-398" lat="52.18390030490425" lon="-0.08807392865236238">
    <tag k="addr:postcode" v="CB23 2UG"/>
    <tag k="removemelater" v="yes"/>
  </node>
  <node id="-399" lat="52.190579421283005" lon="-0.06426177857424861">
    <tag k="addr:postcode" v="CB23 2WB"/>
    <tag k="removemelater" v="yes"/>
  </node>
  <node id="-400" lat="52.190579421283005" lon="-0.06426177857424861">
    <tag k="addr:postcode" v="CB23 2YW"/>
    <tag k="removemelater" v="yes"/>
  </node>
  <node id="-401" lat="52.24466748622852" lon="-0.11840616674924338">
    <tag k="addr:postcode" v="CB23 3AQ"/>
    <tag k="removemelater" v="yes"/>
  </node>
  <node id="-402" lat="52.19970616603883" lon="-0.09076127239783134">
    <tag k="addr:postcode" v="CB23 3PN"/>
    <tag k="removemelater" v="yes"/>
  </node>
  <node id="-403" lat="52.25086617074312" lon="-0.11862732140755422">
    <tag k="addr:postcode" v="CB23 3WD"/>
    <tag k="removemelater" v="yes"/>
  </node>
  <node id="-404" lat="52.25086617074312" lon="-0.11862732140755422">
    <tag k="addr:postcode" v="CB23 3WF"/>
    <tag k="removemelater" v="yes"/>
  </node>
  <node id="-405" lat="52.25086617074312" lon="-0.11862732140755422">
    <tag k="addr:postcode" v="CB23 3WW"/>
    <tag k="removemelater" v="yes"/>
  </node>
  <node id="-406" lat="52.25086617074312" lon="-0.11862732140755422">
    <tag k="addr:postcode" v="CB23 3YZ"/>
    <tag k="removemelater" v="yes"/>
  </node>
  <node id="-407" lat="52.26717607588732" lon="-0.021239396647541188">
    <tag k="addr:postcode" v="CB23 4AA"/>
    <tag k="removemelater" v="yes"/>
  </node>
  <node id="-408" lat="52.26544732584666" lon="-0.05900921255836535">
    <tag k="addr:postcode" v="CB23 4LL"/>
    <tag k="removemelater" v="yes"/>
  </node>
  <node id="-409" lat="52.25436643282387" lon="-0.07087714181309214">
    <tag k="addr:postcode" v="CB23 4YZ"/>
    <tag k="removemelater" v="yes"/>
  </node>
  <node id="-410" lat="52.22112083003739" lon="-0.07230369950108026">
    <tag k="addr:postcode" v="CB23 6DW"/>
    <tag k="removemelater" v="yes"/>
  </node>
  <node id="-411" lat="52.219748322197546" lon="-0.06480892471281928">
    <tag k="addr:postcode" v="CB23 6LA"/>
    <tag k="removemelater" v="yes"/>
  </node>
  <node id="-412" lat="52.19225424787171" lon="0.1371793535700088">
    <tag k="addr:postcode" v="CB23 6ZR"/>
    <tag k="removemelater" v="yes"/>
  </node>
  <node id="-413" lat="52.18745290155124" lon="0.03704301489514513">
    <tag k="addr:postcode" v="CB23 7BU"/>
    <tag k="removemelater" v="yes"/>
  </node>
  <node id="-414" lat="52.19621398858006" lon="-0.002576004413668624">
    <tag k="addr:postcode" v="CB23 7QX"/>
    <tag k="removemelater" v="yes"/>
  </node>
  <node id="-415" lat="52.19225424787171" lon="0.1371793535700088">
    <tag k="addr:postcode" v="CB23 7WT"/>
    <tag k="removemelater" v="yes"/>
  </node>
  <node id="-416" lat="52.226179958322916" lon="0.041758397366079614">
    <tag k="addr:postcode" v="CB23 8AL"/>
    <tag k="removemelater" v="yes"/>
  </node>
  <node id="-417" lat="52.25660555292576" lon="0.01732359561649671">
    <tag k="addr:postcode" v="CB23 8AP"/>
    <tag k="removemelater" v="yes"/>
  </node>
  <node id="-418" lat="52.22353265119512" lon="0.0015634557214537265">
    <tag k="addr:postcode" v="CB23 8AU"/>
    <tag k="removemelater" v="yes"/>
  </node>
  <node id="-419" lat="52.255378810496" lon="0.02490155722906807">
    <tag k="addr:postcode" v="CB23 8EU"/>
    <tag k="removemelater" v="yes"/>
  </node>
  <node id="-420" lat="52.19225424787171" lon="0.1371793535700088">
    <tag k="addr:postcode" v="CB24 3AX"/>
    <tag k="removemelater" v="yes"/>
  </node>
  <node id="-421" lat="52.19225424787171" lon="0.1371793535700088">
    <tag k="addr:postcode" v="CB24 3FW"/>
    <tag k="removemelater" v="yes"/>
  </node>
  <node id="-422" lat="52.19225424787171" lon="0.1371793535700088">
    <tag k="addr:postcode" v="CB24 3WF"/>
    <tag k="removemelater" v="yes"/>
  </node>
  <node id="-423" lat="52.30846399158534" lon="0.07011426220879338">
    <tag k="addr:postcode" v="CB24 5AB"/>
    <tag k="removemelater" v="yes"/>
  </node>
  <node id="-424" lat="52.30467447236315" lon="0.021033620276951926">
    <tag k="addr:postcode" v="CB24 5AL"/>
    <tag k="removemelater" v="yes"/>
  </node>
  <node id="-425" lat="52.30421115687452" lon="0.019208353868524188">
    <tag k="addr:postcode" v="CB24 5GR"/>
    <tag k="removemelater" v="yes"/>
  </node>
  <node id="-426" lat="52.23694502807081" lon="0.17453522335661475">
    <tag k="addr:postcode" v="CB24 6AF"/>
    <tag k="removemelater" v="yes"/>
  </node>
  <node id="-427" lat="52.24397904819353" lon="0.1656066855891723">
    <tag k="addr:postcode" v="CB24 6AS"/>
    <tag k="removemelater" v="yes"/>
  </node>
  <node id="-428" lat="52.23899285187473" lon="0.15997387219753081">
    <tag k="addr:postcode" v="CB24 6BQ"/>
    <tag k="removemelater" v="yes"/>
  </node>
  <node id="-429" lat="52.24825225461843" lon="0.14580312002560725">
    <tag k="addr:postcode" v="CB24 6DQ"/>
    <tag k="removemelater" v="yes"/>
  </node>
  <node id="-430" lat="52.30055495547069" lon="0.14051359452924989">
    <tag k="addr:postcode" v="CB24 8PS"/>
    <tag k="removemelater" v="yes"/>
  </node>
  <node id="-431" lat="52.303735454438694" lon="0.1386721466055821">
    <tag k="addr:postcode" v="CB24 8PT"/>
    <tag k="removemelater" v="yes"/>
  </node>
  <node id="-432" lat="52.3077347431391" lon="0.13232234863098255">
    <tag k="addr:postcode" v="CB24 8PU"/>
    <tag k="removemelater" v="yes"/>
  </node>
  <node id="-433" lat="52.30628514552202" lon="0.17775596227055826">
    <tag k="addr:postcode" v="CB24 8RR"/>
    <tag k="removemelater" v="yes"/>
  </node>
  <node id="-434" lat="52.25190253789828" lon="0.10639235374238708">
    <tag k="addr:postcode" v="CB24 9DE"/>
    <tag k="removemelater" v="yes"/>
  </node>
  <node id="-435" lat="52.24937341492179" lon="0.1175824212332514">
    <tag k="addr:postcode" v="CB24 9NE"/>
    <tag k="removemelater" v="yes"/>
  </node>
  <node id="-436" lat="52.25190253789828" lon="0.10639235374238708">
    <tag k="addr:postcode" v="CB24 9RH"/>
    <tag k="removemelater" v="yes"/>
  </node>
  <node id="-437" lat="52.25190253789828" lon="0.10639235374238708">
    <tag k="addr:postcode" v="CB24 9UN"/>
    <tag k="removemelater" v="yes"/>
  </node>
  <node id="-438" lat="52.25190253789828" lon="0.10639235374238708">
    <tag k="addr:postcode" v="CB24 9UP"/>
    <tag k="removemelater" v="yes"/>
  </node>
  <node id="-439" lat="52.25190253789828" lon="0.10639235374238708">
    <tag k="addr:postcode" v="CB24 9UQ"/>
    <tag k="removemelater" v="yes"/>
  </node>
  <node id="-440" lat="52.25190253789828" lon="0.10639235374238708">
    <tag k="addr:postcode" v="CB24 9WH"/>
    <tag k="removemelater" v="yes"/>
  </node>
  <node id="-441" lat="52.25190253789828" lon="0.10639235374238708">
    <tag k="addr:postcode" v="CB24 9WZ"/>
    <tag k="removemelater" v="yes"/>
  </node>
  <node id="-442" lat="52.25190253789828" lon="0.10639235374238708">
    <tag k="addr:postcode" v="CB24 9XD"/>
    <tag k="removemelater" v="yes"/>
  </node>
  <node id="-443" lat="52.25190253789828" lon="0.10639235374238708">
    <tag k="addr:postcode" v="CB24 9XF"/>
    <tag k="removemelater" v="yes"/>
  </node>
  <node id="-444" lat="52.25190253789828" lon="0.10639235374238708">
    <tag k="addr:postcode" v="CB24 9XG"/>
    <tag k="removemelater" v="yes"/>
  </node>
  <node id="-445" lat="52.25190253789828" lon="0.10639235374238708">
    <tag k="addr:postcode" v="CB24 9XQ"/>
    <tag k="removemelater" v="yes"/>
  </node>
  <node id="-446" lat="52.25190253789828" lon="0.10639235374238708">
    <tag k="addr:postcode" v="CB24 9ZD"/>
    <tag k="removemelater" v="yes"/>
  </node>
  <node id="-447" lat="52.25384010421037" lon="0.3405182965729253">
    <tag k="addr:postcode" v="CB25 0AP"/>
    <tag k="removemelater" v="yes"/>
  </node>
  <node id="-448" lat="52.26928949802867" lon="0.3281992779317314">
    <tag k="addr:postcode" v="CB25 0AQ"/>
    <tag k="removemelater" v="yes"/>
  </node>
  <node id="-449" lat="52.294337767944356" lon="0.311459756402397">
    <tag k="addr:postcode" v="CB25 0BN"/>
    <tag k="removemelater" v="yes"/>
  </node>
  <node id="-450" lat="52.28030567309041" lon="0.3222233931301511">
    <tag k="addr:postcode" v="CB25 0EH"/>
    <tag k="removemelater" v="yes"/>
  </node>
  <node id="-451" lat="52.273036875602884" lon="0.3255812665771046">
    <tag k="addr:postcode" v="CB25 0HE"/>
    <tag k="removemelater" v="yes"/>
  </node>
  <node id="-452" lat="52.23909138981247" lon="0.27810657342371603">
    <tag k="addr:postcode" v="CB25 0HP"/>
    <tag k="removemelater" v="yes"/>
  </node>
  <node id="-453" lat="52.26883899550685" lon="0.2974984992659262">
    <tag k="addr:postcode" v="CB25 0HZ"/>
    <tag k="removemelater" v="yes"/>
  </node>
  <node id="-454" lat="52.23767446908729" lon="0.2788395646567843">
    <tag k="addr:postcode" v="CB25 0LU"/>
    <tag k="removemelater" v="yes"/>
  </node>
  <node id="-455" lat="52.23331909578566" lon="0.27527732807778027">
    <tag k="addr:postcode" v="CB25 0NA"/>
    <tag k="removemelater" v="yes"/>
  </node>
  <node id="-456" lat="52.24862170489087" lon="0.27351123444576947">
    <tag k="addr:postcode" v="CB25 0NJ"/>
    <tag k="removemelater" v="yes"/>
  </node>
  <node id="-457" lat="52.24494408559723" lon="0.28328455407941877">
    <tag k="addr:postcode" v="CB25 0NQ"/>
    <tag k="removemelater" v="yes"/>
  </node>
  <node id="-458" lat="52.275245901328915" lon="0.3271042104672503">
    <tag k="addr:postcode" v="CB25 0RD"/>
    <tag k="removemelater" v="yes"/>
  </node>
  <node id="-459" lat="52.275245901328915" lon="0.3271042104672503">
    <tag k="addr:postcode" v="CB25 0UW"/>
    <tag k="removemelater" v="yes"/>
  </node>
  <node id="-460" lat="52.275245901328915" lon="0.3271042104672503">
    <tag k="addr:postcode" v="CB25 0XA"/>
    <tag k="removemelater" v="yes"/>
  </node>
  <node id="-461" lat="52.275245901328915" lon="0.3271042104672503">
    <tag k="addr:postcode" v="CB25 0XD"/>
    <tag k="removemelater" v="yes"/>
  </node>
  <node id="-462" lat="52.21299496349722" lon="0.20914124296148687">
    <tag k="addr:postcode" v="CB25 9AG"/>
    <tag k="removemelater" v="yes"/>
  </node>
  <node id="-463" lat="52.22602181171951" lon="0.22125313391947843">
    <tag k="addr:postcode" v="CB25 9AJ"/>
    <tag k="removemelater" v="yes"/>
  </node>
  <node id="-464" lat="52.22362000174756" lon="0.22655074802181588">
    <tag k="addr:postcode" v="CB25 9AU"/>
    <tag k="removemelater" v="yes"/>
  </node>
  <node id="-465" lat="52.21656544781345" lon="0.28279474551381356">
    <tag k="addr:postcode" v="CB25 9BD"/>
    <tag k="removemelater" v="yes"/>
  </node>
  <node id="-466" lat="52.222174249360535" lon="0.2581479079226358">
    <tag k="addr:postcode" v="CB25 9EE"/>
    <tag k="removemelater" v="yes"/>
  </node>
  <node id="-467" lat="52.240723185813565" lon="0.24693212258388875">
    <tag k="addr:postcode" v="CB25 9EX"/>
    <tag k="removemelater" v="yes"/>
  </node>
  <node id="-468" lat="52.23603461124518" lon="0.2461826591390606">
    <tag k="addr:postcode" v="CB25 9EY"/>
    <tag k="removemelater" v="yes"/>
  </node>
  <node id="-469" lat="52.27089726319592" lon="0.18482991170467922">
    <tag k="addr:postcode" v="CB25 9GP"/>
    <tag k="removemelater" v="yes"/>
  </node>
  <node id="-470" lat="52.266137259535256" lon="0.2240054742295275">
    <tag k="addr:postcode" v="CB25 9HF"/>
    <tag k="removemelater" v="yes"/>
  </node>
  <node id="-471" lat="52.241328055658116" lon="0.24444326430856642">
    <tag k="addr:postcode" v="CB25 9QY"/>
    <tag k="removemelater" v="yes"/>
  </node>
  <node id="-472" lat="52.241328055658116" lon="0.24444326430856642">
    <tag k="addr:postcode" v="CB25 9SG"/>
    <tag k="removemelater" v="yes"/>
  </node>
  <node id="-473" lat="52.241328055658116" lon="0.24444326430856642">
    <tag k="addr:postcode" v="CB25 9UX"/>
    <tag k="removemelater" v="yes"/>
  </node>
  <node id="-474" lat="52.241328055658116" lon="0.24444326430856642">
    <tag k="addr:postcode" v="CB25 9WH"/>
    <tag k="removemelater" v="yes"/>
  </node>
  <node id="-475" lat="52.241328055658116" lon="0.24444326430856642">
    <tag k="addr:postcode" v="CB25 9WJ"/>
    <tag k="removemelater" v="yes"/>
  </node>
  <node id="-476" lat="52.2130188670861" lon="0.1140962278528068">
    <tag k="addr:postcode" v="CB3 0AP"/>
    <tag k="removemelater" v="yes"/>
  </node>
  <node id="-477" lat="52.248519018780094" lon="0.08119557182138266">
    <tag k="addr:postcode" v="CB3 0QH"/>
    <tag k="removemelater" v="yes"/>
  </node>
  <node id="-478" lat="52.20889057660268" lon="0.07924040382673814">
    <tag k="addr:postcode" v="CB3 0QZ"/>
    <tag k="removemelater" v="yes"/>
  </node>
  <node id="-479" lat="52.21031129058394" lon="0.1025798936512054">
    <tag k="addr:postcode" v="CB3 0WB"/>
    <tag k="removemelater" v="yes"/>
  </node>
  <node id="-480" lat="52.219365212913374" lon="0.08642022484893215">
    <tag k="addr:postcode" v="CB3 1AQ"/>
    <tag k="removemelater" v="yes"/>
  </node>
  <node id="-481" lat="52.218547115836955" lon="0.08641115759565128">
    <tag k="addr:postcode" v="CB3 1AX"/>
    <tag k="removemelater" v="yes"/>
  </node>
  <node id="-482" lat="52.20939700643231" lon="0.10594712443400511">
    <tag k="addr:postcode" v="CB3 9AA"/>
    <tag k="removemelater" v="yes"/>
  </node>
  <node id="-483" lat="52.209704821824175" lon="0.105829949909392">
    <tag k="addr:postcode" v="CB3 9AB"/>
    <tag k="removemelater" v="yes"/>
  </node>
  <node id="-484" lat="52.2049171386413" lon="0.10756470195878735">
    <tag k="addr:postcode" v="CB3 9BS"/>
    <tag k="removemelater" v="yes"/>
  </node>
  <node id="-485" lat="52.20082202096988" lon="0.11079530629617775">
    <tag k="addr:postcode" v="CB3 9DA"/>
    <tag k="removemelater" v="yes"/>
  </node>
  <node id="-486" lat="52.201115677858894" lon="0.1084531139972298">
    <tag k="addr:postcode" v="CB3 9DB"/>
    <tag k="removemelater" v="yes"/>
  </node>
  <node id="-487" lat="52.203263709984505" lon="0.10599369498608778">
    <tag k="addr:postcode" v="CB3 9DH"/>
    <tag k="removemelater" v="yes"/>
  </node>
  <node id="-488" lat="52.20386999704322" lon="0.10779321435276201">
    <tag k="addr:postcode" v="CB3 9DL"/>
    <tag k="removemelater" v="yes"/>
  </node>
  <node id="-489" lat="52.20208250757072" lon="0.11622592228193514">
    <tag k="addr:postcode" v="CB3 9EL"/>
    <tag k="removemelater" v="yes"/>
  </node>
  <node id="-490" lat="52.20179455227399" lon="0.11673908060285991">
    <tag k="addr:postcode" v="CB3 9EP"/>
    <tag k="removemelater" v="yes"/>
  </node>
  <node id="-491" lat="52.20245098733044" lon="0.11523363853714194">
    <tag k="addr:postcode" v="CB3 9ES"/>
    <tag k="removemelater" v="yes"/>
  </node>
  <node id="-492" lat="52.20007124666364" lon="0.11355479832988061">
    <tag k="addr:postcode" v="CB3 9EX"/>
    <tag k="removemelater" v="yes"/>
  </node>
  <node id="-493" lat="52.20011924213466" lon="0.11137662513342377">
    <tag k="addr:postcode" v="CB3 9HU"/>
    <tag k="removemelater" v="yes"/>
  </node>
  <node id="-494" lat="52.19419169179337" lon="0.10947154539660321">
    <tag k="addr:postcode" v="CB3 9JG"/>
    <tag k="removemelater" v="yes"/>
  </node>
  <node id="-495" lat="52.19400314393595" lon="0.10744341866366981">
    <tag k="addr:postcode" v="CB3 9JW"/>
    <tag k="removemelater" v="yes"/>
  </node>
  <node id="-496" lat="52.17752281651019" lon="0.0952263288535468">
    <tag k="addr:postcode" v="CB3 9NB"/>
    <tag k="removemelater" v="yes"/>
  </node>
  <node id="-497" lat="52.19616563482573" lon="0.11121849975576525">
    <tag k="addr:postcode" v="CB3 9PA"/>
    <tag k="removemelater" v="yes"/>
  </node>
  <node id="-498" lat="52.19225424787171" lon="0.1371793535700088">
    <tag k="addr:postcode" v="CB3 9XJ"/>
    <tag k="removemelater" v="yes"/>
  </node>
  <node id="-499" lat="52.237416795949684" lon="0.1448263276230224">
    <tag k="addr:postcode" v="CB4 0AB"/>
    <tag k="removemelater" v="yes"/>
  </node>
  <node id="-500" lat="52.22383861308434" lon="0.15767158569576195">
    <tag k="addr:postcode" v="CB4 0AE"/>
    <tag k="removemelater" v="yes"/>
  </node>
  <node id="-501" lat="52.23281319915797" lon="0.14728436053199176">
    <tag k="addr:postcode" v="CB4 0GD"/>
    <tag k="removemelater" v="yes"/>
  </node>
  <node id="-502" lat="52.234759282006266" lon="0.14311649310811028">
    <tag k="addr:postcode" v="CB4 0WA"/>
    <tag k="removemelater" v="yes"/>
  </node>
  <node id="-503" lat="52.23631840089754" lon="0.14193206356205676">
    <tag k="addr:postcode" v="CB4 0WD"/>
    <tag k="removemelater" v="yes"/>
  </node>
  <node id="-504" lat="52.2293502849165" lon="0.15670879750454128">
    <tag k="addr:postcode" v="CB4 0WU"/>
    <tag k="removemelater" v="yes"/>
  </node>
  <node id="-505" lat="52.22959612916352" lon="0.1506289374255075">
    <tag k="addr:postcode" v="CB4 0XB"/>
    <tag k="removemelater" v="yes"/>
  </node>
  <node id="-506" lat="52.23422781772513" lon="0.14118701435915357">
    <tag k="addr:postcode" v="CB4 0XL"/>
    <tag k="removemelater" v="yes"/>
  </node>
  <node id="-507" lat="52.19225424787171" lon="0.1371793535700088">
    <tag k="addr:postcode" v="CB4 0XW"/>
    <tag k="removemelater" v="yes"/>
  </node>
  <node id="-508" lat="52.21454363308316" lon="0.12582100903725998">
    <tag k="addr:postcode" v="CB4 1AA"/>
    <tag k="removemelater" v="yes"/>
  </node>
  <node id="-509" lat="52.2163093852464" lon="0.12862823416199545">
    <tag k="addr:postcode" v="CB4 1AJ"/>
    <tag k="removemelater" v="yes"/>
  </node>
  <node id="-510" lat="52.215128264348486" lon="0.13029914372402054">
    <tag k="addr:postcode" v="CB4 1BY"/>
    <tag k="removemelater" v="yes"/>
  </node>
  <node id="-511" lat="52.21701771551268" lon="0.14116424656032375">
    <tag k="addr:postcode" v="CB4 1DX"/>
    <tag k="removemelater" v="yes"/>
  </node>
  <node id="-512" lat="52.19225424787171" lon="0.1371793535700088">
    <tag k="addr:postcode" v="CB4 1EA"/>
    <tag k="removemelater" v="yes"/>
  </node>
  <node id="-513" lat="52.21092603906743" lon="0.13444541167290414">
    <tag k="addr:postcode" v="CB4 1EB"/>
    <tag k="removemelater" v="yes"/>
  </node>
  <node id="-514" lat="52.21383684818536" lon="0.1271193572779899">
    <tag k="addr:postcode" v="CB4 1EU"/>
    <tag k="removemelater" v="yes"/>
  </node>
  <node id="-515" lat="52.21127190795868" lon="0.13520851131740616">
    <tag k="addr:postcode" v="CB4 1FF"/>
    <tag k="removemelater" v="yes"/>
  </node>
  <node id="-516" lat="52.226067014595884" lon="0.16168919661249215">
    <tag k="addr:postcode" v="CB4 1GJ"/>
    <tag k="removemelater" v="yes"/>
  </node>
  <node id="-517" lat="52.19225424787171" lon="0.1371793535700088">
    <tag k="addr:postcode" v="CB4 1GQ"/>
    <tag k="removemelater" v="yes"/>
  </node>
  <node id="-518" lat="52.21379961063884" lon="0.12768847689791443">
    <tag k="addr:postcode" v="CB4 1HB"/>
    <tag k="removemelater" v="yes"/>
  </node>
  <node id="-519" lat="52.21322332904936" lon="0.13470193388166937">
    <tag k="addr:postcode" v="CB4 1JF"/>
    <tag k="removemelater" v="yes"/>
  </node>
  <node id="-520" lat="52.21331476959684" lon="0.1341207868944093">
    <tag k="addr:postcode" v="CB4 1JG"/>
    <tag k="removemelater" v="yes"/>
  </node>
  <node id="-521" lat="52.21768065240331" lon="0.1378289959054308">
    <tag k="addr:postcode" v="CB4 1PR"/>
    <tag k="removemelater" v="yes"/>
  </node>
  <node id="-522" lat="52.21831687420254" lon="0.13894290873469667">
    <tag k="addr:postcode" v="CB4 1QE"/>
    <tag k="removemelater" v="yes"/>
  </node>
  <node id="-523" lat="52.21868356259416" lon="0.14004389478802667">
    <tag k="addr:postcode" v="CB4 1QW"/>
    <tag k="removemelater" v="yes"/>
  </node>
  <node id="-524" lat="52.22716534171083" lon="0.16308970236128645">
    <tag k="addr:postcode" v="CB4 1TH"/>
    <tag k="removemelater" v="yes"/>
  </node>
  <node id="-525" lat="52.19225424787171" lon="0.1371793535700088">
    <tag k="addr:postcode" v="CB4 1WJ"/>
    <tag k="removemelater" v="yes"/>
  </node>
  <node id="-526" lat="52.19225424787171" lon="0.1371793535700088">
    <tag k="addr:postcode" v="CB4 1YS"/>
    <tag k="removemelater" v="yes"/>
  </node>
  <node id="-527" lat="52.22482676567857" lon="0.12152424987509398">
    <tag k="addr:postcode" v="CB4 2DG"/>
    <tag k="removemelater" v="yes"/>
  </node>
  <node id="-528" lat="52.19225424787171" lon="0.1371793535700088">
    <tag k="addr:postcode" v="CB4 2EA"/>
    <tag k="removemelater" v="yes"/>
  </node>
  <node id="-529" lat="52.19225424787171" lon="0.1371793535700088">
    <tag k="addr:postcode" v="CB4 2GB"/>
    <tag k="removemelater" v="yes"/>
  </node>
  <node id="-530" lat="52.2298064825386" lon="0.13210013738307477">
    <tag k="addr:postcode" v="CB4 2LJ"/>
    <tag k="removemelater" v="yes"/>
  </node>
  <node id="-531" lat="52.22943626084985" lon="0.13367854810940025">
    <tag k="addr:postcode" v="CB4 2ND"/>
    <tag k="removemelater" v="yes"/>
  </node>
  <node id="-532" lat="52.22932131623426" lon="0.12859172399951452">
    <tag k="addr:postcode" v="CB4 2NU"/>
    <tag k="removemelater" v="yes"/>
  </node>
  <node id="-533" lat="52.23232727144238" lon="0.11694670307060492">
    <tag k="addr:postcode" v="CB4 2NZ"/>
    <tag k="removemelater" v="yes"/>
  </node>
  <node id="-534" lat="52.22848534354627" lon="0.12408553642988593">
    <tag k="addr:postcode" v="CB4 2SB"/>
    <tag k="removemelater" v="yes"/>
  </node>
  <node id="-535" lat="52.228978183947504" lon="0.12468015713544409">
    <tag k="addr:postcode" v="CB4 2SF"/>
    <tag k="removemelater" v="yes"/>
  </node>
  <node id="-536" lat="52.231764169137584" lon="0.1272588086655166">
    <tag k="addr:postcode" v="CB4 2SW"/>
    <tag k="removemelater" v="yes"/>
  </node>
  <node id="-537" lat="52.23480154257621" lon="0.12586629084091525">
    <tag k="addr:postcode" v="CB4 2WP"/>
    <tag k="removemelater" v="yes"/>
  </node>
  <node id="-538" lat="52.233824313084384" lon="0.12070848172256307">
    <tag k="addr:postcode" v="CB4 2XQ"/>
    <tag k="removemelater" v="yes"/>
  </node>
  <node id="-539" lat="52.21316295824216" lon="0.11659156318674874">
    <tag k="addr:postcode" v="CB4 3AG"/>
    <tag k="removemelater" v="yes"/>
  </node>
  <node id="-540" lat="52.213740053976494" lon="0.12150822333571842">
    <tag k="addr:postcode" v="CB4 3AP"/>
    <tag k="removemelater" v="yes"/>
  </node>
  <node id="-541" lat="52.215505738697246" lon="0.1148145258327752">
    <tag k="addr:postcode" v="CB4 3BU"/>
    <tag k="removemelater" v="yes"/>
  </node>
  <node id="-542" lat="52.21433989198015" lon="0.11664751946329864">
    <tag k="addr:postcode" v="CB4 3DH"/>
    <tag k="removemelater" v="yes"/>
  </node>
  <node id="-543" lat="52.21581960194407" lon="0.11636653874608613">
    <tag k="addr:postcode" v="CB4 3DZ"/>
    <tag k="removemelater" v="yes"/>
  </node>
  <node id="-544" lat="52.21413765111774" lon="0.12389861284465366">
    <tag k="addr:postcode" v="CB4 3FA"/>
    <tag k="removemelater" v="yes"/>
  </node>
  <node id="-545" lat="52.19225424787171" lon="0.1371793535700088">
    <tag k="addr:postcode" v="CB4 3FZ"/>
    <tag k="removemelater" v="yes"/>
  </node>
  <node id="-546" lat="52.21506355996794" lon="0.11239275402198268">
    <tag k="addr:postcode" v="CB4 3LF"/>
    <tag k="removemelater" v="yes"/>
  </node>
  <node id="-547" lat="52.21879337265449" lon="0.11450224356721238">
    <tag k="addr:postcode" v="CB4 3NP"/>
    <tag k="removemelater" v="yes"/>
  </node>
  <node id="-548" lat="52.21527195049267" lon="0.11029464397784544">
    <tag k="addr:postcode" v="CB4 3QW"/>
    <tag k="removemelater" v="yes"/>
  </node>
  <node id="-549" lat="52.19225424787171" lon="0.1371793535700088">
    <tag k="addr:postcode" v="CB4 3ZG"/>
    <tag k="removemelater" v="yes"/>
  </node>
  <node id="-550" lat="52.209059853338566" lon="0.12175360302205382">
    <tag k="addr:postcode" v="CB5 8BJ"/>
    <tag k="removemelater" v="yes"/>
  </node>
  <node id="-551" lat="52.20863220126038" lon="0.13051526228050783">
    <tag k="addr:postcode" v="CB5 8DG"/>
    <tag k="removemelater" v="yes"/>
  </node>
  <node id="-552" lat="52.19225424787171" lon="0.1371793535700088">
    <tag k="addr:postcode" v="CB5 8FF"/>
    <tag k="removemelater" v="yes"/>
  </node>
  <node id="-553" lat="52.20854131830519" lon="0.1395124964645572">
    <tag k="addr:postcode" v="CB5 8HE"/>
    <tag k="removemelater" v="yes"/>
  </node>
  <node id="-554" lat="52.20972654034629" lon="0.1376227114406345">
    <tag k="addr:postcode" v="CB5 8HH"/>
    <tag k="removemelater" v="yes"/>
  </node>
  <node id="-555" lat="52.210405675702894" lon="0.14627671592803632">
    <tag k="addr:postcode" v="CB5 8JL"/>
    <tag k="removemelater" v="yes"/>
  </node>
  <node id="-556" lat="52.21425766671724" lon="0.15053196260369708">
    <tag k="addr:postcode" v="CB5 8JZ"/>
    <tag k="removemelater" v="yes"/>
  </node>
  <node id="-557" lat="52.21693865099878" lon="0.15735174891607406">
    <tag k="addr:postcode" v="CB5 8PY"/>
    <tag k="removemelater" v="yes"/>
  </node>
  <node id="-558" lat="52.210172631640795" lon="0.17520345940936574">
    <tag k="addr:postcode" v="CB5 8RX"/>
    <tag k="removemelater" v="yes"/>
  </node>
  <node id="-559" lat="52.206760778736886" lon="0.1646597114540172">
    <tag k="addr:postcode" v="CB5 8SW"/>
    <tag k="removemelater" v="yes"/>
  </node>
  <node id="-560" lat="52.2338514047718" lon="0.17650754437983213">
    <tag k="addr:postcode" v="CB5 8TB"/>
    <tag k="removemelater" v="yes"/>
  </node>
  <node id="-561" lat="52.19225424787171" lon="0.1371793535700088">
    <tag k="addr:postcode" v="CB5 8XF"/>
    <tag k="removemelater" v="yes"/>
  </node>
  <node id="-562" lat="52.19225424787171" lon="0.1371793535700088">
    <tag k="addr:postcode" v="CB5 8ZT"/>
    <tag k="removemelater" v="yes"/>
  </node>
  <node id="-563" lat="52.398210428407985" lon="0.27127204759480933">
    <tag k="addr:postcode" v="CB6 1WA"/>
    <tag k="removemelater" v="yes"/>
  </node>
  <node id="-564" lat="52.398210428407985" lon="0.27127204759480933">
    <tag k="addr:postcode" v="CB6 1WD"/>
    <tag k="removemelater" v="yes"/>
  </node>
  <node id="-565" lat="52.417209145595635" lon="0.16348293717414727">
    <tag k="addr:postcode" v="CB6 2DF"/>
    <tag k="removemelater" v="yes"/>
  </node>
  <node id="-566" lat="52.408845814936285" lon="0.17920288041206814">
    <tag k="addr:postcode" v="CB6 2DQ"/>
    <tag k="removemelater" v="yes"/>
  </node>
  <node id="-567" lat="52.415879978820186" lon="0.15847685194321004">
    <tag k="addr:postcode" v="CB6 2DS"/>
    <tag k="removemelater" v="yes"/>
  </node>
  <node id="-568" lat="52.39061882370851" lon="0.12192721933374225">
    <tag k="addr:postcode" v="CB6 2FD"/>
    <tag k="removemelater" v="yes"/>
  </node>
  <node id="-569" lat="52.382266356663706" lon="0.21210192960984553">
    <tag k="addr:postcode" v="CB6 2FH"/>
    <tag k="removemelater" v="yes"/>
  </node>
  <node id="-570" lat="52.386844369223745" lon="0.19903109024553184">
    <tag k="addr:postcode" v="CB6 2HP"/>
    <tag k="removemelater" v="yes"/>
  </node>
  <node id="-571" lat="52.385914613100425" lon="0.19584003312358766">
    <tag k="addr:postcode" v="CB6 2HS"/>
    <tag k="removemelater" v="yes"/>
  </node>
  <node id="-572" lat="52.38736765040243" lon="0.12071317797902495">
    <tag k="addr:postcode" v="CB6 2NN"/>
    <tag k="removemelater" v="yes"/>
  </node>
  <node id="-573" lat="52.386675075347966" lon="0.10210478296332105">
    <tag k="addr:postcode" v="CB6 2NZ"/>
    <tag k="removemelater" v="yes"/>
  </node>
  <node id="-574" lat="52.398210428407985" lon="0.27127204759480933">
    <tag k="addr:postcode" v="CB6 2WG"/>
    <tag k="removemelater" v="yes"/>
  </node>
  <node id="-575" lat="52.398210428407985" lon="0.27127204759480933">
    <tag k="addr:postcode" v="CB6 2XW"/>
    <tag k="removemelater" v="yes"/>
  </node>
  <node id="-576" lat="52.3986906462736" lon="0.2527600915100594">
    <tag k="addr:postcode" v="CB6 3BF"/>
    <tag k="removemelater" v="yes"/>
  </node>
  <node id="-577" lat="52.35213774379252" lon="0.1766028265569975">
    <tag k="addr:postcode" v="CB6 3ET"/>
    <tag k="removemelater" v="yes"/>
  </node>
  <node id="-578" lat="52.39590643936697" lon="0.24360778810244874">
    <tag k="addr:postcode" v="CB6 3FY"/>
    <tag k="removemelater" v="yes"/>
  </node>
  <node id="-579" lat="52.34776033996131" lon="0.22573686683388092">
    <tag k="addr:postcode" v="CB6 3GL"/>
    <tag k="removemelater" v="yes"/>
  </node>
  <node id="-580" lat="52.364612293579086" lon="0.22471850133246377">
    <tag k="addr:postcode" v="CB6 3QN"/>
    <tag k="removemelater" v="yes"/>
  </node>
  <node id="-581" lat="52.35213774379252" lon="0.1766028265569975">
    <tag k="addr:postcode" v="CB6 3QX"/>
    <tag k="removemelater" v="yes"/>
  </node>
  <node id="-582" lat="52.35213774379252" lon="0.1766028265569975">
    <tag k="addr:postcode" v="CB6 3QY"/>
    <tag k="removemelater" v="yes"/>
  </node>
  <node id="-583" lat="52.35018196752244" lon="0.15280743267416508">
    <tag k="addr:postcode" v="CB6 3UX"/>
    <tag k="removemelater" v="yes"/>
  </node>
  <node id="-584" lat="52.35213774379252" lon="0.1766028265569975">
    <tag k="addr:postcode" v="CB6 3WG"/>
    <tag k="removemelater" v="yes"/>
  </node>
  <node id="-585" lat="52.35213774379252" lon="0.1766028265569975">
    <tag k="addr:postcode" v="CB6 3XS"/>
    <tag k="removemelater" v="yes"/>
  </node>
  <node id="-586" lat="52.39656715259387" lon="0.2584875044127106">
    <tag k="addr:postcode" v="CB7 4DD"/>
    <tag k="removemelater" v="yes"/>
  </node>
  <node id="-587" lat="52.397901885724075" lon="0.26392105441811986">
    <tag k="addr:postcode" v="CB7 4DL"/>
    <tag k="removemelater" v="yes"/>
  </node>
  <node id="-588" lat="52.397901885724075" lon="0.26392105441811986">
    <tag k="addr:postcode" v="CB7 4DN"/>
    <tag k="removemelater" v="yes"/>
  </node>
  <node id="-589" lat="52.3906269922214" lon="0.2686339382110586">
    <tag k="addr:postcode" v="CB7 4DY"/>
    <tag k="removemelater" v="yes"/>
  </node>
  <node id="-590" lat="52.400890450442134" lon="0.2637506575443288">
    <tag k="addr:postcode" v="CB7 4EE"/>
    <tag k="removemelater" v="yes"/>
  </node>
  <node id="-591" lat="52.387840334268034" lon="0.26155435144189276">
    <tag k="addr:postcode" v="CB7 4EX"/>
    <tag k="removemelater" v="yes"/>
  </node>
  <node id="-592" lat="52.3879621720572" lon="0.2612960457180343">
    <tag k="addr:postcode" v="CB7 4GG"/>
    <tag k="removemelater" v="yes"/>
  </node>
  <node id="-593" lat="52.399873695078035" lon="0.26331639418756936">
    <tag k="addr:postcode" v="CB7 4LP"/>
    <tag k="removemelater" v="yes"/>
  </node>
  <node id="-594" lat="52.398210428407985" lon="0.27127204759480933">
    <tag k="addr:postcode" v="CB7 4PF"/>
    <tag k="removemelater" v="yes"/>
  </node>
  <node id="-595" lat="52.40153471845418" lon="0.273750855179852">
    <tag k="addr:postcode" v="CB7 4SE"/>
    <tag k="removemelater" v="yes"/>
  </node>
  <node id="-596" lat="52.47559453442646" lon="0.38141383767437037">
    <tag k="addr:postcode" v="CB7 4TG"/>
    <tag k="removemelater" v="yes"/>
  </node>
  <node id="-597" lat="52.428938137601506" lon="0.36378996461414054">
    <tag k="addr:postcode" v="CB7 4TQ"/>
    <tag k="removemelater" v="yes"/>
  </node>
  <node id="-598" lat="52.40965930484671" lon="0.2874755618027153">
    <tag k="addr:postcode" v="CB7 4TY"/>
    <tag k="removemelater" v="yes"/>
  </node>
  <node id="-599" lat="52.398210428407985" lon="0.27127204759480933">
    <tag k="addr:postcode" v="CB7 4YN"/>
    <tag k="removemelater" v="yes"/>
  </node>
  <node id="-600" lat="52.398210428407985" lon="0.27127204759480933">
    <tag k="addr:postcode" v="CB7 4YT"/>
    <tag k="removemelater" v="yes"/>
  </node>
  <node id="-601" lat="52.398210428407985" lon="0.27127204759480933">
    <tag k="addr:postcode" v="CB7 5GW"/>
    <tag k="removemelater" v="yes"/>
  </node>
  <node id="-602" lat="52.30314601028686" lon="0.36837742333705054">
    <tag k="addr:postcode" v="CB7 5LP"/>
    <tag k="removemelater" v="yes"/>
  </node>
  <node id="-603" lat="52.398210428407985" lon="0.27127204759480933">
    <tag k="addr:postcode" v="CB7 5NA"/>
    <tag k="removemelater" v="yes"/>
  </node>
  <node id="-604" lat="52.3784361001557" lon="0.28299599694211874">
    <tag k="addr:postcode" v="CB7 5RS"/>
    <tag k="removemelater" v="yes"/>
  </node>
  <node id="-605" lat="52.35916195277184" lon="0.27483498557370967">
    <tag k="addr:postcode" v="CB7 5UA"/>
    <tag k="removemelater" v="yes"/>
  </node>
  <node id="-606" lat="52.398210428407985" lon="0.27127204759480933">
    <tag k="addr:postcode" v="CB7 5YH"/>
    <tag k="removemelater" v="yes"/>
  </node>
  <node id="-607" lat="52.33293690226844" lon="0.33769132431871485">
    <tag k="addr:postcode" v="CB7 9BX"/>
    <tag k="removemelater" v="yes"/>
  </node>
  <node id="-608" lat="52.33293690226844" lon="0.33769132431871485">
    <tag k="addr:postcode" v="CB7 9DE"/>
    <tag k="removemelater" v="yes"/>
  </node>
  <node id="-609" lat="52.33293690226844" lon="0.33769132431871485">
    <tag k="addr:postcode" v="CB7 9DJ"/>
    <tag k="removemelater" v="yes"/>
  </node>
  <node id="-610" lat="52.33293690226844" lon="0.33769132431871485">
    <tag k="addr:postcode" v="CB7 9DP"/>
    <tag k="removemelater" v="yes"/>
  </node>
  <node id="-611" lat="52.33293690226844" lon="0.33769132431871485">
    <tag k="addr:postcode" v="CB7 9DR"/>
    <tag k="removemelater" v="yes"/>
  </node>
  <node id="-612" lat="52.33293690226844" lon="0.33769132431871485">
    <tag k="addr:postcode" v="CB7 9ED"/>
    <tag k="removemelater" v="yes"/>
  </node>
  <node id="-613" lat="52.33293690226844" lon="0.33769132431871485">
    <tag k="addr:postcode" v="CB7 9EF"/>
    <tag k="removemelater" v="yes"/>
  </node>
  <node id="-614" lat="52.33293690226844" lon="0.33769132431871485">
    <tag k="addr:postcode" v="CB7 9ER"/>
    <tag k="removemelater" v="yes"/>
  </node>
  <node id="-615" lat="52.33293690226844" lon="0.33769132431871485">
    <tag k="addr:postcode" v="CB7 9EX"/>
    <tag k="removemelater" v="yes"/>
  </node>
  <node id="-616" lat="52.33293690226844" lon="0.33769132431871485">
    <tag k="addr:postcode" v="CB7 9EY"/>
    <tag k="removemelater" v="yes"/>
  </node>
  <node id="-617" lat="52.33293690226844" lon="0.33769132431871485">
    <tag k="addr:postcode" v="CB7 9EZ"/>
    <tag k="removemelater" v="yes"/>
  </node>
  <node id="-618" lat="52.33293690226844" lon="0.33769132431871485">
    <tag k="addr:postcode" v="CB7 9FA"/>
    <tag k="removemelater" v="yes"/>
  </node>
  <node id="-619" lat="52.33293690226844" lon="0.33769132431871485">
    <tag k="addr:postcode" v="CB7 9FJ"/>
    <tag k="removemelater" v="yes"/>
  </node>
  <node id="-620" lat="52.33293690226844" lon="0.33769132431871485">
    <tag k="addr:postcode" v="CB7 9FP"/>
    <tag k="removemelater" v="yes"/>
  </node>
  <node id="-621" lat="52.33293690226844" lon="0.33769132431871485">
    <tag k="addr:postcode" v="CB7 9FQ"/>
    <tag k="removemelater" v="yes"/>
  </node>
  <node id="-622" lat="52.33293690226844" lon="0.33769132431871485">
    <tag k="addr:postcode" v="CB7 9FU"/>
    <tag k="removemelater" v="yes"/>
  </node>
  <node id="-623" lat="52.33293690226844" lon="0.33769132431871485">
    <tag k="addr:postcode" v="CB7 9GA"/>
    <tag k="removemelater" v="yes"/>
  </node>
  <node id="-624" lat="52.33293690226844" lon="0.33769132431871485">
    <tag k="addr:postcode" v="CB7 9GF"/>
    <tag k="removemelater" v="yes"/>
  </node>
  <node id="-625" lat="52.33293690226844" lon="0.33769132431871485">
    <tag k="addr:postcode" v="CB7 9GG"/>
    <tag k="removemelater" v="yes"/>
  </node>
  <node id="-626" lat="52.33293690226844" lon="0.33769132431871485">
    <tag k="addr:postcode" v="CB7 9GJ"/>
    <tag k="removemelater" v="yes"/>
  </node>
  <node id="-627" lat="52.33293690226844" lon="0.33769132431871485">
    <tag k="addr:postcode" v="CB7 9GN"/>
    <tag k="removemelater" v="yes"/>
  </node>
  <node id="-628" lat="52.33293690226844" lon="0.33769132431871485">
    <tag k="addr:postcode" v="CB7 9GQ"/>
    <tag k="removemelater" v="yes"/>
  </node>
  <node id="-629" lat="52.33293690226844" lon="0.33769132431871485">
    <tag k="addr:postcode" v="CB7 9GR"/>
    <tag k="removemelater" v="yes"/>
  </node>
  <node id="-630" lat="52.33293690226844" lon="0.33769132431871485">
    <tag k="addr:postcode" v="CB7 9GS"/>
    <tag k="removemelater" v="yes"/>
  </node>
  <node id="-631" lat="52.33293690226844" lon="0.33769132431871485">
    <tag k="addr:postcode" v="CB7 9GT"/>
    <tag k="removemelater" v="yes"/>
  </node>
  <node id="-632" lat="52.33293690226844" lon="0.33769132431871485">
    <tag k="addr:postcode" v="CB7 9PQ"/>
    <tag k="removemelater" v="yes"/>
  </node>
  <node id="-633" lat="52.33293690226844" lon="0.33769132431871485">
    <tag k="addr:postcode" v="CB7 9RP"/>
    <tag k="removemelater" v="yes"/>
  </node>
  <node id="-634" lat="52.400779015323785" lon="0.26346564016377466">
    <tag k="addr:postcode" v="CB7 9SA"/>
    <tag k="removemelater" v="yes"/>
  </node>
  <node id="-635" lat="52.400890450442134" lon="0.2637506575443288">
    <tag k="addr:postcode" v="CB7 9SB"/>
    <tag k="removemelater" v="yes"/>
  </node>
  <node id="-636" lat="52.400779015323785" lon="0.26346564016377466">
    <tag k="addr:postcode" v="CB7 9SD"/>
    <tag k="removemelater" v="yes"/>
  </node>
  <node id="-637" lat="52.400779015323785" lon="0.26346564016377466">
    <tag k="addr:postcode" v="CB7 9SE"/>
    <tag k="removemelater" v="yes"/>
  </node>
  <node id="-638" lat="52.400779015323785" lon="0.26346564016377466">
    <tag k="addr:postcode" v="CB7 9SF"/>
    <tag k="removemelater" v="yes"/>
  </node>
  <node id="-639" lat="52.400779015323785" lon="0.26346564016377466">
    <tag k="addr:postcode" v="CB7 9SG"/>
    <tag k="removemelater" v="yes"/>
  </node>
  <node id="-640" lat="52.400779015323785" lon="0.26346564016377466">
    <tag k="addr:postcode" v="CB7 9SH"/>
    <tag k="removemelater" v="yes"/>
  </node>
  <node id="-641" lat="52.400779015323785" lon="0.26346564016377466">
    <tag k="addr:postcode" v="CB7 9SJ"/>
    <tag k="removemelater" v="yes"/>
  </node>
  <node id="-642" lat="52.400779015323785" lon="0.26346564016377466">
    <tag k="addr:postcode" v="CB7 9SL"/>
    <tag k="removemelater" v="yes"/>
  </node>
  <node id="-643" lat="52.400779015323785" lon="0.26346564016377466">
    <tag k="addr:postcode" v="CB7 9SP"/>
    <tag k="removemelater" v="yes"/>
  </node>
  <node id="-644" lat="52.400779015323785" lon="0.26346564016377466">
    <tag k="addr:postcode" v="CB7 9SQ"/>
    <tag k="removemelater" v="yes"/>
  </node>
  <node id="-645" lat="52.400779015323785" lon="0.26346564016377466">
    <tag k="addr:postcode" v="CB7 9SR"/>
    <tag k="removemelater" v="yes"/>
  </node>
  <node id="-646" lat="52.400779015323785" lon="0.26346564016377466">
    <tag k="addr:postcode" v="CB7 9SS"/>
    <tag k="removemelater" v="yes"/>
  </node>
  <node id="-647" lat="52.400779015323785" lon="0.26346564016377466">
    <tag k="addr:postcode" v="CB7 9ST"/>
    <tag k="removemelater" v="yes"/>
  </node>
  <node id="-648" lat="52.400779015323785" lon="0.26346564016377466">
    <tag k="addr:postcode" v="CB7 9SU"/>
    <tag k="removemelater" v="yes"/>
  </node>
  <node id="-649" lat="52.400779015323785" lon="0.26346564016377466">
    <tag k="addr:postcode" v="CB7 9SW"/>
    <tag k="removemelater" v="yes"/>
  </node>
  <node id="-650" lat="52.400779015323785" lon="0.26346564016377466">
    <tag k="addr:postcode" v="CB7 9SX"/>
    <tag k="removemelater" v="yes"/>
  </node>
  <node id="-651" lat="52.400779015323785" lon="0.26346564016377466">
    <tag k="addr:postcode" v="CB7 9SY"/>
    <tag k="removemelater" v="yes"/>
  </node>
  <node id="-652" lat="52.400779015323785" lon="0.26346564016377466">
    <tag k="addr:postcode" v="CB7 9SZ"/>
    <tag k="removemelater" v="yes"/>
  </node>
  <node id="-653" lat="52.400779015323785" lon="0.26346564016377466">
    <tag k="addr:postcode" v="CB7 9TA"/>
    <tag k="removemelater" v="yes"/>
  </node>
  <node id="-654" lat="52.33293690226844" lon="0.33769132431871485">
    <tag k="addr:postcode" v="CB7 9WQ"/>
    <tag k="removemelater" v="yes"/>
  </node>
  <node id="-655" lat="52.33293690226844" lon="0.33769132431871485">
    <tag k="addr:postcode" v="CB7 9ZJ"/>
    <tag k="removemelater" v="yes"/>
  </node>
  <node id="-656" lat="52.33293690226844" lon="0.33769132431871485">
    <tag k="addr:postcode" v="CB7 9ZQ"/>
    <tag k="removemelater" v="yes"/>
  </node>
  <node id="-657" lat="52.33293690226844" lon="0.33769132431871485">
    <tag k="addr:postcode" v="CB7 9ZR"/>
    <tag k="removemelater" v="yes"/>
  </node>
  <node id="-658" lat="52.22839061803454" lon="0.3455785647025451">
    <tag k="addr:postcode" v="CB8 0XD"/>
    <tag k="removemelater" v="yes"/>
  </node>
  <node id="-659" lat="52.22839960083926" lon="0.34557903828593595">
    <tag k="addr:postcode" v="CB8 0XE"/>
    <tag k="removemelater" v="yes"/>
  </node>
  <node id="-660" lat="52.24290299332701" lon="0.4041621764103664">
    <tag k="addr:postcode" v="CB8 1DF"/>
    <tag k="removemelater" v="yes"/>
  </node>
  <node id="-661" lat="52.24290299332701" lon="0.4041621764103664">
    <tag k="addr:postcode" v="CB8 1DG"/>
    <tag k="removemelater" v="yes"/>
  </node>
  <node id="-662" lat="52.24290299332701" lon="0.4041621764103664">
    <tag k="addr:postcode" v="CB8 1DT"/>
    <tag k="removemelater" v="yes"/>
  </node>
  <node id="-663" lat="52.24290299332701" lon="0.4041621764103664">
    <tag k="addr:postcode" v="CB8 1DU"/>
    <tag k="removemelater" v="yes"/>
  </node>
  <node id="-664" lat="52.24290299332701" lon="0.4041621764103664">
    <tag k="addr:postcode" v="CB8 1DX"/>
    <tag k="removemelater" v="yes"/>
  </node>
  <node id="-665" lat="52.24290299332701" lon="0.4041621764103664">
    <tag k="addr:postcode" v="CB8 1DY"/>
    <tag k="removemelater" v="yes"/>
  </node>
  <node id="-666" lat="52.24290299332701" lon="0.4041621764103664">
    <tag k="addr:postcode" v="CB8 1ER"/>
    <tag k="removemelater" v="yes"/>
  </node>
  <node id="-667" lat="52.24290299332701" lon="0.4041621764103664">
    <tag k="addr:postcode" v="CB8 1FD"/>
    <tag k="removemelater" v="yes"/>
  </node>
  <node id="-668" lat="52.24290299332701" lon="0.4041621764103664">
    <tag k="addr:postcode" v="CB8 1FF"/>
    <tag k="removemelater" v="yes"/>
  </node>
  <node id="-669" lat="52.24290299332701" lon="0.4041621764103664">
    <tag k="addr:postcode" v="CB8 1FJ"/>
    <tag k="removemelater" v="yes"/>
  </node>
  <node id="-670" lat="52.24290299332701" lon="0.4041621764103664">
    <tag k="addr:postcode" v="CB8 1FL"/>
    <tag k="removemelater" v="yes"/>
  </node>
  <node id="-671" lat="52.24290299332701" lon="0.4041621764103664">
    <tag k="addr:postcode" v="CB8 1FP"/>
    <tag k="removemelater" v="yes"/>
  </node>
  <node id="-672" lat="52.24290299332701" lon="0.4041621764103664">
    <tag k="addr:postcode" v="CB8 1FS"/>
    <tag k="removemelater" v="yes"/>
  </node>
  <node id="-673" lat="52.24290299332701" lon="0.4041621764103664">
    <tag k="addr:postcode" v="CB8 1FT"/>
    <tag k="removemelater" v="yes"/>
  </node>
  <node id="-674" lat="52.24290299332701" lon="0.4041621764103664">
    <tag k="addr:postcode" v="CB8 1FW"/>
    <tag k="removemelater" v="yes"/>
  </node>
  <node id="-675" lat="52.24290299332701" lon="0.4041621764103664">
    <tag k="addr:postcode" v="CB8 1FX"/>
    <tag k="removemelater" v="yes"/>
  </node>
  <node id="-676" lat="52.24290299332701" lon="0.4041621764103664">
    <tag k="addr:postcode" v="CB8 1FZ"/>
    <tag k="removemelater" v="yes"/>
  </node>
  <node id="-677" lat="52.24290299332701" lon="0.4041621764103664">
    <tag k="addr:postcode" v="CB8 1GA"/>
    <tag k="removemelater" v="yes"/>
  </node>
  <node id="-678" lat="52.24290299332701" lon="0.4041621764103664">
    <tag k="addr:postcode" v="CB8 1NH"/>
    <tag k="removemelater" v="yes"/>
  </node>
  <node id="-679" lat="52.24290299332701" lon="0.4041621764103664">
    <tag k="addr:postcode" v="CB8 1RY"/>
    <tag k="removemelater" v="yes"/>
  </node>
  <node id="-680" lat="52.24290299332701" lon="0.4041621764103664">
    <tag k="addr:postcode" v="CB8 1ZY"/>
    <tag k="removemelater" v="yes"/>
  </node>
  <node id="-681" lat="52.25327918131215" lon="0.40508966961335297">
    <tag k="addr:postcode" v="CB8 7AQ"/>
    <tag k="removemelater" v="yes"/>
  </node>
  <node id="-682" lat="52.260435844182446" lon="0.389210517252803">
    <tag k="addr:postcode" v="CB8 7AU"/>
    <tag k="removemelater" v="yes"/>
  </node>
  <node id="-683" lat="52.26148391375453" lon="0.39295988105177077">
    <tag k="addr:postcode" v="CB8 7DT"/>
    <tag k="removemelater" v="yes"/>
  </node>
  <node id="-684" lat="52.24290299332701" lon="0.4041621764103664">
    <tag k="addr:postcode" v="CB8 7EE"/>
    <tag k="removemelater" v="yes"/>
  </node>
  <node id="-685" lat="52.25915160030765" lon="0.39356699259606287">
    <tag k="addr:postcode" v="CB8 7FA"/>
    <tag k="removemelater" v="yes"/>
  </node>
  <node id="-686" lat="52.24290299332701" lon="0.4041621764103664">
    <tag k="addr:postcode" v="CB8 7LQ"/>
    <tag k="removemelater" v="yes"/>
  </node>
  <node id="-687" lat="52.24290299332701" lon="0.4041621764103664">
    <tag k="addr:postcode" v="CB8 7TF"/>
    <tag k="removemelater" v="yes"/>
  </node>
  <node id="-688" lat="52.24290299332701" lon="0.4041621764103664">
    <tag k="addr:postcode" v="CB8 7TJ"/>
    <tag k="removemelater" v="yes"/>
  </node>
  <node id="-689" lat="52.24290299332701" lon="0.4041621764103664">
    <tag k="addr:postcode" v="CB8 7TU"/>
    <tag k="removemelater" v="yes"/>
  </node>
  <node id="-690" lat="52.24290299332701" lon="0.4041621764103664">
    <tag k="addr:postcode" v="CB8 7UZ"/>
    <tag k="removemelater" v="yes"/>
  </node>
  <node id="-691" lat="52.23620768943663" lon="0.41233916706675894">
    <tag k="addr:postcode" v="CB8 8BW"/>
    <tag k="removemelater" v="yes"/>
  </node>
  <node id="-692" lat="52.23480865440708" lon="0.40775230056014833">
    <tag k="addr:postcode" v="CB8 8DE"/>
    <tag k="removemelater" v="yes"/>
  </node>
  <node id="-693" lat="52.24507441314513" lon="0.41056419803116145">
    <tag k="addr:postcode" v="CB8 8DN"/>
    <tag k="removemelater" v="yes"/>
  </node>
  <node id="-694" lat="52.23950865283914" lon="0.4105407968390587">
    <tag k="addr:postcode" v="CB8 8FG"/>
    <tag k="removemelater" v="yes"/>
  </node>
  <node id="-695" lat="52.23601750039896" lon="0.4102051140455563">
    <tag k="addr:postcode" v="CB8 8FT"/>
    <tag k="removemelater" v="yes"/>
  </node>
  <node id="-696" lat="52.245158278252475" lon="0.4055732756454265">
    <tag k="addr:postcode" v="CB8 8NW"/>
    <tag k="removemelater" v="yes"/>
  </node>
  <node id="-697" lat="52.24517654134088" lon="0.40555961428471604">
    <tag k="addr:postcode" v="CB8 8SY"/>
    <tag k="removemelater" v="yes"/>
  </node>
  <node id="-698" lat="52.24290299332701" lon="0.4041621764103664">
    <tag k="addr:postcode" v="CB8 8ZB"/>
    <tag k="removemelater" v="yes"/>
  </node>
  <node id="-699" lat="52.242682734104164" lon="0.4021727010641183">
    <tag k="addr:postcode" v="CB8 9AQ"/>
    <tag k="removemelater" v="yes"/>
  </node>
  <node id="-700" lat="52.2435258431174" lon="0.40183737740143627">
    <tag k="addr:postcode" v="CB8 9AW"/>
    <tag k="removemelater" v="yes"/>
  </node>
  <node id="-701" lat="52.24290299332701" lon="0.4041621764103664">
    <tag k="addr:postcode" v="CB8 9FD"/>
    <tag k="removemelater" v="yes"/>
  </node>
  <node id="-702" lat="52.20235397877916" lon="0.3624570615225775">
    <tag k="addr:postcode" v="CB8 9FF"/>
    <tag k="removemelater" v="yes"/>
  </node>
  <node id="-703" lat="52.20233777007591" lon="0.3623683901580101">
    <tag k="addr:postcode" v="CB8 9UT"/>
    <tag k="removemelater" v="yes"/>
  </node>
  <node id="-704" lat="52.18292402763287" lon="0.48912368616612717">
    <tag k="addr:postcode" v="CB8 9WA"/>
    <tag k="removemelater" v="yes"/>
  </node>
  <node id="-705" lat="52.13740984727778" lon="0.5138403211718913">
    <tag k="addr:postcode" v="CB8 9YG"/>
    <tag k="removemelater" v="yes"/>
  </node>
  <node id="-706" lat="52.24290299332701" lon="0.4041621764103664">
    <tag k="addr:postcode" v="CB8 9YH"/>
    <tag k="removemelater" v="yes"/>
  </node>
  <node id="-707" lat="52.24290299332701" lon="0.4041621764103664">
    <tag k="addr:postcode" v="CB8 9ZR"/>
    <tag k="removemelater" v="yes"/>
  </node>
  <node id="-708" lat="52.24290299332701" lon="0.4041621764103664">
    <tag k="addr:postcode" v="CB8 9ZS"/>
    <tag k="removemelater" v="yes"/>
  </node>
  <node id="-709" lat="52.082933347121504" lon="0.4389188458981082">
    <tag k="addr:postcode" v="CB9 1AE"/>
    <tag k="removemelater" v="yes"/>
  </node>
  <node id="-710" lat="52.082933347121504" lon="0.4389188458981082">
    <tag k="addr:postcode" v="CB9 1AH"/>
    <tag k="removemelater" v="yes"/>
  </node>
  <node id="-711" lat="52.082933347121504" lon="0.4389188458981082">
    <tag k="addr:postcode" v="CB9 1AJ"/>
    <tag k="removemelater" v="yes"/>
  </node>
  <node id="-712" lat="52.082933347121504" lon="0.4389188458981082">
    <tag k="addr:postcode" v="CB9 1AT"/>
    <tag k="removemelater" v="yes"/>
  </node>
  <node id="-713" lat="52.082933347121504" lon="0.4389188458981082">
    <tag k="addr:postcode" v="CB9 1AX"/>
    <tag k="removemelater" v="yes"/>
  </node>
  <node id="-714" lat="52.082933347121504" lon="0.4389188458981082">
    <tag k="addr:postcode" v="CB9 1AY"/>
    <tag k="removemelater" v="yes"/>
  </node>
  <node id="-715" lat="52.092837523939856" lon="0.40462471291250385">
    <tag k="addr:postcode" v="CB9 7FB"/>
    <tag k="removemelater" v="yes"/>
  </node>
  <node id="-716" lat="52.0703155928823" lon="0.4454833199634713">
    <tag k="addr:postcode" v="CB9 7FD"/>
    <tag k="removemelater" v="yes"/>
  </node>
  <node id="-717" lat="52.128815850189035" lon="0.425717231885902">
    <tag k="addr:postcode" v="CB9 7LL"/>
    <tag k="removemelater" v="yes"/>
  </node>
  <node id="-718" lat="52.09245559222662" lon="0.4905510942907572">
    <tag k="addr:postcode" v="CB9 7RL"/>
    <tag k="removemelater" v="yes"/>
  </node>
  <node id="-719" lat="52.09245559222662" lon="0.4905510942907572">
    <tag k="addr:postcode" v="CB9 7SZ"/>
    <tag k="removemelater" v="yes"/>
  </node>
  <node id="-720" lat="52.09245559222662" lon="0.4905510942907572">
    <tag k="addr:postcode" v="CB9 7WY"/>
    <tag k="removemelater" v="yes"/>
  </node>
  <node id="-721" lat="52.082933347121504" lon="0.4389188458981082">
    <tag k="addr:postcode" v="CB9 8AZ"/>
    <tag k="removemelater" v="yes"/>
  </node>
  <node id="-722" lat="52.0823020913611" lon="0.43943907331189375">
    <tag k="addr:postcode" v="CB9 8DD"/>
    <tag k="removemelater" v="yes"/>
  </node>
  <node id="-723" lat="52.082933347121504" lon="0.4389188458981082">
    <tag k="addr:postcode" v="CB9 8RU"/>
    <tag k="removemelater" v="yes"/>
  </node>
  <node id="-724" lat="52.082933347121504" lon="0.4389188458981082">
    <tag k="addr:postcode" v="CB9 8WY"/>
    <tag k="removemelater" v="yes"/>
  </node>
  <node id="-725" lat="52.082933347121504" lon="0.4389188458981082">
    <tag k="addr:postcode" v="CB9 8WZ"/>
    <tag k="removemelater" v="yes"/>
  </node>
  <node id="-726" lat="52.08447481192396" lon="0.42042120158200114">
    <tag k="addr:postcode" v="CB9 9DE"/>
    <tag k="removemelater" v="yes"/>
  </node>
  <node id="-727" lat="52.08355689355203" lon="0.4379019024391678">
    <tag k="addr:postcode" v="CB9 9DY"/>
    <tag k="removemelater" v="yes"/>
  </node>
  <node id="-728" lat="52.08433681360199" lon="0.4362803881556477">
    <tag k="addr:postcode" v="CB9 9EE"/>
    <tag k="removemelater" v="yes"/>
  </node>
  <node id="-729" lat="52.082933347121504" lon="0.4389188458981082">
    <tag k="addr:postcode" v="CB9 9XA"/>
    <tag k="removemelater" v="yes"/>
  </node>
</osm>
