<?xml version="1.0" encoding="UTF-8"?><osm version="0.6" generator="import_postcodes.py" upload="false">
  <node id="-1" lat="58.20691243655205" lon="-6.38656271043904">
    <tag k="addr:postcode" v="HS1 2AE"/>
    <tag k="removemelater" v="yes"/>
  </node>
  <node id="-2" lat="58.2132837338953" lon="-6.381999088130156">
    <tag k="addr:postcode" v="HS1 2AG"/>
    <tag k="removemelater" v="yes"/>
  </node>
  <node id="-3" lat="58.2205364526547" lon="-6.395200604783313">
    <tag k="addr:postcode" v="HS1 2AH"/>
    <tag k="removemelater" v="yes"/>
  </node>
  <node id="-4" lat="58.21497615120747" lon="-6.385088046531768">
    <tag k="addr:postcode" v="HS1 2AJ"/>
    <tag k="removemelater" v="yes"/>
  </node>
  <node id="-5" lat="58.207853505105355" lon="-6.375144069763033">
    <tag k="addr:postcode" v="HS1 2AL"/>
    <tag k="removemelater" v="yes"/>
  </node>
  <node id="-6" lat="58.20910289343252" lon="-6.379353254027995">
    <tag k="addr:postcode" v="HS1 2AN"/>
    <tag k="removemelater" v="yes"/>
  </node>
  <node id="-7" lat="58.21872103696695" lon="-6.371626204777727">
    <tag k="addr:postcode" v="HS1 2AP"/>
    <tag k="removemelater" v="yes"/>
  </node>
  <node id="-8" lat="58.217684367489184" lon="-6.373270987896095">
    <tag k="addr:postcode" v="HS1 2AQ"/>
    <tag k="removemelater" v="yes"/>
  </node>
  <node id="-9" lat="58.20800259003238" lon="-6.390684368549726">
    <tag k="addr:postcode" v="HS1 2BA"/>
    <tag k="removemelater" v="yes"/>
  </node>
  <node id="-10" lat="58.20773085271713" lon="-6.385777823978949">
    <tag k="addr:postcode" v="HS1 2BB"/>
    <tag k="removemelater" v="yes"/>
  </node>
  <node id="-11" lat="58.20809353177823" lon="-6.389349575569428">
    <tag k="addr:postcode" v="HS1 2BG"/>
    <tag k="removemelater" v="yes"/>
  </node>
  <node id="-12" lat="58.20813287137108" lon="-6.387684669308023">
    <tag k="addr:postcode" v="HS1 2BJ"/>
    <tag k="removemelater" v="yes"/>
  </node>
  <node id="-13" lat="58.20805518817517" lon="-6.386022344650404">
    <tag k="addr:postcode" v="HS1 2BN"/>
    <tag k="removemelater" v="yes"/>
  </node>
  <node id="-14" lat="58.208101139202576" lon="-6.387561479162316">
    <tag k="addr:postcode" v="HS1 2BQ"/>
    <tag k="removemelater" v="yes"/>
  </node>
  <node id="-15" lat="58.2070366213064" lon="-6.385044639467858">
    <tag k="addr:postcode" v="HS1 2BT"/>
    <tag k="removemelater" v="yes"/>
  </node>
  <node id="-16" lat="58.2094979372636" lon="-6.389046094079613">
    <tag k="addr:postcode" v="HS1 2DF"/>
    <tag k="removemelater" v="yes"/>
  </node>
  <node id="-17" lat="58.21409407233356" lon="-6.385371038132606">
    <tag k="addr:postcode" v="HS1 2DJ"/>
    <tag k="removemelater" v="yes"/>
  </node>
  <node id="-18" lat="58.20826583451143" lon="-6.38669582719859">
    <tag k="addr:postcode" v="HS1 2DP"/>
    <tag k="removemelater" v="yes"/>
  </node>
  <node id="-19" lat="58.20952014182115" lon="-6.387617552257039">
    <tag k="addr:postcode" v="HS1 2DR"/>
    <tag k="removemelater" v="yes"/>
  </node>
  <node id="-20" lat="58.21065939168784" lon="-6.387962814301313">
    <tag k="addr:postcode" v="HS1 2DS"/>
    <tag k="removemelater" v="yes"/>
  </node>
  <node id="-21" lat="58.21136762508506" lon="-6.3882889059557035">
    <tag k="addr:postcode" v="HS1 2DT"/>
    <tag k="removemelater" v="yes"/>
  </node>
  <node id="-22" lat="58.21228105438913" lon="-6.387617949508519">
    <tag k="addr:postcode" v="HS1 2DU"/>
    <tag k="removemelater" v="yes"/>
  </node>
  <node id="-23" lat="58.21335099853734" lon="-6.3863187447200325">
    <tag k="addr:postcode" v="HS1 2DX"/>
    <tag k="removemelater" v="yes"/>
  </node>
  <node id="-24" lat="58.21308468113618" lon="-6.387785432888661">
    <tag k="addr:postcode" v="HS1 2DY"/>
    <tag k="removemelater" v="yes"/>
  </node>
  <node id="-25" lat="58.214414320904766" lon="-6.385734386944356">
    <tag k="addr:postcode" v="HS1 2DZ"/>
    <tag k="removemelater" v="yes"/>
  </node>
  <node id="-26" lat="58.2130879919309" lon="-6.387427984586149">
    <tag k="addr:postcode" v="HS1 2EB"/>
    <tag k="removemelater" v="yes"/>
  </node>
  <node id="-27" lat="58.21082758806254" lon="-6.3885629531624994">
    <tag k="addr:postcode" v="HS1 2ED"/>
    <tag k="removemelater" v="yes"/>
  </node>
  <node id="-28" lat="58.217310320635335" lon="-6.384422005484323">
    <tag k="addr:postcode" v="HS1 2EG"/>
    <tag k="removemelater" v="yes"/>
  </node>
  <node id="-29" lat="58.217694053898896" lon="-6.386599783239291">
    <tag k="addr:postcode" v="HS1 2EH"/>
    <tag k="removemelater" v="yes"/>
  </node>
  <node id="-30" lat="58.21833415083142" lon="-6.3875992314633985">
    <tag k="addr:postcode" v="HS1 2EJ"/>
    <tag k="removemelater" v="yes"/>
  </node>
  <node id="-31" lat="58.22025504689119" lon="-6.396580437740165">
    <tag k="addr:postcode" v="HS1 2EP"/>
    <tag k="removemelater" v="yes"/>
  </node>
  <node id="-32" lat="58.21975996740804" lon="-6.3871959951082635">
    <tag k="addr:postcode" v="HS1 2EU"/>
    <tag k="removemelater" v="yes"/>
  </node>
  <node id="-33" lat="58.219761221021884" lon="-6.392121884040062">
    <tag k="addr:postcode" v="HS1 2EW"/>
    <tag k="removemelater" v="yes"/>
  </node>
  <node id="-34" lat="58.21883972749342" lon="-6.387542424271748">
    <tag k="addr:postcode" v="HS1 2EX"/>
    <tag k="removemelater" v="yes"/>
  </node>
  <node id="-35" lat="58.21866276153282" lon="-6.385628719796959">
    <tag k="addr:postcode" v="HS1 2EY"/>
    <tag k="removemelater" v="yes"/>
  </node>
  <node id="-36" lat="58.21875699007342" lon="-6.3862880173888215">
    <tag k="addr:postcode" v="HS1 2EZ"/>
    <tag k="removemelater" v="yes"/>
  </node>
  <node id="-37" lat="58.20913596043551" lon="-6.378914322383887">
    <tag k="addr:postcode" v="HS1 2FA"/>
    <tag k="removemelater" v="yes"/>
  </node>
  <node id="-38" lat="58.20913596043551" lon="-6.378914322383887">
    <tag k="addr:postcode" v="HS1 2FB"/>
    <tag k="removemelater" v="yes"/>
  </node>
  <node id="-39" lat="58.20913596043551" lon="-6.378914322383887">
    <tag k="addr:postcode" v="HS1 2FD"/>
    <tag k="removemelater" v="yes"/>
  </node>
  <node id="-40" lat="58.20913596043551" lon="-6.378914322383887">
    <tag k="addr:postcode" v="HS1 2FE"/>
    <tag k="removemelater" v="yes"/>
  </node>
  <node id="-41" lat="58.20913596043551" lon="-6.378914322383887">
    <tag k="addr:postcode" v="HS1 2FF"/>
    <tag k="removemelater" v="yes"/>
  </node>
  <node id="-42" lat="58.20913596043551" lon="-6.378914322383887">
    <tag k="addr:postcode" v="HS1 2FG"/>
    <tag k="removemelater" v="yes"/>
  </node>
  <node id="-43" lat="58.20913596043551" lon="-6.378914322383887">
    <tag k="addr:postcode" v="HS1 2FH"/>
    <tag k="removemelater" v="yes"/>
  </node>
  <node id="-44" lat="58.20913596043551" lon="-6.378914322383887">
    <tag k="addr:postcode" v="HS1 2FJ"/>
    <tag k="removemelater" v="yes"/>
  </node>
  <node id="-45" lat="58.20913596043551" lon="-6.378914322383887">
    <tag k="addr:postcode" v="HS1 2FL"/>
    <tag k="removemelater" v="yes"/>
  </node>
  <node id="-46" lat="58.20913596043551" lon="-6.378914322383887">
    <tag k="addr:postcode" v="HS1 2FP"/>
    <tag k="removemelater" v="yes"/>
  </node>
  <node id="-47" lat="58.20913596043551" lon="-6.378914322383887">
    <tag k="addr:postcode" v="HS1 2FQ"/>
    <tag k="removemelater" v="yes"/>
  </node>
  <node id="-48" lat="58.20913596043551" lon="-6.378914322383887">
    <tag k="addr:postcode" v="HS1 2FR"/>
    <tag k="removemelater" v="yes"/>
  </node>
  <node id="-49" lat="58.20913596043551" lon="-6.378914322383887">
    <tag k="addr:postcode" v="HS1 2GA"/>
    <tag k="removemelater" v="yes"/>
  </node>
  <node id="-50" lat="58.20913596043551" lon="-6.378914322383887">
    <tag k="addr:postcode" v="HS1 2GB"/>
    <tag k="removemelater" v="yes"/>
  </node>
  <node id="-51" lat="58.20913596043551" lon="-6.378914322383887">
    <tag k="addr:postcode" v="HS1 2GD"/>
    <tag k="removemelater" v="yes"/>
  </node>
  <node id="-52" lat="58.20913596043551" lon="-6.378914322383887">
    <tag k="addr:postcode" v="HS1 2GE"/>
    <tag k="removemelater" v="yes"/>
  </node>
  <node id="-53" lat="58.20913596043551" lon="-6.378914322383887">
    <tag k="addr:postcode" v="HS1 2GF"/>
    <tag k="removemelater" v="yes"/>
  </node>
  <node id="-54" lat="58.20913596043551" lon="-6.378914322383887">
    <tag k="addr:postcode" v="HS1 2GG"/>
    <tag k="removemelater" v="yes"/>
  </node>
  <node id="-55" lat="58.20913596043551" lon="-6.378914322383887">
    <tag k="addr:postcode" v="HS1 2GH"/>
    <tag k="removemelater" v="yes"/>
  </node>
  <node id="-56" lat="58.20913596043551" lon="-6.378914322383887">
    <tag k="addr:postcode" v="HS1 2GJ"/>
    <tag k="removemelater" v="yes"/>
  </node>
  <node id="-57" lat="58.20913596043551" lon="-6.378914322383887">
    <tag k="addr:postcode" v="HS1 2GL"/>
    <tag k="removemelater" v="yes"/>
  </node>
  <node id="-58" lat="58.20913596043551" lon="-6.378914322383887">
    <tag k="addr:postcode" v="HS1 2GN"/>
    <tag k="removemelater" v="yes"/>
  </node>
  <node id="-59" lat="58.20913596043551" lon="-6.378914322383887">
    <tag k="addr:postcode" v="HS1 2GP"/>
    <tag k="removemelater" v="yes"/>
  </node>
  <node id="-60" lat="58.20913596043551" lon="-6.378914322383887">
    <tag k="addr:postcode" v="HS1 2GQ"/>
    <tag k="removemelater" v="yes"/>
  </node>
  <node id="-61" lat="58.20913596043551" lon="-6.378914322383887">
    <tag k="addr:postcode" v="HS1 2GR"/>
    <tag k="removemelater" v="yes"/>
  </node>
  <node id="-62" lat="58.20913596043551" lon="-6.378914322383887">
    <tag k="addr:postcode" v="HS1 2GS"/>
    <tag k="removemelater" v="yes"/>
  </node>
  <node id="-63" lat="58.20913596043551" lon="-6.378914322383887">
    <tag k="addr:postcode" v="HS1 2GT"/>
    <tag k="removemelater" v="yes"/>
  </node>
  <node id="-64" lat="58.20913596043551" lon="-6.378914322383887">
    <tag k="addr:postcode" v="HS1 2GU"/>
    <tag k="removemelater" v="yes"/>
  </node>
  <node id="-65" lat="58.20913596043551" lon="-6.378914322383887">
    <tag k="addr:postcode" v="HS1 2GW"/>
    <tag k="removemelater" v="yes"/>
  </node>
  <node id="-66" lat="58.20913596043551" lon="-6.378914322383887">
    <tag k="addr:postcode" v="HS1 2GY"/>
    <tag k="removemelater" v="yes"/>
  </node>
  <node id="-67" lat="58.20913596043551" lon="-6.378914322383887">
    <tag k="addr:postcode" v="HS1 2GZ"/>
    <tag k="removemelater" v="yes"/>
  </node>
  <node id="-68" lat="58.21834213433914" lon="-6.387105961011723">
    <tag k="addr:postcode" v="HS1 2HA"/>
    <tag k="removemelater" v="yes"/>
  </node>
  <node id="-69" lat="58.217959397276786" lon="-6.386206496600073">
    <tag k="addr:postcode" v="HS1 2HB"/>
    <tag k="removemelater" v="yes"/>
  </node>
  <node id="-70" lat="58.21759417776715" lon="-6.385581904164541">
    <tag k="addr:postcode" v="HS1 2HD"/>
    <tag k="removemelater" v="yes"/>
  </node>
  <node id="-71" lat="58.217925493249155" lon="-6.384054872146879">
    <tag k="addr:postcode" v="HS1 2HE"/>
    <tag k="removemelater" v="yes"/>
  </node>
  <node id="-72" lat="58.21748349130922" lon="-6.381477931323314">
    <tag k="addr:postcode" v="HS1 2HF"/>
    <tag k="removemelater" v="yes"/>
  </node>
  <node id="-73" lat="58.2181968832303" lon="-6.384531517266488">
    <tag k="addr:postcode" v="HS1 2HG"/>
    <tag k="removemelater" v="yes"/>
  </node>
  <node id="-74" lat="58.218537698885896" lon="-6.382204583945838">
    <tag k="addr:postcode" v="HS1 2HH"/>
    <tag k="removemelater" v="yes"/>
  </node>
  <node id="-75" lat="58.217754612426596" lon="-6.380130914661563">
    <tag k="addr:postcode" v="HS1 2HJ"/>
    <tag k="removemelater" v="yes"/>
  </node>
  <node id="-76" lat="58.21730677895514" lon="-6.382955885388342">
    <tag k="addr:postcode" v="HS1 2HL"/>
    <tag k="removemelater" v="yes"/>
  </node>
  <node id="-77" lat="58.21674604122835" lon="-6.3812164790128785">
    <tag k="addr:postcode" v="HS1 2HN"/>
    <tag k="removemelater" v="yes"/>
  </node>
  <node id="-78" lat="58.21547443431193" lon="-6.381843463370402">
    <tag k="addr:postcode" v="HS1 2HP"/>
    <tag k="removemelater" v="yes"/>
  </node>
  <node id="-79" lat="58.21816531066358" lon="-6.3830959854242195">
    <tag k="addr:postcode" v="HS1 2HQ"/>
    <tag k="removemelater" v="yes"/>
  </node>
  <node id="-80" lat="58.21614987658988" lon="-6.379984025840274">
    <tag k="addr:postcode" v="HS1 2HR"/>
    <tag k="removemelater" v="yes"/>
  </node>
  <node id="-81" lat="58.21624245347024" lon="-6.382262072573387">
    <tag k="addr:postcode" v="HS1 2HY"/>
    <tag k="removemelater" v="yes"/>
  </node>
  <node id="-82" lat="58.209590015812964" lon="-6.385325902802042">
    <tag k="addr:postcode" v="HS1 2JA"/>
    <tag k="removemelater" v="yes"/>
  </node>
  <node id="-83" lat="58.209814685530596" lon="-6.386376006216958">
    <tag k="addr:postcode" v="HS1 2JB"/>
    <tag k="removemelater" v="yes"/>
  </node>
  <node id="-84" lat="58.2102959287684" lon="-6.3865036176021235">
    <tag k="addr:postcode" v="HS1 2JD"/>
    <tag k="removemelater" v="yes"/>
  </node>
  <node id="-85" lat="58.210477745983496" lon="-6.385401469301414">
    <tag k="addr:postcode" v="HS1 2JE"/>
    <tag k="removemelater" v="yes"/>
  </node>
  <node id="-86" lat="58.20960751007356" lon="-6.384033089539674">
    <tag k="addr:postcode" v="HS1 2JF"/>
    <tag k="removemelater" v="yes"/>
  </node>
  <node id="-87" lat="58.210825838793546" lon="-6.386262371467383">
    <tag k="addr:postcode" v="HS1 2JG"/>
    <tag k="removemelater" v="yes"/>
  </node>
  <node id="-88" lat="58.21206418328469" lon="-6.386602807883987">
    <tag k="addr:postcode" v="HS1 2JH"/>
    <tag k="removemelater" v="yes"/>
  </node>
  <node id="-89" lat="58.2125709213277" lon="-6.385728188444961">
    <tag k="addr:postcode" v="HS1 2JJ"/>
    <tag k="removemelater" v="yes"/>
  </node>
  <node id="-90" lat="58.21191387841129" lon="-6.385221016670044">
    <tag k="addr:postcode" v="HS1 2JL"/>
    <tag k="removemelater" v="yes"/>
  </node>
  <node id="-91" lat="58.21153660340013" lon="-6.3859923406537344">
    <tag k="addr:postcode" v="HS1 2JN"/>
    <tag k="removemelater" v="yes"/>
  </node>
  <node id="-92" lat="58.21131506640913" lon="-6.387464490428646">
    <tag k="addr:postcode" v="HS1 2JQ"/>
    <tag k="removemelater" v="yes"/>
  </node>
  <node id="-93" lat="58.21159224255634" lon="-6.383852163166983">
    <tag k="addr:postcode" v="HS1 2JR"/>
    <tag k="removemelater" v="yes"/>
  </node>
  <node id="-94" lat="58.21278330015915" lon="-6.384783106927047">
    <tag k="addr:postcode" v="HS1 2JS"/>
    <tag k="removemelater" v="yes"/>
  </node>
  <node id="-95" lat="58.21280160838299" lon="-6.385296588239953">
    <tag k="addr:postcode" v="HS1 2JT"/>
    <tag k="removemelater" v="yes"/>
  </node>
  <node id="-96" lat="58.212706972642685" lon="-6.384126136353403">
    <tag k="addr:postcode" v="HS1 2JU"/>
    <tag k="removemelater" v="yes"/>
  </node>
  <node id="-97" lat="58.210921219893685" lon="-6.385319927665634">
    <tag k="addr:postcode" v="HS1 2JW"/>
    <tag k="removemelater" v="yes"/>
  </node>
  <node id="-98" lat="58.21381432463399" lon="-6.385660262821741">
    <tag k="addr:postcode" v="HS1 2JX"/>
    <tag k="removemelater" v="yes"/>
  </node>
  <node id="-99" lat="58.21361554815048" lon="-6.384902940730556">
    <tag k="addr:postcode" v="HS1 2JY"/>
    <tag k="removemelater" v="yes"/>
  </node>
  <node id="-100" lat="58.21056828333338" lon="-6.386690622557398">
    <tag k="addr:postcode" v="HS1 2JZ"/>
    <tag k="removemelater" v="yes"/>
  </node>
  <node id="-101" lat="58.21410106349443" lon="-6.384383506801799">
    <tag k="addr:postcode" v="HS1 2LA"/>
    <tag k="removemelater" v="yes"/>
  </node>
  <node id="-102" lat="58.21539449538583" lon="-6.384168335464872">
    <tag k="addr:postcode" v="HS1 2LB"/>
    <tag k="removemelater" v="yes"/>
  </node>
  <node id="-103" lat="58.216999946605696" lon="-6.378538039074892">
    <tag k="addr:postcode" v="HS1 2LD"/>
    <tag k="removemelater" v="yes"/>
  </node>
  <node id="-104" lat="58.216239966448605" lon="-6.379194155457652">
    <tag k="addr:postcode" v="HS1 2LE"/>
    <tag k="removemelater" v="yes"/>
  </node>
  <node id="-105" lat="58.21540670647281" lon="-6.378580105533639">
    <tag k="addr:postcode" v="HS1 2LF"/>
    <tag k="removemelater" v="yes"/>
  </node>
  <node id="-106" lat="58.214696796087566" lon="-6.379872906240665">
    <tag k="addr:postcode" v="HS1 2LG"/>
    <tag k="removemelater" v="yes"/>
  </node>
  <node id="-107" lat="58.21424873657887" lon="-6.381658088597153">
    <tag k="addr:postcode" v="HS1 2LH"/>
    <tag k="removemelater" v="yes"/>
  </node>
  <node id="-108" lat="58.213705795623994" lon="-6.382017102810461">
    <tag k="addr:postcode" v="HS1 2LL"/>
    <tag k="removemelater" v="yes"/>
  </node>
  <node id="-109" lat="58.212755581148286" lon="-6.3821895073917165">
    <tag k="addr:postcode" v="HS1 2LP"/>
    <tag k="removemelater" v="yes"/>
  </node>
  <node id="-110" lat="58.21521740748815" lon="-6.380686978351651">
    <tag k="addr:postcode" v="HS1 2LQ"/>
    <tag k="removemelater" v="yes"/>
  </node>
  <node id="-111" lat="58.21206235446698" lon="-6.382734431439554">
    <tag k="addr:postcode" v="HS1 2LR"/>
    <tag k="removemelater" v="yes"/>
  </node>
  <node id="-112" lat="58.2127304941279" lon="-6.382919157003532">
    <tag k="addr:postcode" v="HS1 2LW"/>
    <tag k="removemelater" v="yes"/>
  </node>
  <node id="-113" lat="58.20884071053143" lon="-6.385931949112896">
    <tag k="addr:postcode" v="HS1 2NB"/>
    <tag k="removemelater" v="yes"/>
  </node>
  <node id="-114" lat="58.208805063114596" lon="-6.384615562010182">
    <tag k="addr:postcode" v="HS1 2ND"/>
    <tag k="removemelater" v="yes"/>
  </node>
  <node id="-115" lat="58.2129377832189" lon="-6.375838785705986">
    <tag k="addr:postcode" v="HS1 2NE"/>
    <tag k="removemelater" v="yes"/>
  </node>
  <node id="-116" lat="58.20919108259599" lon="-6.3835897778592905">
    <tag k="addr:postcode" v="HS1 2NF"/>
    <tag k="removemelater" v="yes"/>
  </node>
  <node id="-117" lat="58.209085897580586" lon="-6.381941061377061">
    <tag k="addr:postcode" v="HS1 2NG"/>
    <tag k="removemelater" v="yes"/>
  </node>
  <node id="-118" lat="58.213840084582166" lon="-6.375489894628648">
    <tag k="addr:postcode" v="HS1 2NH"/>
    <tag k="removemelater" v="yes"/>
  </node>
  <node id="-119" lat="58.21164935156273" lon="-6.380621598223775">
    <tag k="addr:postcode" v="HS1 2NJ"/>
    <tag k="removemelater" v="yes"/>
  </node>
  <node id="-120" lat="58.21351899341364" lon="-6.376984003449456">
    <tag k="addr:postcode" v="HS1 2NL"/>
    <tag k="removemelater" v="yes"/>
  </node>
  <node id="-121" lat="58.21220912685039" lon="-6.376106822388329">
    <tag k="addr:postcode" v="HS1 2NP"/>
    <tag k="removemelater" v="yes"/>
  </node>
  <node id="-122" lat="58.21047745646042" lon="-6.382010565264261">
    <tag k="addr:postcode" v="HS1 2NQ"/>
    <tag k="removemelater" v="yes"/>
  </node>
  <node id="-123" lat="58.21448035182059" lon="-6.375176858221643">
    <tag k="addr:postcode" v="HS1 2NS"/>
    <tag k="removemelater" v="yes"/>
  </node>
  <node id="-124" lat="58.21322303958294" lon="-6.374340276366567">
    <tag k="addr:postcode" v="HS1 2NW"/>
    <tag k="removemelater" v="yes"/>
  </node>
  <node id="-125" lat="58.215326653066086" lon="-6.3735769862853155">
    <tag k="addr:postcode" v="HS1 2NX"/>
    <tag k="removemelater" v="yes"/>
  </node>
  <node id="-126" lat="58.214338705996646" lon="-6.372228298770564">
    <tag k="addr:postcode" v="HS1 2NY"/>
    <tag k="removemelater" v="yes"/>
  </node>
  <node id="-127" lat="58.21413813067279" lon="-6.370209778823087">
    <tag k="addr:postcode" v="HS1 2NZ"/>
    <tag k="removemelater" v="yes"/>
  </node>
  <node id="-128" lat="58.21188714061876" lon="-6.37238646868006">
    <tag k="addr:postcode" v="HS1 2PA"/>
    <tag k="removemelater" v="yes"/>
  </node>
  <node id="-129" lat="58.21245788999658" lon="-6.370428956463026">
    <tag k="addr:postcode" v="HS1 2PB"/>
    <tag k="removemelater" v="yes"/>
  </node>
  <node id="-130" lat="58.21512658415598" lon="-6.3707575055888706">
    <tag k="addr:postcode" v="HS1 2PG"/>
    <tag k="removemelater" v="yes"/>
  </node>
  <node id="-131" lat="58.21357348485602" lon="-6.369629043882572">
    <tag k="addr:postcode" v="HS1 2PH"/>
    <tag k="removemelater" v="yes"/>
  </node>
  <node id="-132" lat="58.21255905350201" lon="-6.371412713194216">
    <tag k="addr:postcode" v="HS1 2PJ"/>
    <tag k="removemelater" v="yes"/>
  </node>
  <node id="-133" lat="58.213063590595105" lon="-6.370861374123456">
    <tag k="addr:postcode" v="HS1 2PL"/>
    <tag k="removemelater" v="yes"/>
  </node>
  <node id="-134" lat="58.20917987235425" lon="-6.380776975355927">
    <tag k="addr:postcode" v="HS1 2PN"/>
    <tag k="removemelater" v="yes"/>
  </node>
  <node id="-135" lat="58.213630331950924" lon="-6.371118600784988">
    <tag k="addr:postcode" v="HS1 2PP"/>
    <tag k="removemelater" v="yes"/>
  </node>
  <node id="-136" lat="58.21426363824088" lon="-6.3683847783556855">
    <tag k="addr:postcode" v="HS1 2PQ"/>
    <tag k="removemelater" v="yes"/>
  </node>
  <node id="-137" lat="58.213608443143144" lon="-6.372019074467816">
    <tag k="addr:postcode" v="HS1 2PR"/>
    <tag k="removemelater" v="yes"/>
  </node>
  <node id="-138" lat="58.21233208443234" lon="-6.3733103223722205">
    <tag k="addr:postcode" v="HS1 2PS"/>
    <tag k="removemelater" v="yes"/>
  </node>
  <node id="-139" lat="58.21145004006233" lon="-6.375689500686249">
    <tag k="addr:postcode" v="HS1 2PT"/>
    <tag k="removemelater" v="yes"/>
  </node>
  <node id="-140" lat="58.21145927983254" lon="-6.376730075452587">
    <tag k="addr:postcode" v="HS1 2PY"/>
    <tag k="removemelater" v="yes"/>
  </node>
  <node id="-141" lat="58.20979840397649" lon="-6.381620053608216">
    <tag k="addr:postcode" v="HS1 2PZ"/>
    <tag k="removemelater" v="yes"/>
  </node>
  <node id="-142" lat="58.20831564620079" lon="-6.384725512577264">
    <tag k="addr:postcode" v="HS1 2QG"/>
    <tag k="removemelater" v="yes"/>
  </node>
  <node id="-143" lat="58.208483441917004" lon="-6.384030612339075">
    <tag k="addr:postcode" v="HS1 2QH"/>
    <tag k="removemelater" v="yes"/>
  </node>
  <node id="-144" lat="58.208703187877255" lon="-6.382609455804998">
    <tag k="addr:postcode" v="HS1 2QJ"/>
    <tag k="removemelater" v="yes"/>
  </node>
  <node id="-145" lat="58.208132415524176" lon="-6.383254621099629">
    <tag k="addr:postcode" v="HS1 2QN"/>
    <tag k="removemelater" v="yes"/>
  </node>
  <node id="-146" lat="58.22010822460707" lon="-6.401096039566762">
    <tag k="addr:postcode" v="HS1 2QP"/>
    <tag k="removemelater" v="yes"/>
  </node>
  <node id="-147" lat="58.20798392036307" lon="-6.384957163340968">
    <tag k="addr:postcode" v="HS1 2QQ"/>
    <tag k="removemelater" v="yes"/>
  </node>
  <node id="-148" lat="58.22084016106067" lon="-6.397607423021419">
    <tag k="addr:postcode" v="HS1 2QR"/>
    <tag k="removemelater" v="yes"/>
  </node>
  <node id="-149" lat="58.20789338466763" lon="-6.384451872160415">
    <tag k="addr:postcode" v="HS1 2QS"/>
    <tag k="removemelater" v="yes"/>
  </node>
  <node id="-150" lat="58.20746949672082" lon="-6.382133467146889">
    <tag k="addr:postcode" v="HS1 2QT"/>
    <tag k="removemelater" v="yes"/>
  </node>
  <node id="-151" lat="58.21979521177855" lon="-6.393745281039132">
    <tag k="addr:postcode" v="HS1 2QZ"/>
    <tag k="removemelater" v="yes"/>
  </node>
  <node id="-152" lat="58.20668465046502" lon="-6.380111354317577">
    <tag k="addr:postcode" v="HS1 2RA"/>
    <tag k="removemelater" v="yes"/>
  </node>
  <node id="-153" lat="58.206347309919316" lon="-6.380768283154879">
    <tag k="addr:postcode" v="HS1 2RB"/>
    <tag k="removemelater" v="yes"/>
  </node>
  <node id="-154" lat="58.20560635753745" lon="-6.380608729814721">
    <tag k="addr:postcode" v="HS1 2RE"/>
    <tag k="removemelater" v="yes"/>
  </node>
  <node id="-155" lat="58.206640939954845" lon="-6.378504423560393">
    <tag k="addr:postcode" v="HS1 2RF"/>
    <tag k="removemelater" v="yes"/>
  </node>
  <node id="-156" lat="58.20552381710537" lon="-6.375419269211465">
    <tag k="addr:postcode" v="HS1 2RL"/>
    <tag k="removemelater" v="yes"/>
  </node>
  <node id="-157" lat="58.205334734400715" lon="-6.374901900218091">
    <tag k="addr:postcode" v="HS1 2RN"/>
    <tag k="removemelater" v="yes"/>
  </node>
  <node id="-158" lat="58.2051114339947" lon="-6.374857354411841">
    <tag k="addr:postcode" v="HS1 2RP"/>
    <tag k="removemelater" v="yes"/>
  </node>
  <node id="-159" lat="58.20461988970488" lon="-6.373195358669581">
    <tag k="addr:postcode" v="HS1 2RR"/>
    <tag k="removemelater" v="yes"/>
  </node>
  <node id="-160" lat="58.20264444490717" lon="-6.38305429601932">
    <tag k="addr:postcode" v="HS1 2RS"/>
    <tag k="removemelater" v="yes"/>
  </node>
  <node id="-161" lat="58.203130840413934" lon="-6.373608260377337">
    <tag k="addr:postcode" v="HS1 2RT"/>
    <tag k="removemelater" v="yes"/>
  </node>
  <node id="-162" lat="58.205021444629296" lon="-6.376430694287507">
    <tag k="addr:postcode" v="HS1 2RW"/>
    <tag k="removemelater" v="yes"/>
  </node>
  <node id="-163" lat="58.204514130453305" lon="-6.3697239157629655">
    <tag k="addr:postcode" v="HS1 2RX"/>
    <tag k="removemelater" v="yes"/>
  </node>
  <node id="-164" lat="58.20362788541591" lon="-6.370654075414915">
    <tag k="addr:postcode" v="HS1 2RY"/>
    <tag k="removemelater" v="yes"/>
  </node>
  <node id="-165" lat="58.20366407060189" lon="-6.369074168907995">
    <tag k="addr:postcode" v="HS1 2RZ"/>
    <tag k="removemelater" v="yes"/>
  </node>
  <node id="-166" lat="58.209136543347434" lon="-6.378897355425685">
    <tag k="addr:postcode" v="HS1 2SA"/>
    <tag k="removemelater" v="yes"/>
  </node>
  <node id="-167" lat="58.205567479586165" lon="-6.3707394539953075">
    <tag k="addr:postcode" v="HS1 2SD"/>
    <tag k="removemelater" v="yes"/>
  </node>
  <node id="-168" lat="58.2054265861891" lon="-6.3727495152589215">
    <tag k="addr:postcode" v="HS1 2SE"/>
    <tag k="removemelater" v="yes"/>
  </node>
  <node id="-169" lat="58.20604463715333" lon="-6.37229746315072">
    <tag k="addr:postcode" v="HS1 2SF"/>
    <tag k="removemelater" v="yes"/>
  </node>
  <node id="-170" lat="58.21298804328638" lon="-6.36335421928065">
    <tag k="addr:postcode" v="HS1 2SG"/>
    <tag k="removemelater" v="yes"/>
  </node>
  <node id="-171" lat="58.20755663933469" lon="-6.368854540535076">
    <tag k="addr:postcode" v="HS1 2SH"/>
    <tag k="removemelater" v="yes"/>
  </node>
  <node id="-172" lat="58.20667351661875" lon="-6.371267451066057">
    <tag k="addr:postcode" v="HS1 2SJ"/>
    <tag k="removemelater" v="yes"/>
  </node>
  <node id="-173" lat="58.207762249328084" lon="-6.370464380097622">
    <tag k="addr:postcode" v="HS1 2SL"/>
    <tag k="removemelater" v="yes"/>
  </node>
  <node id="-174" lat="58.20721121186085" lon="-6.369749122265111">
    <tag k="addr:postcode" v="HS1 2SQ"/>
    <tag k="removemelater" v="yes"/>
  </node>
  <node id="-175" lat="58.20805392276848" lon="-6.365627349852466">
    <tag k="addr:postcode" v="HS1 2SS"/>
    <tag k="removemelater" v="yes"/>
  </node>
  <node id="-176" lat="58.21236212894454" lon="-6.364299708210853">
    <tag k="addr:postcode" v="HS1 2ST"/>
    <tag k="removemelater" v="yes"/>
  </node>
  <node id="-177" lat="58.20847434627827" lon="-6.362015788679592">
    <tag k="addr:postcode" v="HS1 2SU"/>
    <tag k="removemelater" v="yes"/>
  </node>
  <node id="-178" lat="58.20774895397792" lon="-6.361926680585519">
    <tag k="addr:postcode" v="HS1 2SX"/>
    <tag k="removemelater" v="yes"/>
  </node>
  <node id="-179" lat="58.21252675637153" lon="-6.380474253117828">
    <tag k="addr:postcode" v="HS1 2TA"/>
    <tag k="removemelater" v="yes"/>
  </node>
  <node id="-180" lat="58.21319247856354" lon="-6.379159049526578">
    <tag k="addr:postcode" v="HS1 2TB"/>
    <tag k="removemelater" v="yes"/>
  </node>
  <node id="-181" lat="58.21415434861367" lon="-6.378647175081169">
    <tag k="addr:postcode" v="HS1 2TD"/>
    <tag k="removemelater" v="yes"/>
  </node>
  <node id="-182" lat="58.214976157122884" lon="-6.376976210506328">
    <tag k="addr:postcode" v="HS1 2TE"/>
    <tag k="removemelater" v="yes"/>
  </node>
  <node id="-183" lat="58.21407194847106" lon="-6.377904239648294">
    <tag k="addr:postcode" v="HS1 2TF"/>
    <tag k="removemelater" v="yes"/>
  </node>
  <node id="-184" lat="58.21436581794994" lon="-6.376679420755499">
    <tag k="addr:postcode" v="HS1 2TG"/>
    <tag k="removemelater" v="yes"/>
  </node>
  <node id="-185" lat="58.22170828972222" lon="-6.3854596282416685">
    <tag k="addr:postcode" v="HS1 2TJ"/>
    <tag k="removemelater" v="yes"/>
  </node>
  <node id="-186" lat="58.216269510921386" lon="-6.373880618346917">
    <tag k="addr:postcode" v="HS1 2TL"/>
    <tag k="removemelater" v="yes"/>
  </node>
  <node id="-187" lat="58.21618585997613" lon="-6.374483829820306">
    <tag k="addr:postcode" v="HS1 2TN"/>
    <tag k="removemelater" v="yes"/>
  </node>
  <node id="-188" lat="58.21855128924062" lon="-6.381285918273991">
    <tag k="addr:postcode" v="HS1 2TP"/>
    <tag k="removemelater" v="yes"/>
  </node>
  <node id="-189" lat="58.21547074682232" lon="-6.375929472454013">
    <tag k="addr:postcode" v="HS1 2TQ"/>
    <tag k="removemelater" v="yes"/>
  </node>
  <node id="-190" lat="58.21901802532676" lon="-6.384189818946175">
    <tag k="addr:postcode" v="HS1 2TR"/>
    <tag k="removemelater" v="yes"/>
  </node>
  <node id="-191" lat="58.22019468167496" lon="-6.386585005735977">
    <tag k="addr:postcode" v="HS1 2TS"/>
    <tag k="removemelater" v="yes"/>
  </node>
  <node id="-192" lat="58.22129558077885" lon="-6.38673812166756">
    <tag k="addr:postcode" v="HS1 2TT"/>
    <tag k="removemelater" v="yes"/>
  </node>
  <node id="-193" lat="58.22075550226104" lon="-6.390148450039">
    <tag k="addr:postcode" v="HS1 2TU"/>
    <tag k="removemelater" v="yes"/>
  </node>
  <node id="-194" lat="58.21733249598184" lon="-6.3764487139722625">
    <tag k="addr:postcode" v="HS1 2TW"/>
    <tag k="removemelater" v="yes"/>
  </node>
  <node id="-195" lat="58.22122391857346" lon="-6.389081439045149">
    <tag k="addr:postcode" v="HS1 2TX"/>
    <tag k="removemelater" v="yes"/>
  </node>
  <node id="-196" lat="58.222091526777845" lon="-6.3952227440798355">
    <tag k="addr:postcode" v="HS1 2TY"/>
    <tag k="removemelater" v="yes"/>
  </node>
  <node id="-197" lat="58.221787330165654" lon="-6.393872598398292">
    <tag k="addr:postcode" v="HS1 2TZ"/>
    <tag k="removemelater" v="yes"/>
  </node>
  <node id="-198" lat="58.22152105900414" lon="-6.392987384514778">
    <tag k="addr:postcode" v="HS1 2UA"/>
    <tag k="removemelater" v="yes"/>
  </node>
  <node id="-199" lat="58.221617478286014" lon="-6.391755035892411">
    <tag k="addr:postcode" v="HS1 2UB"/>
    <tag k="removemelater" v="yes"/>
  </node>
  <node id="-200" lat="58.21621269761694" lon="-6.372390947642289">
    <tag k="addr:postcode" v="HS1 2UD"/>
    <tag k="removemelater" v="yes"/>
  </node>
  <node id="-201" lat="58.21929537991629" lon="-6.373759228789217">
    <tag k="addr:postcode" v="HS1 2UE"/>
    <tag k="removemelater" v="yes"/>
  </node>
  <node id="-202" lat="58.22010450184378" lon="-6.379006254170436">
    <tag k="addr:postcode" v="HS1 2UF"/>
    <tag k="removemelater" v="yes"/>
  </node>
  <node id="-203" lat="58.2187977462972" lon="-6.381179992497122">
    <tag k="addr:postcode" v="HS1 2UG"/>
    <tag k="removemelater" v="yes"/>
  </node>
  <node id="-204" lat="58.22255143506234" lon="-6.393881976875402">
    <tag k="addr:postcode" v="HS1 2UH"/>
    <tag k="removemelater" v="yes"/>
  </node>
  <node id="-205" lat="58.22284136601095" lon="-6.392775820590288">
    <tag k="addr:postcode" v="HS1 2UJ"/>
    <tag k="removemelater" v="yes"/>
  </node>
  <node id="-206" lat="58.21328004783607" lon="-6.360339829252723">
    <tag k="addr:postcode" v="HS1 2UL"/>
    <tag k="removemelater" v="yes"/>
  </node>
  <node id="-207" lat="58.21272397920295" lon="-6.360032968908363">
    <tag k="addr:postcode" v="HS1 2UN"/>
    <tag k="removemelater" v="yes"/>
  </node>
  <node id="-208" lat="58.212498848064854" lon="-6.360567650072686">
    <tag k="addr:postcode" v="HS1 2UP"/>
    <tag k="removemelater" v="yes"/>
  </node>
  <node id="-209" lat="58.21997255055863" lon="-6.385722389281007">
    <tag k="addr:postcode" v="HS1 2UQ"/>
    <tag k="removemelater" v="yes"/>
  </node>
  <node id="-210" lat="58.212604641262935" lon="-6.3582631611364135">
    <tag k="addr:postcode" v="HS1 2UR"/>
    <tag k="removemelater" v="yes"/>
  </node>
  <node id="-211" lat="58.21389431903733" lon="-6.361574060182424">
    <tag k="addr:postcode" v="HS1 2UT"/>
    <tag k="removemelater" v="yes"/>
  </node>
  <node id="-212" lat="58.21384846864171" lon="-6.359233820765577">
    <tag k="addr:postcode" v="HS1 2UU"/>
    <tag k="removemelater" v="yes"/>
  </node>
  <node id="-213" lat="58.21189163795033" lon="-6.356233082154588">
    <tag k="addr:postcode" v="HS1 2UX"/>
    <tag k="removemelater" v="yes"/>
  </node>
  <node id="-214" lat="58.21985337444902" lon="-6.383696464153827">
    <tag k="addr:postcode" v="HS1 2UY"/>
    <tag k="removemelater" v="yes"/>
  </node>
  <node id="-215" lat="58.21391613426508" lon="-6.360673569363383">
    <tag k="addr:postcode" v="HS1 2UZ"/>
    <tag k="removemelater" v="yes"/>
  </node>
  <node id="-216" lat="58.20812094783564" lon="-6.3909034655909185">
    <tag k="addr:postcode" v="HS1 2XA"/>
    <tag k="removemelater" v="yes"/>
  </node>
  <node id="-217" lat="58.20848309618851" lon="-6.387438289950892">
    <tag k="addr:postcode" v="HS1 2XD"/>
    <tag k="removemelater" v="yes"/>
  </node>
  <node id="-218" lat="58.208413959287746" lon="-6.3899684983825935">
    <tag k="addr:postcode" v="HS1 2XJ"/>
    <tag k="removemelater" v="yes"/>
  </node>
  <node id="-219" lat="58.2083786818654" lon="-6.391514649705453">
    <tag k="addr:postcode" v="HS1 2XN"/>
    <tag k="removemelater" v="yes"/>
  </node>
  <node id="-220" lat="58.208323595480685" lon="-6.391286335184444">
    <tag k="addr:postcode" v="HS1 2XP"/>
    <tag k="removemelater" v="yes"/>
  </node>
  <node id="-221" lat="58.20862150243187" lon="-6.3889036808190625">
    <tag k="addr:postcode" v="HS1 2XQ"/>
    <tag k="removemelater" v="yes"/>
  </node>
  <node id="-222" lat="58.20778785510675" lon="-6.39091339102525">
    <tag k="addr:postcode" v="HS1 2XY"/>
    <tag k="removemelater" v="yes"/>
  </node>
  <node id="-223" lat="58.222114729147485" lon="-6.383055353007331">
    <tag k="addr:postcode" v="HS1 2YA"/>
    <tag k="removemelater" v="yes"/>
  </node>
  <node id="-224" lat="58.22197088276587" lon="-6.383838705241002">
    <tag k="addr:postcode" v="HS1 2YB"/>
    <tag k="removemelater" v="yes"/>
  </node>
  <node id="-225" lat="58.223234369541" lon="-6.386585730322837">
    <tag k="addr:postcode" v="HS1 2YD"/>
    <tag k="removemelater" v="yes"/>
  </node>
  <node id="-226" lat="58.223308923058894" lon="-6.388077925687104">
    <tag k="addr:postcode" v="HS1 2YE"/>
    <tag k="removemelater" v="yes"/>
  </node>
  <node id="-227" lat="58.22313233708994" lon="-6.389027693776618">
    <tag k="addr:postcode" v="HS1 2YF"/>
    <tag k="removemelater" v="yes"/>
  </node>
  <node id="-228" lat="58.2221472852456" lon="-6.388121788749251">
    <tag k="addr:postcode" v="HS1 2YG"/>
    <tag k="removemelater" v="yes"/>
  </node>
  <node id="-229" lat="58.222302255516574" lon="-6.387015963321304">
    <tag k="addr:postcode" v="HS1 2YH"/>
    <tag k="removemelater" v="yes"/>
  </node>
  <node id="-230" lat="58.22233495021474" lon="-6.388417717931406">
    <tag k="addr:postcode" v="HS1 2YJ"/>
    <tag k="removemelater" v="yes"/>
  </node>
  <node id="-231" lat="58.22226386322286" lon="-6.389960046232583">
    <tag k="addr:postcode" v="HS1 2YL"/>
    <tag k="removemelater" v="yes"/>
  </node>
  <node id="-232" lat="58.22244796219208" lon="-6.391925991464509">
    <tag k="addr:postcode" v="HS1 2YN"/>
    <tag k="removemelater" v="yes"/>
  </node>
  <node id="-233" lat="58.22300440196321" lon="-6.390392566386246">
    <tag k="addr:postcode" v="HS1 2YP"/>
    <tag k="removemelater" v="yes"/>
  </node>
  <node id="-234" lat="58.22284500199798" lon="-6.38483305072119">
    <tag k="addr:postcode" v="HS1 2YR"/>
    <tag k="removemelater" v="yes"/>
  </node>
  <node id="-235" lat="58.22202327441421" lon="-6.385191739698971">
    <tag k="addr:postcode" v="HS1 2YS"/>
    <tag k="removemelater" v="yes"/>
  </node>
  <node id="-236" lat="58.220372430479806" lon="-6.393697429032845">
    <tag k="addr:postcode" v="HS1 2YT"/>
    <tag k="removemelater" v="yes"/>
  </node>
  <node id="-237" lat="58.22094311819431" lon="-6.395404369451611">
    <tag k="addr:postcode" v="HS1 2YU"/>
    <tag k="removemelater" v="yes"/>
  </node>
  <node id="-238" lat="58.222560925877204" lon="-6.39047406512375">
    <tag k="addr:postcode" v="HS1 2YW"/>
    <tag k="removemelater" v="yes"/>
  </node>
  <node id="-239" lat="58.20819729442168" lon="-6.380059406499126">
    <tag k="addr:postcode" v="HS1 9AA"/>
    <tag k="removemelater" v="yes"/>
  </node>
  <node id="-240" lat="58.20819729442168" lon="-6.380059406499126">
    <tag k="addr:postcode" v="HS1 9AH"/>
    <tag k="removemelater" v="yes"/>
  </node>
  <node id="-241" lat="58.20819729442168" lon="-6.380059406499126">
    <tag k="addr:postcode" v="HS1 9AL"/>
    <tag k="removemelater" v="yes"/>
  </node>
  <node id="-242" lat="58.20819729442168" lon="-6.380059406499126">
    <tag k="addr:postcode" v="HS1 9AN"/>
    <tag k="removemelater" v="yes"/>
  </node>
  <node id="-243" lat="58.20819729442168" lon="-6.380059406499126">
    <tag k="addr:postcode" v="HS1 9AT"/>
    <tag k="removemelater" v="yes"/>
  </node>
  <node id="-244" lat="58.20819729442168" lon="-6.380059406499126">
    <tag k="addr:postcode" v="HS1 9AU"/>
    <tag k="removemelater" v="yes"/>
  </node>
  <node id="-245" lat="58.21904065991146" lon="-6.34966251544504">
    <tag k="addr:postcode" v="HS2 0AA"/>
    <tag k="removemelater" v="yes"/>
  </node>
  <node id="-246" lat="58.21366578527223" lon="-6.335320325335577">
    <tag k="addr:postcode" v="HS2 0AB"/>
    <tag k="removemelater" v="yes"/>
  </node>
  <node id="-247" lat="58.20812054438818" lon="-6.3526354267264455">
    <tag k="addr:postcode" v="HS2 0AD"/>
    <tag k="removemelater" v="yes"/>
  </node>
  <node id="-248" lat="58.2020248856851" lon="-6.357850705389616">
    <tag k="addr:postcode" v="HS2 0AE"/>
    <tag k="removemelater" v="yes"/>
  </node>
  <node id="-249" lat="58.20447045818483" lon="-6.351813264440659">
    <tag k="addr:postcode" v="HS2 0AG"/>
    <tag k="removemelater" v="yes"/>
  </node>
  <node id="-250" lat="58.195055208183" lon="-6.354168470821184">
    <tag k="addr:postcode" v="HS2 0AH"/>
    <tag k="removemelater" v="yes"/>
  </node>
  <node id="-251" lat="58.24655954512398" lon="-6.335657392230901">
    <tag k="addr:postcode" v="HS2 0AJ"/>
    <tag k="removemelater" v="yes"/>
  </node>
  <node id="-252" lat="58.20457916279531" lon="-6.346255697051455">
    <tag k="addr:postcode" v="HS2 0AL"/>
    <tag k="removemelater" v="yes"/>
  </node>
  <node id="-253" lat="58.202850510975246" lon="-6.343676224867823">
    <tag k="addr:postcode" v="HS2 0AN"/>
    <tag k="removemelater" v="yes"/>
  </node>
  <node id="-254" lat="58.2017976375932" lon="-6.351605020734494">
    <tag k="addr:postcode" v="HS2 0AP"/>
    <tag k="removemelater" v="yes"/>
  </node>
  <node id="-255" lat="58.195055208183" lon="-6.354168470821184">
    <tag k="addr:postcode" v="HS2 0AQ"/>
    <tag k="removemelater" v="yes"/>
  </node>
  <node id="-256" lat="58.2026468764876" lon="-6.340942698855278">
    <tag k="addr:postcode" v="HS2 0AR"/>
    <tag k="removemelater" v="yes"/>
  </node>
  <node id="-257" lat="58.2025991974792" lon="-6.338909669485211">
    <tag k="addr:postcode" v="HS2 0AS"/>
    <tag k="removemelater" v="yes"/>
  </node>
  <node id="-258" lat="58.20194919713665" lon="-6.340567834888076">
    <tag k="addr:postcode" v="HS2 0AT"/>
    <tag k="removemelater" v="yes"/>
  </node>
  <node id="-259" lat="58.20166896675777" lon="-6.339818124752209">
    <tag k="addr:postcode" v="HS2 0AU"/>
    <tag k="removemelater" v="yes"/>
  </node>
  <node id="-260" lat="58.20519607850767" lon="-6.340027658119733">
    <tag k="addr:postcode" v="HS2 0AW"/>
    <tag k="removemelater" v="yes"/>
  </node>
  <node id="-261" lat="58.201622167867214" lon="-6.34119222934122">
    <tag k="addr:postcode" v="HS2 0AX"/>
    <tag k="removemelater" v="yes"/>
  </node>
  <node id="-262" lat="58.201659979081384" lon="-6.337704705404362">
    <tag k="addr:postcode" v="HS2 0AY"/>
    <tag k="removemelater" v="yes"/>
  </node>
  <node id="-263" lat="58.198364319899106" lon="-6.328836764681219">
    <tag k="addr:postcode" v="HS2 0AZ"/>
    <tag k="removemelater" v="yes"/>
  </node>
  <node id="-264" lat="58.203696715331176" lon="-6.339691112157836">
    <tag k="addr:postcode" v="HS2 0BA"/>
    <tag k="removemelater" v="yes"/>
  </node>
  <node id="-265" lat="58.20982220119672" lon="-6.316347070135668">
    <tag k="addr:postcode" v="HS2 0BB"/>
    <tag k="removemelater" v="yes"/>
  </node>
  <node id="-266" lat="58.20927685843508" lon="-6.320233665409687">
    <tag k="addr:postcode" v="HS2 0BD"/>
    <tag k="removemelater" v="yes"/>
  </node>
  <node id="-267" lat="58.247644310749784" lon="-6.320916462930031">
    <tag k="addr:postcode" v="HS2 0BE"/>
    <tag k="removemelater" v="yes"/>
  </node>
  <node id="-268" lat="58.204164724050344" lon="-6.33968015495693">
    <tag k="addr:postcode" v="HS2 0BF"/>
    <tag k="removemelater" v="yes"/>
  </node>
  <node id="-269" lat="58.210494713298836" lon="-6.316139161621282">
    <tag k="addr:postcode" v="HS2 0BG"/>
    <tag k="removemelater" v="yes"/>
  </node>
  <node id="-270" lat="58.3525154797256" lon="-6.521149655175211">
    <tag k="addr:postcode" v="HS2 0BH"/>
    <tag k="removemelater" v="yes"/>
  </node>
  <node id="-271" lat="58.48555556412233" lon="-6.25516578914576">
    <tag k="addr:postcode" v="HS2 0BJ"/>
    <tag k="removemelater" v="yes"/>
  </node>
  <node id="-272" lat="58.206322182396214" lon="-6.339177129519087">
    <tag k="addr:postcode" v="HS2 0BL"/>
    <tag k="removemelater" v="yes"/>
  </node>
  <node id="-273" lat="58.21415214365866" lon="-6.323383026170143">
    <tag k="addr:postcode" v="HS2 0BN"/>
    <tag k="removemelater" v="yes"/>
  </node>
  <node id="-274" lat="58.194485141363145" lon="-6.264923706913567">
    <tag k="addr:postcode" v="HS2 0BP"/>
    <tag k="removemelater" v="yes"/>
  </node>
  <node id="-275" lat="58.20499723944225" lon="-6.311706029109953">
    <tag k="addr:postcode" v="HS2 0BQ"/>
    <tag k="removemelater" v="yes"/>
  </node>
  <node id="-276" lat="58.217894533142044" lon="-6.410502160690708">
    <tag k="addr:postcode" v="HS2 0BR"/>
    <tag k="removemelater" v="yes"/>
  </node>
  <node id="-277" lat="58.205801515473446" lon="-6.264544893523011">
    <tag k="addr:postcode" v="HS2 0BS"/>
    <tag k="removemelater" v="yes"/>
  </node>
  <node id="-278" lat="58.21875977244439" lon="-6.412007270923587">
    <tag k="addr:postcode" v="HS2 0BT"/>
    <tag k="removemelater" v="yes"/>
  </node>
  <node id="-279" lat="58.25350426346835" lon="-6.340089352778272">
    <tag k="addr:postcode" v="HS2 0BU"/>
    <tag k="removemelater" v="yes"/>
  </node>
  <node id="-280" lat="58.20243558961851" lon="-6.26865491249989">
    <tag k="addr:postcode" v="HS2 0BW"/>
    <tag k="removemelater" v="yes"/>
  </node>
  <node id="-281" lat="58.465564240462996" lon="-6.311388811089451">
    <tag k="addr:postcode" v="HS2 0BY"/>
    <tag k="removemelater" v="yes"/>
  </node>
  <node id="-282" lat="58.348379780253765" lon="-6.5236481348937785">
    <tag k="addr:postcode" v="HS2 0BZ"/>
    <tag k="removemelater" v="yes"/>
  </node>
  <node id="-283" lat="58.218851359103326" lon="-6.408320143762622">
    <tag k="addr:postcode" v="HS2 0DB"/>
    <tag k="removemelater" v="yes"/>
  </node>
  <node id="-284" lat="58.21650124454159" lon="-6.410482422046968">
    <tag k="addr:postcode" v="HS2 0DD"/>
    <tag k="removemelater" v="yes"/>
  </node>
  <node id="-285" lat="58.21371906161767" lon="-6.417328231045925">
    <tag k="addr:postcode" v="HS2 0DE"/>
    <tag k="removemelater" v="yes"/>
  </node>
  <node id="-286" lat="58.21771475548635" lon="-6.415695076845634">
    <tag k="addr:postcode" v="HS2 0DF"/>
    <tag k="removemelater" v="yes"/>
  </node>
  <node id="-287" lat="58.218285647701634" lon="-6.416089929890405">
    <tag k="addr:postcode" v="HS2 0DG"/>
    <tag k="removemelater" v="yes"/>
  </node>
  <node id="-288" lat="58.22104486038714" lon="-6.413024277834463">
    <tag k="addr:postcode" v="HS2 0DH"/>
    <tag k="removemelater" v="yes"/>
  </node>
  <node id="-289" lat="58.22049946112742" lon="-6.4178653281782">
    <tag k="addr:postcode" v="HS2 0DJ"/>
    <tag k="removemelater" v="yes"/>
  </node>
  <node id="-290" lat="58.22041336075192" lon="-6.416456948379144">
    <tag k="addr:postcode" v="HS2 0DL"/>
    <tag k="removemelater" v="yes"/>
  </node>
  <node id="-291" lat="58.22475699969049" lon="-6.4073661734041245">
    <tag k="addr:postcode" v="HS2 0DN"/>
    <tag k="removemelater" v="yes"/>
  </node>
  <node id="-292" lat="58.225157306564356" lon="-6.39498879516545">
    <tag k="addr:postcode" v="HS2 0DP"/>
    <tag k="removemelater" v="yes"/>
  </node>
  <node id="-293" lat="58.22727650195707" lon="-6.392472513170152">
    <tag k="addr:postcode" v="HS2 0DR"/>
    <tag k="removemelater" v="yes"/>
  </node>
  <node id="-294" lat="58.22592110545496" lon="-6.387173573192626">
    <tag k="addr:postcode" v="HS2 0DS"/>
    <tag k="removemelater" v="yes"/>
  </node>
  <node id="-295" lat="58.23059354086374" lon="-6.384938238608889">
    <tag k="addr:postcode" v="HS2 0DT"/>
    <tag k="removemelater" v="yes"/>
  </node>
  <node id="-296" lat="58.23723939914585" lon="-6.383372506079504">
    <tag k="addr:postcode" v="HS2 0DU"/>
    <tag k="removemelater" v="yes"/>
  </node>
  <node id="-297" lat="58.22899983198896" lon="-6.406904407568891">
    <tag k="addr:postcode" v="HS2 0DW"/>
    <tag k="removemelater" v="yes"/>
  </node>
  <node id="-298" lat="58.218943121592474" lon="-6.40904738330883">
    <tag k="addr:postcode" v="HS2 0DX"/>
    <tag k="removemelater" v="yes"/>
  </node>
  <node id="-299" lat="58.23172067820963" lon="-6.389817399306616">
    <tag k="addr:postcode" v="HS2 0DY"/>
    <tag k="removemelater" v="yes"/>
  </node>
  <node id="-300" lat="58.233261413558964" lon="-6.400170228488892">
    <tag k="addr:postcode" v="HS2 0DZ"/>
    <tag k="removemelater" v="yes"/>
  </node>
  <node id="-301" lat="58.23607405626213" lon="-6.393715407805879">
    <tag k="addr:postcode" v="HS2 0EA"/>
    <tag k="removemelater" v="yes"/>
  </node>
  <node id="-302" lat="58.23556318174051" lon="-6.390531665736198">
    <tag k="addr:postcode" v="HS2 0EB"/>
    <tag k="removemelater" v="yes"/>
  </node>
  <node id="-303" lat="58.248656984932765" lon="-6.401500958314144">
    <tag k="addr:postcode" v="HS2 0EE"/>
    <tag k="removemelater" v="yes"/>
  </node>
  <node id="-304" lat="58.24720563319682" lon="-6.398472192279592">
    <tag k="addr:postcode" v="HS2 0EF"/>
    <tag k="removemelater" v="yes"/>
  </node>
  <node id="-305" lat="58.22470883160524" lon="-6.384245130793089">
    <tag k="addr:postcode" v="HS2 0EG"/>
    <tag k="removemelater" v="yes"/>
  </node>
  <node id="-306" lat="58.21996338963666" lon="-6.412310295219417">
    <tag k="addr:postcode" v="HS2 0EH"/>
    <tag k="removemelater" v="yes"/>
  </node>
  <node id="-307" lat="58.249961586277536" lon="-6.399138250012372">
    <tag k="addr:postcode" v="HS2 0EJ"/>
    <tag k="removemelater" v="yes"/>
  </node>
  <node id="-308" lat="58.21282593476584" lon="-6.4171489354094655">
    <tag k="addr:postcode" v="HS2 0EL"/>
    <tag k="removemelater" v="yes"/>
  </node>
  <node id="-309" lat="58.24784685654237" lon="-6.396828922059123">
    <tag k="addr:postcode" v="HS2 0EN"/>
    <tag k="removemelater" v="yes"/>
  </node>
  <node id="-310" lat="58.241953279749026" lon="-6.165447593337905">
    <tag k="addr:postcode" v="HS2 0EP"/>
    <tag k="removemelater" v="yes"/>
  </node>
  <node id="-311" lat="58.24144490946385" lon="-6.165319681129465">
    <tag k="addr:postcode" v="HS2 0ER"/>
    <tag k="removemelater" v="yes"/>
  </node>
  <node id="-312" lat="58.24116888468727" lon="-6.1652361097021675">
    <tag k="addr:postcode" v="HS2 0ES"/>
    <tag k="removemelater" v="yes"/>
  </node>
  <node id="-313" lat="58.242794017418085" lon="-6.1597995125406095">
    <tag k="addr:postcode" v="HS2 0EU"/>
    <tag k="removemelater" v="yes"/>
  </node>
  <node id="-314" lat="58.22842540009226" lon="-6.16941657059229">
    <tag k="addr:postcode" v="HS2 0EW"/>
    <tag k="removemelater" v="yes"/>
  </node>
  <node id="-315" lat="58.24461360568245" lon="-6.163560118757036">
    <tag k="addr:postcode" v="HS2 0EX"/>
    <tag k="removemelater" v="yes"/>
  </node>
  <node id="-316" lat="58.247257099460356" lon="-6.161636286269667">
    <tag k="addr:postcode" v="HS2 0EY"/>
    <tag k="removemelater" v="yes"/>
  </node>
  <node id="-317" lat="58.25033247865808" lon="-6.160530387657647">
    <tag k="addr:postcode" v="HS2 0EZ"/>
    <tag k="removemelater" v="yes"/>
  </node>
  <node id="-318" lat="58.2250907683705" lon="-6.3833377124240025">
    <tag k="addr:postcode" v="HS2 0FS"/>
    <tag k="removemelater" v="yes"/>
  </node>
  <node id="-319" lat="58.2243463391914" lon="-6.384063975331034">
    <tag k="addr:postcode" v="HS2 0GS"/>
    <tag k="removemelater" v="yes"/>
  </node>
  <node id="-320" lat="58.23065954373595" lon="-6.386156894143636">
    <tag k="addr:postcode" v="HS2 0GT"/>
    <tag k="removemelater" v="yes"/>
  </node>
  <node id="-321" lat="58.25041073454057" lon="-6.153989874980012">
    <tag k="addr:postcode" v="HS2 0HA"/>
    <tag k="removemelater" v="yes"/>
  </node>
  <node id="-322" lat="58.26088599814074" lon="-6.139060367849836">
    <tag k="addr:postcode" v="HS2 0HB"/>
    <tag k="removemelater" v="yes"/>
  </node>
  <node id="-323" lat="58.257494117249344" lon="-6.162889285314717">
    <tag k="addr:postcode" v="HS2 0HD"/>
    <tag k="removemelater" v="yes"/>
  </node>
  <node id="-324" lat="58.25035685254431" lon="-6.171074198885093">
    <tag k="addr:postcode" v="HS2 0HE"/>
    <tag k="removemelater" v="yes"/>
  </node>
  <node id="-325" lat="58.24583551142974" lon="-6.328644112633736">
    <tag k="addr:postcode" v="HS2 0HF"/>
    <tag k="removemelater" v="yes"/>
  </node>
  <node id="-326" lat="58.245885604961515" lon="-6.347002599110252">
    <tag k="addr:postcode" v="HS2 0HJ"/>
    <tag k="removemelater" v="yes"/>
  </node>
  <node id="-327" lat="58.2447162357802" lon="-6.3528116684701015">
    <tag k="addr:postcode" v="HS2 0HP"/>
    <tag k="removemelater" v="yes"/>
  </node>
  <node id="-328" lat="58.246356868251155" lon="-6.357174868307335">
    <tag k="addr:postcode" v="HS2 0HR"/>
    <tag k="removemelater" v="yes"/>
  </node>
  <node id="-329" lat="58.243689563358735" lon="-6.344942597803797">
    <tag k="addr:postcode" v="HS2 0HS"/>
    <tag k="removemelater" v="yes"/>
  </node>
  <node id="-330" lat="58.24632877043202" lon="-6.330273503952872">
    <tag k="addr:postcode" v="HS2 0HT"/>
    <tag k="removemelater" v="yes"/>
  </node>
  <node id="-331" lat="58.24795664709686" lon="-6.336357009078971">
    <tag k="addr:postcode" v="HS2 0HU"/>
    <tag k="removemelater" v="yes"/>
  </node>
  <node id="-332" lat="58.24474555826241" lon="-6.354060335310199">
    <tag k="addr:postcode" v="HS2 0HW"/>
    <tag k="removemelater" v="yes"/>
  </node>
  <node id="-333" lat="58.24777596441704" lon="-6.3445734626125105">
    <tag k="addr:postcode" v="HS2 0HX"/>
    <tag k="removemelater" v="yes"/>
  </node>
  <node id="-334" lat="58.241446832139765" lon="-6.350056901185963">
    <tag k="addr:postcode" v="HS2 0HY"/>
    <tag k="removemelater" v="yes"/>
  </node>
  <node id="-335" lat="58.23919615449934" lon="-6.352236479369779">
    <tag k="addr:postcode" v="HS2 0HZ"/>
    <tag k="removemelater" v="yes"/>
  </node>
  <node id="-336" lat="58.24019221891211" lon="-6.3525633577633975">
    <tag k="addr:postcode" v="HS2 0JA"/>
    <tag k="removemelater" v="yes"/>
  </node>
  <node id="-337" lat="58.24031348064586" lon="-6.353226276075869">
    <tag k="addr:postcode" v="HS2 0JB"/>
    <tag k="removemelater" v="yes"/>
  </node>
  <node id="-338" lat="58.24588574090877" lon="-6.354643810689721">
    <tag k="addr:postcode" v="HS2 0JD"/>
    <tag k="removemelater" v="yes"/>
  </node>
  <node id="-339" lat="58.24348952390549" lon="-6.355816283246373">
    <tag k="addr:postcode" v="HS2 0JF"/>
    <tag k="removemelater" v="yes"/>
  </node>
  <node id="-340" lat="58.24681040685089" lon="-6.35284702539987">
    <tag k="addr:postcode" v="HS2 0JG"/>
    <tag k="removemelater" v="yes"/>
  </node>
  <node id="-341" lat="58.25307295920004" lon="-6.145124754376185">
    <tag k="addr:postcode" v="HS2 0JH"/>
    <tag k="removemelater" v="yes"/>
  </node>
  <node id="-342" lat="58.24684908771092" lon="-6.3305758410872475">
    <tag k="addr:postcode" v="HS2 0JJ"/>
    <tag k="removemelater" v="yes"/>
  </node>
  <node id="-343" lat="58.2747325304279" lon="-6.305699978352183">
    <tag k="addr:postcode" v="HS2 0JN"/>
    <tag k="removemelater" v="yes"/>
  </node>
  <node id="-344" lat="58.274415105826535" lon="-6.30844372697486">
    <tag k="addr:postcode" v="HS2 0JP"/>
    <tag k="removemelater" v="yes"/>
  </node>
  <node id="-345" lat="58.27109315759901" lon="-6.305086926124043">
    <tag k="addr:postcode" v="HS2 0JR"/>
    <tag k="removemelater" v="yes"/>
  </node>
  <node id="-346" lat="58.27392399178383" lon="-6.295001688714705">
    <tag k="addr:postcode" v="HS2 0JS"/>
    <tag k="removemelater" v="yes"/>
  </node>
  <node id="-347" lat="58.27388120568034" lon="-6.297608085572396">
    <tag k="addr:postcode" v="HS2 0JT"/>
    <tag k="removemelater" v="yes"/>
  </node>
  <node id="-348" lat="58.27598892070037" lon="-6.303377529088908">
    <tag k="addr:postcode" v="HS2 0JY"/>
    <tag k="removemelater" v="yes"/>
  </node>
  <node id="-349" lat="58.276318673071984" lon="-6.306131797511554">
    <tag k="addr:postcode" v="HS2 0JZ"/>
    <tag k="removemelater" v="yes"/>
  </node>
  <node id="-350" lat="58.276882443366205" lon="-6.3011474168343735">
    <tag k="addr:postcode" v="HS2 0LA"/>
    <tag k="removemelater" v="yes"/>
  </node>
  <node id="-351" lat="58.27938963557732" lon="-6.300666629395343">
    <tag k="addr:postcode" v="HS2 0LB"/>
    <tag k="removemelater" v="yes"/>
  </node>
  <node id="-352" lat="58.28535279577616" lon="-6.30410587024629">
    <tag k="addr:postcode" v="HS2 0LD"/>
    <tag k="removemelater" v="yes"/>
  </node>
  <node id="-353" lat="58.276988362536606" lon="-6.294263718957768">
    <tag k="addr:postcode" v="HS2 0LE"/>
    <tag k="removemelater" v="yes"/>
  </node>
  <node id="-354" lat="58.281945132448925" lon="-6.301420913252979">
    <tag k="addr:postcode" v="HS2 0LF"/>
    <tag k="removemelater" v="yes"/>
  </node>
  <node id="-355" lat="58.28848568676304" lon="-6.304538012016013">
    <tag k="addr:postcode" v="HS2 0LH"/>
    <tag k="removemelater" v="yes"/>
  </node>
  <node id="-356" lat="58.277358833942216" lon="-6.289665377892189">
    <tag k="addr:postcode" v="HS2 0LJ"/>
    <tag k="removemelater" v="yes"/>
  </node>
  <node id="-357" lat="58.277235343672366" lon="-6.293337703020257">
    <tag k="addr:postcode" v="HS2 0LN"/>
    <tag k="removemelater" v="yes"/>
  </node>
  <node id="-358" lat="58.27791095516617" lon="-6.321279870779055">
    <tag k="addr:postcode" v="HS2 0LP"/>
    <tag k="removemelater" v="yes"/>
  </node>
  <node id="-359" lat="58.2825183670506" lon="-6.292407524347157">
    <tag k="addr:postcode" v="HS2 0LQ"/>
    <tag k="removemelater" v="yes"/>
  </node>
  <node id="-360" lat="58.274722306396235" lon="-6.325414335112298">
    <tag k="addr:postcode" v="HS2 0LR"/>
    <tag k="removemelater" v="yes"/>
  </node>
  <node id="-361" lat="58.26793119987236" lon="-6.332879544582033">
    <tag k="addr:postcode" v="HS2 0LS"/>
    <tag k="removemelater" v="yes"/>
  </node>
  <node id="-362" lat="58.25785719927266" lon="-6.332671575360889">
    <tag k="addr:postcode" v="HS2 0LT"/>
    <tag k="removemelater" v="yes"/>
  </node>
  <node id="-363" lat="58.2563671823539" lon="-6.335765164054604">
    <tag k="addr:postcode" v="HS2 0LW"/>
    <tag k="removemelater" v="yes"/>
  </node>
  <node id="-364" lat="58.28194451347813" lon="-6.282452700413482">
    <tag k="addr:postcode" v="HS2 0NA"/>
    <tag k="removemelater" v="yes"/>
  </node>
  <node id="-365" lat="58.29699422593367" lon="-6.280157442202497">
    <tag k="addr:postcode" v="HS2 0NB"/>
    <tag k="removemelater" v="yes"/>
  </node>
  <node id="-366" lat="58.320394462776044" lon="-6.230451357334703">
    <tag k="addr:postcode" v="HS2 0ND"/>
    <tag k="removemelater" v="yes"/>
  </node>
  <node id="-367" lat="58.346548795052385" lon="-6.213982716124722">
    <tag k="addr:postcode" v="HS2 0NE"/>
    <tag k="removemelater" v="yes"/>
  </node>
  <node id="-368" lat="58.337422155748015" lon="-6.221050492842153">
    <tag k="addr:postcode" v="HS2 0NF"/>
    <tag k="removemelater" v="yes"/>
  </node>
  <node id="-369" lat="58.34141377496515" lon="-6.216722000395852">
    <tag k="addr:postcode" v="HS2 0NG"/>
    <tag k="removemelater" v="yes"/>
  </node>
  <node id="-370" lat="58.34612728587173" lon="-6.213675880038346">
    <tag k="addr:postcode" v="HS2 0NH"/>
    <tag k="removemelater" v="yes"/>
  </node>
  <node id="-371" lat="58.34282760829933" lon="-6.208750354558941">
    <tag k="addr:postcode" v="HS2 0NJ"/>
    <tag k="removemelater" v="yes"/>
  </node>
  <node id="-372" lat="58.34815121736127" lon="-6.2120187618219544">
    <tag k="addr:postcode" v="HS2 0NL"/>
    <tag k="removemelater" v="yes"/>
  </node>
  <node id="-373" lat="58.35396267697201" lon="-6.216851861986639">
    <tag k="addr:postcode" v="HS2 0NN"/>
    <tag k="removemelater" v="yes"/>
  </node>
  <node id="-374" lat="58.33760012823159" lon="-6.206657155470817">
    <tag k="addr:postcode" v="HS2 0NP"/>
    <tag k="removemelater" v="yes"/>
  </node>
  <node id="-375" lat="58.34040447717505" lon="-6.201228208805831">
    <tag k="addr:postcode" v="HS2 0NQ"/>
    <tag k="removemelater" v="yes"/>
  </node>
  <node id="-376" lat="58.34033502543641" lon="-6.2027931847095825">
    <tag k="addr:postcode" v="HS2 0NR"/>
    <tag k="removemelater" v="yes"/>
  </node>
  <node id="-377" lat="58.34065919739962" lon="-6.1973082815886045">
    <tag k="addr:postcode" v="HS2 0NT"/>
    <tag k="removemelater" v="yes"/>
  </node>
  <node id="-378" lat="58.34358916650779" lon="-6.205557501936272">
    <tag k="addr:postcode" v="HS2 0NW"/>
    <tag k="removemelater" v="yes"/>
  </node>
  <node id="-379" lat="58.20491813251141" lon="-6.284183278954436">
    <tag k="addr:postcode" v="HS2 0PA"/>
    <tag k="removemelater" v="yes"/>
  </node>
  <node id="-380" lat="58.20811583107202" lon="-6.276527413600264">
    <tag k="addr:postcode" v="HS2 0PB"/>
    <tag k="removemelater" v="yes"/>
  </node>
  <node id="-381" lat="58.20833413209033" lon="-6.2595333931570964">
    <tag k="addr:postcode" v="HS2 0PD"/>
    <tag k="removemelater" v="yes"/>
  </node>
  <node id="-382" lat="58.20931658517841" lon="-6.254079908541171">
    <tag k="addr:postcode" v="HS2 0PE"/>
    <tag k="removemelater" v="yes"/>
  </node>
  <node id="-383" lat="58.2102485564926" lon="-6.249863880188538">
    <tag k="addr:postcode" v="HS2 0PF"/>
    <tag k="removemelater" v="yes"/>
  </node>
  <node id="-384" lat="58.21142273472053" lon="-6.247550850130057">
    <tag k="addr:postcode" v="HS2 0PH"/>
    <tag k="removemelater" v="yes"/>
  </node>
  <node id="-385" lat="58.21439053508919" lon="-6.247002778821884">
    <tag k="addr:postcode" v="HS2 0PJ"/>
    <tag k="removemelater" v="yes"/>
  </node>
  <node id="-386" lat="58.216805727524125" lon="-6.2346812591107845">
    <tag k="addr:postcode" v="HS2 0PL"/>
    <tag k="removemelater" v="yes"/>
  </node>
  <node id="-387" lat="58.218031011300795" lon="-6.245427378082762">
    <tag k="addr:postcode" v="HS2 0PN"/>
    <tag k="removemelater" v="yes"/>
  </node>
  <node id="-388" lat="58.2318406319196" lon="-6.206709454120266">
    <tag k="addr:postcode" v="HS2 0PP"/>
    <tag k="removemelater" v="yes"/>
  </node>
  <node id="-389" lat="58.21002237190801" lon="-6.248286354761618">
    <tag k="addr:postcode" v="HS2 0PQ"/>
    <tag k="removemelater" v="yes"/>
  </node>
  <node id="-390" lat="58.21624604830362" lon="-6.242589620898308">
    <tag k="addr:postcode" v="HS2 0PR"/>
    <tag k="removemelater" v="yes"/>
  </node>
  <node id="-391" lat="58.22062364545848" lon="-6.223411239725539">
    <tag k="addr:postcode" v="HS2 0PS"/>
    <tag k="removemelater" v="yes"/>
  </node>
  <node id="-392" lat="58.23430550921279" lon="-6.199585321824234">
    <tag k="addr:postcode" v="HS2 0PT"/>
    <tag k="removemelater" v="yes"/>
  </node>
  <node id="-393" lat="58.235151438252146" lon="-6.200384492021744">
    <tag k="addr:postcode" v="HS2 0PU"/>
    <tag k="removemelater" v="yes"/>
  </node>
  <node id="-394" lat="58.220375461186684" lon="-6.227915072340674">
    <tag k="addr:postcode" v="HS2 0PW"/>
    <tag k="removemelater" v="yes"/>
  </node>
  <node id="-395" lat="58.214516051308834" lon="-6.232141842035492">
    <tag k="addr:postcode" v="HS2 0PX"/>
    <tag k="removemelater" v="yes"/>
  </node>
  <node id="-396" lat="58.21958043885111" lon="-6.225042478865501">
    <tag k="addr:postcode" v="HS2 0PY"/>
    <tag k="removemelater" v="yes"/>
  </node>
  <node id="-397" lat="58.231220914779705" lon="-6.205868831919022">
    <tag k="addr:postcode" v="HS2 0PZ"/>
    <tag k="removemelater" v="yes"/>
  </node>
  <node id="-398" lat="58.203700457374225" lon="-6.220410803085162">
    <tag k="addr:postcode" v="HS2 0QA"/>
    <tag k="removemelater" v="yes"/>
  </node>
  <node id="-399" lat="58.19914517349679" lon="-6.224366204129553">
    <tag k="addr:postcode" v="HS2 0QB"/>
    <tag k="removemelater" v="yes"/>
  </node>
  <node id="-400" lat="58.19451898874313" lon="-6.217702329603946">
    <tag k="addr:postcode" v="HS2 0QD"/>
    <tag k="removemelater" v="yes"/>
  </node>
  <node id="-401" lat="58.19490584276538" lon="-6.222584891759263">
    <tag k="addr:postcode" v="HS2 0QE"/>
    <tag k="removemelater" v="yes"/>
  </node>
  <node id="-402" lat="58.2018312027443" lon="-6.227973155359598">
    <tag k="addr:postcode" v="HS2 0QF"/>
    <tag k="removemelater" v="yes"/>
  </node>
  <node id="-403" lat="58.208689655217434" lon="-6.214478537971001">
    <tag k="addr:postcode" v="HS2 0QG"/>
    <tag k="removemelater" v="yes"/>
  </node>
  <node id="-404" lat="58.206015612921895" lon="-6.201231173408715">
    <tag k="addr:postcode" v="HS2 0QH"/>
    <tag k="removemelater" v="yes"/>
  </node>
  <node id="-405" lat="58.35236837130014" lon="-6.532662652207061">
    <tag k="addr:postcode" v="HS2 0QN"/>
    <tag k="removemelater" v="yes"/>
  </node>
  <node id="-406" lat="58.20901779819106" lon="-6.2132567323136">
    <tag k="addr:postcode" v="HS2 0QQ"/>
    <tag k="removemelater" v="yes"/>
  </node>
  <node id="-407" lat="58.35753437899614" lon="-6.52901378425627">
    <tag k="addr:postcode" v="HS2 0QR"/>
    <tag k="removemelater" v="yes"/>
  </node>
  <node id="-408" lat="58.35346107135066" lon="-6.522639557160564">
    <tag k="addr:postcode" v="HS2 0QS"/>
    <tag k="removemelater" v="yes"/>
  </node>
  <node id="-409" lat="58.35438045122876" lon="-6.550699003481745">
    <tag k="addr:postcode" v="HS2 0QW"/>
    <tag k="removemelater" v="yes"/>
  </node>
  <node id="-410" lat="58.36651832200735" lon="-6.507419281852391">
    <tag k="addr:postcode" v="HS2 0QX"/>
    <tag k="removemelater" v="yes"/>
  </node>
  <node id="-411" lat="58.35738160129911" lon="-6.51325121391545">
    <tag k="addr:postcode" v="HS2 0QY"/>
    <tag k="removemelater" v="yes"/>
  </node>
  <node id="-412" lat="58.35019713328673" lon="-6.51320533184282">
    <tag k="addr:postcode" v="HS2 0QZ"/>
    <tag k="removemelater" v="yes"/>
  </node>
  <node id="-413" lat="58.34788647687007" lon="-6.517255233796876">
    <tag k="addr:postcode" v="HS2 0RA"/>
    <tag k="removemelater" v="yes"/>
  </node>
  <node id="-414" lat="58.34619675429561" lon="-6.512642728744519">
    <tag k="addr:postcode" v="HS2 0RB"/>
    <tag k="removemelater" v="yes"/>
  </node>
  <node id="-415" lat="58.39223288318938" lon="-6.484877060379798">
    <tag k="addr:postcode" v="HS2 0RG"/>
    <tag k="removemelater" v="yes"/>
  </node>
  <node id="-416" lat="58.40205834825565" lon="-6.468052074317892">
    <tag k="addr:postcode" v="HS2 0RH"/>
    <tag k="removemelater" v="yes"/>
  </node>
  <node id="-417" lat="58.404215911706096" lon="-6.463699464312487">
    <tag k="addr:postcode" v="HS2 0RJ"/>
    <tag k="removemelater" v="yes"/>
  </node>
  <node id="-418" lat="58.40338823370611" lon="-6.460356350259028">
    <tag k="addr:postcode" v="HS2 0RL"/>
    <tag k="removemelater" v="yes"/>
  </node>
  <node id="-419" lat="58.3980352917757" lon="-6.4763645684486">
    <tag k="addr:postcode" v="HS2 0RQ"/>
    <tag k="removemelater" v="yes"/>
  </node>
  <node id="-420" lat="58.426648615228665" lon="-6.429202071696378">
    <tag k="addr:postcode" v="HS2 0RR"/>
    <tag k="removemelater" v="yes"/>
  </node>
  <node id="-421" lat="58.420567791515275" lon="-6.429499960600902">
    <tag k="addr:postcode" v="HS2 0RS"/>
    <tag k="removemelater" v="yes"/>
  </node>
  <node id="-422" lat="58.413778566286126" lon="-6.437780899127895">
    <tag k="addr:postcode" v="HS2 0RT"/>
    <tag k="removemelater" v="yes"/>
  </node>
  <node id="-423" lat="58.41528779872239" lon="-6.434457532144463">
    <tag k="addr:postcode" v="HS2 0RU"/>
    <tag k="removemelater" v="yes"/>
  </node>
  <node id="-424" lat="58.415188191619464" lon="-6.440957867883017">
    <tag k="addr:postcode" v="HS2 0RX"/>
    <tag k="removemelater" v="yes"/>
  </node>
  <node id="-425" lat="58.41072524458923" lon="-6.44205749875648">
    <tag k="addr:postcode" v="HS2 0RY"/>
    <tag k="removemelater" v="yes"/>
  </node>
  <node id="-426" lat="58.41211048961271" lon="-6.455753889062212">
    <tag k="addr:postcode" v="HS2 0RZ"/>
    <tag k="removemelater" v="yes"/>
  </node>
  <node id="-427" lat="58.24869816747937" lon="-6.4073399554367105">
    <tag k="addr:postcode" v="HS2 0SD"/>
    <tag k="removemelater" v="yes"/>
  </node>
  <node id="-428" lat="58.43379537087355" lon="-6.401138496905325">
    <tag k="addr:postcode" v="HS2 0SG"/>
    <tag k="removemelater" v="yes"/>
  </node>
  <node id="-429" lat="58.441362436189316" lon="-6.392651672019322">
    <tag k="addr:postcode" v="HS2 0SH"/>
    <tag k="removemelater" v="yes"/>
  </node>
  <node id="-430" lat="58.44392339081436" lon="-6.3788033542027005">
    <tag k="addr:postcode" v="HS2 0SJ"/>
    <tag k="removemelater" v="yes"/>
  </node>
  <node id="-431" lat="58.4681502667601" lon="-6.312838797972348">
    <tag k="addr:postcode" v="HS2 0SP"/>
    <tag k="removemelater" v="yes"/>
  </node>
  <node id="-432" lat="58.47270232344267" lon="-6.32824599858025">
    <tag k="addr:postcode" v="HS2 0SR"/>
    <tag k="removemelater" v="yes"/>
  </node>
  <node id="-433" lat="58.46726746053073" lon="-6.315819875449033">
    <tag k="addr:postcode" v="HS2 0ST"/>
    <tag k="removemelater" v="yes"/>
  </node>
  <node id="-434" lat="58.46988386849123" lon="-6.28584592701946">
    <tag k="addr:postcode" v="HS2 0SU"/>
    <tag k="removemelater" v="yes"/>
  </node>
  <node id="-435" lat="58.4693274776951" lon="-6.292523550325703">
    <tag k="addr:postcode" v="HS2 0SW"/>
    <tag k="removemelater" v="yes"/>
  </node>
  <node id="-436" lat="58.47371194582229" lon="-6.280819599869968">
    <tag k="addr:postcode" v="HS2 0SY"/>
    <tag k="removemelater" v="yes"/>
  </node>
  <node id="-437" lat="58.47605550864774" lon="-6.277963485602691">
    <tag k="addr:postcode" v="HS2 0SZ"/>
    <tag k="removemelater" v="yes"/>
  </node>
  <node id="-438" lat="58.48075910848402" lon="-6.268783926730767">
    <tag k="addr:postcode" v="HS2 0TA"/>
    <tag k="removemelater" v="yes"/>
  </node>
  <node id="-439" lat="58.47616797662874" lon="-6.266234810364291">
    <tag k="addr:postcode" v="HS2 0TB"/>
    <tag k="removemelater" v="yes"/>
  </node>
  <node id="-440" lat="58.47464291832491" lon="-6.271251098690688">
    <tag k="addr:postcode" v="HS2 0TD"/>
    <tag k="removemelater" v="yes"/>
  </node>
  <node id="-441" lat="58.48495408526173" lon="-6.255676757666447">
    <tag k="addr:postcode" v="HS2 0TG"/>
    <tag k="removemelater" v="yes"/>
  </node>
  <node id="-442" lat="58.4789766325389" lon="-6.239604292287181">
    <tag k="addr:postcode" v="HS2 0TH"/>
    <tag k="removemelater" v="yes"/>
  </node>
  <node id="-443" lat="58.485050639985445" lon="-6.240835274705999">
    <tag k="addr:postcode" v="HS2 0TJ"/>
    <tag k="removemelater" v="yes"/>
  </node>
  <node id="-444" lat="58.484895223122585" lon="-6.238738804411319">
    <tag k="addr:postcode" v="HS2 0TL"/>
    <tag k="removemelater" v="yes"/>
  </node>
  <node id="-445" lat="58.48631386380674" lon="-6.241520105089328">
    <tag k="addr:postcode" v="HS2 0TN"/>
    <tag k="removemelater" v="yes"/>
  </node>
  <node id="-446" lat="58.47840773404445" lon="-6.252154156011504">
    <tag k="addr:postcode" v="HS2 0TQ"/>
    <tag k="removemelater" v="yes"/>
  </node>
  <node id="-447" lat="58.482077535577226" lon="-6.228766653019188">
    <tag k="addr:postcode" v="HS2 0TR"/>
    <tag k="removemelater" v="yes"/>
  </node>
  <node id="-448" lat="58.47289247877555" lon="-6.217980355310384">
    <tag k="addr:postcode" v="HS2 0TS"/>
    <tag k="removemelater" v="yes"/>
  </node>
  <node id="-449" lat="58.48260106615562" lon="-6.230340619757518">
    <tag k="addr:postcode" v="HS2 0TW"/>
    <tag k="removemelater" v="yes"/>
  </node>
  <node id="-450" lat="58.47587043038544" lon="-6.208913384803993">
    <tag k="addr:postcode" v="HS2 0TX"/>
    <tag k="removemelater" v="yes"/>
  </node>
  <node id="-451" lat="58.492245238830556" lon="-6.231021350778697">
    <tag k="addr:postcode" v="HS2 0XA"/>
    <tag k="removemelater" v="yes"/>
  </node>
  <node id="-452" lat="58.48949036975411" lon="-6.242539111884979">
    <tag k="addr:postcode" v="HS2 0XB"/>
    <tag k="removemelater" v="yes"/>
  </node>
  <node id="-453" lat="58.49338259474346" lon="-6.250721056193098">
    <tag k="addr:postcode" v="HS2 0XD"/>
    <tag k="removemelater" v="yes"/>
  </node>
  <node id="-454" lat="58.498412951709696" lon="-6.240027037990566">
    <tag k="addr:postcode" v="HS2 0XF"/>
    <tag k="removemelater" v="yes"/>
  </node>
  <node id="-455" lat="58.50074276187889" lon="-6.252213434268536">
    <tag k="addr:postcode" v="HS2 0XG"/>
    <tag k="removemelater" v="yes"/>
  </node>
  <node id="-456" lat="58.50251880041139" lon="-6.26452325456945">
    <tag k="addr:postcode" v="HS2 0XH"/>
    <tag k="removemelater" v="yes"/>
  </node>
  <node id="-457" lat="58.48631395489086" lon="-6.236626144106474">
    <tag k="addr:postcode" v="HS2 0XJ"/>
    <tag k="removemelater" v="yes"/>
  </node>
  <node id="-458" lat="58.2116099702945" lon="-6.394828202770684">
    <tag k="addr:postcode" v="HS2 0XS"/>
    <tag k="removemelater" v="yes"/>
  </node>
  <node id="-459" lat="58.264423398743425" lon="-6.7824822785802565">
    <tag k="addr:postcode" v="HS2 9AA"/>
    <tag k="removemelater" v="yes"/>
  </node>
  <node id="-460" lat="58.155160306296786" lon="-6.50747678325061">
    <tag k="addr:postcode" v="HS2 9AB"/>
    <tag k="removemelater" v="yes"/>
  </node>
  <node id="-461" lat="58.30031087465397" lon="-6.74694058415113">
    <tag k="addr:postcode" v="HS2 9AD"/>
    <tag k="removemelater" v="yes"/>
  </node>
  <node id="-462" lat="58.31246715015497" lon="-6.733274958971471">
    <tag k="addr:postcode" v="HS2 9AE"/>
    <tag k="removemelater" v="yes"/>
  </node>
  <node id="-463" lat="58.21530147660381" lon="-6.745126491651016">
    <tag k="addr:postcode" v="HS2 9AF"/>
    <tag k="removemelater" v="yes"/>
  </node>
  <node id="-464" lat="58.28673315869807" lon="-6.766588999397293">
    <tag k="addr:postcode" v="HS2 9AG"/>
    <tag k="removemelater" v="yes"/>
  </node>
  <node id="-465" lat="58.28355085583701" lon="-6.760029100926433">
    <tag k="addr:postcode" v="HS2 9AH"/>
    <tag k="removemelater" v="yes"/>
  </node>
  <node id="-466" lat="58.29255084898248" lon="-6.780356081028984">
    <tag k="addr:postcode" v="HS2 9AJ"/>
    <tag k="removemelater" v="yes"/>
  </node>
  <node id="-467" lat="58.29491987513528" lon="-6.784110199479491">
    <tag k="addr:postcode" v="HS2 9AL"/>
    <tag k="removemelater" v="yes"/>
  </node>
  <node id="-468" lat="58.29285500970425" lon="-6.779440504628938">
    <tag k="addr:postcode" v="HS2 9AN"/>
    <tag k="removemelater" v="yes"/>
  </node>
  <node id="-469" lat="58.28153795526363" lon="-6.793128761695292">
    <tag k="addr:postcode" v="HS2 9AP"/>
    <tag k="removemelater" v="yes"/>
  </node>
  <node id="-470" lat="58.285584725493436" lon="-6.749866973967316">
    <tag k="addr:postcode" v="HS2 9AQ"/>
    <tag k="removemelater" v="yes"/>
  </node>
  <node id="-471" lat="58.28003191551293" lon="-6.765618241056724">
    <tag k="addr:postcode" v="HS2 9AU"/>
    <tag k="removemelater" v="yes"/>
  </node>
  <node id="-472" lat="58.283033229884" lon="-6.780368447313441">
    <tag k="addr:postcode" v="HS2 9AW"/>
    <tag k="removemelater" v="yes"/>
  </node>
  <node id="-473" lat="58.27552353732395" lon="-6.756747089492927">
    <tag k="addr:postcode" v="HS2 9AX"/>
    <tag k="removemelater" v="yes"/>
  </node>
  <node id="-474" lat="58.2743727023516" lon="-6.783672540253969">
    <tag k="addr:postcode" v="HS2 9AY"/>
    <tag k="removemelater" v="yes"/>
  </node>
  <node id="-475" lat="58.26886682942615" lon="-6.793513363728086">
    <tag k="addr:postcode" v="HS2 9AZ"/>
    <tag k="removemelater" v="yes"/>
  </node>
  <node id="-476" lat="58.33048228324312" lon="-6.668584752650442">
    <tag k="addr:postcode" v="HS2 9BD"/>
    <tag k="removemelater" v="yes"/>
  </node>
  <node id="-477" lat="58.32676654537865" lon="-6.671068972773524">
    <tag k="addr:postcode" v="HS2 9BE"/>
    <tag k="removemelater" v="yes"/>
  </node>
  <node id="-478" lat="58.31918582004055" lon="-6.675195606091189">
    <tag k="addr:postcode" v="HS2 9BG"/>
    <tag k="removemelater" v="yes"/>
  </node>
  <node id="-479" lat="58.32133453055906" lon="-6.698012683629787">
    <tag k="addr:postcode" v="HS2 9BJ"/>
    <tag k="removemelater" v="yes"/>
  </node>
  <node id="-480" lat="58.314526143494916" lon="-6.691877368050809">
    <tag k="addr:postcode" v="HS2 9BL"/>
    <tag k="removemelater" v="yes"/>
  </node>
  <node id="-481" lat="58.34010628435465" lon="-6.669087187119954">
    <tag k="addr:postcode" v="HS2 9BP"/>
    <tag k="removemelater" v="yes"/>
  </node>
  <node id="-482" lat="58.327144579191085" lon="-6.68211356619232">
    <tag k="addr:postcode" v="HS2 9BQ"/>
    <tag k="removemelater" v="yes"/>
  </node>
  <node id="-483" lat="58.33334934708844" lon="-6.669630626939832">
    <tag k="addr:postcode" v="HS2 9BW"/>
    <tag k="removemelater" v="yes"/>
  </node>
  <node id="-484" lat="58.33574519490968" lon="-6.621820155195035">
    <tag k="addr:postcode" v="HS2 9DA"/>
    <tag k="removemelater" v="yes"/>
  </node>
  <node id="-485" lat="58.34236341571469" lon="-6.59569367872133">
    <tag k="addr:postcode" v="HS2 9DB"/>
    <tag k="removemelater" v="yes"/>
  </node>
  <node id="-486" lat="58.33395113871688" lon="-6.63632711290925">
    <tag k="addr:postcode" v="HS2 9DD"/>
    <tag k="removemelater" v="yes"/>
  </node>
  <node id="-487" lat="58.332660842198784" lon="-6.635696044275618">
    <tag k="addr:postcode" v="HS2 9DE"/>
    <tag k="removemelater" v="yes"/>
  </node>
  <node id="-488" lat="58.33351500444628" lon="-6.63471362995617">
    <tag k="addr:postcode" v="HS2 9DF"/>
    <tag k="removemelater" v="yes"/>
  </node>
  <node id="-489" lat="58.33317112490255" lon="-6.6347711230943025">
    <tag k="addr:postcode" v="HS2 9DG"/>
    <tag k="removemelater" v="yes"/>
  </node>
  <node id="-490" lat="58.34115611943241" lon="-6.654617830332796">
    <tag k="addr:postcode" v="HS2 9DH"/>
    <tag k="removemelater" v="yes"/>
  </node>
  <node id="-491" lat="58.34531719355276" lon="-6.595342503810957">
    <tag k="addr:postcode" v="HS2 9DJ"/>
    <tag k="removemelater" v="yes"/>
  </node>
  <node id="-492" lat="58.33181408829479" lon="-6.636474175801222">
    <tag k="addr:postcode" v="HS2 9DQ"/>
    <tag k="removemelater" v="yes"/>
  </node>
  <node id="-493" lat="58.18807722927669" lon="-6.749835490127821">
    <tag k="addr:postcode" v="HS2 9DR"/>
    <tag k="removemelater" v="yes"/>
  </node>
  <node id="-494" lat="58.189557554878434" lon="-6.706564863731868">
    <tag k="addr:postcode" v="HS2 9DS"/>
    <tag k="removemelater" v="yes"/>
  </node>
  <node id="-495" lat="58.173997451699705" lon="-6.608398871254171">
    <tag k="addr:postcode" v="HS2 9DT"/>
    <tag k="removemelater" v="yes"/>
  </node>
  <node id="-496" lat="58.16987906792016" lon="-6.57043325026736">
    <tag k="addr:postcode" v="HS2 9DU"/>
    <tag k="removemelater" v="yes"/>
  </node>
  <node id="-497" lat="58.242343038362584" lon="-6.781430605784637">
    <tag k="addr:postcode" v="HS2 9DW"/>
    <tag k="removemelater" v="yes"/>
  </node>
  <node id="-498" lat="58.202945302336644" lon="-6.7363353268140855">
    <tag k="addr:postcode" v="HS2 9DX"/>
    <tag k="removemelater" v="yes"/>
  </node>
  <node id="-499" lat="58.200847407700635" lon="-6.736873336729638">
    <tag k="addr:postcode" v="HS2 9DY"/>
    <tag k="removemelater" v="yes"/>
  </node>
  <node id="-500" lat="58.210896378987556" lon="-6.737805350939361">
    <tag k="addr:postcode" v="HS2 9DZ"/>
    <tag k="removemelater" v="yes"/>
  </node>
  <node id="-501" lat="58.21521235105222" lon="-6.743171371002731">
    <tag k="addr:postcode" v="HS2 9EA"/>
    <tag k="removemelater" v="yes"/>
  </node>
  <node id="-502" lat="58.219472594538885" lon="-6.7391550572367285">
    <tag k="addr:postcode" v="HS2 9ED"/>
    <tag k="removemelater" v="yes"/>
  </node>
  <node id="-503" lat="58.22119066528921" lon="-6.749545470225438">
    <tag k="addr:postcode" v="HS2 9EF"/>
    <tag k="removemelater" v="yes"/>
  </node>
  <node id="-504" lat="58.17260488984848" lon="-6.7353564738836535">
    <tag k="addr:postcode" v="HS2 9EJ"/>
    <tag k="removemelater" v="yes"/>
  </node>
  <node id="-505" lat="58.111999083710316" lon="-6.861862208854069">
    <tag k="addr:postcode" v="HS2 9EN"/>
    <tag k="removemelater" v="yes"/>
  </node>
  <node id="-506" lat="58.16785367895886" lon="-6.912281651862652">
    <tag k="addr:postcode" v="HS2 9EP"/>
    <tag k="removemelater" v="yes"/>
  </node>
  <node id="-507" lat="58.19031902264548" lon="-6.9366661607716225">
    <tag k="addr:postcode" v="HS2 9ER"/>
    <tag k="removemelater" v="yes"/>
  </node>
  <node id="-508" lat="58.191023852652975" lon="-7.010072647745311">
    <tag k="addr:postcode" v="HS2 9ET"/>
    <tag k="removemelater" v="yes"/>
  </node>
  <node id="-509" lat="58.17845716915541" lon="-7.031241325879727">
    <tag k="addr:postcode" v="HS2 9EU"/>
    <tag k="removemelater" v="yes"/>
  </node>
  <node id="-510" lat="58.12681428249502" lon="-6.878577061347582">
    <tag k="addr:postcode" v="HS2 9EW"/>
    <tag k="removemelater" v="yes"/>
  </node>
  <node id="-511" lat="58.17630776332345" lon="-7.0500790360589">
    <tag k="addr:postcode" v="HS2 9EX"/>
    <tag k="removemelater" v="yes"/>
  </node>
  <node id="-512" lat="58.16990059890358" lon="-7.084688016476614">
    <tag k="addr:postcode" v="HS2 9EY"/>
    <tag k="removemelater" v="yes"/>
  </node>
  <node id="-513" lat="58.13427846333348" lon="-7.110999291006525">
    <tag k="addr:postcode" v="HS2 9HA"/>
    <tag k="removemelater" v="yes"/>
  </node>
  <node id="-514" lat="58.116813723567354" lon="-7.110566736226182">
    <tag k="addr:postcode" v="HS2 9HB"/>
    <tag k="removemelater" v="yes"/>
  </node>
  <node id="-515" lat="58.201409496290324" lon="-6.954329409878094">
    <tag k="addr:postcode" v="HS2 9HE"/>
    <tag k="removemelater" v="yes"/>
  </node>
  <node id="-516" lat="58.14967091682083" lon="-6.893401131148318">
    <tag k="addr:postcode" v="HS2 9HH"/>
    <tag k="removemelater" v="yes"/>
  </node>
  <node id="-517" lat="58.160037049721424" lon="-6.894504210531192">
    <tag k="addr:postcode" v="HS2 9HJ"/>
    <tag k="removemelater" v="yes"/>
  </node>
  <node id="-518" lat="58.17903081516348" lon="-6.904715723324124">
    <tag k="addr:postcode" v="HS2 9HL"/>
    <tag k="removemelater" v="yes"/>
  </node>
  <node id="-519" lat="58.21554569369695" lon="-6.970197604601089">
    <tag k="addr:postcode" v="HS2 9HP"/>
    <tag k="removemelater" v="yes"/>
  </node>
  <node id="-520" lat="58.22422469121911" lon="-6.95432724977812">
    <tag k="addr:postcode" v="HS2 9HR"/>
    <tag k="removemelater" v="yes"/>
  </node>
  <node id="-521" lat="58.22168493033552" lon="-6.947220273367267">
    <tag k="addr:postcode" v="HS2 9HS"/>
    <tag k="removemelater" v="yes"/>
  </node>
  <node id="-522" lat="58.20459193682572" lon="-6.924693179046922">
    <tag k="addr:postcode" v="HS2 9HU"/>
    <tag k="removemelater" v="yes"/>
  </node>
  <node id="-523" lat="58.20601784635231" lon="-6.96167082020658">
    <tag k="addr:postcode" v="HS2 9HW"/>
    <tag k="removemelater" v="yes"/>
  </node>
  <node id="-524" lat="58.20299406700833" lon="-6.946660081024895">
    <tag k="addr:postcode" v="HS2 9HX"/>
    <tag k="removemelater" v="yes"/>
  </node>
  <node id="-525" lat="58.231657095198585" lon="-7.029168669690757">
    <tag k="addr:postcode" v="HS2 9JA"/>
    <tag k="removemelater" v="yes"/>
  </node>
  <node id="-526" lat="58.19354808171546" lon="-6.430761761232567">
    <tag k="addr:postcode" v="HS2 9JB"/>
    <tag k="removemelater" v="yes"/>
  </node>
  <node id="-527" lat="58.19658689369766" lon="-7.015253909761207">
    <tag k="addr:postcode" v="HS2 9JD"/>
    <tag k="removemelater" v="yes"/>
  </node>
  <node id="-528" lat="58.19260629118602" lon="-7.0383744708897815">
    <tag k="addr:postcode" v="HS2 9JF"/>
    <tag k="removemelater" v="yes"/>
  </node>
  <node id="-529" lat="58.20053157193263" lon="-7.010579436439121">
    <tag k="addr:postcode" v="HS2 9JG"/>
    <tag k="removemelater" v="yes"/>
  </node>
  <node id="-530" lat="58.09802723533647" lon="-6.861655450291042">
    <tag k="addr:postcode" v="HS2 9JH"/>
    <tag k="removemelater" v="yes"/>
  </node>
  <node id="-531" lat="58.19926647589345" lon="-7.015291647283427">
    <tag k="addr:postcode" v="HS2 9JJ"/>
    <tag k="removemelater" v="yes"/>
  </node>
  <node id="-532" lat="58.201720372177896" lon="-6.42437068270095">
    <tag k="addr:postcode" v="HS2 9JN"/>
    <tag k="removemelater" v="yes"/>
  </node>
  <node id="-533" lat="58.15182414474839" lon="-6.502630871818671">
    <tag k="addr:postcode" v="HS2 9JP"/>
    <tag k="removemelater" v="yes"/>
  </node>
  <node id="-534" lat="58.1314886365502" lon="-6.5059423843532205">
    <tag k="addr:postcode" v="HS2 9JR"/>
    <tag k="removemelater" v="yes"/>
  </node>
  <node id="-535" lat="58.103983008811916" lon="-6.4915068748913285">
    <tag k="addr:postcode" v="HS2 9JT"/>
    <tag k="removemelater" v="yes"/>
  </node>
  <node id="-536" lat="58.18547133265871" lon="-6.453219498028503">
    <tag k="addr:postcode" v="HS2 9JW"/>
    <tag k="removemelater" v="yes"/>
  </node>
  <node id="-537" lat="58.10681090134078" lon="-6.479153975256595">
    <tag k="addr:postcode" v="HS2 9JX"/>
    <tag k="removemelater" v="yes"/>
  </node>
  <node id="-538" lat="58.18950313136106" lon="-6.375268584403047">
    <tag k="addr:postcode" v="HS2 9JY"/>
    <tag k="removemelater" v="yes"/>
  </node>
  <node id="-539" lat="58.105569553592794" lon="-6.550120842638813">
    <tag k="addr:postcode" v="HS2 9LA"/>
    <tag k="removemelater" v="yes"/>
  </node>
  <node id="-540" lat="58.05922173341348" lon="-6.673097456628308">
    <tag k="addr:postcode" v="HS2 9LE"/>
    <tag k="removemelater" v="yes"/>
  </node>
  <node id="-541" lat="58.05553760084679" lon="-6.6096975054468095">
    <tag k="addr:postcode" v="HS2 9LG"/>
    <tag k="removemelater" v="yes"/>
  </node>
  <node id="-542" lat="58.193743504653966" lon="-6.792841610391535">
    <tag k="addr:postcode" v="HS2 9LN"/>
    <tag k="removemelater" v="yes"/>
  </node>
  <node id="-543" lat="58.20227764340895" lon="-6.829829139646794">
    <tag k="addr:postcode" v="HS2 9LP"/>
    <tag k="removemelater" v="yes"/>
  </node>
  <node id="-544" lat="58.01604355007549" lon="-6.528914145378151">
    <tag k="addr:postcode" v="HS2 9LQ"/>
    <tag k="removemelater" v="yes"/>
  </node>
  <node id="-545" lat="58.20824501774825" lon="-6.824284012973638">
    <tag k="addr:postcode" v="HS2 9LS"/>
    <tag k="removemelater" v="yes"/>
  </node>
  <node id="-546" lat="58.228653230208415" lon="-6.840497650327872">
    <tag k="addr:postcode" v="HS2 9LT"/>
    <tag k="removemelater" v="yes"/>
  </node>
  <node id="-547" lat="58.22378477805377" lon="-6.8374632125192">
    <tag k="addr:postcode" v="HS2 9LU"/>
    <tag k="removemelater" v="yes"/>
  </node>
  <node id="-548" lat="58.19952808178585" lon="-6.809775134723337">
    <tag k="addr:postcode" v="HS2 9LW"/>
    <tag k="removemelater" v="yes"/>
  </node>
  <node id="-549" lat="58.211405334444635" lon="-6.7896360032771135">
    <tag k="addr:postcode" v="HS2 9LX"/>
    <tag k="removemelater" v="yes"/>
  </node>
  <node id="-550" lat="58.206992322343766" lon="-6.797425309897062">
    <tag k="addr:postcode" v="HS2 9LY"/>
    <tag k="removemelater" v="yes"/>
  </node>
  <node id="-551" lat="58.25464321702118" lon="-6.856318395377366">
    <tag k="addr:postcode" v="HS2 9LZ"/>
    <tag k="removemelater" v="yes"/>
  </node>
  <node id="-552" lat="58.24203534629377" lon="-6.873646818282616">
    <tag k="addr:postcode" v="HS2 9NA"/>
    <tag k="removemelater" v="yes"/>
  </node>
  <node id="-553" lat="58.2254062713561" lon="-6.859629914750861">
    <tag k="addr:postcode" v="HS2 9NB"/>
    <tag k="removemelater" v="yes"/>
  </node>
  <node id="-554" lat="58.209119383183236" lon="-6.8510081609587905">
    <tag k="addr:postcode" v="HS2 9ND"/>
    <tag k="removemelater" v="yes"/>
  </node>
  <node id="-555" lat="58.17151086570621" lon="-6.474841660746911">
    <tag k="addr:postcode" v="HS2 9NF"/>
    <tag k="removemelater" v="yes"/>
  </node>
  <node id="-556" lat="58.142949505551854" lon="-6.456045460815011">
    <tag k="addr:postcode" v="HS2 9NG"/>
    <tag k="removemelater" v="yes"/>
  </node>
  <node id="-557" lat="58.14491244710033" lon="-6.412340931059901">
    <tag k="addr:postcode" v="HS2 9NH"/>
    <tag k="removemelater" v="yes"/>
  </node>
  <node id="-558" lat="58.15867328813519" lon="-6.433546801275814">
    <tag k="addr:postcode" v="HS2 9NJ"/>
    <tag k="removemelater" v="yes"/>
  </node>
  <node id="-559" lat="58.13952362013764" lon="-6.43310051683666">
    <tag k="addr:postcode" v="HS2 9NL"/>
    <tag k="removemelater" v="yes"/>
  </node>
  <node id="-560" lat="58.13649991362545" lon="-6.410890313091376">
    <tag k="addr:postcode" v="HS2 9NN"/>
    <tag k="removemelater" v="yes"/>
  </node>
  <node id="-561" lat="58.13265421083943" lon="-6.42969493960152">
    <tag k="addr:postcode" v="HS2 9NP"/>
    <tag k="removemelater" v="yes"/>
  </node>
  <node id="-562" lat="58.14401330290034" lon="-6.472642859547737">
    <tag k="addr:postcode" v="HS2 9NR"/>
    <tag k="removemelater" v="yes"/>
  </node>
  <node id="-563" lat="58.14269772199623" lon="-6.4565581914197345">
    <tag k="addr:postcode" v="HS2 9NS"/>
    <tag k="removemelater" v="yes"/>
  </node>
  <node id="-564" lat="58.14456913165594" lon="-6.456537367448261">
    <tag k="addr:postcode" v="HS2 9NT"/>
    <tag k="removemelater" v="yes"/>
  </node>
  <node id="-565" lat="58.14332159451902" lon="-6.465446511259994">
    <tag k="addr:postcode" v="HS2 9NU"/>
    <tag k="removemelater" v="yes"/>
  </node>
  <node id="-566" lat="58.13814524356029" lon="-6.429034667269665">
    <tag k="addr:postcode" v="HS2 9NW"/>
    <tag k="removemelater" v="yes"/>
  </node>
  <node id="-567" lat="58.14397776264832" lon="-6.488728575401844">
    <tag k="addr:postcode" v="HS2 9NX"/>
    <tag k="removemelater" v="yes"/>
  </node>
  <node id="-568" lat="58.148469877505796" lon="-6.4977836115895276">
    <tag k="addr:postcode" v="HS2 9NY"/>
    <tag k="removemelater" v="yes"/>
  </node>
  <node id="-569" lat="58.15058811717941" lon="-6.500705220548072">
    <tag k="addr:postcode" v="HS2 9PA"/>
    <tag k="removemelater" v="yes"/>
  </node>
  <node id="-570" lat="58.15545381358887" lon="-6.499687354243959">
    <tag k="addr:postcode" v="HS2 9PB"/>
    <tag k="removemelater" v="yes"/>
  </node>
  <node id="-571" lat="58.15657208175904" lon="-6.497310592477318">
    <tag k="addr:postcode" v="HS2 9PE"/>
    <tag k="removemelater" v="yes"/>
  </node>
  <node id="-572" lat="58.10249627112203" lon="-6.531651804671965">
    <tag k="addr:postcode" v="HS2 9PJ"/>
    <tag k="removemelater" v="yes"/>
  </node>
  <node id="-573" lat="58.09321800764926" lon="-6.592978478670419">
    <tag k="addr:postcode" v="HS2 9PN"/>
    <tag k="removemelater" v="yes"/>
  </node>
  <node id="-574" lat="58.09263444524188" lon="-6.607867434556937">
    <tag k="addr:postcode" v="HS2 9PP"/>
    <tag k="removemelater" v="yes"/>
  </node>
  <node id="-575" lat="58.09281169434944" lon="-6.605953987122091">
    <tag k="addr:postcode" v="HS2 9PR"/>
    <tag k="removemelater" v="yes"/>
  </node>
  <node id="-576" lat="58.091654558494284" lon="-6.607604946658727">
    <tag k="addr:postcode" v="HS2 9PS"/>
    <tag k="removemelater" v="yes"/>
  </node>
  <node id="-577" lat="58.089503301765845" lon="-6.619300759268464">
    <tag k="addr:postcode" v="HS2 9PT"/>
    <tag k="removemelater" v="yes"/>
  </node>
  <node id="-578" lat="58.097700066063695" lon="-6.580679192305354">
    <tag k="addr:postcode" v="HS2 9PW"/>
    <tag k="removemelater" v="yes"/>
  </node>
  <node id="-579" lat="58.086932218743584" lon="-6.636069611193154">
    <tag k="addr:postcode" v="HS2 9PX"/>
    <tag k="removemelater" v="yes"/>
  </node>
  <node id="-580" lat="58.08892059252376" lon="-6.517342681298453">
    <tag k="addr:postcode" v="HS2 9QA"/>
    <tag k="removemelater" v="yes"/>
  </node>
  <node id="-581" lat="58.08504977830788" lon="-6.540167448405275">
    <tag k="addr:postcode" v="HS2 9QB"/>
    <tag k="removemelater" v="yes"/>
  </node>
  <node id="-582" lat="58.09029233952914" lon="-6.478811726707525">
    <tag k="addr:postcode" v="HS2 9QD"/>
    <tag k="removemelater" v="yes"/>
  </node>
  <node id="-583" lat="58.091702749289624" lon="-6.472212366891401">
    <tag k="addr:postcode" v="HS2 9QE"/>
    <tag k="removemelater" v="yes"/>
  </node>
  <node id="-584" lat="58.10245033954271" lon="-6.416088573130537">
    <tag k="addr:postcode" v="HS2 9QH"/>
    <tag k="removemelater" v="yes"/>
  </node>
  <node id="-585" lat="58.094509339851406" lon="-6.425397816456786">
    <tag k="addr:postcode" v="HS2 9QJ"/>
    <tag k="removemelater" v="yes"/>
  </node>
  <node id="-586" lat="58.090675159574026" lon="-6.432971902905033">
    <tag k="addr:postcode" v="HS2 9QL"/>
    <tag k="removemelater" v="yes"/>
  </node>
  <node id="-587" lat="58.083496589772224" lon="-6.391024608774296">
    <tag k="addr:postcode" v="HS2 9QP"/>
    <tag k="removemelater" v="yes"/>
  </node>
  <node id="-588" lat="58.06938880551168" lon="-6.38468985398528">
    <tag k="addr:postcode" v="HS2 9QR"/>
    <tag k="removemelater" v="yes"/>
  </node>
  <node id="-589" lat="58.054890674562394" lon="-6.445563601998339">
    <tag k="addr:postcode" v="HS2 9QU"/>
    <tag k="removemelater" v="yes"/>
  </node>
  <node id="-590" lat="58.048752336715516" lon="-6.4292109938949435">
    <tag k="addr:postcode" v="HS2 9QX"/>
    <tag k="removemelater" v="yes"/>
  </node>
  <node id="-591" lat="58.05298008577876" lon="-6.462358655407206">
    <tag k="addr:postcode" v="HS2 9QY"/>
    <tag k="removemelater" v="yes"/>
  </node>
  <node id="-592" lat="58.054754538385716" lon="-6.447141437824233">
    <tag k="addr:postcode" v="HS2 9QZ"/>
    <tag k="removemelater" v="yes"/>
  </node>
  <node id="-593" lat="58.01713436554823" lon="-6.437616491760907">
    <tag k="addr:postcode" v="HS2 9RD"/>
    <tag k="removemelater" v="yes"/>
  </node>
  <node id="-594" lat="58.020752331817306" lon="-6.441404416721635">
    <tag k="addr:postcode" v="HS2 9RE"/>
    <tag k="removemelater" v="yes"/>
  </node>
  <node id="-595" lat="58.02067235635365" lon="-6.4429199407958295">
    <tag k="addr:postcode" v="HS2 9RF"/>
    <tag k="removemelater" v="yes"/>
  </node>
  <node id="-596" lat="58.01877633377738" lon="-6.4631415289117">
    <tag k="addr:postcode" v="HS2 9RG"/>
    <tag k="removemelater" v="yes"/>
  </node>
  <node id="-597" lat="57.992443133508296" lon="-6.75401784107543">
    <tag k="addr:postcode" v="HS3 3AA"/>
    <tag k="removemelater" v="yes"/>
  </node>
  <node id="-598" lat="58.00219517119157" lon="-6.7568722647300365">
    <tag k="addr:postcode" v="HS3 3AB"/>
    <tag k="removemelater" v="yes"/>
  </node>
  <node id="-599" lat="58.00401767726381" lon="-6.762486104878733">
    <tag k="addr:postcode" v="HS3 3AD"/>
    <tag k="removemelater" v="yes"/>
  </node>
  <node id="-600" lat="57.857877848158076" lon="-6.99458139732212">
    <tag k="addr:postcode" v="HS3 3AE"/>
    <tag k="removemelater" v="yes"/>
  </node>
  <node id="-601" lat="57.899980125275825" lon="-6.8100185985841595">
    <tag k="addr:postcode" v="HS3 3AF"/>
    <tag k="removemelater" v="yes"/>
  </node>
  <node id="-602" lat="57.95501987439582" lon="-6.73387533697395">
    <tag k="addr:postcode" v="HS3 3AG"/>
    <tag k="removemelater" v="yes"/>
  </node>
  <node id="-603" lat="57.90797923121095" lon="-6.8329081012110855">
    <tag k="addr:postcode" v="HS3 3AH"/>
    <tag k="removemelater" v="yes"/>
  </node>
  <node id="-604" lat="57.92016183205618" lon="-6.849341186821787">
    <tag k="addr:postcode" v="HS3 3AJ"/>
    <tag k="removemelater" v="yes"/>
  </node>
  <node id="-605" lat="57.9332339042104" lon="-6.846964495337628">
    <tag k="addr:postcode" v="HS3 3AL"/>
    <tag k="removemelater" v="yes"/>
  </node>
  <node id="-606" lat="57.94353152865704" lon="-6.908549052467279">
    <tag k="addr:postcode" v="HS3 3AN"/>
    <tag k="removemelater" v="yes"/>
  </node>
  <node id="-607" lat="57.92862979422637" lon="-6.836551573527746">
    <tag k="addr:postcode" v="HS3 3AP"/>
    <tag k="removemelater" v="yes"/>
  </node>
  <node id="-608" lat="57.950895410558225" lon="-6.731588068028621">
    <tag k="addr:postcode" v="HS3 3AQ"/>
    <tag k="removemelater" v="yes"/>
  </node>
  <node id="-609" lat="57.952232690321104" lon="-6.949017064313182">
    <tag k="addr:postcode" v="HS3 3AR"/>
    <tag k="removemelater" v="yes"/>
  </node>
  <node id="-610" lat="57.96297138300367" lon="-6.995003549757071">
    <tag k="addr:postcode" v="HS3 3AS"/>
    <tag k="removemelater" v="yes"/>
  </node>
  <node id="-611" lat="57.971692538076454" lon="-7.057820519604738">
    <tag k="addr:postcode" v="HS3 3AT"/>
    <tag k="removemelater" v="yes"/>
  </node>
  <node id="-612" lat="57.95306849245382" lon="-6.9499616852500035">
    <tag k="addr:postcode" v="HS3 3AU"/>
    <tag k="removemelater" v="yes"/>
  </node>
  <node id="-613" lat="57.94651225535308" lon="-6.910564448366802">
    <tag k="addr:postcode" v="HS3 3AW"/>
    <tag k="removemelater" v="yes"/>
  </node>
  <node id="-614" lat="57.98864181794408" lon="-7.0810531003235875">
    <tag k="addr:postcode" v="HS3 3AX"/>
    <tag k="removemelater" v="yes"/>
  </node>
  <node id="-615" lat="57.995038973079524" lon="-7.09653365668698">
    <tag k="addr:postcode" v="HS3 3AY"/>
    <tag k="removemelater" v="yes"/>
  </node>
  <node id="-616" lat="57.76536181229532" lon="-6.931356578223001">
    <tag k="addr:postcode" v="HS3 3BA"/>
    <tag k="removemelater" v="yes"/>
  </node>
  <node id="-617" lat="57.90209708283154" lon="-6.814205354752508">
    <tag k="addr:postcode" v="HS3 3BG"/>
    <tag k="removemelater" v="yes"/>
  </node>
  <node id="-618" lat="57.90084201503364" lon="-6.811722297881778">
    <tag k="addr:postcode" v="HS3 3BH"/>
    <tag k="removemelater" v="yes"/>
  </node>
  <node id="-619" lat="57.90274026894798" lon="-6.815744758178982">
    <tag k="addr:postcode" v="HS3 3BJ"/>
    <tag k="removemelater" v="yes"/>
  </node>
  <node id="-620" lat="57.899072632955274" lon="-6.788135361212174">
    <tag k="addr:postcode" v="HS3 3BL"/>
    <tag k="removemelater" v="yes"/>
  </node>
  <node id="-621" lat="57.887766713025506" lon="-6.7337464448341375">
    <tag k="addr:postcode" v="HS3 3BP"/>
    <tag k="removemelater" v="yes"/>
  </node>
  <node id="-622" lat="57.89991450572968" lon="-6.813879062768439">
    <tag k="addr:postcode" v="HS3 3BQ"/>
    <tag k="removemelater" v="yes"/>
  </node>
  <node id="-623" lat="57.899308315340974" lon="-6.771152848628553">
    <tag k="addr:postcode" v="HS3 3BW"/>
    <tag k="removemelater" v="yes"/>
  </node>
  <node id="-624" lat="57.898929512203864" lon="-6.791208178087954">
    <tag k="addr:postcode" v="HS3 3DA"/>
    <tag k="removemelater" v="yes"/>
  </node>
  <node id="-625" lat="57.89854628966819" lon="-6.796107435989467">
    <tag k="addr:postcode" v="HS3 3DB"/>
    <tag k="removemelater" v="yes"/>
  </node>
  <node id="-626" lat="57.89920870976141" lon="-6.796668953635218">
    <tag k="addr:postcode" v="HS3 3DD"/>
    <tag k="removemelater" v="yes"/>
  </node>
  <node id="-627" lat="57.89945642434387" lon="-6.794877271624689">
    <tag k="addr:postcode" v="HS3 3DE"/>
    <tag k="removemelater" v="yes"/>
  </node>
  <node id="-628" lat="57.89745912636783" lon="-6.797736275974997">
    <tag k="addr:postcode" v="HS3 3DF"/>
    <tag k="removemelater" v="yes"/>
  </node>
  <node id="-629" lat="57.897774460433766" lon="-6.7986738284031185">
    <tag k="addr:postcode" v="HS3 3DG"/>
    <tag k="removemelater" v="yes"/>
  </node>
  <node id="-630" lat="57.89925888046219" lon="-6.798432818256007">
    <tag k="addr:postcode" v="HS3 3DH"/>
    <tag k="removemelater" v="yes"/>
  </node>
  <node id="-631" lat="57.89826605554408" lon="-6.802794385278617">
    <tag k="addr:postcode" v="HS3 3DJ"/>
    <tag k="removemelater" v="yes"/>
  </node>
  <node id="-632" lat="57.899712799393434" lon="-6.802835739586968">
    <tag k="addr:postcode" v="HS3 3DL"/>
    <tag k="removemelater" v="yes"/>
  </node>
  <node id="-633" lat="57.89442704367237" lon="-6.802737355117614">
    <tag k="addr:postcode" v="HS3 3DN"/>
    <tag k="removemelater" v="yes"/>
  </node>
  <node id="-634" lat="57.89062497879878" lon="-6.794340762288134">
    <tag k="addr:postcode" v="HS3 3DP"/>
    <tag k="removemelater" v="yes"/>
  </node>
  <node id="-635" lat="57.87985779246552" lon="-6.8140132708769965">
    <tag k="addr:postcode" v="HS3 3DR"/>
    <tag k="removemelater" v="yes"/>
  </node>
  <node id="-636" lat="57.90024010966289" lon="-6.786043777938478">
    <tag k="addr:postcode" v="HS3 3DS"/>
    <tag k="removemelater" v="yes"/>
  </node>
  <node id="-637" lat="57.85230922125172" lon="-6.767738694848771">
    <tag k="addr:postcode" v="HS3 3DW"/>
    <tag k="removemelater" v="yes"/>
  </node>
  <node id="-638" lat="57.85282604540735" lon="-6.768347116769647">
    <tag k="addr:postcode" v="HS3 3DX"/>
    <tag k="removemelater" v="yes"/>
  </node>
  <node id="-639" lat="57.86623144948525" lon="-6.796406342361504">
    <tag k="addr:postcode" v="HS3 3DY"/>
    <tag k="removemelater" v="yes"/>
  </node>
  <node id="-640" lat="57.867546017849634" lon="-6.805393487138216">
    <tag k="addr:postcode" v="HS3 3DZ"/>
    <tag k="removemelater" v="yes"/>
  </node>
  <node id="-641" lat="57.84223869224238" lon="-6.756857462529551">
    <tag k="addr:postcode" v="HS3 3EB"/>
    <tag k="removemelater" v="yes"/>
  </node>
  <node id="-642" lat="57.83171173080129" lon="-6.763376254906394">
    <tag k="addr:postcode" v="HS3 3ED"/>
    <tag k="removemelater" v="yes"/>
  </node>
  <node id="-643" lat="57.834618842689345" lon="-6.798587507742983">
    <tag k="addr:postcode" v="HS3 3EF"/>
    <tag k="removemelater" v="yes"/>
  </node>
  <node id="-644" lat="57.82859365191576" lon="-6.837766660762987">
    <tag k="addr:postcode" v="HS3 3EH"/>
    <tag k="removemelater" v="yes"/>
  </node>
  <node id="-645" lat="57.8308164648259" lon="-6.852551533516662">
    <tag k="addr:postcode" v="HS3 3EJ"/>
    <tag k="removemelater" v="yes"/>
  </node>
  <node id="-646" lat="57.82843296430094" lon="-6.853478315902203">
    <tag k="addr:postcode" v="HS3 3EL"/>
    <tag k="removemelater" v="yes"/>
  </node>
  <node id="-647" lat="57.81582957073938" lon="-6.824775845221445">
    <tag k="addr:postcode" v="HS3 3EN"/>
    <tag k="removemelater" v="yes"/>
  </node>
  <node id="-648" lat="57.81502183626403" lon="-6.803917442335123">
    <tag k="addr:postcode" v="HS3 3EP"/>
    <tag k="removemelater" v="yes"/>
  </node>
  <node id="-649" lat="57.82093479424961" lon="-6.794118230866254">
    <tag k="addr:postcode" v="HS3 3ER"/>
    <tag k="removemelater" v="yes"/>
  </node>
  <node id="-650" lat="57.806756251893226" lon="-6.863688265969971">
    <tag k="addr:postcode" v="HS3 3EX"/>
    <tag k="removemelater" v="yes"/>
  </node>
  <node id="-651" lat="57.80074374020431" lon="-6.865640735084119">
    <tag k="addr:postcode" v="HS3 3EY"/>
    <tag k="removemelater" v="yes"/>
  </node>
  <node id="-652" lat="57.798397016132284" lon="-6.875888599602061">
    <tag k="addr:postcode" v="HS3 3EZ"/>
    <tag k="removemelater" v="yes"/>
  </node>
  <node id="-653" lat="57.797091434822235" lon="-6.883614149869518">
    <tag k="addr:postcode" v="HS3 3HA"/>
    <tag k="removemelater" v="yes"/>
  </node>
  <node id="-654" lat="57.81438842748067" lon="-6.858211509349658">
    <tag k="addr:postcode" v="HS3 3HB"/>
    <tag k="removemelater" v="yes"/>
  </node>
  <node id="-655" lat="57.889970327589076" lon="-6.806871365376732">
    <tag k="addr:postcode" v="HS3 3HG"/>
    <tag k="removemelater" v="yes"/>
  </node>
  <node id="-656" lat="57.86469955056342" lon="-6.823007042703432">
    <tag k="addr:postcode" v="HS3 3HJ"/>
    <tag k="removemelater" v="yes"/>
  </node>
  <node id="-657" lat="57.884362605406" lon="-6.944177510111785">
    <tag k="addr:postcode" v="HS3 3HL"/>
    <tag k="removemelater" v="yes"/>
  </node>
  <node id="-658" lat="57.86129124566271" lon="-6.878873809367284">
    <tag k="addr:postcode" v="HS3 3HN"/>
    <tag k="removemelater" v="yes"/>
  </node>
  <node id="-659" lat="57.86752432049866" lon="-6.94086636334078">
    <tag k="addr:postcode" v="HS3 3HP"/>
    <tag k="removemelater" v="yes"/>
  </node>
  <node id="-660" lat="57.88427466078169" lon="-6.8130679011625945">
    <tag k="addr:postcode" v="HS3 3HQ"/>
    <tag k="removemelater" v="yes"/>
  </node>
  <node id="-661" lat="57.85790330352005" lon="-6.977942782201902">
    <tag k="addr:postcode" v="HS3 3HR"/>
    <tag k="removemelater" v="yes"/>
  </node>
  <node id="-662" lat="57.8427932613775" lon="-7.001565064427851">
    <tag k="addr:postcode" v="HS3 3HT"/>
    <tag k="removemelater" v="yes"/>
  </node>
  <node id="-663" lat="57.82904440280874" lon="-7.035409910146773">
    <tag k="addr:postcode" v="HS3 3HX"/>
    <tag k="removemelater" v="yes"/>
  </node>
  <node id="-664" lat="57.796683328624766" lon="-7.065787405514249">
    <tag k="addr:postcode" v="HS3 3JA"/>
    <tag k="removemelater" v="yes"/>
  </node>
  <node id="-665" lat="57.77706066272426" lon="-6.921571202395237">
    <tag k="addr:postcode" v="HS3 3JD"/>
    <tag k="removemelater" v="yes"/>
  </node>
  <node id="-666" lat="57.76020547472836" lon="-6.935079309992946">
    <tag k="addr:postcode" v="HS3 3JE"/>
    <tag k="removemelater" v="yes"/>
  </node>
  <node id="-667" lat="57.76875976299906" lon="-6.912476179400342">
    <tag k="addr:postcode" v="HS3 3JF"/>
    <tag k="removemelater" v="yes"/>
  </node>
  <node id="-668" lat="57.77719776372015" lon="-6.915039189102871">
    <tag k="addr:postcode" v="HS3 3JG"/>
    <tag k="removemelater" v="yes"/>
  </node>
  <node id="-669" lat="57.77760240759615" lon="-6.91596997726507">
    <tag k="addr:postcode" v="HS3 3JH"/>
    <tag k="removemelater" v="yes"/>
  </node>
  <node id="-670" lat="57.78091371868446" lon="-6.898333310722162">
    <tag k="addr:postcode" v="HS3 3JQ"/>
    <tag k="removemelater" v="yes"/>
  </node>
  <node id="-671" lat="57.872109082413346" lon="-6.6988664515384295">
    <tag k="addr:postcode" v="HS4 3XU"/>
    <tag k="removemelater" v="yes"/>
  </node>
  <node id="-672" lat="57.873294621112294" lon="-6.698430456164532">
    <tag k="addr:postcode" v="HS4 3XX"/>
    <tag k="removemelater" v="yes"/>
  </node>
  <node id="-673" lat="57.8738050133741" lon="-6.692182985935788">
    <tag k="addr:postcode" v="HS4 3XY"/>
    <tag k="removemelater" v="yes"/>
  </node>
  <node id="-674" lat="57.876877462204384" lon="-6.697142619949521">
    <tag k="addr:postcode" v="HS4 3XZ"/>
    <tag k="removemelater" v="yes"/>
  </node>
  <node id="-675" lat="57.87124052486673" lon="-6.701183929833084">
    <tag k="addr:postcode" v="HS4 3YA"/>
    <tag k="removemelater" v="yes"/>
  </node>
  <node id="-676" lat="57.86789369194987" lon="-6.701928124048937">
    <tag k="addr:postcode" v="HS4 3YB"/>
    <tag k="removemelater" v="yes"/>
  </node>
  <node id="-677" lat="57.873846868568485" lon="-6.704394714157567">
    <tag k="addr:postcode" v="HS4 3YD"/>
    <tag k="removemelater" v="yes"/>
  </node>
  <node id="-678" lat="57.86817909135361" lon="-6.693018959741244">
    <tag k="addr:postcode" v="HS4 3YF"/>
    <tag k="removemelater" v="yes"/>
  </node>
  <node id="-679" lat="57.85965421303941" lon="-6.679823865333416">
    <tag k="addr:postcode" v="HS4 3YG"/>
    <tag k="removemelater" v="yes"/>
  </node>
  <node id="-680" lat="57.768810230109246" lon="-7.007507744604891">
    <tag k="addr:postcode" v="HS5 3TL"/>
    <tag k="removemelater" v="yes"/>
  </node>
  <node id="-681" lat="57.76656999234538" lon="-7.003644648211509">
    <tag k="addr:postcode" v="HS5 3TN"/>
    <tag k="removemelater" v="yes"/>
  </node>
  <node id="-682" lat="57.77138614675816" lon="-7.014701392399162">
    <tag k="addr:postcode" v="HS5 3TS"/>
    <tag k="removemelater" v="yes"/>
  </node>
  <node id="-683" lat="57.772010213722005" lon="-7.02051320005523">
    <tag k="addr:postcode" v="HS5 3TT"/>
    <tag k="removemelater" v="yes"/>
  </node>
  <node id="-684" lat="57.77381678032311" lon="-7.02214532948884">
    <tag k="addr:postcode" v="HS5 3TU"/>
    <tag k="removemelater" v="yes"/>
  </node>
  <node id="-685" lat="57.74618860050552" lon="-6.967236899445515">
    <tag k="addr:postcode" v="HS5 3TW"/>
    <tag k="removemelater" v="yes"/>
  </node>
  <node id="-686" lat="57.77507211080799" lon="-7.0263279461054235">
    <tag k="addr:postcode" v="HS5 3TX"/>
    <tag k="removemelater" v="yes"/>
  </node>
  <node id="-687" lat="57.778859241440024" lon="-7.0371963838651705">
    <tag k="addr:postcode" v="HS5 3TY"/>
    <tag k="removemelater" v="yes"/>
  </node>
  <node id="-688" lat="57.767666398936846" lon="-7.015935674608314">
    <tag k="addr:postcode" v="HS5 3UA"/>
    <tag k="removemelater" v="yes"/>
  </node>
  <node id="-689" lat="57.76583864183428" lon="-7.019823310772535">
    <tag k="addr:postcode" v="HS5 3UB"/>
    <tag k="removemelater" v="yes"/>
  </node>
  <node id="-690" lat="57.75174958773212" lon="-7.000295816653607">
    <tag k="addr:postcode" v="HS5 3UD"/>
    <tag k="removemelater" v="yes"/>
  </node>
  <node id="-691" lat="57.74391943979346" lon="-6.983968663191688">
    <tag k="addr:postcode" v="HS5 3UE"/>
    <tag k="removemelater" v="yes"/>
  </node>
  <node id="-692" lat="57.601240831559416" lon="-7.163856812601788">
    <tag k="addr:postcode" v="HS6 5AA"/>
    <tag k="removemelater" v="yes"/>
  </node>
  <node id="-693" lat="57.600643141997786" lon="-7.162632140842321">
    <tag k="addr:postcode" v="HS6 5AB"/>
    <tag k="removemelater" v="yes"/>
  </node>
  <node id="-694" lat="57.59983103863565" lon="-7.162248577677371">
    <tag k="addr:postcode" v="HS6 5AD"/>
    <tag k="removemelater" v="yes"/>
  </node>
  <node id="-695" lat="57.605004494321705" lon="-7.162916748660939">
    <tag k="addr:postcode" v="HS6 5AE"/>
    <tag k="removemelater" v="yes"/>
  </node>
  <node id="-696" lat="57.61226582570574" lon="-7.158081037937249">
    <tag k="addr:postcode" v="HS6 5AF"/>
    <tag k="removemelater" v="yes"/>
  </node>
  <node id="-697" lat="57.607384011979484" lon="-7.178174721386647">
    <tag k="addr:postcode" v="HS6 5AG"/>
    <tag k="removemelater" v="yes"/>
  </node>
  <node id="-698" lat="57.59793122339176" lon="-7.183983738083951">
    <tag k="addr:postcode" v="HS6 5AH"/>
    <tag k="removemelater" v="yes"/>
  </node>
  <node id="-699" lat="57.71244991187551" lon="-7.281694818163657">
    <tag k="addr:postcode" v="HS6 5AJ"/>
    <tag k="removemelater" v="yes"/>
  </node>
  <node id="-700" lat="57.56999017582754" lon="-7.39638259307654">
    <tag k="addr:postcode" v="HS6 5AL"/>
    <tag k="removemelater" v="yes"/>
  </node>
  <node id="-701" lat="57.64135182409401" lon="-7.286624019237044">
    <tag k="addr:postcode" v="HS6 5AN"/>
    <tag k="removemelater" v="yes"/>
  </node>
  <node id="-702" lat="57.619885333286895" lon="-7.198438048880461">
    <tag k="addr:postcode" v="HS6 5AP"/>
    <tag k="removemelater" v="yes"/>
  </node>
  <node id="-703" lat="57.62479908903385" lon="-7.199292774170052">
    <tag k="addr:postcode" v="HS6 5AR"/>
    <tag k="removemelater" v="yes"/>
  </node>
  <node id="-704" lat="57.62949728946297" lon="-7.136023638457692">
    <tag k="addr:postcode" v="HS6 5AS"/>
    <tag k="removemelater" v="yes"/>
  </node>
  <node id="-705" lat="57.64691565542522" lon="-7.0943382812039495">
    <tag k="addr:postcode" v="HS6 5AT"/>
    <tag k="removemelater" v="yes"/>
  </node>
  <node id="-706" lat="57.611183767313804" lon="-7.1818349318089965">
    <tag k="addr:postcode" v="HS6 5AW"/>
    <tag k="removemelater" v="yes"/>
  </node>
  <node id="-707" lat="57.656150036101046" lon="-7.105841404703328">
    <tag k="addr:postcode" v="HS6 5AX"/>
    <tag k="removemelater" v="yes"/>
  </node>
  <node id="-708" lat="57.659176182056626" lon="-7.24030113969729">
    <tag k="addr:postcode" v="HS6 5AY"/>
    <tag k="removemelater" v="yes"/>
  </node>
  <node id="-709" lat="57.67928744162827" lon="-7.214453074416829">
    <tag k="addr:postcode" v="HS6 5AZ"/>
    <tag k="removemelater" v="yes"/>
  </node>
  <node id="-710" lat="57.71705177622193" lon="-7.173571935900925">
    <tag k="addr:postcode" v="HS6 5BB"/>
    <tag k="removemelater" v="yes"/>
  </node>
  <node id="-711" lat="57.71738956661086" lon="-7.173233516635247">
    <tag k="addr:postcode" v="HS6 5BD"/>
    <tag k="removemelater" v="yes"/>
  </node>
  <node id="-712" lat="57.72554679056554" lon="-7.175746162412594">
    <tag k="addr:postcode" v="HS6 5BE"/>
    <tag k="removemelater" v="yes"/>
  </node>
  <node id="-713" lat="57.71921938611691" lon="-7.174033378090338">
    <tag k="addr:postcode" v="HS6 5BF"/>
    <tag k="removemelater" v="yes"/>
  </node>
  <node id="-714" lat="57.72162717378736" lon="-7.162908880206261">
    <tag k="addr:postcode" v="HS6 5BG"/>
    <tag k="removemelater" v="yes"/>
  </node>
  <node id="-715" lat="57.71333410444608" lon="-7.170972195730984">
    <tag k="addr:postcode" v="HS6 5BH"/>
    <tag k="removemelater" v="yes"/>
  </node>
  <node id="-716" lat="57.712041036115785" lon="-7.181883513575318">
    <tag k="addr:postcode" v="HS6 5BJ"/>
    <tag k="removemelater" v="yes"/>
  </node>
  <node id="-717" lat="57.7120895865572" lon="-7.175653060463391">
    <tag k="addr:postcode" v="HS6 5BL"/>
    <tag k="removemelater" v="yes"/>
  </node>
  <node id="-718" lat="57.65280475355836" lon="-7.325190501212169">
    <tag k="addr:postcode" v="HS6 5BP"/>
    <tag k="removemelater" v="yes"/>
  </node>
  <node id="-719" lat="57.722780753546424" lon="-7.157137127513419">
    <tag k="addr:postcode" v="HS6 5BQ"/>
    <tag k="removemelater" v="yes"/>
  </node>
  <node id="-720" lat="57.718023992144154" lon="-7.157501324280003">
    <tag k="addr:postcode" v="HS6 5BR"/>
    <tag k="removemelater" v="yes"/>
  </node>
  <node id="-721" lat="57.65127849814059" lon="-7.346166996237228">
    <tag k="addr:postcode" v="HS6 5BT"/>
    <tag k="removemelater" v="yes"/>
  </node>
  <node id="-722" lat="57.64741386909655" lon="-7.358772876605163">
    <tag k="addr:postcode" v="HS6 5BU"/>
    <tag k="removemelater" v="yes"/>
  </node>
  <node id="-723" lat="57.64652918301971" lon="-7.272576117081818">
    <tag k="addr:postcode" v="HS6 5BW"/>
    <tag k="removemelater" v="yes"/>
  </node>
  <node id="-724" lat="57.6424185391268" lon="-7.374229532651421">
    <tag k="addr:postcode" v="HS6 5BX"/>
    <tag k="removemelater" v="yes"/>
  </node>
  <node id="-725" lat="57.63642249726934" lon="-7.395993639053313">
    <tag k="addr:postcode" v="HS6 5BY"/>
    <tag k="removemelater" v="yes"/>
  </node>
  <node id="-726" lat="57.65371275104599" lon="-7.447857417238328">
    <tag k="addr:postcode" v="HS6 5BZ"/>
    <tag k="removemelater" v="yes"/>
  </node>
  <node id="-727" lat="57.63734276338826" lon="-7.3752896567988815">
    <tag k="addr:postcode" v="HS6 5DA"/>
    <tag k="removemelater" v="yes"/>
  </node>
  <node id="-728" lat="57.61638057572396" lon="-7.5017579946467885">
    <tag k="addr:postcode" v="HS6 5DE"/>
    <tag k="removemelater" v="yes"/>
  </node>
  <node id="-729" lat="57.62104014338382" lon="-7.486948613842092">
    <tag k="addr:postcode" v="HS6 5DF"/>
    <tag k="removemelater" v="yes"/>
  </node>
  <node id="-730" lat="57.627198217388994" lon="-7.491654676682009">
    <tag k="addr:postcode" v="HS6 5DG"/>
    <tag k="removemelater" v="yes"/>
  </node>
  <node id="-731" lat="57.64230488624551" lon="-7.487413681511373">
    <tag k="addr:postcode" v="HS6 5DH"/>
    <tag k="removemelater" v="yes"/>
  </node>
  <node id="-732" lat="57.60882330334295" lon="-7.516928323777188">
    <tag k="addr:postcode" v="HS6 5DL"/>
    <tag k="removemelater" v="yes"/>
  </node>
  <node id="-733" lat="57.63242846340759" lon="-7.488939689563168">
    <tag k="addr:postcode" v="HS6 5DQ"/>
    <tag k="removemelater" v="yes"/>
  </node>
  <node id="-734" lat="57.5867186397785" lon="-7.4426527629054355">
    <tag k="addr:postcode" v="HS6 5DS"/>
    <tag k="removemelater" v="yes"/>
  </node>
  <node id="-735" lat="57.5850425505369" lon="-7.428309526464381">
    <tag k="addr:postcode" v="HS6 5DT"/>
    <tag k="removemelater" v="yes"/>
  </node>
  <node id="-736" lat="57.57971418856497" lon="-7.415568261387589">
    <tag k="addr:postcode" v="HS6 5DU"/>
    <tag k="removemelater" v="yes"/>
  </node>
  <node id="-737" lat="57.60164691703011" lon="-7.4885614243468765">
    <tag k="addr:postcode" v="HS6 5DW"/>
    <tag k="removemelater" v="yes"/>
  </node>
  <node id="-738" lat="57.58388582008414" lon="-7.442396072147625">
    <tag k="addr:postcode" v="HS6 5DX"/>
    <tag k="removemelater" v="yes"/>
  </node>
  <node id="-739" lat="57.57793621241892" lon="-7.431989440914174">
    <tag k="addr:postcode" v="HS6 5DY"/>
    <tag k="removemelater" v="yes"/>
  </node>
  <node id="-740" lat="57.58085882438569" lon="-7.447672912929185">
    <tag k="addr:postcode" v="HS6 5DZ"/>
    <tag k="removemelater" v="yes"/>
  </node>
  <node id="-741" lat="57.578556567766014" lon="-7.462389475689405">
    <tag k="addr:postcode" v="HS6 5EB"/>
    <tag k="removemelater" v="yes"/>
  </node>
  <node id="-742" lat="57.58849902167385" lon="-7.4634818776342176">
    <tag k="addr:postcode" v="HS6 5ED"/>
    <tag k="removemelater" v="yes"/>
  </node>
  <node id="-743" lat="57.58789806534652" lon="-7.474837379339371">
    <tag k="addr:postcode" v="HS6 5EF"/>
    <tag k="removemelater" v="yes"/>
  </node>
  <node id="-744" lat="57.521020089972076" lon="-7.315700080785311">
    <tag k="addr:postcode" v="HS6 5EH"/>
    <tag k="removemelater" v="yes"/>
  </node>
  <node id="-745" lat="57.52435285768123" lon="-7.314346377935564">
    <tag k="addr:postcode" v="HS6 5EL"/>
    <tag k="removemelater" v="yes"/>
  </node>
  <node id="-746" lat="57.53719519485" lon="-7.320504191776376">
    <tag k="addr:postcode" v="HS6 5EN"/>
    <tag k="removemelater" v="yes"/>
  </node>
  <node id="-747" lat="57.56532322017565" lon="-7.384519973928172">
    <tag k="addr:postcode" v="HS6 5EP"/>
    <tag k="removemelater" v="yes"/>
  </node>
  <node id="-748" lat="57.55651903842037" lon="-7.357366429292137">
    <tag k="addr:postcode" v="HS6 5ES"/>
    <tag k="removemelater" v="yes"/>
  </node>
  <node id="-749" lat="57.54886005845065" lon="-7.3546320458842045">
    <tag k="addr:postcode" v="HS6 5ET"/>
    <tag k="removemelater" v="yes"/>
  </node>
  <node id="-750" lat="57.55126002357763" lon="-7.269580463423875">
    <tag k="addr:postcode" v="HS6 5EU"/>
    <tag k="removemelater" v="yes"/>
  </node>
  <node id="-751" lat="57.57477273324273" lon="-7.404898562598215">
    <tag k="addr:postcode" v="HS6 5EW"/>
    <tag k="removemelater" v="yes"/>
  </node>
  <node id="-752" lat="57.55172426268329" lon="-7.21280254393612">
    <tag k="addr:postcode" v="HS6 5EX"/>
    <tag k="removemelater" v="yes"/>
  </node>
  <node id="-753" lat="57.565816838293586" lon="-7.291331973309838">
    <tag k="addr:postcode" v="HS6 5HA"/>
    <tag k="removemelater" v="yes"/>
  </node>
  <node id="-754" lat="57.552443084831374" lon="-7.334669035102621">
    <tag k="addr:postcode" v="HS6 5HD"/>
    <tag k="removemelater" v="yes"/>
  </node>
  <node id="-755" lat="57.544292505343684" lon="-7.342462058902026">
    <tag k="addr:postcode" v="HS6 5HE"/>
    <tag k="removemelater" v="yes"/>
  </node>
  <node id="-756" lat="57.53150718862235" lon="-7.365046917233466">
    <tag k="addr:postcode" v="HS6 5HG"/>
    <tag k="removemelater" v="yes"/>
  </node>
  <node id="-757" lat="57.514803904944685" lon="-7.319910531206339">
    <tag k="addr:postcode" v="HS6 5HL"/>
    <tag k="removemelater" v="yes"/>
  </node>
  <node id="-758" lat="57.517245443526605" lon="-7.282454741692155">
    <tag k="addr:postcode" v="HS6 5HN"/>
    <tag k="removemelater" v="yes"/>
  </node>
  <node id="-759" lat="57.510951219121104" lon="-7.258702473604345">
    <tag k="addr:postcode" v="HS6 5HP"/>
    <tag k="removemelater" v="yes"/>
  </node>
  <node id="-760" lat="57.5334349295145" lon="-7.387969308109047">
    <tag k="addr:postcode" v="HS6 5HQ"/>
    <tag k="removemelater" v="yes"/>
  </node>
  <node id="-761" lat="57.523030590404105" lon="-7.313266999531765">
    <tag k="addr:postcode" v="HS6 5HR"/>
    <tag k="removemelater" v="yes"/>
  </node>
  <node id="-762" lat="57.49541610775489" lon="-7.267392910588567">
    <tag k="addr:postcode" v="HS6 5HT"/>
    <tag k="removemelater" v="yes"/>
  </node>
  <node id="-763" lat="57.500483033838414" lon="-7.249503735824977">
    <tag k="addr:postcode" v="HS6 5HU"/>
    <tag k="removemelater" v="yes"/>
  </node>
  <node id="-764" lat="57.51816996596225" lon="-7.269845218684594">
    <tag k="addr:postcode" v="HS6 5HW"/>
    <tag k="removemelater" v="yes"/>
  </node>
  <node id="-765" lat="57.48924350567455" lon="-7.221835438296168">
    <tag k="addr:postcode" v="HS6 5HX"/>
    <tag k="removemelater" v="yes"/>
  </node>
  <node id="-766" lat="57.48005288266586" lon="-7.209979185626084">
    <tag k="addr:postcode" v="HS6 5HY"/>
    <tag k="removemelater" v="yes"/>
  </node>
  <node id="-767" lat="57.48577283382995" lon="-7.239517493689223">
    <tag k="addr:postcode" v="HS6 5JA"/>
    <tag k="removemelater" v="yes"/>
  </node>
  <node id="-768" lat="57.489374236587196" lon="-7.256511008311653">
    <tag k="addr:postcode" v="HS6 5JB"/>
    <tag k="removemelater" v="yes"/>
  </node>
  <node id="-769" lat="57.46430941072656" lon="-7.379802435072073">
    <tag k="addr:postcode" v="HS7 5AA"/>
    <tag k="removemelater" v="yes"/>
  </node>
  <node id="-770" lat="57.47445146867416" lon="-7.374966093515636">
    <tag k="addr:postcode" v="HS7 5AD"/>
    <tag k="removemelater" v="yes"/>
  </node>
  <node id="-771" lat="57.471274895805784" lon="-7.371591960751432">
    <tag k="addr:postcode" v="HS7 5LA"/>
    <tag k="removemelater" v="yes"/>
  </node>
  <node id="-772" lat="57.472084928966815" lon="-7.381482887468584">
    <tag k="addr:postcode" v="HS7 5LB"/>
    <tag k="removemelater" v="yes"/>
  </node>
  <node id="-773" lat="57.47262315148975" lon="-7.387408688676659">
    <tag k="addr:postcode" v="HS7 5LD"/>
    <tag k="removemelater" v="yes"/>
  </node>
  <node id="-774" lat="57.47153039056932" lon="-7.39190774058509">
    <tag k="addr:postcode" v="HS7 5LE"/>
    <tag k="removemelater" v="yes"/>
  </node>
  <node id="-775" lat="57.4723105687899" lon="-7.390502915065032">
    <tag k="addr:postcode" v="HS7 5LF"/>
    <tag k="removemelater" v="yes"/>
  </node>
  <node id="-776" lat="57.47306410453725" lon="-7.388459331101072">
    <tag k="addr:postcode" v="HS7 5LH"/>
    <tag k="removemelater" v="yes"/>
  </node>
  <node id="-777" lat="57.47196802834942" lon="-7.378325340616842">
    <tag k="addr:postcode" v="HS7 5LN"/>
    <tag k="removemelater" v="yes"/>
  </node>
  <node id="-778" lat="57.47215618253494" lon="-7.386755128647417">
    <tag k="addr:postcode" v="HS7 5LQ"/>
    <tag k="removemelater" v="yes"/>
  </node>
  <node id="-779" lat="57.473126918493676" lon="-7.39413141398314">
    <tag k="addr:postcode" v="HS7 5LS"/>
    <tag k="removemelater" v="yes"/>
  </node>
  <node id="-780" lat="57.46526669257453" lon="-7.384769999575501">
    <tag k="addr:postcode" v="HS7 5LT"/>
    <tag k="removemelater" v="yes"/>
  </node>
  <node id="-781" lat="57.457427314049326" lon="-7.3948680756659355">
    <tag k="addr:postcode" v="HS7 5LU"/>
    <tag k="removemelater" v="yes"/>
  </node>
  <node id="-782" lat="57.471806752988016" lon="-7.355534620385">
    <tag k="addr:postcode" v="HS7 5LX"/>
    <tag k="removemelater" v="yes"/>
  </node>
  <node id="-783" lat="57.474639990892726" lon="-7.339696714800788">
    <tag k="addr:postcode" v="HS7 5LY"/>
    <tag k="removemelater" v="yes"/>
  </node>
  <node id="-784" lat="57.479808529341284" lon="-7.324765241934899">
    <tag k="addr:postcode" v="HS7 5LZ"/>
    <tag k="removemelater" v="yes"/>
  </node>
  <node id="-785" lat="57.47232674307635" lon="-7.394113388965896">
    <tag k="addr:postcode" v="HS7 5ND"/>
    <tag k="removemelater" v="yes"/>
  </node>
  <node id="-786" lat="57.471469577025935" lon="-7.3935357212421975">
    <tag k="addr:postcode" v="HS7 5NE"/>
    <tag k="removemelater" v="yes"/>
  </node>
  <node id="-787" lat="57.472637158607895" lon="-7.392121343631449">
    <tag k="addr:postcode" v="HS7 5NF"/>
    <tag k="removemelater" v="yes"/>
  </node>
  <node id="-788" lat="57.47187860346399" lon="-7.377259830077097">
    <tag k="addr:postcode" v="HS7 5NG"/>
    <tag k="removemelater" v="yes"/>
  </node>
  <node id="-789" lat="57.411446224931595" lon="-7.3342399207643005">
    <tag k="addr:postcode" v="HS7 5PH"/>
    <tag k="removemelater" v="yes"/>
  </node>
  <node id="-790" lat="57.42557447887037" lon="-7.358571281246052">
    <tag k="addr:postcode" v="HS7 5PJ"/>
    <tag k="removemelater" v="yes"/>
  </node>
  <node id="-791" lat="57.42086376668939" lon="-7.3434528585695125">
    <tag k="addr:postcode" v="HS7 5PL"/>
    <tag k="removemelater" v="yes"/>
  </node>
  <node id="-792" lat="57.43687512784385" lon="-7.388096208754288">
    <tag k="addr:postcode" v="HS7 5PN"/>
    <tag k="removemelater" v="yes"/>
  </node>
  <node id="-793" lat="57.43405431140525" lon="-7.3608320763375135">
    <tag k="addr:postcode" v="HS7 5PP"/>
    <tag k="removemelater" v="yes"/>
  </node>
  <node id="-794" lat="57.4119977156152" lon="-7.334603810713573">
    <tag k="addr:postcode" v="HS7 5PQ"/>
    <tag k="removemelater" v="yes"/>
  </node>
  <node id="-795" lat="57.40945044548237" lon="-7.310187802820987">
    <tag k="addr:postcode" v="HS7 5PR"/>
    <tag k="removemelater" v="yes"/>
  </node>
  <node id="-796" lat="57.40436540636635" lon="-7.279457313889152">
    <tag k="addr:postcode" v="HS7 5PS"/>
    <tag k="removemelater" v="yes"/>
  </node>
  <node id="-797" lat="57.39606025376235" lon="-7.252824702209728">
    <tag k="addr:postcode" v="HS7 5PT"/>
    <tag k="removemelater" v="yes"/>
  </node>
  <node id="-798" lat="57.409535434611875" lon="-7.3290089981552935">
    <tag k="addr:postcode" v="HS7 5PW"/>
    <tag k="removemelater" v="yes"/>
  </node>
  <node id="-799" lat="57.4227687172647" lon="-7.336108048044193">
    <tag k="addr:postcode" v="HS7 5PY"/>
    <tag k="removemelater" v="yes"/>
  </node>
  <node id="-800" lat="57.4296203935927" lon="-7.338359233798295">
    <tag k="addr:postcode" v="HS7 5PZ"/>
    <tag k="removemelater" v="yes"/>
  </node>
  <node id="-801" lat="57.442821575337966" lon="-7.358462966404171">
    <tag k="addr:postcode" v="HS7 5QA"/>
    <tag k="removemelater" v="yes"/>
  </node>
  <node id="-802" lat="57.44175941109891" lon="-7.3527662580352935">
    <tag k="addr:postcode" v="HS7 5QB"/>
    <tag k="removemelater" v="yes"/>
  </node>
  <node id="-803" lat="57.41246836246941" lon="-7.309258375723772">
    <tag k="addr:postcode" v="HS7 5QD"/>
    <tag k="removemelater" v="yes"/>
  </node>
  <node id="-804" lat="57.416159667408515" lon="-7.299837672283767">
    <tag k="addr:postcode" v="HS7 5QF"/>
    <tag k="removemelater" v="yes"/>
  </node>
  <node id="-805" lat="57.41136344758886" lon="-7.268594461555373">
    <tag k="addr:postcode" v="HS7 5QG"/>
    <tag k="removemelater" v="yes"/>
  </node>
  <node id="-806" lat="57.414811317423485" lon="-7.23562187935415">
    <tag k="addr:postcode" v="HS7 5QH"/>
    <tag k="removemelater" v="yes"/>
  </node>
  <node id="-807" lat="57.426192051349126" lon="-7.212296149743724">
    <tag k="addr:postcode" v="HS7 5QJ"/>
    <tag k="removemelater" v="yes"/>
  </node>
  <node id="-808" lat="57.42932149066826" lon="-7.220366043422813">
    <tag k="addr:postcode" v="HS7 5QL"/>
    <tag k="removemelater" v="yes"/>
  </node>
  <node id="-809" lat="57.47935207619422" lon="-7.305753554899878">
    <tag k="addr:postcode" v="HS7 5QP"/>
    <tag k="removemelater" v="yes"/>
  </node>
  <node id="-810" lat="57.476807009447626" lon="-7.285838687097749">
    <tag k="addr:postcode" v="HS7 5QR"/>
    <tag k="removemelater" v="yes"/>
  </node>
  <node id="-811" lat="57.47636663623693" lon="-7.271459039820769">
    <tag k="addr:postcode" v="HS7 5QS"/>
    <tag k="removemelater" v="yes"/>
  </node>
  <node id="-812" lat="57.24094375760246" lon="-7.384031952148697">
    <tag k="addr:postcode" v="HS8 5AB"/>
    <tag k="removemelater" v="yes"/>
  </node>
  <node id="-813" lat="57.30065343011936" lon="-7.369369211381905">
    <tag k="addr:postcode" v="HS8 5AD"/>
    <tag k="removemelater" v="yes"/>
  </node>
  <node id="-814" lat="57.085886889512935" lon="-7.300588303284113">
    <tag k="addr:postcode" v="HS8 5JH"/>
    <tag k="removemelater" v="yes"/>
  </node>
  <node id="-815" lat="57.08596048789347" lon="-7.306912585649967">
    <tag k="addr:postcode" v="HS8 5JJ"/>
    <tag k="removemelater" v="yes"/>
  </node>
  <node id="-816" lat="57.08231138538661" lon="-7.308290540769938">
    <tag k="addr:postcode" v="HS8 5JL"/>
    <tag k="removemelater" v="yes"/>
  </node>
  <node id="-817" lat="57.073314246334334" lon="-7.303796734100427">
    <tag k="addr:postcode" v="HS8 5JN"/>
    <tag k="removemelater" v="yes"/>
  </node>
  <node id="-818" lat="57.06556427240722" lon="-7.296840454696045">
    <tag k="addr:postcode" v="HS8 5JP"/>
    <tag k="removemelater" v="yes"/>
  </node>
  <node id="-819" lat="57.0882941243441" lon="-7.290073084446326">
    <tag k="addr:postcode" v="HS8 5JR"/>
    <tag k="removemelater" v="yes"/>
  </node>
  <node id="-820" lat="57.084739718651136" lon="-7.307051766785924">
    <tag k="addr:postcode" v="HS8 5JT"/>
    <tag k="removemelater" v="yes"/>
  </node>
  <node id="-821" lat="57.08478229893068" lon="-7.308380078860123">
    <tag k="addr:postcode" v="HS8 5JU"/>
    <tag k="removemelater" v="yes"/>
  </node>
  <node id="-822" lat="57.072075338226526" lon="-7.297787247977857">
    <tag k="addr:postcode" v="HS8 5JW"/>
    <tag k="removemelater" v="yes"/>
  </node>
  <node id="-823" lat="57.35288971253022" lon="-7.259592242338813">
    <tag k="addr:postcode" v="HS8 5NA"/>
    <tag k="removemelater" v="yes"/>
  </node>
  <node id="-824" lat="57.33121665026253" lon="-7.279197559307104">
    <tag k="addr:postcode" v="HS8 5NS"/>
    <tag k="removemelater" v="yes"/>
  </node>
  <node id="-825" lat="57.37012867746606" lon="-7.293695784427963">
    <tag k="addr:postcode" v="HS8 5NU"/>
    <tag k="removemelater" v="yes"/>
  </node>
  <node id="-826" lat="57.36905181417086" lon="-7.282514171202205">
    <tag k="addr:postcode" v="HS8 5NX"/>
    <tag k="removemelater" v="yes"/>
  </node>
  <node id="-827" lat="57.35941205310535" lon="-7.26950273196735">
    <tag k="addr:postcode" v="HS8 5NY"/>
    <tag k="removemelater" v="yes"/>
  </node>
  <node id="-828" lat="57.34332830247219" lon="-7.268290921138039">
    <tag k="addr:postcode" v="HS8 5NZ"/>
    <tag k="removemelater" v="yes"/>
  </node>
  <node id="-829" lat="57.37000354594114" lon="-7.2887641394756795">
    <tag k="addr:postcode" v="HS8 5PD"/>
    <tag k="removemelater" v="yes"/>
  </node>
  <node id="-830" lat="57.38482216284635" lon="-7.304183997250806">
    <tag k="addr:postcode" v="HS8 5PE"/>
    <tag k="removemelater" v="yes"/>
  </node>
  <node id="-831" lat="57.39865301792878" lon="-7.350662417487596">
    <tag k="addr:postcode" v="HS8 5QX"/>
    <tag k="removemelater" v="yes"/>
  </node>
  <node id="-832" lat="57.389559061101856" lon="-7.327701616107131">
    <tag k="addr:postcode" v="HS8 5QY"/>
    <tag k="removemelater" v="yes"/>
  </node>
  <node id="-833" lat="57.393205686683935" lon="-7.36991739278061">
    <tag k="addr:postcode" v="HS8 5RA"/>
    <tag k="removemelater" v="yes"/>
  </node>
  <node id="-834" lat="57.3972908391269" lon="-7.3869528563517335">
    <tag k="addr:postcode" v="HS8 5RB"/>
    <tag k="removemelater" v="yes"/>
  </node>
  <node id="-835" lat="57.39258027814615" lon="-7.393543522088566">
    <tag k="addr:postcode" v="HS8 5RD"/>
    <tag k="removemelater" v="yes"/>
  </node>
  <node id="-836" lat="57.3879361693804" lon="-7.407991871435833">
    <tag k="addr:postcode" v="HS8 5RE"/>
    <tag k="removemelater" v="yes"/>
  </node>
  <node id="-837" lat="57.38559117543424" lon="-7.4229271223008135">
    <tag k="addr:postcode" v="HS8 5RF"/>
    <tag k="removemelater" v="yes"/>
  </node>
  <node id="-838" lat="57.38576718270046" lon="-7.365193903232932">
    <tag k="addr:postcode" v="HS8 5RG"/>
    <tag k="removemelater" v="yes"/>
  </node>
  <node id="-839" lat="57.39300918881423" lon="-7.334403776228473">
    <tag k="addr:postcode" v="HS8 5RJ"/>
    <tag k="removemelater" v="yes"/>
  </node>
  <node id="-840" lat="57.39206605691116" lon="-7.341349751366993">
    <tag k="addr:postcode" v="HS8 5RL"/>
    <tag k="removemelater" v="yes"/>
  </node>
  <node id="-841" lat="57.35356343112042" lon="-7.358766435344311">
    <tag k="addr:postcode" v="HS8 5RP"/>
    <tag k="removemelater" v="yes"/>
  </node>
  <node id="-842" lat="57.392564679914734" lon="-7.352889448663018">
    <tag k="addr:postcode" v="HS8 5RQ"/>
    <tag k="removemelater" v="yes"/>
  </node>
  <node id="-843" lat="57.33231879965857" lon="-7.363551322655083">
    <tag k="addr:postcode" v="HS8 5RR"/>
    <tag k="removemelater" v="yes"/>
  </node>
  <node id="-844" lat="57.3239006067216" lon="-7.368060822080884">
    <tag k="addr:postcode" v="HS8 5RS"/>
    <tag k="removemelater" v="yes"/>
  </node>
  <node id="-845" lat="57.31100840823183" lon="-7.380994098694312">
    <tag k="addr:postcode" v="HS8 5RT"/>
    <tag k="removemelater" v="yes"/>
  </node>
  <node id="-846" lat="57.3911514159726" lon="-7.340849674273774">
    <tag k="addr:postcode" v="HS8 5RU"/>
    <tag k="removemelater" v="yes"/>
  </node>
  <node id="-847" lat="57.353669834699325" lon="-7.363860093470253">
    <tag k="addr:postcode" v="HS8 5RW"/>
    <tag k="removemelater" v="yes"/>
  </node>
  <node id="-848" lat="57.20244663368482" lon="-7.399651869224929">
    <tag k="addr:postcode" v="HS8 5RX"/>
    <tag k="removemelater" v="yes"/>
  </node>
  <node id="-849" lat="57.21128948305807" lon="-7.397231701517177">
    <tag k="addr:postcode" v="HS8 5RY"/>
    <tag k="removemelater" v="yes"/>
  </node>
  <node id="-850" lat="57.22253013301975" lon="-7.412448906774336">
    <tag k="addr:postcode" v="HS8 5RZ"/>
    <tag k="removemelater" v="yes"/>
  </node>
  <node id="-851" lat="57.24238792288184" lon="-7.399199177170047">
    <tag k="addr:postcode" v="HS8 5SA"/>
    <tag k="removemelater" v="yes"/>
  </node>
  <node id="-852" lat="57.25804798007528" lon="-7.392279695879903">
    <tag k="addr:postcode" v="HS8 5SB"/>
    <tag k="removemelater" v="yes"/>
  </node>
  <node id="-853" lat="57.276435823493216" lon="-7.401222592122606">
    <tag k="addr:postcode" v="HS8 5SD"/>
    <tag k="removemelater" v="yes"/>
  </node>
  <node id="-854" lat="57.290290417884364" lon="-7.401330163873283">
    <tag k="addr:postcode" v="HS8 5SF"/>
    <tag k="removemelater" v="yes"/>
  </node>
  <node id="-855" lat="57.28945342974335" lon="-7.385849606018765">
    <tag k="addr:postcode" v="HS8 5SG"/>
    <tag k="removemelater" v="yes"/>
  </node>
  <node id="-856" lat="57.23887464917202" lon="-7.361770820450153">
    <tag k="addr:postcode" v="HS8 5SJ"/>
    <tag k="removemelater" v="yes"/>
  </node>
  <node id="-857" lat="57.22763588803572" lon="-7.352270593035418">
    <tag k="addr:postcode" v="HS8 5SL"/>
    <tag k="removemelater" v="yes"/>
  </node>
  <node id="-858" lat="57.2354143446156" lon="-7.339543232269846">
    <tag k="addr:postcode" v="HS8 5SN"/>
    <tag k="removemelater" v="yes"/>
  </node>
  <node id="-859" lat="57.29219210288458" lon="-7.378654705895381">
    <tag k="addr:postcode" v="HS8 5SQ"/>
    <tag k="removemelater" v="yes"/>
  </node>
  <node id="-860" lat="57.16511053012599" lon="-7.372194834839179">
    <tag k="addr:postcode" v="HS8 5SS"/>
    <tag k="removemelater" v="yes"/>
  </node>
  <node id="-861" lat="57.167271173322966" lon="-7.364624015269238">
    <tag k="addr:postcode" v="HS8 5ST"/>
    <tag k="removemelater" v="yes"/>
  </node>
  <node id="-862" lat="57.16659800294667" lon="-7.3629028731101664">
    <tag k="addr:postcode" v="HS8 5SU"/>
    <tag k="removemelater" v="yes"/>
  </node>
  <node id="-863" lat="57.17506163056903" lon="-7.376227380127026">
    <tag k="addr:postcode" v="HS8 5SX"/>
    <tag k="removemelater" v="yes"/>
  </node>
  <node id="-864" lat="57.18711965796388" lon="-7.396331762605583">
    <tag k="addr:postcode" v="HS8 5SY"/>
    <tag k="removemelater" v="yes"/>
  </node>
  <node id="-865" lat="57.15894378619172" lon="-7.369310710553124">
    <tag k="addr:postcode" v="HS8 5SZ"/>
    <tag k="removemelater" v="yes"/>
  </node>
  <node id="-866" lat="57.1556197917516" lon="-7.381744612327591">
    <tag k="addr:postcode" v="HS8 5TB"/>
    <tag k="removemelater" v="yes"/>
  </node>
  <node id="-867" lat="57.13731976696398" lon="-7.388532019993621">
    <tag k="addr:postcode" v="HS8 5TD"/>
    <tag k="removemelater" v="yes"/>
  </node>
  <node id="-868" lat="57.1297762578675" lon="-7.376030942903342">
    <tag k="addr:postcode" v="HS8 5TE"/>
    <tag k="removemelater" v="yes"/>
  </node>
  <node id="-869" lat="57.12847848687322" lon="-7.362868752270087">
    <tag k="addr:postcode" v="HS8 5TF"/>
    <tag k="removemelater" v="yes"/>
  </node>
  <node id="-870" lat="57.16527942082426" lon="-7.360491801912242">
    <tag k="addr:postcode" v="HS8 5TG"/>
    <tag k="removemelater" v="yes"/>
  </node>
  <node id="-871" lat="57.15415156461359" lon="-7.3156748195497805">
    <tag k="addr:postcode" v="HS8 5TH"/>
    <tag k="removemelater" v="yes"/>
  </node>
  <node id="-872" lat="57.154349843546974" lon="-7.3080365785871555">
    <tag k="addr:postcode" v="HS8 5TJ"/>
    <tag k="removemelater" v="yes"/>
  </node>
  <node id="-873" lat="57.153822554395056" lon="-7.3083748066036325">
    <tag k="addr:postcode" v="HS8 5TL"/>
    <tag k="removemelater" v="yes"/>
  </node>
  <node id="-874" lat="57.16057346720238" lon="-7.338162296445969">
    <tag k="addr:postcode" v="HS8 5TN"/>
    <tag k="removemelater" v="yes"/>
  </node>
  <node id="-875" lat="57.15295332808786" lon="-7.306378874281851">
    <tag k="addr:postcode" v="HS8 5TP"/>
    <tag k="removemelater" v="yes"/>
  </node>
  <node id="-876" lat="57.108933083010065" lon="-7.37478967634376">
    <tag k="addr:postcode" v="HS8 5TR"/>
    <tag k="removemelater" v="yes"/>
  </node>
  <node id="-877" lat="57.10366403642683" lon="-7.334551799774967">
    <tag k="addr:postcode" v="HS8 5TS"/>
    <tag k="removemelater" v="yes"/>
  </node>
  <node id="-878" lat="57.106597599787456" lon="-7.366098836025604">
    <tag k="addr:postcode" v="HS8 5TT"/>
    <tag k="removemelater" v="yes"/>
  </node>
  <node id="-879" lat="57.11489498754244" lon="-7.371966679516707">
    <tag k="addr:postcode" v="HS8 5TU"/>
    <tag k="removemelater" v="yes"/>
  </node>
  <node id="-880" lat="57.15820816086607" lon="-7.313178134354584">
    <tag k="addr:postcode" v="HS8 5TW"/>
    <tag k="removemelater" v="yes"/>
  </node>
  <node id="-881" lat="57.12411202002992" lon="-7.373602831129699">
    <tag k="addr:postcode" v="HS8 5TX"/>
    <tag k="removemelater" v="yes"/>
  </node>
  <node id="-882" lat="57.125597833363145" lon="-7.361210147968564">
    <tag k="addr:postcode" v="HS8 5TY"/>
    <tag k="removemelater" v="yes"/>
  </node>
  <node id="-883" lat="57.1367790224478" lon="-7.328470518567134">
    <tag k="addr:postcode" v="HS8 5UB"/>
    <tag k="removemelater" v="yes"/>
  </node>
  <node id="-884" lat="57.136339465097564" lon="-7.3059973183596085">
    <tag k="addr:postcode" v="HS8 5UD"/>
    <tag k="removemelater" v="yes"/>
  </node>
  <node id="-885" lat="57.114422663138356" lon="-7.302706031147351">
    <tag k="addr:postcode" v="HS8 5UE"/>
    <tag k="removemelater" v="yes"/>
  </node>
  <node id="-886" lat="57.00124964321327" lon="-7.478212782194797">
    <tag k="addr:postcode" v="HS9 5AB"/>
    <tag k="removemelater" v="yes"/>
  </node>
  <node id="-887" lat="56.963055330202344" lon="-7.441369546568893">
    <tag k="addr:postcode" v="HS9 5UA"/>
    <tag k="removemelater" v="yes"/>
  </node>
  <node id="-888" lat="56.966653803428116" lon="-7.43397047133699">
    <tag k="addr:postcode" v="HS9 5UB"/>
    <tag k="removemelater" v="yes"/>
  </node>
  <node id="-889" lat="56.957774684098496" lon="-7.469095567283714">
    <tag k="addr:postcode" v="HS9 5UH"/>
    <tag k="removemelater" v="yes"/>
  </node>
  <node id="-890" lat="56.953918023671505" lon="-7.481706075043415">
    <tag k="addr:postcode" v="HS9 5UJ"/>
    <tag k="removemelater" v="yes"/>
  </node>
  <node id="-891" lat="56.95256168990521" lon="-7.481440509271001">
    <tag k="addr:postcode" v="HS9 5UL"/>
    <tag k="removemelater" v="yes"/>
  </node>
  <node id="-892" lat="56.962148823040586" lon="-7.446261772134911">
    <tag k="addr:postcode" v="HS9 5UN"/>
    <tag k="removemelater" v="yes"/>
  </node>
  <node id="-893" lat="56.967864814282215" lon="-7.435300688908276">
    <tag k="addr:postcode" v="HS9 5UP"/>
    <tag k="removemelater" v="yes"/>
  </node>
  <node id="-894" lat="56.955751562758316" lon="-7.4803288259413">
    <tag k="addr:postcode" v="HS9 5UQ"/>
    <tag k="removemelater" v="yes"/>
  </node>
  <node id="-895" lat="56.97171494202564" lon="-7.4250036412815295">
    <tag k="addr:postcode" v="HS9 5UR"/>
    <tag k="removemelater" v="yes"/>
  </node>
  <node id="-896" lat="56.98812392077654" lon="-7.414999932085086">
    <tag k="addr:postcode" v="HS9 5UT"/>
    <tag k="removemelater" v="yes"/>
  </node>
  <node id="-897" lat="56.98193959455122" lon="-7.412962240860063">
    <tag k="addr:postcode" v="HS9 5UU"/>
    <tag k="removemelater" v="yes"/>
  </node>
  <node id="-898" lat="56.96488086005566" lon="-7.432937261879209">
    <tag k="addr:postcode" v="HS9 5UW"/>
    <tag k="removemelater" v="yes"/>
  </node>
  <node id="-899" lat="56.99602180398772" lon="-7.416331679886628">
    <tag k="addr:postcode" v="HS9 5UX"/>
    <tag k="removemelater" v="yes"/>
  </node>
  <node id="-900" lat="56.99485957805388" lon="-7.402658097175474">
    <tag k="addr:postcode" v="HS9 5UY"/>
    <tag k="removemelater" v="yes"/>
  </node>
  <node id="-901" lat="56.95223670045947" lon="-7.487602095291735">
    <tag k="addr:postcode" v="HS9 5UZ"/>
    <tag k="removemelater" v="yes"/>
  </node>
  <node id="-902" lat="56.956001934623664" lon="-7.494070662683315">
    <tag k="addr:postcode" v="HS9 5XB"/>
    <tag k="removemelater" v="yes"/>
  </node>
  <node id="-903" lat="56.95349975298418" lon="-7.497341594808039">
    <tag k="addr:postcode" v="HS9 5XE"/>
    <tag k="removemelater" v="yes"/>
  </node>
  <node id="-904" lat="56.95544025332483" lon="-7.49925887503221">
    <tag k="addr:postcode" v="HS9 5XF"/>
    <tag k="removemelater" v="yes"/>
  </node>
  <node id="-905" lat="56.9552241297327" lon="-7.494565347638002">
    <tag k="addr:postcode" v="HS9 5XG"/>
    <tag k="removemelater" v="yes"/>
  </node>
  <node id="-906" lat="56.953349571088125" lon="-7.499114790333319">
    <tag k="addr:postcode" v="HS9 5XH"/>
    <tag k="removemelater" v="yes"/>
  </node>
  <node id="-907" lat="56.95475012438534" lon="-7.499601678773719">
    <tag k="addr:postcode" v="HS9 5XJ"/>
    <tag k="removemelater" v="yes"/>
  </node>
  <node id="-908" lat="56.95821470077363" lon="-7.502469221211653">
    <tag k="addr:postcode" v="HS9 5XL"/>
    <tag k="removemelater" v="yes"/>
  </node>
  <node id="-909" lat="56.95618016372621" lon="-7.50737385229926">
    <tag k="addr:postcode" v="HS9 5XN"/>
    <tag k="removemelater" v="yes"/>
  </node>
  <node id="-910" lat="56.95349929262881" lon="-7.498576877682577">
    <tag k="addr:postcode" v="HS9 5XP"/>
    <tag k="removemelater" v="yes"/>
  </node>
  <node id="-911" lat="56.9537590833695" lon="-7.49635865529479">
    <tag k="addr:postcode" v="HS9 5XQ"/>
    <tag k="removemelater" v="yes"/>
  </node>
  <node id="-912" lat="56.98056380071474" lon="-7.5018191311581175">
    <tag k="addr:postcode" v="HS9 5XR"/>
    <tag k="removemelater" v="yes"/>
  </node>
  <node id="-913" lat="56.98455487770619" lon="-7.500299480222192">
    <tag k="addr:postcode" v="HS9 5XS"/>
    <tag k="removemelater" v="yes"/>
  </node>
  <node id="-914" lat="56.99584074361035" lon="-7.503981135513953">
    <tag k="addr:postcode" v="HS9 5XT"/>
    <tag k="removemelater" v="yes"/>
  </node>
  <node id="-915" lat="57.003839714202506" lon="-7.48379005189117">
    <tag k="addr:postcode" v="HS9 5XU"/>
    <tag k="removemelater" v="yes"/>
  </node>
  <node id="-916" lat="56.9707625415018" lon="-7.5156788607986895">
    <tag k="addr:postcode" v="HS9 5XW"/>
    <tag k="removemelater" v="yes"/>
  </node>
  <node id="-917" lat="57.00957737655342" lon="-7.494122193308759">
    <tag k="addr:postcode" v="HS9 5XX"/>
    <tag k="removemelater" v="yes"/>
  </node>
  <node id="-918" lat="57.002294498676974" lon="-7.435585119118265">
    <tag k="addr:postcode" v="HS9 5XY"/>
    <tag k="removemelater" v="yes"/>
  </node>
  <node id="-919" lat="57.000698884772405" lon="-7.483376092446423">
    <tag k="addr:postcode" v="HS9 5XZ"/>
    <tag k="removemelater" v="yes"/>
  </node>
  <node id="-920" lat="57.00419960980699" lon="-7.420129373117001">
    <tag k="addr:postcode" v="HS9 5YA"/>
    <tag k="removemelater" v="yes"/>
  </node>
  <node id="-921" lat="57.01167225571824" lon="-7.426069420930324">
    <tag k="addr:postcode" v="HS9 5YB"/>
    <tag k="removemelater" v="yes"/>
  </node>
  <node id="-922" lat="57.04018464655455" lon="-7.433489799497767">
    <tag k="addr:postcode" v="HS9 5YD"/>
    <tag k="removemelater" v="yes"/>
  </node>
  <node id="-923" lat="57.041646915509226" lon="-7.4373195536903145">
    <tag k="addr:postcode" v="HS9 5YE"/>
    <tag k="removemelater" v="yes"/>
  </node>
  <node id="-924" lat="56.94786681628889" lon="-7.530288014112443">
    <tag k="addr:postcode" v="HS9 5YF"/>
    <tag k="removemelater" v="yes"/>
  </node>
  <node id="-925" lat="57.00025090182664" lon="-7.421944773992273">
    <tag k="addr:postcode" v="HS9 5YH"/>
    <tag k="removemelater" v="yes"/>
  </node>
  <node id="-926" lat="56.94470538066869" lon="-7.539666347920246">
    <tag k="addr:postcode" v="HS9 5YL"/>
    <tag k="removemelater" v="yes"/>
  </node>
  <node id="-927" lat="56.93439742757967" lon="-7.504367723363422">
    <tag k="addr:postcode" v="HS9 5YN"/>
    <tag k="removemelater" v="yes"/>
  </node>
  <node id="-928" lat="56.94319764118713" lon="-7.530648609604689">
    <tag k="addr:postcode" v="HS9 5YP"/>
    <tag k="removemelater" v="yes"/>
  </node>
  <node id="-929" lat="56.99993800529897" lon="-7.424174906311648">
    <tag k="addr:postcode" v="HS9 5YQ"/>
    <tag k="removemelater" v="yes"/>
  </node>
  <node id="-930" lat="57.033172668906204" lon="-7.434757755149106">
    <tag k="addr:postcode" v="HS9 5YR"/>
    <tag k="removemelater" v="yes"/>
  </node>
  <node id="-931" lat="56.91938602754471" lon="-7.536857872811345">
    <tag k="addr:postcode" v="HS9 5YU"/>
    <tag k="removemelater" v="yes"/>
  </node>
  <node id="-932" lat="56.91944993401045" lon="-7.535419175314733">
    <tag k="addr:postcode" v="HS9 5YW"/>
    <tag k="removemelater" v="yes"/>
  </node>
  <node id="-933" lat="56.95407997275385" lon="-7.497246077832077">
    <tag k="addr:postcode" v="HS9 5ZE"/>
    <tag k="removemelater" v="yes"/>
  </node>
</osm>
