<?xml version="1.0" encoding="UTF-8"?><osm version="0.6" generator="import_postcodes.py" upload="false">
  <node id="-1" lat="58.44538958744334" lon="-3.0941508097132617">
    <tag k="addr:postcode" v="KW1 4AA"/>
    <tag k="removemelater" v="yes"/>
  </node>
  <node id="-2" lat="58.44242480404703" lon="-3.0910780499368156">
    <tag k="addr:postcode" v="KW1 4AB"/>
    <tag k="removemelater" v="yes"/>
  </node>
  <node id="-3" lat="58.441834066782604" lon="-3.092944088154437">
    <tag k="addr:postcode" v="KW1 4AG"/>
    <tag k="removemelater" v="yes"/>
  </node>
  <node id="-4" lat="58.44224529731801" lon="-3.0921174494736747">
    <tag k="addr:postcode" v="KW1 4AH"/>
    <tag k="removemelater" v="yes"/>
  </node>
  <node id="-5" lat="58.44223412903875" lon="-3.092374059942866">
    <tag k="addr:postcode" v="KW1 4AJ"/>
    <tag k="removemelater" v="yes"/>
  </node>
  <node id="-6" lat="58.44153832638963" lon="-3.092866396497179">
    <tag k="addr:postcode" v="KW1 4AP"/>
    <tag k="removemelater" v="yes"/>
  </node>
  <node id="-7" lat="58.44259172977395" lon="-3.089404418491277">
    <tag k="addr:postcode" v="KW1 4AR"/>
    <tag k="removemelater" v="yes"/>
  </node>
  <node id="-8" lat="58.532332396250354" lon="-3.113122494363978">
    <tag k="addr:postcode" v="KW1 4AT"/>
    <tag k="removemelater" v="yes"/>
  </node>
  <node id="-9" lat="58.44286094457683" lon="-3.092599057905802">
    <tag k="addr:postcode" v="KW1 4BP"/>
    <tag k="removemelater" v="yes"/>
  </node>
  <node id="-10" lat="58.443280062519094" lon="-3.0929546709141693">
    <tag k="addr:postcode" v="KW1 4BS"/>
    <tag k="removemelater" v="yes"/>
  </node>
  <node id="-11" lat="58.4441672830608" lon="-3.093187764132628">
    <tag k="addr:postcode" v="KW1 4BY"/>
    <tag k="removemelater" v="yes"/>
  </node>
  <node id="-12" lat="58.44508779132671" lon="-3.093730275140328">
    <tag k="addr:postcode" v="KW1 4DA"/>
    <tag k="removemelater" v="yes"/>
  </node>
  <node id="-13" lat="58.44413143147137" lon="-3.094231665121371">
    <tag k="addr:postcode" v="KW1 4DB"/>
    <tag k="removemelater" v="yes"/>
  </node>
  <node id="-14" lat="58.44488679308245" lon="-3.0951802338833474">
    <tag k="addr:postcode" v="KW1 4DD"/>
    <tag k="removemelater" v="yes"/>
  </node>
  <node id="-15" lat="58.44469373240426" lon="-3.096750344941272">
    <tag k="addr:postcode" v="KW1 4DE"/>
    <tag k="removemelater" v="yes"/>
  </node>
  <node id="-16" lat="58.44606736926167" lon="-3.0989175056241396">
    <tag k="addr:postcode" v="KW1 4DF"/>
    <tag k="removemelater" v="yes"/>
  </node>
  <node id="-17" lat="58.4463120482048" lon="-3.0955157822858013">
    <tag k="addr:postcode" v="KW1 4DG"/>
    <tag k="removemelater" v="yes"/>
  </node>
  <node id="-18" lat="58.44653735756568" lon="-3.0943749072886955">
    <tag k="addr:postcode" v="KW1 4DJ"/>
    <tag k="removemelater" v="yes"/>
  </node>
  <node id="-19" lat="58.447885804412685" lon="-3.0952905817460827">
    <tag k="addr:postcode" v="KW1 4DL"/>
    <tag k="removemelater" v="yes"/>
  </node>
  <node id="-20" lat="58.449046209820295" lon="-3.095086782285211">
    <tag k="addr:postcode" v="KW1 4DN"/>
    <tag k="removemelater" v="yes"/>
  </node>
  <node id="-21" lat="58.44865040029632" lon="-3.093052720091309">
    <tag k="addr:postcode" v="KW1 4DP"/>
    <tag k="removemelater" v="yes"/>
  </node>
  <node id="-22" lat="58.44668381281055" lon="-3.0972063364033477">
    <tag k="addr:postcode" v="KW1 4DQ"/>
    <tag k="removemelater" v="yes"/>
  </node>
  <node id="-23" lat="58.44815090542712" lon="-3.0926431583553735">
    <tag k="addr:postcode" v="KW1 4DR"/>
    <tag k="removemelater" v="yes"/>
  </node>
  <node id="-24" lat="58.447864559467845" lon="-3.0904069662913107">
    <tag k="addr:postcode" v="KW1 4DS"/>
    <tag k="removemelater" v="yes"/>
  </node>
  <node id="-25" lat="58.44707406974668" lon="-3.0904167693802527">
    <tag k="addr:postcode" v="KW1 4DT"/>
    <tag k="removemelater" v="yes"/>
  </node>
  <node id="-26" lat="58.447082117273915" lon="-3.091582048170005">
    <tag k="addr:postcode" v="KW1 4DU"/>
    <tag k="removemelater" v="yes"/>
  </node>
  <node id="-27" lat="58.44827484928952" lon="-3.090745197644005">
    <tag k="addr:postcode" v="KW1 4DW"/>
    <tag k="removemelater" v="yes"/>
  </node>
  <node id="-28" lat="58.447870642426984" lon="-3.0928571986250946">
    <tag k="addr:postcode" v="KW1 4DX"/>
    <tag k="removemelater" v="yes"/>
  </node>
  <node id="-29" lat="58.447146585012106" lon="-3.093502921818813">
    <tag k="addr:postcode" v="KW1 4DY"/>
    <tag k="removemelater" v="yes"/>
  </node>
  <node id="-30" lat="58.44591923678405" lon="-3.092077123512998">
    <tag k="addr:postcode" v="KW1 4DZ"/>
    <tag k="removemelater" v="yes"/>
  </node>
  <node id="-31" lat="58.442904598574025" lon="-3.0937995648934162">
    <tag k="addr:postcode" v="KW1 4EA"/>
    <tag k="removemelater" v="yes"/>
  </node>
  <node id="-32" lat="58.44252643567259" lon="-3.093907742064745">
    <tag k="addr:postcode" v="KW1 4EB"/>
    <tag k="removemelater" v="yes"/>
  </node>
  <node id="-33" lat="58.44379503248734" lon="-3.093655890173972">
    <tag k="addr:postcode" v="KW1 4EE"/>
    <tag k="removemelater" v="yes"/>
  </node>
  <node id="-34" lat="58.4447833587173" lon="-3.091510839984313">
    <tag k="addr:postcode" v="KW1 4HA"/>
    <tag k="removemelater" v="yes"/>
  </node>
  <node id="-35" lat="58.444339423888486" lon="-3.091959638973663">
    <tag k="addr:postcode" v="KW1 4HB"/>
    <tag k="removemelater" v="yes"/>
  </node>
  <node id="-36" lat="58.44494513602944" lon="-3.091498719212869">
    <tag k="addr:postcode" v="KW1 4HD"/>
    <tag k="removemelater" v="yes"/>
  </node>
  <node id="-37" lat="58.44577757203903" lon="-3.0897256277102425">
    <tag k="addr:postcode" v="KW1 4HE"/>
    <tag k="removemelater" v="yes"/>
  </node>
  <node id="-38" lat="58.44510148631361" lon="-3.090013093122247">
    <tag k="addr:postcode" v="KW1 4HF"/>
    <tag k="removemelater" v="yes"/>
  </node>
  <node id="-39" lat="58.44533738493972" lon="-3.0865597391279143">
    <tag k="addr:postcode" v="KW1 4HG"/>
    <tag k="removemelater" v="yes"/>
  </node>
  <node id="-40" lat="58.44382148953292" lon="-3.0894938279596875">
    <tag k="addr:postcode" v="KW1 4HH"/>
    <tag k="removemelater" v="yes"/>
  </node>
  <node id="-41" lat="58.44437632825399" lon="-3.0897336907993664">
    <tag k="addr:postcode" v="KW1 4HJ"/>
    <tag k="removemelater" v="yes"/>
  </node>
  <node id="-42" lat="58.44641534043301" lon="-3.087603793545484">
    <tag k="addr:postcode" v="KW1 4HP"/>
    <tag k="removemelater" v="yes"/>
  </node>
  <node id="-43" lat="58.444730420251375" lon="-3.083988410775155">
    <tag k="addr:postcode" v="KW1 4HQ"/>
    <tag k="removemelater" v="yes"/>
  </node>
  <node id="-44" lat="58.44594222046661" lon="-3.0851392826084503">
    <tag k="addr:postcode" v="KW1 4HR"/>
    <tag k="removemelater" v="yes"/>
  </node>
  <node id="-45" lat="58.44693068232775" lon="-3.08614628736956">
    <tag k="addr:postcode" v="KW1 4HS"/>
    <tag k="removemelater" v="yes"/>
  </node>
  <node id="-46" lat="58.446616266170615" lon="-3.08509151011248">
    <tag k="addr:postcode" v="KW1 4HT"/>
    <tag k="removemelater" v="yes"/>
  </node>
  <node id="-47" lat="58.44545225885939" lon="-3.0846616309726">
    <tag k="addr:postcode" v="KW1 4HU"/>
    <tag k="removemelater" v="yes"/>
  </node>
  <node id="-48" lat="58.444745549599325" lon="-3.0885630247064335">
    <tag k="addr:postcode" v="KW1 4HW"/>
    <tag k="removemelater" v="yes"/>
  </node>
  <node id="-49" lat="58.44518649117469" lon="-3.0831629794800315">
    <tag k="addr:postcode" v="KW1 4HX"/>
    <tag k="removemelater" v="yes"/>
  </node>
  <node id="-50" lat="58.4450856798859" lon="-3.0823375544134053">
    <tag k="addr:postcode" v="KW1 4HY"/>
    <tag k="removemelater" v="yes"/>
  </node>
  <node id="-51" lat="58.44610774123261" lon="-3.0814952005724066">
    <tag k="addr:postcode" v="KW1 4HZ"/>
    <tag k="removemelater" v="yes"/>
  </node>
  <node id="-52" lat="58.4456785729087" lon="-3.08019712267106">
    <tag k="addr:postcode" v="KW1 4JA"/>
    <tag k="removemelater" v="yes"/>
  </node>
  <node id="-53" lat="58.445454111751175" lon="-3.0812524243049007">
    <tag k="addr:postcode" v="KW1 4JB"/>
    <tag k="removemelater" v="yes"/>
  </node>
  <node id="-54" lat="58.44499150727078" lon="-3.08072427747416">
    <tag k="addr:postcode" v="KW1 4JD"/>
    <tag k="removemelater" v="yes"/>
  </node>
  <node id="-55" lat="58.44548578363548" lon="-3.079625857328936">
    <tag k="addr:postcode" v="KW1 4JE"/>
    <tag k="removemelater" v="yes"/>
  </node>
  <node id="-56" lat="58.4462326737148" lon="-3.0794602852729223">
    <tag k="addr:postcode" v="KW1 4JF"/>
    <tag k="removemelater" v="yes"/>
  </node>
  <node id="-57" lat="58.445994695094285" lon="-3.0789218958756948">
    <tag k="addr:postcode" v="KW1 4JG"/>
    <tag k="removemelater" v="yes"/>
  </node>
  <node id="-58" lat="58.44347774221087" lon="-3.0812945713336046">
    <tag k="addr:postcode" v="KW1 4JH"/>
    <tag k="removemelater" v="yes"/>
  </node>
  <node id="-59" lat="58.443115568980566" lon="-3.0784397405259134">
    <tag k="addr:postcode" v="KW1 4JJ"/>
    <tag k="removemelater" v="yes"/>
  </node>
  <node id="-60" lat="58.443824234431254" lon="-3.0785470831197914">
    <tag k="addr:postcode" v="KW1 4JL"/>
    <tag k="removemelater" v="yes"/>
  </node>
  <node id="-61" lat="58.44360862226461" lon="-3.0796197417828473">
    <tag k="addr:postcode" v="KW1 4JN"/>
    <tag k="removemelater" v="yes"/>
  </node>
  <node id="-62" lat="58.44384012767239" lon="-3.07772527282172">
    <tag k="addr:postcode" v="KW1 4JP"/>
    <tag k="removemelater" v="yes"/>
  </node>
  <node id="-63" lat="58.44518711090264" lon="-3.07882864209709">
    <tag k="addr:postcode" v="KW1 4JQ"/>
    <tag k="removemelater" v="yes"/>
  </node>
  <node id="-64" lat="58.443786626840165" lon="-3.0798136378378116">
    <tag k="addr:postcode" v="KW1 4JR"/>
    <tag k="removemelater" v="yes"/>
  </node>
  <node id="-65" lat="58.44693773453963" lon="-3.076792052829917">
    <tag k="addr:postcode" v="KW1 4JS"/>
    <tag k="removemelater" v="yes"/>
  </node>
  <node id="-66" lat="58.446129229509566" lon="-3.0895651795881967">
    <tag k="addr:postcode" v="KW1 4JT"/>
    <tag k="removemelater" v="yes"/>
  </node>
  <node id="-67" lat="58.44282820334397" lon="-3.083758593666146">
    <tag k="addr:postcode" v="KW1 4JW"/>
    <tag k="removemelater" v="yes"/>
  </node>
  <node id="-68" lat="58.44271373599559" lon="-3.08772938519962">
    <tag k="addr:postcode" v="KW1 4JX"/>
    <tag k="removemelater" v="yes"/>
  </node>
  <node id="-69" lat="58.442283609127465" lon="-3.090782460886452">
    <tag k="addr:postcode" v="KW1 4LP"/>
    <tag k="removemelater" v="yes"/>
  </node>
  <node id="-70" lat="58.442767244522344" lon="-3.0898895033365292">
    <tag k="addr:postcode" v="KW1 4LR"/>
    <tag k="removemelater" v="yes"/>
  </node>
  <node id="-71" lat="58.44278771954992" lon="-3.0885368113716676">
    <tag k="addr:postcode" v="KW1 4LU"/>
    <tag k="removemelater" v="yes"/>
  </node>
  <node id="-72" lat="58.44339581194083" lon="-3.0899089427856827">
    <tag k="addr:postcode" v="KW1 4LX"/>
    <tag k="removemelater" v="yes"/>
  </node>
  <node id="-73" lat="58.44288436342097" lon="-3.090903839519871">
    <tag k="addr:postcode" v="KW1 4LY"/>
    <tag k="removemelater" v="yes"/>
  </node>
  <node id="-74" lat="58.44294226370089" lon="-3.091488078291737">
    <tag k="addr:postcode" v="KW1 4NB"/>
    <tag k="removemelater" v="yes"/>
  </node>
  <node id="-75" lat="58.443279754285236" lon="-3.0908818170689454">
    <tag k="addr:postcode" v="KW1 4ND"/>
    <tag k="removemelater" v="yes"/>
  </node>
  <node id="-76" lat="58.44289342817581" lon="-3.0919490962025473">
    <tag k="addr:postcode" v="KW1 4NE"/>
    <tag k="removemelater" v="yes"/>
  </node>
  <node id="-77" lat="58.44231114972891" lon="-3.0928218396293694">
    <tag k="addr:postcode" v="KW1 4NG"/>
    <tag k="removemelater" v="yes"/>
  </node>
  <node id="-78" lat="58.44209746422517" lon="-3.09365460188319">
    <tag k="addr:postcode" v="KW1 4NH"/>
    <tag k="removemelater" v="yes"/>
  </node>
  <node id="-79" lat="58.44260878797565" lon="-3.0926768934789117">
    <tag k="addr:postcode" v="KW1 4NN"/>
    <tag k="removemelater" v="yes"/>
  </node>
  <node id="-80" lat="58.44344840818912" lon="-3.0921718646435004">
    <tag k="addr:postcode" v="KW1 4NP"/>
    <tag k="removemelater" v="yes"/>
  </node>
  <node id="-81" lat="58.44317551993506" lon="-3.092574548977844">
    <tag k="addr:postcode" v="KW1 4NR"/>
    <tag k="removemelater" v="yes"/>
  </node>
  <node id="-82" lat="58.44383963332853" lon="-3.091584396889626">
    <tag k="addr:postcode" v="KW1 4NS"/>
    <tag k="removemelater" v="yes"/>
  </node>
  <node id="-83" lat="58.44307458694528" lon="-3.0896591765374812">
    <tag k="addr:postcode" v="KW1 4NT"/>
    <tag k="removemelater" v="yes"/>
  </node>
  <node id="-84" lat="58.44299755522891" lon="-3.089211393915378">
    <tag k="addr:postcode" v="KW1 4NU"/>
    <tag k="removemelater" v="yes"/>
  </node>
  <node id="-85" lat="58.443543086858" lon="-3.0852538489272043">
    <tag k="addr:postcode" v="KW1 4NX"/>
    <tag k="removemelater" v="yes"/>
  </node>
  <node id="-86" lat="58.444016931876625" lon="-3.0876325592262677">
    <tag k="addr:postcode" v="KW1 4NY"/>
    <tag k="removemelater" v="yes"/>
  </node>
  <node id="-87" lat="58.44409823066076" lon="-3.0843972475568124">
    <tag k="addr:postcode" v="KW1 4NZ"/>
    <tag k="removemelater" v="yes"/>
  </node>
  <node id="-88" lat="58.44464840532354" lon="-3.0873094170984263">
    <tag k="addr:postcode" v="KW1 4PA"/>
    <tag k="removemelater" v="yes"/>
  </node>
  <node id="-89" lat="58.44460223841324" lon="-3.085337861733744">
    <tag k="addr:postcode" v="KW1 4PB"/>
    <tag k="removemelater" v="yes"/>
  </node>
  <node id="-90" lat="58.44363722386626" lon="-3.0826185588601644">
    <tag k="addr:postcode" v="KW1 4PD"/>
    <tag k="removemelater" v="yes"/>
  </node>
  <node id="-91" lat="58.44457040298458" lon="-3.0784671312286904">
    <tag k="addr:postcode" v="KW1 4PE"/>
    <tag k="removemelater" v="yes"/>
  </node>
  <node id="-92" lat="58.443836842584204" lon="-3.075977792329919">
    <tag k="addr:postcode" v="KW1 4PF"/>
    <tag k="removemelater" v="yes"/>
  </node>
  <node id="-93" lat="58.44351810021117" lon="-3.0743577447954786">
    <tag k="addr:postcode" v="KW1 4PG"/>
    <tag k="removemelater" v="yes"/>
  </node>
  <node id="-94" lat="58.444057805927116" lon="-3.06673365301476">
    <tag k="addr:postcode" v="KW1 4PH"/>
    <tag k="removemelater" v="yes"/>
  </node>
  <node id="-95" lat="58.44420119095942" lon="-3.067851529788274">
    <tag k="addr:postcode" v="KW1 4PJ"/>
    <tag k="removemelater" v="yes"/>
  </node>
  <node id="-96" lat="58.44314673242554" lon="-3.06720286896196">
    <tag k="addr:postcode" v="KW1 4PL"/>
    <tag k="removemelater" v="yes"/>
  </node>
  <node id="-97" lat="58.44545894391139" lon="-3.0721212353475322">
    <tag k="addr:postcode" v="KW1 4PN"/>
    <tag k="removemelater" v="yes"/>
  </node>
  <node id="-98" lat="58.44539130543159" lon="-3.0737638420034856">
    <tag k="addr:postcode" v="KW1 4PP"/>
    <tag k="removemelater" v="yes"/>
  </node>
  <node id="-99" lat="58.4435034361293" lon="-3.07074265594636">
    <tag k="addr:postcode" v="KW1 4PQ"/>
    <tag k="removemelater" v="yes"/>
  </node>
  <node id="-100" lat="58.446001110513464" lon="-3.0728058875406434">
    <tag k="addr:postcode" v="KW1 4PR"/>
    <tag k="removemelater" v="yes"/>
  </node>
  <node id="-101" lat="58.44218273240781" lon="-3.092081249860138">
    <tag k="addr:postcode" v="KW1 4PY"/>
    <tag k="removemelater" v="yes"/>
  </node>
  <node id="-102" lat="58.45295133941819" lon="-3.090050343705471">
    <tag k="addr:postcode" v="KW1 4QP"/>
    <tag k="removemelater" v="yes"/>
  </node>
  <node id="-103" lat="58.45698610680554" lon="-3.105564794980737">
    <tag k="addr:postcode" v="KW1 4QR"/>
    <tag k="removemelater" v="yes"/>
  </node>
  <node id="-104" lat="58.45033019265826" lon="-3.089866438902268">
    <tag k="addr:postcode" v="KW1 4QS"/>
    <tag k="removemelater" v="yes"/>
  </node>
  <node id="-105" lat="58.47268997668329" lon="-3.0680469755065953">
    <tag k="addr:postcode" v="KW1 4QT"/>
    <tag k="removemelater" v="yes"/>
  </node>
  <node id="-106" lat="58.45485454099258" lon="-3.0579953867805956">
    <tag k="addr:postcode" v="KW1 4QU"/>
    <tag k="removemelater" v="yes"/>
  </node>
  <node id="-107" lat="58.45476749034243" lon="-3.056570447507431">
    <tag k="addr:postcode" v="KW1 4QW"/>
    <tag k="removemelater" v="yes"/>
  </node>
  <node id="-108" lat="58.454946104280175" lon="-3.0588721000366426">
    <tag k="addr:postcode" v="KW1 4QX"/>
    <tag k="removemelater" v="yes"/>
  </node>
  <node id="-109" lat="58.45612214150673" lon="-3.056765315521804">
    <tag k="addr:postcode" v="KW1 4QY"/>
    <tag k="removemelater" v="yes"/>
  </node>
  <node id="-110" lat="58.450602640682874" lon="-3.0562399290168396">
    <tag k="addr:postcode" v="KW1 4QZ"/>
    <tag k="removemelater" v="yes"/>
  </node>
  <node id="-111" lat="58.45008111691816" lon="-3.0563099646339187">
    <tag k="addr:postcode" v="KW1 4RA"/>
    <tag k="removemelater" v="yes"/>
  </node>
  <node id="-112" lat="58.44944417526274" lon="-3.0551257666781075">
    <tag k="addr:postcode" v="KW1 4RB"/>
    <tag k="removemelater" v="yes"/>
  </node>
  <node id="-113" lat="58.448609450242806" lon="-3.0604978059519454">
    <tag k="addr:postcode" v="KW1 4RD"/>
    <tag k="removemelater" v="yes"/>
  </node>
  <node id="-114" lat="58.44754843885931" lon="-3.0606372012819105">
    <tag k="addr:postcode" v="KW1 4RE"/>
    <tag k="removemelater" v="yes"/>
  </node>
  <node id="-115" lat="58.444904309807" lon="-3.0675473346425113">
    <tag k="addr:postcode" v="KW1 4RF"/>
    <tag k="removemelater" v="yes"/>
  </node>
  <node id="-116" lat="58.46479074848565" lon="-3.108758162539514">
    <tag k="addr:postcode" v="KW1 4RG"/>
    <tag k="removemelater" v="yes"/>
  </node>
  <node id="-117" lat="58.46172283497918" lon="-3.1114211021458944">
    <tag k="addr:postcode" v="KW1 4RH"/>
    <tag k="removemelater" v="yes"/>
  </node>
  <node id="-118" lat="58.47262442204165" lon="-3.102335394090182">
    <tag k="addr:postcode" v="KW1 4RJ"/>
    <tag k="removemelater" v="yes"/>
  </node>
  <node id="-119" lat="58.473769818204566" lon="-3.100742413082626">
    <tag k="addr:postcode" v="KW1 4RL"/>
    <tag k="removemelater" v="yes"/>
  </node>
  <node id="-120" lat="58.473134777731204" lon="-3.102522831518707">
    <tag k="addr:postcode" v="KW1 4RN"/>
    <tag k="removemelater" v="yes"/>
  </node>
  <node id="-121" lat="58.47522883431121" lon="-3.143414411384402">
    <tag k="addr:postcode" v="KW1 4RP"/>
    <tag k="removemelater" v="yes"/>
  </node>
  <node id="-122" lat="58.45774427233669" lon="-3.1103358245619397">
    <tag k="addr:postcode" v="KW1 4RQ"/>
    <tag k="removemelater" v="yes"/>
  </node>
  <node id="-123" lat="58.47211818209793" lon="-3.1487655164283597">
    <tag k="addr:postcode" v="KW1 4RR"/>
    <tag k="removemelater" v="yes"/>
  </node>
  <node id="-124" lat="58.47376683790895" lon="-3.147207604910474">
    <tag k="addr:postcode" v="KW1 4RU"/>
    <tag k="removemelater" v="yes"/>
  </node>
  <node id="-125" lat="58.474793126592445" lon="-3.134827056227117">
    <tag k="addr:postcode" v="KW1 4RW"/>
    <tag k="removemelater" v="yes"/>
  </node>
  <node id="-126" lat="58.48676952408441" lon="-3.163514588841485">
    <tag k="addr:postcode" v="KW1 4RX"/>
    <tag k="removemelater" v="yes"/>
  </node>
  <node id="-127" lat="58.50864440857714" lon="-3.154129590104667">
    <tag k="addr:postcode" v="KW1 4RY"/>
    <tag k="removemelater" v="yes"/>
  </node>
  <node id="-128" lat="58.45444600116197" lon="-3.0574347552030936">
    <tag k="addr:postcode" v="KW1 4RZ"/>
    <tag k="removemelater" v="yes"/>
  </node>
  <node id="-129" lat="58.476351502036195" lon="-3.1494523971571415">
    <tag k="addr:postcode" v="KW1 4SA"/>
    <tag k="removemelater" v="yes"/>
  </node>
  <node id="-130" lat="58.45277810793933" lon="-3.056013852049346">
    <tag k="addr:postcode" v="KW1 4SB"/>
    <tag k="removemelater" v="yes"/>
  </node>
  <node id="-131" lat="58.44734748582417" lon="-3.0610423405550655">
    <tag k="addr:postcode" v="KW1 4SD"/>
    <tag k="removemelater" v="yes"/>
  </node>
  <node id="-132" lat="58.470072721968386" lon="-3.224236263124838">
    <tag k="addr:postcode" v="KW1 4TA"/>
    <tag k="removemelater" v="yes"/>
  </node>
  <node id="-133" lat="58.45945463969474" lon="-3.1566476910501255">
    <tag k="addr:postcode" v="KW1 4TB"/>
    <tag k="removemelater" v="yes"/>
  </node>
  <node id="-134" lat="58.45356954073021" lon="-3.1028357625642182">
    <tag k="addr:postcode" v="KW1 4TD"/>
    <tag k="removemelater" v="yes"/>
  </node>
  <node id="-135" lat="58.442351801632675" lon="-3.091212833774853">
    <tag k="addr:postcode" v="KW1 4TE"/>
    <tag k="removemelater" v="yes"/>
  </node>
  <node id="-136" lat="58.549144836130026" lon="-3.3182528170492764">
    <tag k="addr:postcode" v="KW1 4TL"/>
    <tag k="removemelater" v="yes"/>
  </node>
  <node id="-137" lat="58.547673884532756" lon="-3.3127850776895715">
    <tag k="addr:postcode" v="KW1 4TN"/>
    <tag k="removemelater" v="yes"/>
  </node>
  <node id="-138" lat="58.52882318274555" lon="-3.268735249998606">
    <tag k="addr:postcode" v="KW1 4TP"/>
    <tag k="removemelater" v="yes"/>
  </node>
  <node id="-139" lat="58.50977472417048" lon="-3.226906055518752">
    <tag k="addr:postcode" v="KW1 4TR"/>
    <tag k="removemelater" v="yes"/>
  </node>
  <node id="-140" lat="58.54443640760407" lon="-3.3078877020909343">
    <tag k="addr:postcode" v="KW1 4TS"/>
    <tag k="removemelater" v="yes"/>
  </node>
  <node id="-141" lat="58.53389664820443" lon="-3.3231594186249973">
    <tag k="addr:postcode" v="KW1 4TT"/>
    <tag k="removemelater" v="yes"/>
  </node>
  <node id="-142" lat="58.557804321737585" lon="-3.301442303353621">
    <tag k="addr:postcode" v="KW1 4TW"/>
    <tag k="removemelater" v="yes"/>
  </node>
  <node id="-143" lat="58.54313708750651" lon="-3.203779414605337">
    <tag k="addr:postcode" v="KW1 4UD"/>
    <tag k="removemelater" v="yes"/>
  </node>
  <node id="-144" lat="58.541125016235654" lon="-3.2480151325926325">
    <tag k="addr:postcode" v="KW1 4UE"/>
    <tag k="removemelater" v="yes"/>
  </node>
  <node id="-145" lat="58.56456433102011" lon="-3.260349571058632">
    <tag k="addr:postcode" v="KW1 4UF"/>
    <tag k="removemelater" v="yes"/>
  </node>
  <node id="-146" lat="58.567453074941696" lon="-3.2216511196640663">
    <tag k="addr:postcode" v="KW1 4UG"/>
    <tag k="removemelater" v="yes"/>
  </node>
  <node id="-147" lat="58.544936565893245" lon="-3.2072772940646654">
    <tag k="addr:postcode" v="KW1 4UQ"/>
    <tag k="removemelater" v="yes"/>
  </node>
  <node id="-148" lat="58.49772644362625" lon="-3.148675434864468">
    <tag k="addr:postcode" v="KW1 4UR"/>
    <tag k="removemelater" v="yes"/>
  </node>
  <node id="-149" lat="58.53471081452291" lon="-3.1226101105456157">
    <tag k="addr:postcode" v="KW1 4UY"/>
    <tag k="removemelater" v="yes"/>
  </node>
  <node id="-150" lat="58.5353529700537" lon="-3.123128742038862">
    <tag k="addr:postcode" v="KW1 4UZ"/>
    <tag k="removemelater" v="yes"/>
  </node>
  <node id="-151" lat="58.535326403011034" lon="-3.1251374733326154">
    <tag k="addr:postcode" v="KW1 4XA"/>
    <tag k="removemelater" v="yes"/>
  </node>
  <node id="-152" lat="58.53273047236643" lon="-3.118991655991167">
    <tag k="addr:postcode" v="KW1 4XB"/>
    <tag k="removemelater" v="yes"/>
  </node>
  <node id="-153" lat="58.532102348081175" lon="-3.11685920127595">
    <tag k="addr:postcode" v="KW1 4XD"/>
    <tag k="removemelater" v="yes"/>
  </node>
  <node id="-154" lat="58.53251092150245" lon="-3.120478843296339">
    <tag k="addr:postcode" v="KW1 4XE"/>
    <tag k="removemelater" v="yes"/>
  </node>
  <node id="-155" lat="58.54215635591059" lon="-3.118536213098505">
    <tag k="addr:postcode" v="KW1 4XF"/>
    <tag k="removemelater" v="yes"/>
  </node>
  <node id="-156" lat="58.52846413094263" lon="-3.135358561643552">
    <tag k="addr:postcode" v="KW1 4XG"/>
    <tag k="removemelater" v="yes"/>
  </node>
  <node id="-157" lat="58.560622624064074" lon="-3.0850578988881168">
    <tag k="addr:postcode" v="KW1 4XP"/>
    <tag k="removemelater" v="yes"/>
  </node>
  <node id="-158" lat="58.558306646234875" lon="-3.0859659293401296">
    <tag k="addr:postcode" v="KW1 4XR"/>
    <tag k="removemelater" v="yes"/>
  </node>
  <node id="-159" lat="58.597854200033765" lon="-3.0708456475309736">
    <tag k="addr:postcode" v="KW1 4XX"/>
    <tag k="removemelater" v="yes"/>
  </node>
  <node id="-160" lat="58.63739025326056" lon="-3.165024566400819">
    <tag k="addr:postcode" v="KW1 4YB"/>
    <tag k="removemelater" v="yes"/>
  </node>
  <node id="-161" lat="58.62533358687095" lon="-3.164382018484399">
    <tag k="addr:postcode" v="KW1 4YD"/>
    <tag k="removemelater" v="yes"/>
  </node>
  <node id="-162" lat="58.632148896553964" lon="-3.118019402454825">
    <tag k="addr:postcode" v="KW1 4YH"/>
    <tag k="removemelater" v="yes"/>
  </node>
  <node id="-163" lat="58.63270108855888" lon="-3.1247370630398494">
    <tag k="addr:postcode" v="KW1 4YJ"/>
    <tag k="removemelater" v="yes"/>
  </node>
  <node id="-164" lat="58.641837847599646" lon="-3.1037197020217">
    <tag k="addr:postcode" v="KW1 4YL"/>
    <tag k="removemelater" v="yes"/>
  </node>
  <node id="-165" lat="58.63349420227576" lon="-3.122368418827029">
    <tag k="addr:postcode" v="KW1 4YN"/>
    <tag k="removemelater" v="yes"/>
  </node>
  <node id="-166" lat="58.6395365248985" lon="-3.0731725781370716">
    <tag k="addr:postcode" v="KW1 4YR"/>
    <tag k="removemelater" v="yes"/>
  </node>
  <node id="-167" lat="58.63702602894441" lon="-3.056369425863526">
    <tag k="addr:postcode" v="KW1 4YS"/>
    <tag k="removemelater" v="yes"/>
  </node>
  <node id="-168" lat="58.63569874368927" lon="-3.0615829602862976">
    <tag k="addr:postcode" v="KW1 4YT"/>
    <tag k="removemelater" v="yes"/>
  </node>
  <node id="-169" lat="58.63669829297742" lon="-3.0612687898678796">
    <tag k="addr:postcode" v="KW1 4YX"/>
    <tag k="removemelater" v="yes"/>
  </node>
  <node id="-170" lat="58.4397578974758" lon="-3.093102387663358">
    <tag k="addr:postcode" v="KW1 5AB"/>
    <tag k="removemelater" v="yes"/>
  </node>
  <node id="-171" lat="58.43935724295529" lon="-3.0916339938028226">
    <tag k="addr:postcode" v="KW1 5AD"/>
    <tag k="removemelater" v="yes"/>
  </node>
  <node id="-172" lat="58.43940813387423" lon="-3.0930401532208154">
    <tag k="addr:postcode" v="KW1 5AE"/>
    <tag k="removemelater" v="yes"/>
  </node>
  <node id="-173" lat="58.43878231869577" lon="-3.0905884625898117">
    <tag k="addr:postcode" v="KW1 5AF"/>
    <tag k="removemelater" v="yes"/>
  </node>
  <node id="-174" lat="58.438896814870425" lon="-3.088742093871149">
    <tag k="addr:postcode" v="KW1 5AG"/>
    <tag k="removemelater" v="yes"/>
  </node>
  <node id="-175" lat="58.438417153871704" lon="-3.0881106494016506">
    <tag k="addr:postcode" v="KW1 5AH"/>
    <tag k="removemelater" v="yes"/>
  </node>
  <node id="-176" lat="58.43828013465513" lon="-3.088380475700174">
    <tag k="addr:postcode" v="KW1 5AJ"/>
    <tag k="removemelater" v="yes"/>
  </node>
  <node id="-177" lat="58.43762953548135" lon="-3.0888399764784253">
    <tag k="addr:postcode" v="KW1 5AL"/>
    <tag k="removemelater" v="yes"/>
  </node>
  <node id="-178" lat="58.43746601256846" lon="-3.089057590748561">
    <tag k="addr:postcode" v="KW1 5AN"/>
    <tag k="removemelater" v="yes"/>
  </node>
  <node id="-179" lat="58.43925632091087" lon="-3.0876569439728874">
    <tag k="addr:postcode" v="KW1 5AP"/>
    <tag k="removemelater" v="yes"/>
  </node>
  <node id="-180" lat="58.438913645041254" lon="-3.087817657808727">
    <tag k="addr:postcode" v="KW1 5AQ"/>
    <tag k="removemelater" v="yes"/>
  </node>
  <node id="-181" lat="58.439222581953565" lon="-3.0873989684220784">
    <tag k="addr:postcode" v="KW1 5AR"/>
    <tag k="removemelater" v="yes"/>
  </node>
  <node id="-182" lat="58.438628647887626" lon="-3.086472825756861">
    <tag k="addr:postcode" v="KW1 5AS"/>
    <tag k="removemelater" v="yes"/>
  </node>
  <node id="-183" lat="58.43825223239415" lon="-3.0863755808442073">
    <tag k="addr:postcode" v="KW1 5AT"/>
    <tag k="removemelater" v="yes"/>
  </node>
  <node id="-184" lat="58.43889164596274" lon="-3.087234599636111">
    <tag k="addr:postcode" v="KW1 5AW"/>
    <tag k="removemelater" v="yes"/>
  </node>
  <node id="-185" lat="58.43747203976684" lon="-3.0851696959921817">
    <tag k="addr:postcode" v="KW1 5AX"/>
    <tag k="removemelater" v="yes"/>
  </node>
  <node id="-186" lat="58.4370455056727" lon="-3.085687529920149">
    <tag k="addr:postcode" v="KW1 5AY"/>
    <tag k="removemelater" v="yes"/>
  </node>
  <node id="-187" lat="58.436389570750805" lon="-3.0835948908015136">
    <tag k="addr:postcode" v="KW1 5AZ"/>
    <tag k="removemelater" v="yes"/>
  </node>
  <node id="-188" lat="58.43516979335782" lon="-3.0855098731282338">
    <tag k="addr:postcode" v="KW1 5BA"/>
    <tag k="removemelater" v="yes"/>
  </node>
  <node id="-189" lat="58.435934941676244" lon="-3.0831869867507145">
    <tag k="addr:postcode" v="KW1 5BB"/>
    <tag k="removemelater" v="yes"/>
  </node>
  <node id="-190" lat="58.43647458408541" lon="-3.0852246278456694">
    <tag k="addr:postcode" v="KW1 5BD"/>
    <tag k="removemelater" v="yes"/>
  </node>
  <node id="-191" lat="58.43585773843958" lon="-3.0859421128907796">
    <tag k="addr:postcode" v="KW1 5BE"/>
    <tag k="removemelater" v="yes"/>
  </node>
  <node id="-192" lat="58.42942693180259" lon="-3.0837918928566093">
    <tag k="addr:postcode" v="KW1 5BF"/>
    <tag k="removemelater" v="yes"/>
  </node>
  <node id="-193" lat="58.434764698115046" lon="-3.0856172869469654">
    <tag k="addr:postcode" v="KW1 5BG"/>
    <tag k="removemelater" v="yes"/>
  </node>
  <node id="-194" lat="58.43306640106149" lon="-3.085701998553819">
    <tag k="addr:postcode" v="KW1 5BH"/>
    <tag k="removemelater" v="yes"/>
  </node>
  <node id="-195" lat="58.432959621497176" lon="-3.0877024425347286">
    <tag k="addr:postcode" v="KW1 5BJ"/>
    <tag k="removemelater" v="yes"/>
  </node>
  <node id="-196" lat="58.431946407047235" lon="-3.086438153252719">
    <tag k="addr:postcode" v="KW1 5BL"/>
    <tag k="removemelater" v="yes"/>
  </node>
  <node id="-197" lat="58.432244423084086" lon="-3.088365400685648">
    <tag k="addr:postcode" v="KW1 5BN"/>
    <tag k="removemelater" v="yes"/>
  </node>
  <node id="-198" lat="58.4343650805163" lon="-3.087197754568281">
    <tag k="addr:postcode" v="KW1 5BQ"/>
    <tag k="removemelater" v="yes"/>
  </node>
  <node id="-199" lat="58.433613530571066" lon="-3.0879110059969244">
    <tag k="addr:postcode" v="KW1 5BS"/>
    <tag k="removemelater" v="yes"/>
  </node>
  <node id="-200" lat="58.513138983385474" lon="-3.3439035689889933">
    <tag k="addr:postcode" v="KW1 5BU"/>
    <tag k="removemelater" v="yes"/>
  </node>
  <node id="-201" lat="58.43312117823179" lon="-3.0898310510043645">
    <tag k="addr:postcode" v="KW1 5BW"/>
    <tag k="removemelater" v="yes"/>
  </node>
  <node id="-202" lat="58.44061160471261" lon="-3.094105255002368">
    <tag k="addr:postcode" v="KW1 5BX"/>
    <tag k="removemelater" v="yes"/>
  </node>
  <node id="-203" lat="58.42893841007687" lon="-3.0831432911306953">
    <tag k="addr:postcode" v="KW1 5BY"/>
    <tag k="removemelater" v="yes"/>
  </node>
  <node id="-204" lat="58.44067439354289" lon="-3.0930622935152234">
    <tag k="addr:postcode" v="KW1 5EA"/>
    <tag k="removemelater" v="yes"/>
  </node>
  <node id="-205" lat="58.44066847999907" lon="-3.092702386879066">
    <tag k="addr:postcode" v="KW1 5EB"/>
    <tag k="removemelater" v="yes"/>
  </node>
  <node id="-206" lat="58.44036908956637" lon="-3.0930528250928755">
    <tag k="addr:postcode" v="KW1 5ED"/>
    <tag k="removemelater" v="yes"/>
  </node>
  <node id="-207" lat="58.44034189599914" lon="-3.0899172803810004">
    <tag k="addr:postcode" v="KW1 5EG"/>
    <tag k="removemelater" v="yes"/>
  </node>
  <node id="-208" lat="58.44082926601509" lon="-3.0896411462351483">
    <tag k="addr:postcode" v="KW1 5EH"/>
    <tag k="removemelater" v="yes"/>
  </node>
  <node id="-209" lat="58.44162154261436" lon="-3.0883637513734103">
    <tag k="addr:postcode" v="KW1 5EL"/>
    <tag k="removemelater" v="yes"/>
  </node>
  <node id="-210" lat="58.441189974134296" lon="-3.0873568889223066">
    <tag k="addr:postcode" v="KW1 5EN"/>
    <tag k="removemelater" v="yes"/>
  </node>
  <node id="-211" lat="58.440069273835434" lon="-3.087116761737477">
    <tag k="addr:postcode" v="KW1 5EP"/>
    <tag k="removemelater" v="yes"/>
  </node>
  <node id="-212" lat="58.44042940717552" lon="-3.0891320271210407">
    <tag k="addr:postcode" v="KW1 5EQ"/>
    <tag k="removemelater" v="yes"/>
  </node>
  <node id="-213" lat="58.440508660949426" lon="-3.088260867130853">
    <tag k="addr:postcode" v="KW1 5ES"/>
    <tag k="removemelater" v="yes"/>
  </node>
  <node id="-214" lat="58.440079096547024" lon="-3.0880763098750945">
    <tag k="addr:postcode" v="KW1 5ET"/>
    <tag k="removemelater" v="yes"/>
  </node>
  <node id="-215" lat="58.43999595465795" lon="-3.0883478126161408">
    <tag k="addr:postcode" v="KW1 5EU"/>
    <tag k="removemelater" v="yes"/>
  </node>
  <node id="-216" lat="58.43992414868992" lon="-3.0872835785369195">
    <tag k="addr:postcode" v="KW1 5EX"/>
    <tag k="removemelater" v="yes"/>
  </node>
  <node id="-217" lat="58.43985238834086" lon="-3.0893882650119213">
    <tag k="addr:postcode" v="KW1 5EY"/>
    <tag k="removemelater" v="yes"/>
  </node>
  <node id="-218" lat="58.43940943333244" lon="-3.086548280456964">
    <tag k="addr:postcode" v="KW1 5EZ"/>
    <tag k="removemelater" v="yes"/>
  </node>
  <node id="-219" lat="58.43898451851095" lon="-3.084753782293559">
    <tag k="addr:postcode" v="KW1 5HA"/>
    <tag k="removemelater" v="yes"/>
  </node>
  <node id="-220" lat="58.43894352700292" lon="-3.08535202944377">
    <tag k="addr:postcode" v="KW1 5HB"/>
    <tag k="removemelater" v="yes"/>
  </node>
  <node id="-221" lat="58.43734908097329" lon="-3.083778539121893">
    <tag k="addr:postcode" v="KW1 5HD"/>
    <tag k="removemelater" v="yes"/>
  </node>
  <node id="-222" lat="58.43700104948026" lon="-3.0835109205877367">
    <tag k="addr:postcode" v="KW1 5HE"/>
    <tag k="removemelater" v="yes"/>
  </node>
  <node id="-223" lat="58.436827679991985" lon="-3.082769096758101">
    <tag k="addr:postcode" v="KW1 5HF"/>
    <tag k="removemelater" v="yes"/>
  </node>
  <node id="-224" lat="58.436384196428634" lon="-3.0821046269539827">
    <tag k="addr:postcode" v="KW1 5HG"/>
    <tag k="removemelater" v="yes"/>
  </node>
  <node id="-225" lat="58.435718097912876" lon="-3.0812106905145433">
    <tag k="addr:postcode" v="KW1 5HH"/>
    <tag k="removemelater" v="yes"/>
  </node>
  <node id="-226" lat="58.43501552465915" lon="-3.0814460457980197">
    <tag k="addr:postcode" v="KW1 5HJ"/>
    <tag k="removemelater" v="yes"/>
  </node>
  <node id="-227" lat="58.43557684821805" lon="-3.0798533116123723">
    <tag k="addr:postcode" v="KW1 5HL"/>
    <tag k="removemelater" v="yes"/>
  </node>
  <node id="-228" lat="58.43444643132597" lon="-3.07969879907646">
    <tag k="addr:postcode" v="KW1 5HN"/>
    <tag k="removemelater" v="yes"/>
  </node>
  <node id="-229" lat="58.43273500207545" lon="-3.0813418399699803">
    <tag k="addr:postcode" v="KW1 5HP"/>
    <tag k="removemelater" v="yes"/>
  </node>
  <node id="-230" lat="58.436260193559164" lon="-3.0808333849044813">
    <tag k="addr:postcode" v="KW1 5HQ"/>
    <tag k="removemelater" v="yes"/>
  </node>
  <node id="-231" lat="58.43429775601208" lon="-3.0824173675042017">
    <tag k="addr:postcode" v="KW1 5HR"/>
    <tag k="removemelater" v="yes"/>
  </node>
  <node id="-232" lat="58.435293042017406" lon="-3.082619197898853">
    <tag k="addr:postcode" v="KW1 5HS"/>
    <tag k="removemelater" v="yes"/>
  </node>
  <node id="-233" lat="58.433508516075435" lon="-3.0801496073268986">
    <tag k="addr:postcode" v="KW1 5HU"/>
    <tag k="removemelater" v="yes"/>
  </node>
  <node id="-234" lat="58.43376765306183" lon="-3.081373513841614">
    <tag k="addr:postcode" v="KW1 5HW"/>
    <tag k="removemelater" v="yes"/>
  </node>
  <node id="-235" lat="58.433241972983886" lon="-3.0787371060201507">
    <tag k="addr:postcode" v="KW1 5HX"/>
    <tag k="removemelater" v="yes"/>
  </node>
  <node id="-236" lat="58.43293613138323" lon="-3.0798580564821796">
    <tag k="addr:postcode" v="KW1 5HY"/>
    <tag k="removemelater" v="yes"/>
  </node>
  <node id="-237" lat="58.433172773360155" lon="-3.0794885327023303">
    <tag k="addr:postcode" v="KW1 5HZ"/>
    <tag k="removemelater" v="yes"/>
  </node>
  <node id="-238" lat="58.43389632950725" lon="-3.0788941393082223">
    <tag k="addr:postcode" v="KW1 5JA"/>
    <tag k="removemelater" v="yes"/>
  </node>
  <node id="-239" lat="58.43510405998909" lon="-3.078400166256501">
    <tag k="addr:postcode" v="KW1 5JB"/>
    <tag k="removemelater" v="yes"/>
  </node>
  <node id="-240" lat="58.43320110894414" lon="-3.078256327288531">
    <tag k="addr:postcode" v="KW1 5JF"/>
    <tag k="removemelater" v="yes"/>
  </node>
  <node id="-241" lat="58.43348768236578" lon="-3.077288901447634">
    <tag k="addr:postcode" v="KW1 5JG"/>
    <tag k="removemelater" v="yes"/>
  </node>
  <node id="-242" lat="58.44152200426847" lon="-3.1031610840692245">
    <tag k="addr:postcode" v="KW1 5LD"/>
    <tag k="removemelater" v="yes"/>
  </node>
  <node id="-243" lat="58.44080791893047" lon="-3.101597053703009">
    <tag k="addr:postcode" v="KW1 5LE"/>
    <tag k="removemelater" v="yes"/>
  </node>
  <node id="-244" lat="58.43982786044655" lon="-3.096479024517023">
    <tag k="addr:postcode" v="KW1 5LF"/>
    <tag k="removemelater" v="yes"/>
  </node>
  <node id="-245" lat="58.439517677703726" lon="-3.0959897594743615">
    <tag k="addr:postcode" v="KW1 5LG"/>
    <tag k="removemelater" v="yes"/>
  </node>
  <node id="-246" lat="58.43952526987817" lon="-3.0982510411599757">
    <tag k="addr:postcode" v="KW1 5LH"/>
    <tag k="removemelater" v="yes"/>
  </node>
  <node id="-247" lat="58.438713667543354" lon="-3.0965300077159816">
    <tag k="addr:postcode" v="KW1 5LJ"/>
    <tag k="removemelater" v="yes"/>
  </node>
  <node id="-248" lat="58.439094693290116" lon="-3.0981862381371275">
    <tag k="addr:postcode" v="KW1 5LL"/>
    <tag k="removemelater" v="yes"/>
  </node>
  <node id="-249" lat="58.439777456115074" lon="-3.099218137723398">
    <tag k="addr:postcode" v="KW1 5LN"/>
    <tag k="removemelater" v="yes"/>
  </node>
  <node id="-250" lat="58.44130031978087" lon="-3.101783744390961">
    <tag k="addr:postcode" v="KW1 5LP"/>
    <tag k="removemelater" v="yes"/>
  </node>
  <node id="-251" lat="58.43974059753242" lon="-3.097229996276386">
    <tag k="addr:postcode" v="KW1 5LQ"/>
    <tag k="removemelater" v="yes"/>
  </node>
  <node id="-252" lat="58.4415465677188" lon="-3.1044808731714504">
    <tag k="addr:postcode" v="KW1 5LR"/>
    <tag k="removemelater" v="yes"/>
  </node>
  <node id="-253" lat="58.43957168007673" lon="-3.1001709533394646">
    <tag k="addr:postcode" v="KW1 5LS"/>
    <tag k="removemelater" v="yes"/>
  </node>
  <node id="-254" lat="58.438457633017094" lon="-3.1002046955373923">
    <tag k="addr:postcode" v="KW1 5LT"/>
    <tag k="removemelater" v="yes"/>
  </node>
  <node id="-255" lat="58.43808085217417" lon="-3.0970070461091685">
    <tag k="addr:postcode" v="KW1 5LU"/>
    <tag k="removemelater" v="yes"/>
  </node>
  <node id="-256" lat="58.44098528345787" lon="-3.0997697032227154">
    <tag k="addr:postcode" v="KW1 5LW"/>
    <tag k="removemelater" v="yes"/>
  </node>
  <node id="-257" lat="58.43720178483828" lon="-3.0947701762715605">
    <tag k="addr:postcode" v="KW1 5LX"/>
    <tag k="removemelater" v="yes"/>
  </node>
  <node id="-258" lat="58.4371109535089" lon="-3.098038795344757">
    <tag k="addr:postcode" v="KW1 5NA"/>
    <tag k="removemelater" v="yes"/>
  </node>
  <node id="-259" lat="58.43611249288785" lon="-3.0992580000655945">
    <tag k="addr:postcode" v="KW1 5NB"/>
    <tag k="removemelater" v="yes"/>
  </node>
  <node id="-260" lat="58.43474310679737" lon="-3.096594897363499">
    <tag k="addr:postcode" v="KW1 5ND"/>
    <tag k="removemelater" v="yes"/>
  </node>
  <node id="-261" lat="58.4350446501675" lon="-3.094942962943188">
    <tag k="addr:postcode" v="KW1 5NE"/>
    <tag k="removemelater" v="yes"/>
  </node>
  <node id="-262" lat="58.43549367959501" lon="-3.0960016673680575">
    <tag k="addr:postcode" v="KW1 5NF"/>
    <tag k="removemelater" v="yes"/>
  </node>
  <node id="-263" lat="58.434029870116234" lon="-3.095973285515724">
    <tag k="addr:postcode" v="KW1 5NG"/>
    <tag k="removemelater" v="yes"/>
  </node>
  <node id="-264" lat="58.433565074781434" lon="-3.0946572425067767">
    <tag k="addr:postcode" v="KW1 5NH"/>
    <tag k="removemelater" v="yes"/>
  </node>
  <node id="-265" lat="58.43418357606744" lon="-3.09375161471713">
    <tag k="addr:postcode" v="KW1 5NJ"/>
    <tag k="removemelater" v="yes"/>
  </node>
  <node id="-266" lat="58.43569038432218" lon="-3.0940038930792264">
    <tag k="addr:postcode" v="KW1 5NL"/>
    <tag k="removemelater" v="yes"/>
  </node>
  <node id="-267" lat="58.43526418807695" lon="-3.093425473873174">
    <tag k="addr:postcode" v="KW1 5NN"/>
    <tag k="removemelater" v="yes"/>
  </node>
  <node id="-268" lat="58.435982550836265" lon="-3.0934477559711135">
    <tag k="addr:postcode" v="KW1 5NP"/>
    <tag k="removemelater" v="yes"/>
  </node>
  <node id="-269" lat="58.43302435441697" lon="-3.0969695856110437">
    <tag k="addr:postcode" v="KW1 5NQ"/>
    <tag k="removemelater" v="yes"/>
  </node>
  <node id="-270" lat="58.43637911090093" lon="-3.093288780940322">
    <tag k="addr:postcode" v="KW1 5NR"/>
    <tag k="removemelater" v="yes"/>
  </node>
  <node id="-271" lat="58.441343155500924" lon="-3.09573818609094">
    <tag k="addr:postcode" v="KW1 5NS"/>
    <tag k="removemelater" v="yes"/>
  </node>
  <node id="-272" lat="58.431488561952804" lon="-3.096956052458899">
    <tag k="addr:postcode" v="KW1 5NU"/>
    <tag k="removemelater" v="yes"/>
  </node>
  <node id="-273" lat="58.43544786768482" lon="-3.0929516111406077">
    <tag k="addr:postcode" v="KW1 5NW"/>
    <tag k="removemelater" v="yes"/>
  </node>
  <node id="-274" lat="58.43860595432211" lon="-3.0944198288932285">
    <tag k="addr:postcode" v="KW1 5PZ"/>
    <tag k="removemelater" v="yes"/>
  </node>
  <node id="-275" lat="58.43934191814118" lon="-3.093432067580676">
    <tag k="addr:postcode" v="KW1 5QA"/>
    <tag k="removemelater" v="yes"/>
  </node>
  <node id="-276" lat="58.43862858807636" lon="-3.091765585128306">
    <tag k="addr:postcode" v="KW1 5QB"/>
    <tag k="removemelater" v="yes"/>
  </node>
  <node id="-277" lat="58.4393508164177" lon="-3.09449434413405">
    <tag k="addr:postcode" v="KW1 5QD"/>
    <tag k="removemelater" v="yes"/>
  </node>
  <node id="-278" lat="58.438534906785165" lon="-3.095376827113954">
    <tag k="addr:postcode" v="KW1 5QE"/>
    <tag k="removemelater" v="yes"/>
  </node>
  <node id="-279" lat="58.4382557589114" lon="-3.0923021493197904">
    <tag k="addr:postcode" v="KW1 5QF"/>
    <tag k="removemelater" v="yes"/>
  </node>
  <node id="-280" lat="58.43797241178107" lon="-3.0907689443485986">
    <tag k="addr:postcode" v="KW1 5QG"/>
    <tag k="removemelater" v="yes"/>
  </node>
  <node id="-281" lat="58.43649534872258" lon="-3.0891303680398954">
    <tag k="addr:postcode" v="KW1 5QH"/>
    <tag k="removemelater" v="yes"/>
  </node>
  <node id="-282" lat="58.437140901352215" lon="-3.0913769484176914">
    <tag k="addr:postcode" v="KW1 5QJ"/>
    <tag k="removemelater" v="yes"/>
  </node>
  <node id="-283" lat="58.43647195428634" lon="-3.0908252807454444">
    <tag k="addr:postcode" v="KW1 5QL"/>
    <tag k="removemelater" v="yes"/>
  </node>
  <node id="-284" lat="58.43652598117863" lon="-3.0865792942936037">
    <tag k="addr:postcode" v="KW1 5QN"/>
    <tag k="removemelater" v="yes"/>
  </node>
  <node id="-285" lat="58.43613621340808" lon="-3.0912259507198403">
    <tag k="addr:postcode" v="KW1 5QP"/>
    <tag k="removemelater" v="yes"/>
  </node>
  <node id="-286" lat="58.43710028177316" lon="-3.089817048395553">
    <tag k="addr:postcode" v="KW1 5QQ"/>
    <tag k="removemelater" v="yes"/>
  </node>
  <node id="-287" lat="58.437162150563545" lon="-3.0941523381055274">
    <tag k="addr:postcode" v="KW1 5QR"/>
    <tag k="removemelater" v="yes"/>
  </node>
  <node id="-288" lat="58.43582191903731" lon="-3.088047668345986">
    <tag k="addr:postcode" v="KW1 5QW"/>
    <tag k="removemelater" v="yes"/>
  </node>
  <node id="-289" lat="58.4355301336085" lon="-3.105354252818812">
    <tag k="addr:postcode" v="KW1 5SA"/>
    <tag k="removemelater" v="yes"/>
  </node>
  <node id="-290" lat="58.42993134643062" lon="-3.1160699185534573">
    <tag k="addr:postcode" v="KW1 5SB"/>
    <tag k="removemelater" v="yes"/>
  </node>
  <node id="-291" lat="58.42756735597278" lon="-3.1497967272504663">
    <tag k="addr:postcode" v="KW1 5SD"/>
    <tag k="removemelater" v="yes"/>
  </node>
  <node id="-292" lat="58.38307211498788" lon="-3.1704266537084584">
    <tag k="addr:postcode" v="KW1 5SE"/>
    <tag k="removemelater" v="yes"/>
  </node>
  <node id="-293" lat="58.41378066802132" lon="-3.15968594139034">
    <tag k="addr:postcode" v="KW1 5SF"/>
    <tag k="removemelater" v="yes"/>
  </node>
  <node id="-294" lat="58.43128240522691" lon="-3.1641147408978174">
    <tag k="addr:postcode" v="KW1 5SG"/>
    <tag k="removemelater" v="yes"/>
  </node>
  <node id="-295" lat="58.442286926234885" lon="-3.107159302655222">
    <tag k="addr:postcode" v="KW1 5SP"/>
    <tag k="removemelater" v="yes"/>
  </node>
  <node id="-296" lat="58.44157648409905" lon="-3.112447334947852">
    <tag k="addr:postcode" v="KW1 5SR"/>
    <tag k="removemelater" v="yes"/>
  </node>
  <node id="-297" lat="58.44107073033105" lon="-3.1199856723075383">
    <tag k="addr:postcode" v="KW1 5SS"/>
    <tag k="removemelater" v="yes"/>
  </node>
  <node id="-298" lat="58.44237060404752" lon="-3.1345708566613673">
    <tag k="addr:postcode" v="KW1 5ST"/>
    <tag k="removemelater" v="yes"/>
  </node>
  <node id="-299" lat="58.444112570169914" lon="-3.157737323131142">
    <tag k="addr:postcode" v="KW1 5SU"/>
    <tag k="removemelater" v="yes"/>
  </node>
  <node id="-300" lat="58.44336698172823" lon="-3.1587406987591784">
    <tag k="addr:postcode" v="KW1 5SX"/>
    <tag k="removemelater" v="yes"/>
  </node>
  <node id="-301" lat="58.443109360016784" lon="-3.157430269285391">
    <tag k="addr:postcode" v="KW1 5SY"/>
    <tag k="removemelater" v="yes"/>
  </node>
  <node id="-302" lat="58.439992958810116" lon="-3.167297317327608">
    <tag k="addr:postcode" v="KW1 5SZ"/>
    <tag k="removemelater" v="yes"/>
  </node>
  <node id="-303" lat="58.454421125582336" lon="-3.21719744488041">
    <tag k="addr:postcode" v="KW1 5TA"/>
    <tag k="removemelater" v="yes"/>
  </node>
  <node id="-304" lat="58.462216231393" lon="-3.236115760178147">
    <tag k="addr:postcode" v="KW1 5TB"/>
    <tag k="removemelater" v="yes"/>
  </node>
  <node id="-305" lat="58.43759145581249" lon="-3.1234377992030744">
    <tag k="addr:postcode" v="KW1 5TD"/>
    <tag k="removemelater" v="yes"/>
  </node>
  <node id="-306" lat="58.390923212337256" lon="-3.1344056628612202">
    <tag k="addr:postcode" v="KW1 5TE"/>
    <tag k="removemelater" v="yes"/>
  </node>
  <node id="-307" lat="58.430006676536514" lon="-3.0863955090195043">
    <tag k="addr:postcode" v="KW1 5TF"/>
    <tag k="removemelater" v="yes"/>
  </node>
  <node id="-308" lat="58.430479810770805" lon="-3.087797188972806">
    <tag k="addr:postcode" v="KW1 5TG"/>
    <tag k="removemelater" v="yes"/>
  </node>
  <node id="-309" lat="58.43011036711677" lon="-3.086878190805791">
    <tag k="addr:postcode" v="KW1 5TH"/>
    <tag k="removemelater" v="yes"/>
  </node>
  <node id="-310" lat="58.42864773726885" lon="-3.0845898867213744">
    <tag k="addr:postcode" v="KW1 5TJ"/>
    <tag k="removemelater" v="yes"/>
  </node>
  <node id="-311" lat="58.42988793200473" lon="-3.084508163927144">
    <tag k="addr:postcode" v="KW1 5TL"/>
    <tag k="removemelater" v="yes"/>
  </node>
  <node id="-312" lat="58.43234706188967" lon="-3.0740686885604385">
    <tag k="addr:postcode" v="KW1 5TN"/>
    <tag k="removemelater" v="yes"/>
  </node>
  <node id="-313" lat="58.42327414044706" lon="-3.0954335790716034">
    <tag k="addr:postcode" v="KW1 5TP"/>
    <tag k="removemelater" v="yes"/>
  </node>
  <node id="-314" lat="58.390875805406374" lon="-3.1367134005386808">
    <tag k="addr:postcode" v="KW1 5TQ"/>
    <tag k="removemelater" v="yes"/>
  </node>
  <node id="-315" lat="58.39023815224161" lon="-3.133665233207459">
    <tag k="addr:postcode" v="KW1 5TS"/>
    <tag k="removemelater" v="yes"/>
  </node>
  <node id="-316" lat="58.38984738687081" lon="-3.132147437740937">
    <tag k="addr:postcode" v="KW1 5TT"/>
    <tag k="removemelater" v="yes"/>
  </node>
  <node id="-317" lat="58.37787458431976" lon="-3.1208885990658946">
    <tag k="addr:postcode" v="KW1 5TU"/>
    <tag k="removemelater" v="yes"/>
  </node>
  <node id="-318" lat="58.431947518491434" lon="-3.0915929423447985">
    <tag k="addr:postcode" v="KW1 5TW"/>
    <tag k="removemelater" v="yes"/>
  </node>
  <node id="-319" lat="58.380804497320774" lon="-3.147060208257863">
    <tag k="addr:postcode" v="KW1 5TX"/>
    <tag k="removemelater" v="yes"/>
  </node>
  <node id="-320" lat="58.42803193378213" lon="-3.0925847574313337">
    <tag k="addr:postcode" v="KW1 5TY"/>
    <tag k="removemelater" v="yes"/>
  </node>
  <node id="-321" lat="58.38869296294644" lon="-3.131665711427509">
    <tag k="addr:postcode" v="KW1 5TZ"/>
    <tag k="removemelater" v="yes"/>
  </node>
  <node id="-322" lat="58.468426396616444" lon="-3.2724897073163066">
    <tag k="addr:postcode" v="KW1 5UG"/>
    <tag k="removemelater" v="yes"/>
  </node>
  <node id="-323" lat="58.48368784687838" lon="-3.286813966900767">
    <tag k="addr:postcode" v="KW1 5UH"/>
    <tag k="removemelater" v="yes"/>
  </node>
  <node id="-324" lat="58.478228986675774" lon="-3.2901640981478475">
    <tag k="addr:postcode" v="KW1 5UJ"/>
    <tag k="removemelater" v="yes"/>
  </node>
  <node id="-325" lat="58.484117555531135" lon="-3.268014661936196">
    <tag k="addr:postcode" v="KW1 5UL"/>
    <tag k="removemelater" v="yes"/>
  </node>
  <node id="-326" lat="58.503528048709235" lon="-3.2607005787433794">
    <tag k="addr:postcode" v="KW1 5UN"/>
    <tag k="removemelater" v="yes"/>
  </node>
  <node id="-327" lat="58.508616528594025" lon="-3.332265452640885">
    <tag k="addr:postcode" v="KW1 5UP"/>
    <tag k="removemelater" v="yes"/>
  </node>
  <node id="-328" lat="58.45070114828776" lon="-3.27825794366848">
    <tag k="addr:postcode" v="KW1 5UQ"/>
    <tag k="removemelater" v="yes"/>
  </node>
  <node id="-329" lat="58.51629487740079" lon="-3.353861105735972">
    <tag k="addr:postcode" v="KW1 5UR"/>
    <tag k="removemelater" v="yes"/>
  </node>
  <node id="-330" lat="58.516739756385334" lon="-3.356813889306767">
    <tag k="addr:postcode" v="KW1 5UT"/>
    <tag k="removemelater" v="yes"/>
  </node>
  <node id="-331" lat="58.5217922070051" lon="-3.366555527518741">
    <tag k="addr:postcode" v="KW1 5UU"/>
    <tag k="removemelater" v="yes"/>
  </node>
  <node id="-332" lat="58.50567843319616" lon="-3.2981733957980515">
    <tag k="addr:postcode" v="KW1 5UW"/>
    <tag k="removemelater" v="yes"/>
  </node>
  <node id="-333" lat="58.47298453519899" lon="-3.305146059798527">
    <tag k="addr:postcode" v="KW1 5XG"/>
    <tag k="removemelater" v="yes"/>
  </node>
  <node id="-334" lat="58.474662161421875" lon="-3.3097521756790074">
    <tag k="addr:postcode" v="KW1 5XH"/>
    <tag k="removemelater" v="yes"/>
  </node>
  <node id="-335" lat="58.46486199989877" lon="-3.3185757673604845">
    <tag k="addr:postcode" v="KW1 5XJ"/>
    <tag k="removemelater" v="yes"/>
  </node>
  <node id="-336" lat="58.48506917369406" lon="-3.3601376063500363">
    <tag k="addr:postcode" v="KW1 5XL"/>
    <tag k="removemelater" v="yes"/>
  </node>
  <node id="-337" lat="58.48206605073239" lon="-3.3864335078587935">
    <tag k="addr:postcode" v="KW1 5XN"/>
    <tag k="removemelater" v="yes"/>
  </node>
  <node id="-338" lat="58.47283801579554" lon="-3.308947024812418">
    <tag k="addr:postcode" v="KW1 5XQ"/>
    <tag k="removemelater" v="yes"/>
  </node>
  <node id="-339" lat="58.465930767133635" lon="-3.426032451381049">
    <tag k="addr:postcode" v="KW1 5XR"/>
    <tag k="removemelater" v="yes"/>
  </node>
  <node id="-340" lat="58.466777830654884" lon="-3.428209681822442">
    <tag k="addr:postcode" v="KW1 5XS"/>
    <tag k="removemelater" v="yes"/>
  </node>
  <node id="-341" lat="58.42879128747574" lon="-3.4193070221400133">
    <tag k="addr:postcode" v="KW1 5XT"/>
    <tag k="removemelater" v="yes"/>
  </node>
  <node id="-342" lat="58.45646898967205" lon="-3.4295568972685055">
    <tag k="addr:postcode" v="KW1 5XU"/>
    <tag k="removemelater" v="yes"/>
  </node>
  <node id="-343" lat="58.46260736632819" lon="-3.416298721369978">
    <tag k="addr:postcode" v="KW1 5XW"/>
    <tag k="removemelater" v="yes"/>
  </node>
  <node id="-344" lat="58.46745123249377" lon="-3.365559997658209">
    <tag k="addr:postcode" v="KW1 5XX"/>
    <tag k="removemelater" v="yes"/>
  </node>
  <node id="-345" lat="58.44931797024062" lon="-3.3251390811905766">
    <tag k="addr:postcode" v="KW1 5XY"/>
    <tag k="removemelater" v="yes"/>
  </node>
  <node id="-346" lat="58.47177594669261" lon="-3.302100802825804">
    <tag k="addr:postcode" v="KW1 5YJ"/>
    <tag k="removemelater" v="yes"/>
  </node>
  <node id="-347" lat="58.470557816115274" lon="-3.3035301997668456">
    <tag k="addr:postcode" v="KW1 5YL"/>
    <tag k="removemelater" v="yes"/>
  </node>
  <node id="-348" lat="58.47269746954992" lon="-3.2998030557143054">
    <tag k="addr:postcode" v="KW1 5YN"/>
    <tag k="removemelater" v="yes"/>
  </node>
  <node id="-349" lat="58.47192983086726" lon="-3.3055184462013782">
    <tag k="addr:postcode" v="KW1 5YP"/>
    <tag k="removemelater" v="yes"/>
  </node>
  <node id="-350" lat="58.44538958744334" lon="-3.0941508097132617">
    <tag k="addr:postcode" v="KW1 5YQ"/>
    <tag k="removemelater" v="yes"/>
  </node>
  <node id="-351" lat="58.47106786726027" lon="-3.3054864791452028">
    <tag k="addr:postcode" v="KW1 5YR"/>
    <tag k="removemelater" v="yes"/>
  </node>
  <node id="-352" lat="58.47441147541687" lon="-3.2981859766132646">
    <tag k="addr:postcode" v="KW1 5YW"/>
    <tag k="removemelater" v="yes"/>
  </node>
  <node id="-353" lat="57.97272968012646" lon="-3.9785937232019988">
    <tag k="addr:postcode" v="KW10 6AB"/>
    <tag k="removemelater" v="yes"/>
  </node>
  <node id="-354" lat="57.974503061667214" lon="-3.9725870885608354">
    <tag k="addr:postcode" v="KW10 6RA"/>
    <tag k="removemelater" v="yes"/>
  </node>
  <node id="-355" lat="57.97499944869198" lon="-3.9707035513624818">
    <tag k="addr:postcode" v="KW10 6RB"/>
    <tag k="removemelater" v="yes"/>
  </node>
  <node id="-356" lat="57.975045412321506" lon="-3.9688967111034232">
    <tag k="addr:postcode" v="KW10 6RH"/>
    <tag k="removemelater" v="yes"/>
  </node>
  <node id="-357" lat="57.9754656303736" lon="-3.9701880276241353">
    <tag k="addr:postcode" v="KW10 6RJ"/>
    <tag k="removemelater" v="yes"/>
  </node>
  <node id="-358" lat="57.97585864358939" lon="-3.9714947906689253">
    <tag k="addr:postcode" v="KW10 6RN"/>
    <tag k="removemelater" v="yes"/>
  </node>
  <node id="-359" lat="57.975530827115755" lon="-3.964814174271219">
    <tag k="addr:postcode" v="KW10 6RP"/>
    <tag k="removemelater" v="yes"/>
  </node>
  <node id="-360" lat="57.977507502694046" lon="-3.9723463833239094">
    <tag k="addr:postcode" v="KW10 6RQ"/>
    <tag k="removemelater" v="yes"/>
  </node>
  <node id="-361" lat="57.97591936105638" lon="-3.9658331577612547">
    <tag k="addr:postcode" v="KW10 6RR"/>
    <tag k="removemelater" v="yes"/>
  </node>
  <node id="-362" lat="57.977323522917686" lon="-3.9650814446165117">
    <tag k="addr:postcode" v="KW10 6RS"/>
    <tag k="removemelater" v="yes"/>
  </node>
  <node id="-363" lat="57.97852359980594" lon="-3.9659081884738168">
    <tag k="addr:postcode" v="KW10 6RU"/>
    <tag k="removemelater" v="yes"/>
  </node>
  <node id="-364" lat="57.9757049249154" lon="-3.973295744365661">
    <tag k="addr:postcode" v="KW10 6RW"/>
    <tag k="removemelater" v="yes"/>
  </node>
  <node id="-365" lat="57.97731186071995" lon="-3.966416774769806">
    <tag k="addr:postcode" v="KW10 6RX"/>
    <tag k="removemelater" v="yes"/>
  </node>
  <node id="-366" lat="57.97837692686257" lon="-3.9684199667944595">
    <tag k="addr:postcode" v="KW10 6RY"/>
    <tag k="removemelater" v="yes"/>
  </node>
  <node id="-367" lat="57.9791438545222" lon="-3.968208362714766">
    <tag k="addr:postcode" v="KW10 6RZ"/>
    <tag k="removemelater" v="yes"/>
  </node>
  <node id="-368" lat="57.9787550323227" lon="-3.9706899649909784">
    <tag k="addr:postcode" v="KW10 6SA"/>
    <tag k="removemelater" v="yes"/>
  </node>
  <node id="-369" lat="57.97908435100003" lon="-3.9714690859796504">
    <tag k="addr:postcode" v="KW10 6SB"/>
    <tag k="removemelater" v="yes"/>
  </node>
  <node id="-370" lat="57.97697333932741" lon="-3.982429734772145">
    <tag k="addr:postcode" v="KW10 6SD"/>
    <tag k="removemelater" v="yes"/>
  </node>
  <node id="-371" lat="57.99240441779467" lon="-3.978630191118429">
    <tag k="addr:postcode" v="KW10 6SE"/>
    <tag k="removemelater" v="yes"/>
  </node>
  <node id="-372" lat="57.98532123437448" lon="-3.9480297108676967">
    <tag k="addr:postcode" v="KW10 6SF"/>
    <tag k="removemelater" v="yes"/>
  </node>
  <node id="-373" lat="57.97787029590663" lon="-3.972704550933716">
    <tag k="addr:postcode" v="KW10 6SG"/>
    <tag k="removemelater" v="yes"/>
  </node>
  <node id="-374" lat="57.98796974473089" lon="-3.950491036459268">
    <tag k="addr:postcode" v="KW10 6SH"/>
    <tag k="removemelater" v="yes"/>
  </node>
  <node id="-375" lat="57.97782666005765" lon="-3.9720426124276647">
    <tag k="addr:postcode" v="KW10 6SJ"/>
    <tag k="removemelater" v="yes"/>
  </node>
  <node id="-376" lat="57.97818852749317" lon="-3.9736183532130087">
    <tag k="addr:postcode" v="KW10 6SL"/>
    <tag k="removemelater" v="yes"/>
  </node>
  <node id="-377" lat="57.97219839745123" lon="-3.9821321594980987">
    <tag k="addr:postcode" v="KW10 6SN"/>
    <tag k="removemelater" v="yes"/>
  </node>
  <node id="-378" lat="57.97299127378613" lon="-3.9837146722412258">
    <tag k="addr:postcode" v="KW10 6SP"/>
    <tag k="removemelater" v="yes"/>
  </node>
  <node id="-379" lat="57.98789637280011" lon="-3.953514997600027">
    <tag k="addr:postcode" v="KW10 6SQ"/>
    <tag k="removemelater" v="yes"/>
  </node>
  <node id="-380" lat="57.97227873356428" lon="-3.985619789856701">
    <tag k="addr:postcode" v="KW10 6SR"/>
    <tag k="removemelater" v="yes"/>
  </node>
  <node id="-381" lat="57.97298338290329" lon="-3.9876709529866385">
    <tag k="addr:postcode" v="KW10 6SS"/>
    <tag k="removemelater" v="yes"/>
  </node>
  <node id="-382" lat="57.96966105070125" lon="-3.987554598285328">
    <tag k="addr:postcode" v="KW10 6ST"/>
    <tag k="removemelater" v="yes"/>
  </node>
  <node id="-383" lat="57.97341712059528" lon="-3.983484572214055">
    <tag k="addr:postcode" v="KW10 6SU"/>
    <tag k="removemelater" v="yes"/>
  </node>
  <node id="-384" lat="57.971337221685566" lon="-3.983200544672114">
    <tag k="addr:postcode" v="KW10 6SW"/>
    <tag k="removemelater" v="yes"/>
  </node>
  <node id="-385" lat="57.97325451081257" lon="-3.9887174296769996">
    <tag k="addr:postcode" v="KW10 6SX"/>
    <tag k="removemelater" v="yes"/>
  </node>
  <node id="-386" lat="57.97193441051265" lon="-3.9904027719942263">
    <tag k="addr:postcode" v="KW10 6SY"/>
    <tag k="removemelater" v="yes"/>
  </node>
  <node id="-387" lat="57.971506922457124" lon="-3.991883910007458">
    <tag k="addr:postcode" v="KW10 6SZ"/>
    <tag k="removemelater" v="yes"/>
  </node>
  <node id="-388" lat="57.96549422906598" lon="-4.017094645983822">
    <tag k="addr:postcode" v="KW10 6TA"/>
    <tag k="removemelater" v="yes"/>
  </node>
  <node id="-389" lat="57.935365638712724" lon="-4.018494613272734">
    <tag k="addr:postcode" v="KW10 6TD"/>
    <tag k="removemelater" v="yes"/>
  </node>
  <node id="-390" lat="57.97291832793044" lon="-3.97686249856697">
    <tag k="addr:postcode" v="KW10 6TE"/>
    <tag k="removemelater" v="yes"/>
  </node>
  <node id="-391" lat="57.97307907112128" lon="-3.9763471722152635">
    <tag k="addr:postcode" v="KW10 6TF"/>
    <tag k="removemelater" v="yes"/>
  </node>
  <node id="-392" lat="57.97312053893071" lon="-3.9765692737100724">
    <tag k="addr:postcode" v="KW10 6TG"/>
    <tag k="removemelater" v="yes"/>
  </node>
  <node id="-393" lat="57.97448474440155" lon="-3.9772362508598236">
    <tag k="addr:postcode" v="KW10 6TH"/>
    <tag k="removemelater" v="yes"/>
  </node>
  <node id="-394" lat="57.973746455649795" lon="-3.9796474338608405">
    <tag k="addr:postcode" v="KW10 6TJ"/>
    <tag k="removemelater" v="yes"/>
  </node>
  <node id="-395" lat="57.97400140930044" lon="-3.9782749190979647">
    <tag k="addr:postcode" v="KW10 6TL"/>
    <tag k="removemelater" v="yes"/>
  </node>
  <node id="-396" lat="57.972948339827354" lon="-3.9795526821757834">
    <tag k="addr:postcode" v="KW10 6TN"/>
    <tag k="removemelater" v="yes"/>
  </node>
  <node id="-397" lat="57.9736311357931" lon="-3.980706360196552">
    <tag k="addr:postcode" v="KW10 6TP"/>
    <tag k="removemelater" v="yes"/>
  </node>
  <node id="-398" lat="57.972255540639914" lon="-3.9790410268286927">
    <tag k="addr:postcode" v="KW10 6TQ"/>
    <tag k="removemelater" v="yes"/>
  </node>
  <node id="-399" lat="57.973045607879826" lon="-3.9819591329416344">
    <tag k="addr:postcode" v="KW10 6TR"/>
    <tag k="removemelater" v="yes"/>
  </node>
  <node id="-400" lat="57.972664047426846" lon="-3.9805008069932395">
    <tag k="addr:postcode" v="KW10 6TS"/>
    <tag k="removemelater" v="yes"/>
  </node>
  <node id="-401" lat="57.970642837436756" lon="-3.9822153324814753">
    <tag k="addr:postcode" v="KW10 6TT"/>
    <tag k="removemelater" v="yes"/>
  </node>
  <node id="-402" lat="57.97651743874243" lon="-3.974777831275968">
    <tag k="addr:postcode" v="KW10 6TU"/>
    <tag k="removemelater" v="yes"/>
  </node>
  <node id="-403" lat="57.973012312638765" lon="-3.9812132963656013">
    <tag k="addr:postcode" v="KW10 6TW"/>
    <tag k="removemelater" v="yes"/>
  </node>
  <node id="-404" lat="57.970929312196944" lon="-3.9828567522135043">
    <tag k="addr:postcode" v="KW10 6TX"/>
    <tag k="removemelater" v="yes"/>
  </node>
  <node id="-405" lat="57.97135056062802" lon="-3.9800394372940144">
    <tag k="addr:postcode" v="KW10 6TY"/>
    <tag k="removemelater" v="yes"/>
  </node>
  <node id="-406" lat="57.97747393211144" lon="-3.9745091599114364">
    <tag k="addr:postcode" v="KW10 6TZ"/>
    <tag k="removemelater" v="yes"/>
  </node>
  <node id="-407" lat="57.972388436412736" lon="-3.980891407750454">
    <tag k="addr:postcode" v="KW10 6UA"/>
    <tag k="removemelater" v="yes"/>
  </node>
  <node id="-408" lat="57.9700950233648" lon="-3.99082490806346">
    <tag k="addr:postcode" v="KW10 6UB"/>
    <tag k="removemelater" v="yes"/>
  </node>
  <node id="-409" lat="57.97129481909478" lon="-3.993951857503791">
    <tag k="addr:postcode" v="KW10 6UD"/>
    <tag k="removemelater" v="yes"/>
  </node>
  <node id="-410" lat="57.972572575478026" lon="-3.9949697452777637">
    <tag k="addr:postcode" v="KW10 6UE"/>
    <tag k="removemelater" v="yes"/>
  </node>
  <node id="-411" lat="57.97184260930106" lon="-3.994540273044957">
    <tag k="addr:postcode" v="KW10 6UF"/>
    <tag k="removemelater" v="yes"/>
  </node>
  <node id="-412" lat="57.96537579743559" lon="-4.016631540245714">
    <tag k="addr:postcode" v="KW10 6UG"/>
    <tag k="removemelater" v="yes"/>
  </node>
  <node id="-413" lat="58.387822293296715" lon="-4.211404934148021">
    <tag k="addr:postcode" v="KW11 6UA"/>
    <tag k="removemelater" v="yes"/>
  </node>
  <node id="-414" lat="58.25774370254202" lon="-3.9419096622234666">
    <tag k="addr:postcode" v="KW11 6UB"/>
    <tag k="removemelater" v="yes"/>
  </node>
  <node id="-415" lat="58.24161644945428" lon="-4.297621058409109">
    <tag k="addr:postcode" v="KW11 6UD"/>
    <tag k="removemelater" v="yes"/>
  </node>
  <node id="-416" lat="58.2713413744538" lon="-4.047467063435024">
    <tag k="addr:postcode" v="KW11 6UE"/>
    <tag k="removemelater" v="yes"/>
  </node>
  <node id="-417" lat="58.36908979795914" lon="-4.235214632175065">
    <tag k="addr:postcode" v="KW11 6UG"/>
    <tag k="removemelater" v="yes"/>
  </node>
  <node id="-418" lat="58.518489558641676" lon="-3.49754377645644">
    <tag k="addr:postcode" v="KW12 6AB"/>
    <tag k="removemelater" v="yes"/>
  </node>
  <node id="-419" lat="58.500125745240844" lon="-3.481609426589472">
    <tag k="addr:postcode" v="KW12 6UJ"/>
    <tag k="removemelater" v="yes"/>
  </node>
  <node id="-420" lat="58.48800737116738" lon="-3.4879091013636203">
    <tag k="addr:postcode" v="KW12 6UL"/>
    <tag k="removemelater" v="yes"/>
  </node>
  <node id="-421" lat="58.473326855744446" lon="-3.5043495389272823">
    <tag k="addr:postcode" v="KW12 6UN"/>
    <tag k="removemelater" v="yes"/>
  </node>
  <node id="-422" lat="58.44282892284662" lon="-3.4976337130769526">
    <tag k="addr:postcode" v="KW12 6UP"/>
    <tag k="removemelater" v="yes"/>
  </node>
  <node id="-423" lat="58.337095258648255" lon="-3.698249116455925">
    <tag k="addr:postcode" v="KW12 6UR"/>
    <tag k="removemelater" v="yes"/>
  </node>
  <node id="-424" lat="58.52646838356607" lon="-3.4567382257529653">
    <tag k="addr:postcode" v="KW12 6UU"/>
    <tag k="removemelater" v="yes"/>
  </node>
  <node id="-425" lat="58.459829115122744" lon="-3.483273213503206">
    <tag k="addr:postcode" v="KW12 6UW"/>
    <tag k="removemelater" v="yes"/>
  </node>
  <node id="-426" lat="58.52805723564166" lon="-3.406074235642607">
    <tag k="addr:postcode" v="KW12 6UX"/>
    <tag k="removemelater" v="yes"/>
  </node>
  <node id="-427" lat="58.50727464153986" lon="-3.3768552406277523">
    <tag k="addr:postcode" v="KW12 6UY"/>
    <tag k="removemelater" v="yes"/>
  </node>
  <node id="-428" lat="58.50893705151979" lon="-3.4188515985883305">
    <tag k="addr:postcode" v="KW12 6UZ"/>
    <tag k="removemelater" v="yes"/>
  </node>
  <node id="-429" lat="58.5115942961322" lon="-3.4887702229202406">
    <tag k="addr:postcode" v="KW12 6WB"/>
    <tag k="removemelater" v="yes"/>
  </node>
  <node id="-430" lat="58.511801259837945" lon="-3.4856376969690825">
    <tag k="addr:postcode" v="KW12 6WD"/>
    <tag k="removemelater" v="yes"/>
  </node>
  <node id="-431" lat="58.51359263933849" lon="-3.4945884657633233">
    <tag k="addr:postcode" v="KW12 6WU"/>
    <tag k="removemelater" v="yes"/>
  </node>
  <node id="-432" lat="58.49864717243043" lon="-3.454607422062974">
    <tag k="addr:postcode" v="KW12 6XA"/>
    <tag k="removemelater" v="yes"/>
  </node>
  <node id="-433" lat="58.539990985189185" lon="-3.4674178712693213">
    <tag k="addr:postcode" v="KW12 6XB"/>
    <tag k="removemelater" v="yes"/>
  </node>
  <node id="-434" lat="58.52110582239626" lon="-3.481858812218774">
    <tag k="addr:postcode" v="KW12 6XD"/>
    <tag k="removemelater" v="yes"/>
  </node>
  <node id="-435" lat="58.52035713762351" lon="-3.4829089249535308">
    <tag k="addr:postcode" v="KW12 6XE"/>
    <tag k="removemelater" v="yes"/>
  </node>
  <node id="-436" lat="58.52179465732943" lon="-3.497581638147446">
    <tag k="addr:postcode" v="KW12 6XF"/>
    <tag k="removemelater" v="yes"/>
  </node>
  <node id="-437" lat="58.517841508178186" lon="-3.498426087918139">
    <tag k="addr:postcode" v="KW12 6XG"/>
    <tag k="removemelater" v="yes"/>
  </node>
  <node id="-438" lat="58.513478265501405" lon="-3.4881977119739953">
    <tag k="addr:postcode" v="KW12 6XH"/>
    <tag k="removemelater" v="yes"/>
  </node>
  <node id="-439" lat="58.48014132236657" lon="-3.550637780870482">
    <tag k="addr:postcode" v="KW12 6XJ"/>
    <tag k="removemelater" v="yes"/>
  </node>
  <node id="-440" lat="58.51553865571691" lon="-3.489452350809613">
    <tag k="addr:postcode" v="KW12 6XN"/>
    <tag k="removemelater" v="yes"/>
  </node>
  <node id="-441" lat="58.514558473525376" lon="-3.4903206511270564">
    <tag k="addr:postcode" v="KW12 6XP"/>
    <tag k="removemelater" v="yes"/>
  </node>
  <node id="-442" lat="58.515045994397305" lon="-3.543319388937413">
    <tag k="addr:postcode" v="KW12 6XQ"/>
    <tag k="removemelater" v="yes"/>
  </node>
  <node id="-443" lat="58.5124479800848" lon="-3.487965259387836">
    <tag k="addr:postcode" v="KW12 6XR"/>
    <tag k="removemelater" v="yes"/>
  </node>
  <node id="-444" lat="58.51365245384621" lon="-3.4886685824065653">
    <tag k="addr:postcode" v="KW12 6XS"/>
    <tag k="removemelater" v="yes"/>
  </node>
  <node id="-445" lat="58.51436972073815" lon="-3.4895573070756205">
    <tag k="addr:postcode" v="KW12 6XT"/>
    <tag k="removemelater" v="yes"/>
  </node>
  <node id="-446" lat="58.51386078973896" lon="-3.49084039317462">
    <tag k="addr:postcode" v="KW12 6XU"/>
    <tag k="removemelater" v="yes"/>
  </node>
  <node id="-447" lat="58.51468278651154" lon="-3.4927636313330326">
    <tag k="addr:postcode" v="KW12 6XW"/>
    <tag k="removemelater" v="yes"/>
  </node>
  <node id="-448" lat="58.51466302932703" lon="-3.4936898076374017">
    <tag k="addr:postcode" v="KW12 6XX"/>
    <tag k="removemelater" v="yes"/>
  </node>
  <node id="-449" lat="58.51222478579629" lon="-3.4948049469163114">
    <tag k="addr:postcode" v="KW12 6XY"/>
    <tag k="removemelater" v="yes"/>
  </node>
  <node id="-450" lat="58.513918853121616" lon="-3.493572343884466">
    <tag k="addr:postcode" v="KW12 6XZ"/>
    <tag k="removemelater" v="yes"/>
  </node>
  <node id="-451" lat="58.51173160394625" lon="-3.4908702317139286">
    <tag k="addr:postcode" v="KW12 6YA"/>
    <tag k="removemelater" v="yes"/>
  </node>
  <node id="-452" lat="58.51310185439745" lon="-3.4935376216486906">
    <tag k="addr:postcode" v="KW12 6YB"/>
    <tag k="removemelater" v="yes"/>
  </node>
  <node id="-453" lat="58.512812141529864" lon="-3.489868941691209">
    <tag k="addr:postcode" v="KW12 6YD"/>
    <tag k="removemelater" v="yes"/>
  </node>
  <node id="-454" lat="58.510784501711406" lon="-3.489662833179133">
    <tag k="addr:postcode" v="KW12 6YE"/>
    <tag k="removemelater" v="yes"/>
  </node>
  <node id="-455" lat="58.5103357552625" lon="-3.488081814442032">
    <tag k="addr:postcode" v="KW12 6YF"/>
    <tag k="removemelater" v="yes"/>
  </node>
  <node id="-456" lat="58.50822280500365" lon="-3.492128836756058">
    <tag k="addr:postcode" v="KW12 6YG"/>
    <tag k="removemelater" v="yes"/>
  </node>
  <node id="-457" lat="58.5147672315733" lon="-3.4986211705195296">
    <tag k="addr:postcode" v="KW12 6YH"/>
    <tag k="removemelater" v="yes"/>
  </node>
  <node id="-458" lat="58.51664972279346" lon="-3.4958687463481697">
    <tag k="addr:postcode" v="KW12 6YJ"/>
    <tag k="removemelater" v="yes"/>
  </node>
  <node id="-459" lat="58.516715996637764" lon="-3.494034595526621">
    <tag k="addr:postcode" v="KW12 6YN"/>
    <tag k="removemelater" v="yes"/>
  </node>
  <node id="-460" lat="58.513588264019184" lon="-3.4934209622532375">
    <tag k="addr:postcode" v="KW12 6YP"/>
    <tag k="removemelater" v="yes"/>
  </node>
  <node id="-461" lat="58.50905450795646" lon="-3.488576824828176">
    <tag k="addr:postcode" v="KW12 6YQ"/>
    <tag k="removemelater" v="yes"/>
  </node>
  <node id="-462" lat="58.51223115879113" lon="-3.4896211573773117">
    <tag k="addr:postcode" v="KW12 6YT"/>
    <tag k="removemelater" v="yes"/>
  </node>
  <node id="-463" lat="58.48594168027774" lon="-3.592627227126897">
    <tag k="addr:postcode" v="KW12 6YW"/>
    <tag k="removemelater" v="yes"/>
  </node>
  <node id="-464" lat="58.519624988456336" lon="-3.497231614892172">
    <tag k="addr:postcode" v="KW12 6YX"/>
    <tag k="removemelater" v="yes"/>
  </node>
  <node id="-465" lat="58.517792074392815" lon="-3.501119435390875">
    <tag k="addr:postcode" v="KW12 6ZA"/>
    <tag k="removemelater" v="yes"/>
  </node>
  <node id="-466" lat="58.521190723852754" lon="-3.891096257042497">
    <tag k="addr:postcode" v="KW13 6AB"/>
    <tag k="removemelater" v="yes"/>
  </node>
  <node id="-467" lat="58.45068090703545" lon="-3.8922964788486114">
    <tag k="addr:postcode" v="KW13 6YT"/>
    <tag k="removemelater" v="yes"/>
  </node>
  <node id="-468" lat="58.46322557590154" lon="-3.9017481177336735">
    <tag k="addr:postcode" v="KW13 6YU"/>
    <tag k="removemelater" v="yes"/>
  </node>
  <node id="-469" lat="58.59329878142435" lon="-3.523210800962688">
    <tag k="addr:postcode" v="KW14 7AA"/>
    <tag k="removemelater" v="yes"/>
  </node>
  <node id="-470" lat="58.59299803770982" lon="-3.524333283380592">
    <tag k="addr:postcode" v="KW14 7AB"/>
    <tag k="removemelater" v="yes"/>
  </node>
  <node id="-471" lat="58.592100049903735" lon="-3.523554396976608">
    <tag k="addr:postcode" v="KW14 7AD"/>
    <tag k="removemelater" v="yes"/>
  </node>
  <node id="-472" lat="58.59233144070042" lon="-3.525250560404152">
    <tag k="addr:postcode" v="KW14 7AE"/>
    <tag k="removemelater" v="yes"/>
  </node>
  <node id="-473" lat="58.5916519839697" lon="-3.5242231027966615">
    <tag k="addr:postcode" v="KW14 7AF"/>
    <tag k="removemelater" v="yes"/>
  </node>
  <node id="-474" lat="58.59177787668879" lon="-3.5242113750897754">
    <tag k="addr:postcode" v="KW14 7AG"/>
    <tag k="removemelater" v="yes"/>
  </node>
  <node id="-475" lat="58.59284928137416" lon="-3.5232428730516974">
    <tag k="addr:postcode" v="KW14 7AH"/>
    <tag k="removemelater" v="yes"/>
  </node>
  <node id="-476" lat="58.592993320064494" lon="-3.5224576862138486">
    <tag k="addr:postcode" v="KW14 7AJ"/>
    <tag k="removemelater" v="yes"/>
  </node>
  <node id="-477" lat="58.5933240550028" lon="-3.5218354527020397">
    <tag k="addr:postcode" v="KW14 7AL"/>
    <tag k="removemelater" v="yes"/>
  </node>
  <node id="-478" lat="58.59341384966447" lon="-3.5225964012963904">
    <tag k="addr:postcode" v="KW14 7AN"/>
    <tag k="removemelater" v="yes"/>
  </node>
  <node id="-479" lat="58.59244649036639" lon="-3.52236510188364">
    <tag k="addr:postcode" v="KW14 7AP"/>
    <tag k="removemelater" v="yes"/>
  </node>
  <node id="-480" lat="58.59246323708824" lon="-3.5232260879892365">
    <tag k="addr:postcode" v="KW14 7AQ"/>
    <tag k="removemelater" v="yes"/>
  </node>
  <node id="-481" lat="58.59210757504279" lon="-3.5221611197730933">
    <tag k="addr:postcode" v="KW14 7AR"/>
    <tag k="removemelater" v="yes"/>
  </node>
  <node id="-482" lat="58.58869385133872" lon="-3.5410397210798457">
    <tag k="addr:postcode" v="KW14 7AS"/>
    <tag k="removemelater" v="yes"/>
  </node>
  <node id="-483" lat="58.585688263825794" lon="-3.5399958442971196">
    <tag k="addr:postcode" v="KW14 7AT"/>
    <tag k="removemelater" v="yes"/>
  </node>
  <node id="-484" lat="58.591107485148065" lon="-3.530737131414567">
    <tag k="addr:postcode" v="KW14 7AU"/>
    <tag k="removemelater" v="yes"/>
  </node>
  <node id="-485" lat="58.59296634679811" lon="-3.5209424378599934">
    <tag k="addr:postcode" v="KW14 7AW"/>
    <tag k="removemelater" v="yes"/>
  </node>
  <node id="-486" lat="58.571214245762285" lon="-3.5484905270290623">
    <tag k="addr:postcode" v="KW14 7AX"/>
    <tag k="removemelater" v="yes"/>
  </node>
  <node id="-487" lat="58.59002982470971" lon="-3.528453529191351">
    <tag k="addr:postcode" v="KW14 7AZ"/>
    <tag k="removemelater" v="yes"/>
  </node>
  <node id="-488" lat="58.59396475305095" lon="-3.5223450510321386">
    <tag k="addr:postcode" v="KW14 7BE"/>
    <tag k="removemelater" v="yes"/>
  </node>
  <node id="-489" lat="58.59419981913323" lon="-3.5229746829800805">
    <tag k="addr:postcode" v="KW14 7BG"/>
    <tag k="removemelater" v="yes"/>
  </node>
  <node id="-490" lat="58.594928793445675" lon="-3.520580276941984">
    <tag k="addr:postcode" v="KW14 7BJ"/>
    <tag k="removemelater" v="yes"/>
  </node>
  <node id="-491" lat="58.59521567556946" lon="-3.5206271429868976">
    <tag k="addr:postcode" v="KW14 7BL"/>
    <tag k="removemelater" v="yes"/>
  </node>
  <node id="-492" lat="58.5945242264212" lon="-3.522128477741117">
    <tag k="addr:postcode" v="KW14 7BQ"/>
    <tag k="removemelater" v="yes"/>
  </node>
  <node id="-493" lat="58.59097203099407" lon="-3.530043034761897">
    <tag k="addr:postcode" v="KW14 7BY"/>
    <tag k="removemelater" v="yes"/>
  </node>
  <node id="-494" lat="58.58781058902263" lon="-3.534532570644765">
    <tag k="addr:postcode" v="KW14 7BZ"/>
    <tag k="removemelater" v="yes"/>
  </node>
  <node id="-495" lat="58.59375176236339" lon="-3.524400491589447">
    <tag k="addr:postcode" v="KW14 7DB"/>
    <tag k="removemelater" v="yes"/>
  </node>
  <node id="-496" lat="58.59348447155145" lon="-3.5249738535778072">
    <tag k="addr:postcode" v="KW14 7DD"/>
    <tag k="removemelater" v="yes"/>
  </node>
  <node id="-497" lat="58.592752783492124" lon="-3.525320520472208">
    <tag k="addr:postcode" v="KW14 7DE"/>
    <tag k="removemelater" v="yes"/>
  </node>
  <node id="-498" lat="58.593072513458395" lon="-3.5256269345649547">
    <tag k="addr:postcode" v="KW14 7DF"/>
    <tag k="removemelater" v="yes"/>
  </node>
  <node id="-499" lat="58.592094953095405" lon="-3.5262553594714303">
    <tag k="addr:postcode" v="KW14 7DG"/>
    <tag k="removemelater" v="yes"/>
  </node>
  <node id="-500" lat="58.59154302756014" lon="-3.525835606593415">
    <tag k="addr:postcode" v="KW14 7DH"/>
    <tag k="removemelater" v="yes"/>
  </node>
  <node id="-501" lat="58.591454877287276" lon="-3.5264511361355475">
    <tag k="addr:postcode" v="KW14 7DJ"/>
    <tag k="removemelater" v="yes"/>
  </node>
  <node id="-502" lat="58.59010105091643" lon="-3.527751271268641">
    <tag k="addr:postcode" v="KW14 7DL"/>
    <tag k="removemelater" v="yes"/>
  </node>
  <node id="-503" lat="58.59104103888365" lon="-3.528772915905173">
    <tag k="addr:postcode" v="KW14 7DN"/>
    <tag k="removemelater" v="yes"/>
  </node>
  <node id="-504" lat="58.59081411569913" lon="-3.5297264595500413">
    <tag k="addr:postcode" v="KW14 7DP"/>
    <tag k="removemelater" v="yes"/>
  </node>
  <node id="-505" lat="58.592253699875315" lon="-3.5257461230042333">
    <tag k="addr:postcode" v="KW14 7DQ"/>
    <tag k="removemelater" v="yes"/>
  </node>
  <node id="-506" lat="58.58800758530875" lon="-3.533078941217948">
    <tag k="addr:postcode" v="KW14 7DR"/>
    <tag k="removemelater" v="yes"/>
  </node>
  <node id="-507" lat="58.58912431137197" lon="-3.5328353422559995">
    <tag k="addr:postcode" v="KW14 7DT"/>
    <tag k="removemelater" v="yes"/>
  </node>
  <node id="-508" lat="58.589324390434925" lon="-3.5341343702246255">
    <tag k="addr:postcode" v="KW14 7DU"/>
    <tag k="removemelater" v="yes"/>
  </node>
  <node id="-509" lat="58.58907093618325" lon="-3.5312846889951652">
    <tag k="addr:postcode" v="KW14 7DW"/>
    <tag k="removemelater" v="yes"/>
  </node>
  <node id="-510" lat="58.59016070152014" lon="-3.5348075401941985">
    <tag k="addr:postcode" v="KW14 7DX"/>
    <tag k="removemelater" v="yes"/>
  </node>
  <node id="-511" lat="58.58911484617871" lon="-3.536636916529297">
    <tag k="addr:postcode" v="KW14 7DY"/>
    <tag k="removemelater" v="yes"/>
  </node>
  <node id="-512" lat="58.59041412662156" lon="-3.5391541035603384">
    <tag k="addr:postcode" v="KW14 7DZ"/>
    <tag k="removemelater" v="yes"/>
  </node>
  <node id="-513" lat="58.58850579992694" lon="-3.5364897837038303">
    <tag k="addr:postcode" v="KW14 7EA"/>
    <tag k="removemelater" v="yes"/>
  </node>
  <node id="-514" lat="58.58764924782107" lon="-3.5337513768814834">
    <tag k="addr:postcode" v="KW14 7EB"/>
    <tag k="removemelater" v="yes"/>
  </node>
  <node id="-515" lat="58.585697947154884" lon="-3.5346808829542393">
    <tag k="addr:postcode" v="KW14 7EE"/>
    <tag k="removemelater" v="yes"/>
  </node>
  <node id="-516" lat="58.585392721944174" lon="-3.530900336442714">
    <tag k="addr:postcode" v="KW14 7EF"/>
    <tag k="removemelater" v="yes"/>
  </node>
  <node id="-517" lat="58.588601764994436" lon="-3.527685899412905">
    <tag k="addr:postcode" v="KW14 7EG"/>
    <tag k="removemelater" v="yes"/>
  </node>
  <node id="-518" lat="58.58921567997002" lon="-3.5402196938349997">
    <tag k="addr:postcode" v="KW14 7EJ"/>
    <tag k="removemelater" v="yes"/>
  </node>
  <node id="-519" lat="58.58925978588849" lon="-3.5380367685490652">
    <tag k="addr:postcode" v="KW14 7EL"/>
    <tag k="removemelater" v="yes"/>
  </node>
  <node id="-520" lat="58.58947747583314" lon="-3.5401107757756964">
    <tag k="addr:postcode" v="KW14 7EP"/>
    <tag k="removemelater" v="yes"/>
  </node>
  <node id="-521" lat="58.58929776332614" lon="-3.5265636023450155">
    <tag k="addr:postcode" v="KW14 7EQ"/>
    <tag k="removemelater" v="yes"/>
  </node>
  <node id="-522" lat="58.58721622903725" lon="-3.5369149112546836">
    <tag k="addr:postcode" v="KW14 7ER"/>
    <tag k="removemelater" v="yes"/>
  </node>
  <node id="-523" lat="58.5870279691046" lon="-3.536132539350837">
    <tag k="addr:postcode" v="KW14 7ES"/>
    <tag k="removemelater" v="yes"/>
  </node>
  <node id="-524" lat="58.58665994433492" lon="-3.5353595019197033">
    <tag k="addr:postcode" v="KW14 7ET"/>
    <tag k="removemelater" v="yes"/>
  </node>
  <node id="-525" lat="58.58799571394555" lon="-3.536329792146449">
    <tag k="addr:postcode" v="KW14 7EU"/>
    <tag k="removemelater" v="yes"/>
  </node>
  <node id="-526" lat="58.58996318184491" lon="-3.5393063337226818">
    <tag k="addr:postcode" v="KW14 7EW"/>
    <tag k="removemelater" v="yes"/>
  </node>
  <node id="-527" lat="58.58780395793854" lon="-3.535839702563748">
    <tag k="addr:postcode" v="KW14 7EX"/>
    <tag k="removemelater" v="yes"/>
  </node>
  <node id="-528" lat="58.58739884495034" lon="-3.5344113226862914">
    <tag k="addr:postcode" v="KW14 7EY"/>
    <tag k="removemelater" v="yes"/>
  </node>
  <node id="-529" lat="58.587163286856665" lon="-3.539837034987669">
    <tag k="addr:postcode" v="KW14 7GY"/>
    <tag k="removemelater" v="yes"/>
  </node>
  <node id="-530" lat="58.59173663793516" lon="-3.527684955081808">
    <tag k="addr:postcode" v="KW14 7GZ"/>
    <tag k="removemelater" v="yes"/>
  </node>
  <node id="-531" lat="58.59463748845775" lon="-3.5231829794746496">
    <tag k="addr:postcode" v="KW14 7HA"/>
    <tag k="removemelater" v="yes"/>
  </node>
  <node id="-532" lat="58.59527981163537" lon="-3.5235550403538913">
    <tag k="addr:postcode" v="KW14 7HB"/>
    <tag k="removemelater" v="yes"/>
  </node>
  <node id="-533" lat="58.59498188933041" lon="-3.5221655704748973">
    <tag k="addr:postcode" v="KW14 7HD"/>
    <tag k="removemelater" v="yes"/>
  </node>
  <node id="-534" lat="58.59518532192581" lon="-3.5277321138523816">
    <tag k="addr:postcode" v="KW14 7HE"/>
    <tag k="removemelater" v="yes"/>
  </node>
  <node id="-535" lat="58.595737666950875" lon="-3.522817856083123">
    <tag k="addr:postcode" v="KW14 7HF"/>
    <tag k="removemelater" v="yes"/>
  </node>
  <node id="-536" lat="58.59526021506111" lon="-3.522934752485088">
    <tag k="addr:postcode" v="KW14 7HH"/>
    <tag k="removemelater" v="yes"/>
  </node>
  <node id="-537" lat="58.59490519913619" lon="-3.5240893513022633">
    <tag k="addr:postcode" v="KW14 7HJ"/>
    <tag k="removemelater" v="yes"/>
  </node>
  <node id="-538" lat="58.594835828470096" lon="-3.524636935976199">
    <tag k="addr:postcode" v="KW14 7HL"/>
    <tag k="removemelater" v="yes"/>
  </node>
  <node id="-539" lat="58.59383480842904" lon="-3.5249718983236673">
    <tag k="addr:postcode" v="KW14 7HN"/>
    <tag k="removemelater" v="yes"/>
  </node>
  <node id="-540" lat="58.5925685281604" lon="-3.5264652486211747">
    <tag k="addr:postcode" v="KW14 7HP"/>
    <tag k="removemelater" v="yes"/>
  </node>
  <node id="-541" lat="58.59543403629178" lon="-3.521909911971588">
    <tag k="addr:postcode" v="KW14 7HQ"/>
    <tag k="removemelater" v="yes"/>
  </node>
  <node id="-542" lat="58.59302597483089" lon="-3.52727663178569">
    <tag k="addr:postcode" v="KW14 7HR"/>
    <tag k="removemelater" v="yes"/>
  </node>
  <node id="-543" lat="58.59188556121922" lon="-3.528758152971985">
    <tag k="addr:postcode" v="KW14 7HS"/>
    <tag k="removemelater" v="yes"/>
  </node>
  <node id="-544" lat="58.593478713477886" lon="-3.528483561804926">
    <tag k="addr:postcode" v="KW14 7HT"/>
    <tag k="removemelater" v="yes"/>
  </node>
  <node id="-545" lat="58.59382072515182" lon="-3.526158488532092">
    <tag k="addr:postcode" v="KW14 7HU"/>
    <tag k="removemelater" v="yes"/>
  </node>
  <node id="-546" lat="58.59246364508636" lon="-3.5269768341677947">
    <tag k="addr:postcode" v="KW14 7HW"/>
    <tag k="removemelater" v="yes"/>
  </node>
  <node id="-547" lat="58.59453670625037" lon="-3.524864803994923">
    <tag k="addr:postcode" v="KW14 7HY"/>
    <tag k="removemelater" v="yes"/>
  </node>
  <node id="-548" lat="58.59520003800578" lon="-3.5242226248652337">
    <tag k="addr:postcode" v="KW14 7HZ"/>
    <tag k="removemelater" v="yes"/>
  </node>
  <node id="-549" lat="58.59614025711762" lon="-3.525227128098011">
    <tag k="addr:postcode" v="KW14 7JA"/>
    <tag k="removemelater" v="yes"/>
  </node>
  <node id="-550" lat="58.59539612318306" lon="-3.525108694385337">
    <tag k="addr:postcode" v="KW14 7JB"/>
    <tag k="removemelater" v="yes"/>
  </node>
  <node id="-551" lat="58.59447609278144" lon="-3.5269441118152782">
    <tag k="addr:postcode" v="KW14 7JD"/>
    <tag k="removemelater" v="yes"/>
  </node>
  <node id="-552" lat="58.59446076446905" lon="-3.528233906144404">
    <tag k="addr:postcode" v="KW14 7JE"/>
    <tag k="removemelater" v="yes"/>
  </node>
  <node id="-553" lat="58.5950712803031" lon="-3.526746371747885">
    <tag k="addr:postcode" v="KW14 7JF"/>
    <tag k="removemelater" v="yes"/>
  </node>
  <node id="-554" lat="58.59577644708876" lon="-3.5263641430943258">
    <tag k="addr:postcode" v="KW14 7JG"/>
    <tag k="removemelater" v="yes"/>
  </node>
  <node id="-555" lat="58.596804375036506" lon="-3.5328272681207733">
    <tag k="addr:postcode" v="KW14 7JH"/>
    <tag k="removemelater" v="yes"/>
  </node>
  <node id="-556" lat="58.59656386470953" lon="-3.5319047608227496">
    <tag k="addr:postcode" v="KW14 7JJ"/>
    <tag k="removemelater" v="yes"/>
  </node>
  <node id="-557" lat="58.595326674639196" lon="-3.529441731540522">
    <tag k="addr:postcode" v="KW14 7JL"/>
    <tag k="removemelater" v="yes"/>
  </node>
  <node id="-558" lat="58.59611595707512" lon="-3.527273699965782">
    <tag k="addr:postcode" v="KW14 7JN"/>
    <tag k="removemelater" v="yes"/>
  </node>
  <node id="-559" lat="58.5962744269911" lon="-3.529810047344801">
    <tag k="addr:postcode" v="KW14 7JP"/>
    <tag k="removemelater" v="yes"/>
  </node>
  <node id="-560" lat="58.59584071153594" lon="-3.5270035964897146">
    <tag k="addr:postcode" v="KW14 7JQ"/>
    <tag k="removemelater" v="yes"/>
  </node>
  <node id="-561" lat="58.59679963843598" lon="-3.5294544245295594">
    <tag k="addr:postcode" v="KW14 7JR"/>
    <tag k="removemelater" v="yes"/>
  </node>
  <node id="-562" lat="58.595680511546824" lon="-3.528390361002851">
    <tag k="addr:postcode" v="KW14 7JS"/>
    <tag k="removemelater" v="yes"/>
  </node>
  <node id="-563" lat="58.59725908053514" lon="-3.530851090101067">
    <tag k="addr:postcode" v="KW14 7JT"/>
    <tag k="removemelater" v="yes"/>
  </node>
  <node id="-564" lat="58.597761454772396" lon="-3.5339188282800547">
    <tag k="addr:postcode" v="KW14 7JU"/>
    <tag k="removemelater" v="yes"/>
  </node>
  <node id="-565" lat="58.59606781113541" lon="-3.5267898060627014">
    <tag k="addr:postcode" v="KW14 7JW"/>
    <tag k="removemelater" v="yes"/>
  </node>
  <node id="-566" lat="58.597498879073875" lon="-3.529570995467956">
    <tag k="addr:postcode" v="KW14 7JY"/>
    <tag k="removemelater" v="yes"/>
  </node>
  <node id="-567" lat="58.597119609382666" lon="-3.5282294576651134">
    <tag k="addr:postcode" v="KW14 7JZ"/>
    <tag k="removemelater" v="yes"/>
  </node>
  <node id="-568" lat="58.58554732430179" lon="-3.5412625865481164">
    <tag k="addr:postcode" v="KW14 7LB"/>
    <tag k="removemelater" v="yes"/>
  </node>
  <node id="-569" lat="58.58757299032693" lon="-3.5431235779879544">
    <tag k="addr:postcode" v="KW14 7LD"/>
    <tag k="removemelater" v="yes"/>
  </node>
  <node id="-570" lat="58.58291879895169" lon="-3.533475550166507">
    <tag k="addr:postcode" v="KW14 7LE"/>
    <tag k="removemelater" v="yes"/>
  </node>
  <node id="-571" lat="58.5862194113302" lon="-3.5443885386135814">
    <tag k="addr:postcode" v="KW14 7LF"/>
    <tag k="removemelater" v="yes"/>
  </node>
  <node id="-572" lat="58.59964382344707" lon="-3.539508067804057">
    <tag k="addr:postcode" v="KW14 7LG"/>
    <tag k="removemelater" v="yes"/>
  </node>
  <node id="-573" lat="58.586802846011615" lon="-3.545171161181989">
    <tag k="addr:postcode" v="KW14 7LH"/>
    <tag k="removemelater" v="yes"/>
  </node>
  <node id="-574" lat="58.59641852720524" lon="-3.528267698760129">
    <tag k="addr:postcode" v="KW14 7LJ"/>
    <tag k="removemelater" v="yes"/>
  </node>
  <node id="-575" lat="58.59613461039283" lon="-3.5309912239918737">
    <tag k="addr:postcode" v="KW14 7LL"/>
    <tag k="removemelater" v="yes"/>
  </node>
  <node id="-576" lat="58.595546995024435" lon="-3.5305525804730356">
    <tag k="addr:postcode" v="KW14 7LN"/>
    <tag k="removemelater" v="yes"/>
  </node>
  <node id="-577" lat="58.59463791534519" lon="-3.532216281221108">
    <tag k="addr:postcode" v="KW14 7LP"/>
    <tag k="removemelater" v="yes"/>
  </node>
  <node id="-578" lat="58.58648761714544" lon="-3.5422500705901054">
    <tag k="addr:postcode" v="KW14 7LQ"/>
    <tag k="removemelater" v="yes"/>
  </node>
  <node id="-579" lat="58.595295501284696" lon="-3.5328128619559105">
    <tag k="addr:postcode" v="KW14 7LR"/>
    <tag k="removemelater" v="yes"/>
  </node>
  <node id="-580" lat="58.59609103246127" lon="-3.533140192259431">
    <tag k="addr:postcode" v="KW14 7LS"/>
    <tag k="removemelater" v="yes"/>
  </node>
  <node id="-581" lat="58.595063263470166" lon="-3.5334565461864784">
    <tag k="addr:postcode" v="KW14 7LT"/>
    <tag k="removemelater" v="yes"/>
  </node>
  <node id="-582" lat="58.5941744683338" lon="-3.533417639778969">
    <tag k="addr:postcode" v="KW14 7LU"/>
    <tag k="removemelater" v="yes"/>
  </node>
  <node id="-583" lat="58.59530640528552" lon="-3.531144299112338">
    <tag k="addr:postcode" v="KW14 7LW"/>
    <tag k="removemelater" v="yes"/>
  </node>
  <node id="-584" lat="58.59420436005819" lon="-3.5316639302667348">
    <tag k="addr:postcode" v="KW14 7LX"/>
    <tag k="removemelater" v="yes"/>
  </node>
  <node id="-585" lat="58.59350692576651" lon="-3.5321496084902955">
    <tag k="addr:postcode" v="KW14 7LY"/>
    <tag k="removemelater" v="yes"/>
  </node>
  <node id="-586" lat="58.592753935352405" lon="-3.533527515275428">
    <tag k="addr:postcode" v="KW14 7LZ"/>
    <tag k="removemelater" v="yes"/>
  </node>
  <node id="-587" lat="58.592263442462205" lon="-3.5332307632142785">
    <tag k="addr:postcode" v="KW14 7NA"/>
    <tag k="removemelater" v="yes"/>
  </node>
  <node id="-588" lat="58.59349236601127" lon="-3.533370577090527">
    <tag k="addr:postcode" v="KW14 7NB"/>
    <tag k="removemelater" v="yes"/>
  </node>
  <node id="-589" lat="58.592650406674224" lon="-3.534675738625322">
    <tag k="addr:postcode" v="KW14 7ND"/>
    <tag k="removemelater" v="yes"/>
  </node>
  <node id="-590" lat="58.591098286341115" lon="-3.5345217268528772">
    <tag k="addr:postcode" v="KW14 7NE"/>
    <tag k="removemelater" v="yes"/>
  </node>
  <node id="-591" lat="58.59018860266697" lon="-3.535479722167964">
    <tag k="addr:postcode" v="KW14 7NF"/>
    <tag k="removemelater" v="yes"/>
  </node>
  <node id="-592" lat="58.59142174301686" lon="-3.533761682760793">
    <tag k="addr:postcode" v="KW14 7NG"/>
    <tag k="removemelater" v="yes"/>
  </node>
  <node id="-593" lat="58.59107678661739" lon="-3.532559469198735">
    <tag k="addr:postcode" v="KW14 7NH"/>
    <tag k="removemelater" v="yes"/>
  </node>
  <node id="-594" lat="58.59038258296432" lon="-3.5335269458852667">
    <tag k="addr:postcode" v="KW14 7NJ"/>
    <tag k="removemelater" v="yes"/>
  </node>
  <node id="-595" lat="58.59065770316439" lon="-3.5323002769939715">
    <tag k="addr:postcode" v="KW14 7NL"/>
    <tag k="removemelater" v="yes"/>
  </node>
  <node id="-596" lat="58.592127386827336" lon="-3.532588222380384">
    <tag k="addr:postcode" v="KW14 7NN"/>
    <tag k="removemelater" v="yes"/>
  </node>
  <node id="-597" lat="58.59426098280151" lon="-3.5291715246041284">
    <tag k="addr:postcode" v="KW14 7NP"/>
    <tag k="removemelater" v="yes"/>
  </node>
  <node id="-598" lat="58.59191633902643" lon="-3.5337145158345113">
    <tag k="addr:postcode" v="KW14 7NQ"/>
    <tag k="removemelater" v="yes"/>
  </node>
  <node id="-599" lat="58.59695469102214" lon="-3.5337802537572234">
    <tag k="addr:postcode" v="KW14 7NR"/>
    <tag k="removemelater" v="yes"/>
  </node>
  <node id="-600" lat="58.583777838022336" lon="-3.532997110499985">
    <tag k="addr:postcode" v="KW14 7NT"/>
    <tag k="removemelater" v="yes"/>
  </node>
  <node id="-601" lat="58.592631858251835" lon="-3.530958584057268">
    <tag k="addr:postcode" v="KW14 7NW"/>
    <tag k="removemelater" v="yes"/>
  </node>
  <node id="-602" lat="58.594537987426506" lon="-3.534569163326273">
    <tag k="addr:postcode" v="KW14 7NX"/>
    <tag k="removemelater" v="yes"/>
  </node>
  <node id="-603" lat="58.594973789132474" lon="-3.5349323834525594">
    <tag k="addr:postcode" v="KW14 7NY"/>
    <tag k="removemelater" v="yes"/>
  </node>
  <node id="-604" lat="58.59561286310015" lon="-3.5370768186292785">
    <tag k="addr:postcode" v="KW14 7NZ"/>
    <tag k="removemelater" v="yes"/>
  </node>
  <node id="-605" lat="58.59536578574186" lon="-3.5344505675768145">
    <tag k="addr:postcode" v="KW14 7PA"/>
    <tag k="removemelater" v="yes"/>
  </node>
  <node id="-606" lat="58.59613417406548" lon="-3.5347939536154187">
    <tag k="addr:postcode" v="KW14 7PB"/>
    <tag k="removemelater" v="yes"/>
  </node>
  <node id="-607" lat="58.59641666817437" lon="-3.5382133490332626">
    <tag k="addr:postcode" v="KW14 7PD"/>
    <tag k="removemelater" v="yes"/>
  </node>
  <node id="-608" lat="58.5962286937001" lon="-3.536656458038404">
    <tag k="addr:postcode" v="KW14 7PE"/>
    <tag k="removemelater" v="yes"/>
  </node>
  <node id="-609" lat="58.595814279702665" lon="-3.536758726403853">
    <tag k="addr:postcode" v="KW14 7PF"/>
    <tag k="removemelater" v="yes"/>
  </node>
  <node id="-610" lat="58.59568509935988" lon="-3.540796659174045">
    <tag k="addr:postcode" v="KW14 7PG"/>
    <tag k="removemelater" v="yes"/>
  </node>
  <node id="-611" lat="58.596345300448995" lon="-3.53967282136976">
    <tag k="addr:postcode" v="KW14 7PH"/>
    <tag k="removemelater" v="yes"/>
  </node>
  <node id="-612" lat="58.596228615323085" lon="-3.541164708563522">
    <tag k="addr:postcode" v="KW14 7PJ"/>
    <tag k="removemelater" v="yes"/>
  </node>
  <node id="-613" lat="58.59547016234474" lon="-3.5429896644243284">
    <tag k="addr:postcode" v="KW14 7PL"/>
    <tag k="removemelater" v="yes"/>
  </node>
  <node id="-614" lat="58.59349397359476" lon="-3.5384979526219396">
    <tag k="addr:postcode" v="KW14 7PN"/>
    <tag k="removemelater" v="yes"/>
  </node>
  <node id="-615" lat="58.59462098932948" lon="-3.5411455993363976">
    <tag k="addr:postcode" v="KW14 7PP"/>
    <tag k="removemelater" v="yes"/>
  </node>
  <node id="-616" lat="58.59613015948754" lon="-3.540386060178497">
    <tag k="addr:postcode" v="KW14 7PQ"/>
    <tag k="removemelater" v="yes"/>
  </node>
  <node id="-617" lat="58.59523350740391" lon="-3.5395035078050814">
    <tag k="addr:postcode" v="KW14 7PR"/>
    <tag k="removemelater" v="yes"/>
  </node>
  <node id="-618" lat="58.59527872072365" lon="-3.540228172622126">
    <tag k="addr:postcode" v="KW14 7PS"/>
    <tag k="removemelater" v="yes"/>
  </node>
  <node id="-619" lat="58.594348748678904" lon="-3.539877572784941">
    <tag k="addr:postcode" v="KW14 7PT"/>
    <tag k="removemelater" v="yes"/>
  </node>
  <node id="-620" lat="58.59485364424175" lon="-3.538970621500225">
    <tag k="addr:postcode" v="KW14 7PU"/>
    <tag k="removemelater" v="yes"/>
  </node>
  <node id="-621" lat="58.59411040156116" lon="-3.541776966412336">
    <tag k="addr:postcode" v="KW14 7PW"/>
    <tag k="removemelater" v="yes"/>
  </node>
  <node id="-622" lat="58.59377578145453" lon="-3.5382178290875066">
    <tag k="addr:postcode" v="KW14 7PX"/>
    <tag k="removemelater" v="yes"/>
  </node>
  <node id="-623" lat="58.59388098694784" lon="-3.536932004750707">
    <tag k="addr:postcode" v="KW14 7PY"/>
    <tag k="removemelater" v="yes"/>
  </node>
  <node id="-624" lat="58.592796102265474" lon="-3.539017877473124">
    <tag k="addr:postcode" v="KW14 7PZ"/>
    <tag k="removemelater" v="yes"/>
  </node>
  <node id="-625" lat="58.59252157832689" lon="-3.535685204416204">
    <tag k="addr:postcode" v="KW14 7QB"/>
    <tag k="removemelater" v="yes"/>
  </node>
  <node id="-626" lat="58.593422843014" lon="-3.5354322158173854">
    <tag k="addr:postcode" v="KW14 7QD"/>
    <tag k="removemelater" v="yes"/>
  </node>
  <node id="-627" lat="58.593833493936934" lon="-3.536396538464832">
    <tag k="addr:postcode" v="KW14 7QE"/>
    <tag k="removemelater" v="yes"/>
  </node>
  <node id="-628" lat="58.59412275358163" lon="-3.5347402399232903">
    <tag k="addr:postcode" v="KW14 7QF"/>
    <tag k="removemelater" v="yes"/>
  </node>
  <node id="-629" lat="58.591842701119425" lon="-3.536119979179633">
    <tag k="addr:postcode" v="KW14 7QG"/>
    <tag k="removemelater" v="yes"/>
  </node>
  <node id="-630" lat="58.5843202470049" lon="-3.534964574404404">
    <tag k="addr:postcode" v="KW14 7QH"/>
    <tag k="removemelater" v="yes"/>
  </node>
  <node id="-631" lat="58.58363623610079" lon="-3.5358290610585756">
    <tag k="addr:postcode" v="KW14 7QJ"/>
    <tag k="removemelater" v="yes"/>
  </node>
  <node id="-632" lat="58.58398104460607" lon="-3.5332812161058804">
    <tag k="addr:postcode" v="KW14 7QL"/>
    <tag k="removemelater" v="yes"/>
  </node>
  <node id="-633" lat="58.55675185097328" lon="-3.6113440920681454">
    <tag k="addr:postcode" v="KW14 7QN"/>
    <tag k="removemelater" v="yes"/>
  </node>
  <node id="-634" lat="58.5532004999611" lon="-3.615890028779581">
    <tag k="addr:postcode" v="KW14 7QP"/>
    <tag k="removemelater" v="yes"/>
  </node>
  <node id="-635" lat="58.584580541732045" lon="-3.5357328345796826">
    <tag k="addr:postcode" v="KW14 7QQ"/>
    <tag k="removemelater" v="yes"/>
  </node>
  <node id="-636" lat="58.5486560414938" lon="-3.6065216908690876">
    <tag k="addr:postcode" v="KW14 7QR"/>
    <tag k="removemelater" v="yes"/>
  </node>
  <node id="-637" lat="58.582591181983815" lon="-3.5353360549912094">
    <tag k="addr:postcode" v="KW14 7QS"/>
    <tag k="removemelater" v="yes"/>
  </node>
  <node id="-638" lat="58.58334813661499" lon="-3.532875109924132">
    <tag k="addr:postcode" v="KW14 7QT"/>
    <tag k="removemelater" v="yes"/>
  </node>
  <node id="-639" lat="58.58592925769153" lon="-3.5378733848158865">
    <tag k="addr:postcode" v="KW14 7QU"/>
    <tag k="removemelater" v="yes"/>
  </node>
  <node id="-640" lat="58.57115769653114" lon="-3.6250743391782962">
    <tag k="addr:postcode" v="KW14 7QW"/>
    <tag k="removemelater" v="yes"/>
  </node>
  <node id="-641" lat="58.58237140266052" lon="-3.535687632467711">
    <tag k="addr:postcode" v="KW14 7QX"/>
    <tag k="removemelater" v="yes"/>
  </node>
  <node id="-642" lat="58.55258381496711" lon="-3.6896415657780386">
    <tag k="addr:postcode" v="KW14 7QY"/>
    <tag k="removemelater" v="yes"/>
  </node>
  <node id="-643" lat="58.55262768604159" lon="-3.688354708335097">
    <tag k="addr:postcode" v="KW14 7QZ"/>
    <tag k="removemelater" v="yes"/>
  </node>
  <node id="-644" lat="58.55843709696388" lon="-3.6588972441644456">
    <tag k="addr:postcode" v="KW14 7RA"/>
    <tag k="removemelater" v="yes"/>
  </node>
  <node id="-645" lat="58.5150813946817" lon="-3.6544121518035415">
    <tag k="addr:postcode" v="KW14 7RB"/>
    <tag k="removemelater" v="yes"/>
  </node>
  <node id="-646" lat="58.55494014059084" lon="-3.7104659165885097">
    <tag k="addr:postcode" v="KW14 7RD"/>
    <tag k="removemelater" v="yes"/>
  </node>
  <node id="-647" lat="58.56019214835423" lon="-3.769048306728817">
    <tag k="addr:postcode" v="KW14 7RE"/>
    <tag k="removemelater" v="yes"/>
  </node>
  <node id="-648" lat="58.55832616472801" lon="-3.7857482706076118">
    <tag k="addr:postcode" v="KW14 7RF"/>
    <tag k="removemelater" v="yes"/>
  </node>
  <node id="-649" lat="58.558363213632376" lon="-3.7888958325435653">
    <tag k="addr:postcode" v="KW14 7RG"/>
    <tag k="removemelater" v="yes"/>
  </node>
  <node id="-650" lat="58.55512705651223" lon="-3.792924666956407">
    <tag k="addr:postcode" v="KW14 7RH"/>
    <tag k="removemelater" v="yes"/>
  </node>
  <node id="-651" lat="58.55656547065686" lon="-3.792843483904076">
    <tag k="addr:postcode" v="KW14 7RJ"/>
    <tag k="removemelater" v="yes"/>
  </node>
  <node id="-652" lat="58.55650504508513" lon="-3.795882778904837">
    <tag k="addr:postcode" v="KW14 7RL"/>
    <tag k="removemelater" v="yes"/>
  </node>
  <node id="-653" lat="58.563165243539736" lon="-3.8033068694838246">
    <tag k="addr:postcode" v="KW14 7RN"/>
    <tag k="removemelater" v="yes"/>
  </node>
  <node id="-654" lat="58.57030633363633" lon="-3.7228221229892466">
    <tag k="addr:postcode" v="KW14 7RP"/>
    <tag k="removemelater" v="yes"/>
  </node>
  <node id="-655" lat="58.55692013782228" lon="-3.789956703292286">
    <tag k="addr:postcode" v="KW14 7RQ"/>
    <tag k="removemelater" v="yes"/>
  </node>
  <node id="-656" lat="58.560138719053484" lon="-3.745374667482043">
    <tag k="addr:postcode" v="KW14 7RR"/>
    <tag k="removemelater" v="yes"/>
  </node>
  <node id="-657" lat="58.59226677787673" lon="-3.5374633680137215">
    <tag k="addr:postcode" v="KW14 7RS"/>
    <tag k="removemelater" v="yes"/>
  </node>
  <node id="-658" lat="58.56369644032563" lon="-3.759167744806272">
    <tag k="addr:postcode" v="KW14 7RW"/>
    <tag k="removemelater" v="yes"/>
  </node>
  <node id="-659" lat="58.57443465549335" lon="-4.014027777127962">
    <tag k="addr:postcode" v="KW14 7RY"/>
    <tag k="removemelater" v="yes"/>
  </node>
  <node id="-660" lat="58.55585487581216" lon="-3.9916806729241996">
    <tag k="addr:postcode" v="KW14 7RZ"/>
    <tag k="removemelater" v="yes"/>
  </node>
  <node id="-661" lat="58.55121042478902" lon="-4.085619672337388">
    <tag k="addr:postcode" v="KW14 7SA"/>
    <tag k="removemelater" v="yes"/>
  </node>
  <node id="-662" lat="58.561639926546675" lon="-4.0055565236217205">
    <tag k="addr:postcode" v="KW14 7SB"/>
    <tag k="removemelater" v="yes"/>
  </node>
  <node id="-663" lat="58.56010736864532" lon="-3.766723346078234">
    <tag k="addr:postcode" v="KW14 7SD"/>
    <tag k="removemelater" v="yes"/>
  </node>
  <node id="-664" lat="58.51149556320128" lon="-4.2204192438643675">
    <tag k="addr:postcode" v="KW14 7SG"/>
    <tag k="removemelater" v="yes"/>
  </node>
  <node id="-665" lat="58.588832345111115" lon="-3.5429725992183565">
    <tag k="addr:postcode" v="KW14 7SH"/>
    <tag k="removemelater" v="yes"/>
  </node>
  <node id="-666" lat="58.58828511842174" lon="-3.5429140952888054">
    <tag k="addr:postcode" v="KW14 7SJ"/>
    <tag k="removemelater" v="yes"/>
  </node>
  <node id="-667" lat="58.58774036834205" lon="-3.542649267315358">
    <tag k="addr:postcode" v="KW14 7SL"/>
    <tag k="removemelater" v="yes"/>
  </node>
  <node id="-668" lat="58.588180788973546" lon="-3.5418773130566166">
    <tag k="addr:postcode" v="KW14 7SN"/>
    <tag k="removemelater" v="yes"/>
  </node>
  <node id="-669" lat="58.52534720205116" lon="-4.222085032578676">
    <tag k="addr:postcode" v="KW14 7SP"/>
    <tag k="removemelater" v="yes"/>
  </node>
  <node id="-670" lat="58.486716434216326" lon="-4.203276647608622">
    <tag k="addr:postcode" v="KW14 7SQ"/>
    <tag k="removemelater" v="yes"/>
  </node>
  <node id="-671" lat="58.525232798508505" lon="-4.212064584601897">
    <tag k="addr:postcode" v="KW14 7SR"/>
    <tag k="removemelater" v="yes"/>
  </node>
  <node id="-672" lat="58.52870619357348" lon="-4.221627687794372">
    <tag k="addr:postcode" v="KW14 7SS"/>
    <tag k="removemelater" v="yes"/>
  </node>
  <node id="-673" lat="58.52620800902758" lon="-4.221143303156066">
    <tag k="addr:postcode" v="KW14 7ST"/>
    <tag k="removemelater" v="yes"/>
  </node>
  <node id="-674" lat="58.52637092701478" lon="-4.222630734857162">
    <tag k="addr:postcode" v="KW14 7SU"/>
    <tag k="removemelater" v="yes"/>
  </node>
  <node id="-675" lat="58.58755718698743" lon="-3.5406972831590577">
    <tag k="addr:postcode" v="KW14 7SW"/>
    <tag k="removemelater" v="yes"/>
  </node>
  <node id="-676" lat="58.526979215383804" lon="-4.223820040883436">
    <tag k="addr:postcode" v="KW14 7SX"/>
    <tag k="removemelater" v="yes"/>
  </node>
  <node id="-677" lat="58.52957135304809" lon="-4.2219916214861835">
    <tag k="addr:postcode" v="KW14 7SY"/>
    <tag k="removemelater" v="yes"/>
  </node>
  <node id="-678" lat="58.53250706898854" lon="-4.199157768806483">
    <tag k="addr:postcode" v="KW14 7SZ"/>
    <tag k="removemelater" v="yes"/>
  </node>
  <node id="-679" lat="58.534987579412395" lon="-4.192801943727796">
    <tag k="addr:postcode" v="KW14 7TA"/>
    <tag k="removemelater" v="yes"/>
  </node>
  <node id="-680" lat="58.54222776502303" lon="-4.1567910920563484">
    <tag k="addr:postcode" v="KW14 7TB"/>
    <tag k="removemelater" v="yes"/>
  </node>
  <node id="-681" lat="58.52539677039772" lon="-4.223891588848665">
    <tag k="addr:postcode" v="KW14 7TD"/>
    <tag k="removemelater" v="yes"/>
  </node>
  <node id="-682" lat="58.52234363506114" lon="-4.278105763757485">
    <tag k="addr:postcode" v="KW14 7TH"/>
    <tag k="removemelater" v="yes"/>
  </node>
  <node id="-683" lat="58.535941341750835" lon="-4.315016682154594">
    <tag k="addr:postcode" v="KW14 7TJ"/>
    <tag k="removemelater" v="yes"/>
  </node>
  <node id="-684" lat="58.57967206941206" lon="-3.737747406998421">
    <tag k="addr:postcode" v="KW14 7TY"/>
    <tag k="removemelater" v="yes"/>
  </node>
  <node id="-685" lat="58.579662860130206" lon="-3.737764150125573">
    <tag k="addr:postcode" v="KW14 7TZ"/>
    <tag k="removemelater" v="yes"/>
  </node>
  <node id="-686" lat="58.600869007471616" lon="-3.5459466010504124">
    <tag k="addr:postcode" v="KW14 7UB"/>
    <tag k="removemelater" v="yes"/>
  </node>
  <node id="-687" lat="58.599962137533744" lon="-3.5466637641289362">
    <tag k="addr:postcode" v="KW14 7UD"/>
    <tag k="removemelater" v="yes"/>
  </node>
  <node id="-688" lat="58.601061496095134" lon="-3.544130893847116">
    <tag k="addr:postcode" v="KW14 7UE"/>
    <tag k="removemelater" v="yes"/>
  </node>
  <node id="-689" lat="58.605092450292396" lon="-3.5502810239999145">
    <tag k="addr:postcode" v="KW14 7UF"/>
    <tag k="removemelater" v="yes"/>
  </node>
  <node id="-690" lat="58.600259948368866" lon="-3.5383133079553732">
    <tag k="addr:postcode" v="KW14 7UG"/>
    <tag k="removemelater" v="yes"/>
  </node>
  <node id="-691" lat="58.60381439094515" lon="-3.5490024723606606">
    <tag k="addr:postcode" v="KW14 7UH"/>
    <tag k="removemelater" v="yes"/>
  </node>
  <node id="-692" lat="58.61203459485714" lon="-3.5496416311786425">
    <tag k="addr:postcode" v="KW14 7UJ"/>
    <tag k="removemelater" v="yes"/>
  </node>
  <node id="-693" lat="58.61137311346231" lon="-3.551609239064272">
    <tag k="addr:postcode" v="KW14 7UL"/>
    <tag k="removemelater" v="yes"/>
  </node>
  <node id="-694" lat="58.607553595672904" lon="-3.554004661819367">
    <tag k="addr:postcode" v="KW14 7UN"/>
    <tag k="removemelater" v="yes"/>
  </node>
  <node id="-695" lat="58.6100339145723" lon="-3.5539081911419186">
    <tag k="addr:postcode" v="KW14 7UP"/>
    <tag k="removemelater" v="yes"/>
  </node>
  <node id="-696" lat="58.60210919776287" lon="-3.544400819377152">
    <tag k="addr:postcode" v="KW14 7UQ"/>
    <tag k="removemelater" v="yes"/>
  </node>
  <node id="-697" lat="58.609614320564525" lon="-3.555180595829535">
    <tag k="addr:postcode" v="KW14 7UR"/>
    <tag k="removemelater" v="yes"/>
  </node>
  <node id="-698" lat="58.60354732147422" lon="-3.5547562499847447">
    <tag k="addr:postcode" v="KW14 7UT"/>
    <tag k="removemelater" v="yes"/>
  </node>
  <node id="-699" lat="58.59877306986647" lon="-3.538712627381873">
    <tag k="addr:postcode" v="KW14 7UU"/>
    <tag k="removemelater" v="yes"/>
  </node>
  <node id="-700" lat="58.61378226895835" lon="-3.549219744179724">
    <tag k="addr:postcode" v="KW14 7UW"/>
    <tag k="removemelater" v="yes"/>
  </node>
  <node id="-701" lat="58.61048265175919" lon="-3.5554257391919215">
    <tag k="addr:postcode" v="KW14 7UX"/>
    <tag k="removemelater" v="yes"/>
  </node>
  <node id="-702" lat="58.60170498880359" lon="-3.5481347289383223">
    <tag k="addr:postcode" v="KW14 7UY"/>
    <tag k="removemelater" v="yes"/>
  </node>
  <node id="-703" lat="58.60536154969127" lon="-3.683168497722798">
    <tag k="addr:postcode" v="KW14 7UZ"/>
    <tag k="removemelater" v="yes"/>
  </node>
  <node id="-704" lat="58.5991220150624" lon="-3.5433226284327697">
    <tag k="addr:postcode" v="KW14 7XA"/>
    <tag k="removemelater" v="yes"/>
  </node>
  <node id="-705" lat="58.59869098555747" lon="-3.5425636787144845">
    <tag k="addr:postcode" v="KW14 7XB"/>
    <tag k="removemelater" v="yes"/>
  </node>
  <node id="-706" lat="58.58023302086016" lon="-3.5402377300048378">
    <tag k="addr:postcode" v="KW14 7XD"/>
    <tag k="removemelater" v="yes"/>
  </node>
  <node id="-707" lat="58.57228295321015" lon="-3.5633429539450976">
    <tag k="addr:postcode" v="KW14 7XF"/>
    <tag k="removemelater" v="yes"/>
  </node>
  <node id="-708" lat="58.56633674298831" lon="-3.57655680854467">
    <tag k="addr:postcode" v="KW14 7XG"/>
    <tag k="removemelater" v="yes"/>
  </node>
  <node id="-709" lat="58.563655921232204" lon="-3.5338538144790608">
    <tag k="addr:postcode" v="KW14 7XH"/>
    <tag k="removemelater" v="yes"/>
  </node>
  <node id="-710" lat="58.56333091177771" lon="-3.536246329792688">
    <tag k="addr:postcode" v="KW14 7XJ"/>
    <tag k="removemelater" v="yes"/>
  </node>
  <node id="-711" lat="58.57118612660288" lon="-3.547096504943227">
    <tag k="addr:postcode" v="KW14 7XL"/>
    <tag k="removemelater" v="yes"/>
  </node>
  <node id="-712" lat="58.54707051482721" lon="-3.546153586279937">
    <tag k="addr:postcode" v="KW14 7XN"/>
    <tag k="removemelater" v="yes"/>
  </node>
  <node id="-713" lat="58.57022005193001" lon="-3.5467615757721607">
    <tag k="addr:postcode" v="KW14 7XP"/>
    <tag k="removemelater" v="yes"/>
  </node>
  <node id="-714" lat="58.58488619614894" lon="-3.58454712764418">
    <tag k="addr:postcode" v="KW14 7XQ"/>
    <tag k="removemelater" v="yes"/>
  </node>
  <node id="-715" lat="58.597284408032955" lon="-3.53023272473385">
    <tag k="addr:postcode" v="KW14 7XR"/>
    <tag k="removemelater" v="yes"/>
  </node>
  <node id="-716" lat="58.59829142228536" lon="-3.541427554829046">
    <tag k="addr:postcode" v="KW14 7XT"/>
    <tag k="removemelater" v="yes"/>
  </node>
  <node id="-717" lat="58.59942884824625" lon="-3.62910493907907">
    <tag k="addr:postcode" v="KW14 7XU"/>
    <tag k="removemelater" v="yes"/>
  </node>
  <node id="-718" lat="58.59659539584002" lon="-3.5524860329714683">
    <tag k="addr:postcode" v="KW14 7XW"/>
    <tag k="removemelater" v="yes"/>
  </node>
  <node id="-719" lat="58.59825070635797" lon="-3.6426275976376274">
    <tag k="addr:postcode" v="KW14 7XX"/>
    <tag k="removemelater" v="yes"/>
  </node>
  <node id="-720" lat="58.59615209489005" lon="-3.660545401545193">
    <tag k="addr:postcode" v="KW14 7XY"/>
    <tag k="removemelater" v="yes"/>
  </node>
  <node id="-721" lat="58.59452069550453" lon="-3.6803246469935917">
    <tag k="addr:postcode" v="KW14 7YA"/>
    <tag k="removemelater" v="yes"/>
  </node>
  <node id="-722" lat="58.58309053982042" lon="-3.706541669021031">
    <tag k="addr:postcode" v="KW14 7YB"/>
    <tag k="removemelater" v="yes"/>
  </node>
  <node id="-723" lat="58.580525309215865" lon="-3.6830936060037747">
    <tag k="addr:postcode" v="KW14 7YD"/>
    <tag k="removemelater" v="yes"/>
  </node>
  <node id="-724" lat="58.58235856231996" lon="-3.667184912392389">
    <tag k="addr:postcode" v="KW14 7YE"/>
    <tag k="removemelater" v="yes"/>
  </node>
  <node id="-725" lat="58.51847126186599" lon="-3.567540836317945">
    <tag k="addr:postcode" v="KW14 7YH"/>
    <tag k="removemelater" v="yes"/>
  </node>
  <node id="-726" lat="58.55326512705211" lon="-3.918674831098778">
    <tag k="addr:postcode" v="KW14 7YJ"/>
    <tag k="removemelater" v="yes"/>
  </node>
  <node id="-727" lat="58.56445264179973" lon="-3.9328350385289723">
    <tag k="addr:postcode" v="KW14 7YL"/>
    <tag k="removemelater" v="yes"/>
  </node>
  <node id="-728" lat="58.570135990984994" lon="-3.9324433113092128">
    <tag k="addr:postcode" v="KW14 7YN"/>
    <tag k="removemelater" v="yes"/>
  </node>
  <node id="-729" lat="58.56483361850289" lon="-3.933784475304533">
    <tag k="addr:postcode" v="KW14 7YP"/>
    <tag k="removemelater" v="yes"/>
  </node>
  <node id="-730" lat="58.55708462648993" lon="-3.9281660488687025">
    <tag k="addr:postcode" v="KW14 7YQ"/>
    <tag k="removemelater" v="yes"/>
  </node>
  <node id="-731" lat="58.56430794437416" lon="-3.9352856697963676">
    <tag k="addr:postcode" v="KW14 7YR"/>
    <tag k="removemelater" v="yes"/>
  </node>
  <node id="-732" lat="58.557525458449625" lon="-3.9311125305645356">
    <tag k="addr:postcode" v="KW14 7YS"/>
    <tag k="removemelater" v="yes"/>
  </node>
  <node id="-733" lat="58.55639683293751" lon="-3.9279047848936814">
    <tag k="addr:postcode" v="KW14 7YT"/>
    <tag k="removemelater" v="yes"/>
  </node>
  <node id="-734" lat="58.56327667939423" lon="-3.931583941491841">
    <tag k="addr:postcode" v="KW14 7YU"/>
    <tag k="removemelater" v="yes"/>
  </node>
  <node id="-735" lat="58.5654437374277" lon="-3.9356234496815303">
    <tag k="addr:postcode" v="KW14 7YW"/>
    <tag k="removemelater" v="yes"/>
  </node>
  <node id="-736" lat="58.56384261010233" lon="-3.932182475227031">
    <tag k="addr:postcode" v="KW14 7YX"/>
    <tag k="removemelater" v="yes"/>
  </node>
  <node id="-737" lat="58.59513525389916" lon="-3.5198321542758877">
    <tag k="addr:postcode" v="KW14 8AA"/>
    <tag k="removemelater" v="yes"/>
  </node>
  <node id="-738" lat="58.59493957259726" lon="-3.519668807008035">
    <tag k="addr:postcode" v="KW14 8AB"/>
    <tag k="removemelater" v="yes"/>
  </node>
  <node id="-739" lat="58.5955027330193" lon="-3.5198997181363523">
    <tag k="addr:postcode" v="KW14 8AD"/>
    <tag k="removemelater" v="yes"/>
  </node>
  <node id="-740" lat="58.594945634136934" lon="-3.5183957983511536">
    <tag k="addr:postcode" v="KW14 8AE"/>
    <tag k="removemelater" v="yes"/>
  </node>
  <node id="-741" lat="58.62696453257374" lon="-3.364823002684061">
    <tag k="addr:postcode" v="KW14 8AF"/>
    <tag k="removemelater" v="yes"/>
  </node>
  <node id="-742" lat="58.59534414876937" lon="-3.51887764967478">
    <tag k="addr:postcode" v="KW14 8AG"/>
    <tag k="removemelater" v="yes"/>
  </node>
  <node id="-743" lat="58.59534284902523" lon="-3.517466654973491">
    <tag k="addr:postcode" v="KW14 8AH"/>
    <tag k="removemelater" v="yes"/>
  </node>
  <node id="-744" lat="58.595650409623616" lon="-3.518804895633268">
    <tag k="addr:postcode" v="KW14 8AJ"/>
    <tag k="removemelater" v="yes"/>
  </node>
  <node id="-745" lat="58.59559003916135" lon="-3.519352892156913">
    <tag k="addr:postcode" v="KW14 8AL"/>
    <tag k="removemelater" v="yes"/>
  </node>
  <node id="-746" lat="58.59567842457793" lon="-3.5202342693120547">
    <tag k="addr:postcode" v="KW14 8AN"/>
    <tag k="removemelater" v="yes"/>
  </node>
  <node id="-747" lat="58.5960927595739" lon="-3.5186175922190257">
    <tag k="addr:postcode" v="KW14 8AP"/>
    <tag k="removemelater" v="yes"/>
  </node>
  <node id="-748" lat="58.59508903432948" lon="-3.5176621371966554">
    <tag k="addr:postcode" v="KW14 8AQ"/>
    <tag k="removemelater" v="yes"/>
  </node>
  <node id="-749" lat="58.59563830409969" lon="-3.5175482809057">
    <tag k="addr:postcode" v="KW14 8AR"/>
    <tag k="removemelater" v="yes"/>
  </node>
  <node id="-750" lat="58.595936960090015" lon="-3.516597635747873">
    <tag k="addr:postcode" v="KW14 8AS"/>
    <tag k="removemelater" v="yes"/>
  </node>
  <node id="-751" lat="58.595455860467325" lon="-3.5170241785432093">
    <tag k="addr:postcode" v="KW14 8AT"/>
    <tag k="removemelater" v="yes"/>
  </node>
  <node id="-752" lat="58.59561208478726" lon="-3.515964129334801">
    <tag k="addr:postcode" v="KW14 8AU"/>
    <tag k="removemelater" v="yes"/>
  </node>
  <node id="-753" lat="58.59601240165276" lon="-3.519336798091441">
    <tag k="addr:postcode" v="KW14 8AW"/>
    <tag k="removemelater" v="yes"/>
  </node>
  <node id="-754" lat="58.59601055573157" lon="-3.515688857185043">
    <tag k="addr:postcode" v="KW14 8AX"/>
    <tag k="removemelater" v="yes"/>
  </node>
  <node id="-755" lat="58.59621440866896" lon="-3.5159213687416835">
    <tag k="addr:postcode" v="KW14 8AY"/>
    <tag k="removemelater" v="yes"/>
  </node>
  <node id="-756" lat="58.59636859390983" lon="-3.5180789245304367">
    <tag k="addr:postcode" v="KW14 8AZ"/>
    <tag k="removemelater" v="yes"/>
  </node>
  <node id="-757" lat="58.59655919818142" lon="-3.5186722286916043">
    <tag k="addr:postcode" v="KW14 8BB"/>
    <tag k="removemelater" v="yes"/>
  </node>
  <node id="-758" lat="58.5964297103844" lon="-3.5205077747900853">
    <tag k="addr:postcode" v="KW14 8BD"/>
    <tag k="removemelater" v="yes"/>
  </node>
  <node id="-759" lat="58.596052004587676" lon="-3.519785895717">
    <tag k="addr:postcode" v="KW14 8BE"/>
    <tag k="removemelater" v="yes"/>
  </node>
  <node id="-760" lat="58.59616386123579" lon="-3.5209608232559475">
    <tag k="addr:postcode" v="KW14 8BG"/>
    <tag k="removemelater" v="yes"/>
  </node>
  <node id="-761" lat="58.59608637375763" lon="-3.5229534642281854">
    <tag k="addr:postcode" v="KW14 8BH"/>
    <tag k="removemelater" v="yes"/>
  </node>
  <node id="-762" lat="58.596058592687626" lon="-3.521506874130432">
    <tag k="addr:postcode" v="KW14 8BJ"/>
    <tag k="removemelater" v="yes"/>
  </node>
  <node id="-763" lat="58.596613334246385" lon="-3.5201716016814006">
    <tag k="addr:postcode" v="KW14 8BL"/>
    <tag k="removemelater" v="yes"/>
  </node>
  <node id="-764" lat="58.59704995243377" lon="-3.5159059073061956">
    <tag k="addr:postcode" v="KW14 8BN"/>
    <tag k="removemelater" v="yes"/>
  </node>
  <node id="-765" lat="58.59667902301541" lon="-3.5161307554685775">
    <tag k="addr:postcode" v="KW14 8BP"/>
    <tag k="removemelater" v="yes"/>
  </node>
  <node id="-766" lat="58.5964677186409" lon="-3.5226086945294606">
    <tag k="addr:postcode" v="KW14 8BQ"/>
    <tag k="removemelater" v="yes"/>
  </node>
  <node id="-767" lat="58.59653583436826" lon="-3.5168472578639838">
    <tag k="addr:postcode" v="KW14 8BS"/>
    <tag k="removemelater" v="yes"/>
  </node>
  <node id="-768" lat="58.59670766643334" lon="-3.5144628944218046">
    <tag k="addr:postcode" v="KW14 8BT"/>
    <tag k="removemelater" v="yes"/>
  </node>
  <node id="-769" lat="58.594110205658936" lon="-3.5168798750520187">
    <tag k="addr:postcode" v="KW14 8BU"/>
    <tag k="removemelater" v="yes"/>
  </node>
  <node id="-770" lat="58.597200952357" lon="-3.5160501020527657">
    <tag k="addr:postcode" v="KW14 8BW"/>
    <tag k="removemelater" v="yes"/>
  </node>
  <node id="-771" lat="58.594786225750084" lon="-3.5174425427757603">
    <tag k="addr:postcode" v="KW14 8BY"/>
    <tag k="removemelater" v="yes"/>
  </node>
  <node id="-772" lat="58.594147829494936" lon="-3.5182579822737012">
    <tag k="addr:postcode" v="KW14 8BZ"/>
    <tag k="removemelater" v="yes"/>
  </node>
  <node id="-773" lat="58.59737998856877" lon="-3.514578001414115">
    <tag k="addr:postcode" v="KW14 8DA"/>
    <tag k="removemelater" v="yes"/>
  </node>
  <node id="-774" lat="58.59435686758132" lon="-3.516529228179466">
    <tag k="addr:postcode" v="KW14 8DB"/>
    <tag k="removemelater" v="yes"/>
  </node>
  <node id="-775" lat="58.59386488105213" lon="-3.5193985107717007">
    <tag k="addr:postcode" v="KW14 8DD"/>
    <tag k="removemelater" v="yes"/>
  </node>
  <node id="-776" lat="58.59281012714265" lon="-3.5059842463504967">
    <tag k="addr:postcode" v="KW14 8DF"/>
    <tag k="removemelater" v="yes"/>
  </node>
  <node id="-777" lat="58.59217822280474" lon="-3.5047183255997743">
    <tag k="addr:postcode" v="KW14 8DG"/>
    <tag k="removemelater" v="yes"/>
  </node>
  <node id="-778" lat="58.59408164945177" lon="-3.521575862779165">
    <tag k="addr:postcode" v="KW14 8EG"/>
    <tag k="removemelater" v="yes"/>
  </node>
  <node id="-779" lat="58.5944372530871" lon="-3.520369673233315">
    <tag k="addr:postcode" v="KW14 8EJ"/>
    <tag k="removemelater" v="yes"/>
  </node>
  <node id="-780" lat="58.594649640131216" lon="-3.519879910360248">
    <tag k="addr:postcode" v="KW14 8EN"/>
    <tag k="removemelater" v="yes"/>
  </node>
  <node id="-781" lat="58.59338417893695" lon="-3.5197905966201883">
    <tag k="addr:postcode" v="KW14 8EP"/>
    <tag k="removemelater" v="yes"/>
  </node>
  <node id="-782" lat="58.59510617126776" lon="-3.51239770976903">
    <tag k="addr:postcode" v="KW14 8HN"/>
    <tag k="removemelater" v="yes"/>
  </node>
  <node id="-783" lat="58.59987105103395" lon="-3.5066836507162376">
    <tag k="addr:postcode" v="KW14 8HP"/>
    <tag k="removemelater" v="yes"/>
  </node>
  <node id="-784" lat="58.59273615206627" lon="-3.5115211571151383">
    <tag k="addr:postcode" v="KW14 8HR"/>
    <tag k="removemelater" v="yes"/>
  </node>
  <node id="-785" lat="58.59333515849973" lon="-3.5109964242332907">
    <tag k="addr:postcode" v="KW14 8HS"/>
    <tag k="removemelater" v="yes"/>
  </node>
  <node id="-786" lat="58.5932097878353" lon="-3.5101995643081896">
    <tag k="addr:postcode" v="KW14 8HT"/>
    <tag k="removemelater" v="yes"/>
  </node>
  <node id="-787" lat="58.59270278601968" lon="-3.5105390186987395">
    <tag k="addr:postcode" v="KW14 8HU"/>
    <tag k="removemelater" v="yes"/>
  </node>
  <node id="-788" lat="58.59934841309073" lon="-3.5060588704577027">
    <tag k="addr:postcode" v="KW14 8HW"/>
    <tag k="removemelater" v="yes"/>
  </node>
  <node id="-789" lat="58.593454320673764" lon="-3.509263797424694">
    <tag k="addr:postcode" v="KW14 8HX"/>
    <tag k="removemelater" v="yes"/>
  </node>
  <node id="-790" lat="58.593837648210695" lon="-3.5087469326143723">
    <tag k="addr:postcode" v="KW14 8HY"/>
    <tag k="removemelater" v="yes"/>
  </node>
  <node id="-791" lat="58.595313546111655" lon="-3.50774369580387">
    <tag k="addr:postcode" v="KW14 8HZ"/>
    <tag k="removemelater" v="yes"/>
  </node>
  <node id="-792" lat="58.59481643464496" lon="-3.5072405240793123">
    <tag k="addr:postcode" v="KW14 8JA"/>
    <tag k="removemelater" v="yes"/>
  </node>
  <node id="-793" lat="58.59453093926223" lon="-3.505542040175501">
    <tag k="addr:postcode" v="KW14 8JB"/>
    <tag k="removemelater" v="yes"/>
  </node>
  <node id="-794" lat="58.59447830136807" lon="-3.506967884009601">
    <tag k="addr:postcode" v="KW14 8JD"/>
    <tag k="removemelater" v="yes"/>
  </node>
  <node id="-795" lat="58.59447336196844" lon="-3.50815489240229">
    <tag k="addr:postcode" v="KW14 8JE"/>
    <tag k="removemelater" v="yes"/>
  </node>
  <node id="-796" lat="58.59405886785544" lon="-3.5075004296035135">
    <tag k="addr:postcode" v="KW14 8JF"/>
    <tag k="removemelater" v="yes"/>
  </node>
  <node id="-797" lat="58.59388343816565" lon="-3.506374502927683">
    <tag k="addr:postcode" v="KW14 8JG"/>
    <tag k="removemelater" v="yes"/>
  </node>
  <node id="-798" lat="58.59425037467138" lon="-3.504187915817293">
    <tag k="addr:postcode" v="KW14 8JH"/>
    <tag k="removemelater" v="yes"/>
  </node>
  <node id="-799" lat="58.594099281369814" lon="-3.504818046613181">
    <tag k="addr:postcode" v="KW14 8JJ"/>
    <tag k="removemelater" v="yes"/>
  </node>
  <node id="-800" lat="58.59345290478684" lon="-3.5063215789423907">
    <tag k="addr:postcode" v="KW14 8JL"/>
    <tag k="removemelater" v="yes"/>
  </node>
  <node id="-801" lat="58.59313162535927" lon="-3.50690995500235">
    <tag k="addr:postcode" v="KW14 8JN"/>
    <tag k="removemelater" v="yes"/>
  </node>
  <node id="-802" lat="58.59262916781975" lon="-3.5091594283192467">
    <tag k="addr:postcode" v="KW14 8JP"/>
    <tag k="removemelater" v="yes"/>
  </node>
  <node id="-803" lat="58.59374008315498" lon="-3.5055768748938254">
    <tag k="addr:postcode" v="KW14 8JQ"/>
    <tag k="removemelater" v="yes"/>
  </node>
  <node id="-804" lat="58.592482703435095" lon="-3.507862734594623">
    <tag k="addr:postcode" v="KW14 8JR"/>
    <tag k="removemelater" v="yes"/>
  </node>
  <node id="-805" lat="58.593007855728416" lon="-3.5075068194095587">
    <tag k="addr:postcode" v="KW14 8JS"/>
    <tag k="removemelater" v="yes"/>
  </node>
  <node id="-806" lat="58.591573821031204" lon="-3.508769874420173">
    <tag k="addr:postcode" v="KW14 8JT"/>
    <tag k="removemelater" v="yes"/>
  </node>
  <node id="-807" lat="58.59204409972265" lon="-3.508497643718227">
    <tag k="addr:postcode" v="KW14 8JU"/>
    <tag k="removemelater" v="yes"/>
  </node>
  <node id="-808" lat="58.59338502612427" lon="-3.5082800946163064">
    <tag k="addr:postcode" v="KW14 8JW"/>
    <tag k="removemelater" v="yes"/>
  </node>
  <node id="-809" lat="58.592129530796804" lon="-3.509636849169227">
    <tag k="addr:postcode" v="KW14 8JX"/>
    <tag k="removemelater" v="yes"/>
  </node>
  <node id="-810" lat="58.59341260848772" lon="-3.5143376506132693">
    <tag k="addr:postcode" v="KW14 8JZ"/>
    <tag k="removemelater" v="yes"/>
  </node>
  <node id="-811" lat="58.59119144206805" lon="-3.5145513249722375">
    <tag k="addr:postcode" v="KW14 8NE"/>
    <tag k="removemelater" v="yes"/>
  </node>
  <node id="-812" lat="58.590201712916574" lon="-3.5154547627830994">
    <tag k="addr:postcode" v="KW14 8NF"/>
    <tag k="removemelater" v="yes"/>
  </node>
  <node id="-813" lat="58.591737740985735" lon="-3.5131641496035426">
    <tag k="addr:postcode" v="KW14 8NG"/>
    <tag k="removemelater" v="yes"/>
  </node>
  <node id="-814" lat="58.591149658094224" lon="-3.512760251786329">
    <tag k="addr:postcode" v="KW14 8NH"/>
    <tag k="removemelater" v="yes"/>
  </node>
  <node id="-815" lat="58.589923544115216" lon="-3.5146685560126887">
    <tag k="addr:postcode" v="KW14 8NJ"/>
    <tag k="removemelater" v="yes"/>
  </node>
  <node id="-816" lat="58.589804135425034" lon="-3.5141300751739477">
    <tag k="addr:postcode" v="KW14 8NL"/>
    <tag k="removemelater" v="yes"/>
  </node>
  <node id="-817" lat="58.59106425457834" lon="-3.511621071060074">
    <tag k="addr:postcode" v="KW14 8NN"/>
    <tag k="removemelater" v="yes"/>
  </node>
  <node id="-818" lat="58.58969646532449" lon="-3.5125942862889934">
    <tag k="addr:postcode" v="KW14 8NP"/>
    <tag k="removemelater" v="yes"/>
  </node>
  <node id="-819" lat="58.591352775757436" lon="-3.5138185019209254">
    <tag k="addr:postcode" v="KW14 8NQ"/>
    <tag k="removemelater" v="yes"/>
  </node>
  <node id="-820" lat="58.59027605765099" lon="-3.509901068059761">
    <tag k="addr:postcode" v="KW14 8NR"/>
    <tag k="removemelater" v="yes"/>
  </node>
  <node id="-821" lat="58.58995507146371" lon="-3.513517257356577">
    <tag k="addr:postcode" v="KW14 8NT"/>
    <tag k="removemelater" v="yes"/>
  </node>
  <node id="-822" lat="58.59072645128373" lon="-3.5105570359818183">
    <tag k="addr:postcode" v="KW14 8NW"/>
    <tag k="removemelater" v="yes"/>
  </node>
  <node id="-823" lat="58.58977754046685" lon="-3.509518305052532">
    <tag k="addr:postcode" v="KW14 8NX"/>
    <tag k="removemelater" v="yes"/>
  </node>
  <node id="-824" lat="58.59223104947341" lon="-3.5177964034849083">
    <tag k="addr:postcode" v="KW14 8PP"/>
    <tag k="removemelater" v="yes"/>
  </node>
  <node id="-825" lat="58.590449661504515" lon="-3.519560077481224">
    <tag k="addr:postcode" v="KW14 8PS"/>
    <tag k="removemelater" v="yes"/>
  </node>
  <node id="-826" lat="58.58821345710166" lon="-3.521802716476458">
    <tag k="addr:postcode" v="KW14 8PT"/>
    <tag k="removemelater" v="yes"/>
  </node>
  <node id="-827" lat="58.58776988062107" lon="-3.5220931032085283">
    <tag k="addr:postcode" v="KW14 8PU"/>
    <tag k="removemelater" v="yes"/>
  </node>
  <node id="-828" lat="58.58776134508643" lon="-3.5243291043033254">
    <tag k="addr:postcode" v="KW14 8PX"/>
    <tag k="removemelater" v="yes"/>
  </node>
  <node id="-829" lat="58.5870667873869" lon="-3.523817219382218">
    <tag k="addr:postcode" v="KW14 8PY"/>
    <tag k="removemelater" v="yes"/>
  </node>
  <node id="-830" lat="58.58612677349368" lon="-3.5265802792183627">
    <tag k="addr:postcode" v="KW14 8PZ"/>
    <tag k="removemelater" v="yes"/>
  </node>
  <node id="-831" lat="58.585532817481585" lon="-3.5259179388888917">
    <tag k="addr:postcode" v="KW14 8QA"/>
    <tag k="removemelater" v="yes"/>
  </node>
  <node id="-832" lat="58.586777436556346" lon="-3.522462851169415">
    <tag k="addr:postcode" v="KW14 8QB"/>
    <tag k="removemelater" v="yes"/>
  </node>
  <node id="-833" lat="58.58623084016931" lon="-3.5246237713511217">
    <tag k="addr:postcode" v="KW14 8QD"/>
    <tag k="removemelater" v="yes"/>
  </node>
  <node id="-834" lat="58.585599336088535" lon="-3.5248543233433067">
    <tag k="addr:postcode" v="KW14 8QE"/>
    <tag k="removemelater" v="yes"/>
  </node>
  <node id="-835" lat="58.58501108600109" lon="-3.524467495030105">
    <tag k="addr:postcode" v="KW14 8QF"/>
    <tag k="removemelater" v="yes"/>
  </node>
  <node id="-836" lat="58.584690944722425" lon="-3.5241955481156833">
    <tag k="addr:postcode" v="KW14 8QG"/>
    <tag k="removemelater" v="yes"/>
  </node>
  <node id="-837" lat="58.58491618316264" lon="-3.5226228098424643">
    <tag k="addr:postcode" v="KW14 8QH"/>
    <tag k="removemelater" v="yes"/>
  </node>
  <node id="-838" lat="58.58533978238995" lon="-3.523260475190503">
    <tag k="addr:postcode" v="KW14 8QJ"/>
    <tag k="removemelater" v="yes"/>
  </node>
  <node id="-839" lat="58.58643588709722" lon="-3.5232393134458646">
    <tag k="addr:postcode" v="KW14 8QL"/>
    <tag k="removemelater" v="yes"/>
  </node>
  <node id="-840" lat="58.586712771835636" lon="-3.5233717659198156">
    <tag k="addr:postcode" v="KW14 8QN"/>
    <tag k="removemelater" v="yes"/>
  </node>
  <node id="-841" lat="58.58681699338847" lon="-3.5213980214995546">
    <tag k="addr:postcode" v="KW14 8QP"/>
    <tag k="removemelater" v="yes"/>
  </node>
  <node id="-842" lat="58.585003528373875" lon="-3.523589889265318">
    <tag k="addr:postcode" v="KW14 8QQ"/>
    <tag k="removemelater" v="yes"/>
  </node>
  <node id="-843" lat="58.587284449047" lon="-3.5213667095861516">
    <tag k="addr:postcode" v="KW14 8QR"/>
    <tag k="removemelater" v="yes"/>
  </node>
  <node id="-844" lat="58.58643664634947" lon="-3.520899846428312">
    <tag k="addr:postcode" v="KW14 8QS"/>
    <tag k="removemelater" v="yes"/>
  </node>
  <node id="-845" lat="58.58700733329014" lon="-3.520494554029532">
    <tag k="addr:postcode" v="KW14 8QT"/>
    <tag k="removemelater" v="yes"/>
  </node>
  <node id="-846" lat="58.58745683318325" lon="-3.520462450811474">
    <tag k="addr:postcode" v="KW14 8QU"/>
    <tag k="removemelater" v="yes"/>
  </node>
  <node id="-847" lat="58.58728548741566" lon="-3.5220376569039606">
    <tag k="addr:postcode" v="KW14 8QW"/>
    <tag k="removemelater" v="yes"/>
  </node>
  <node id="-848" lat="58.587437221046756" lon="-3.519842302960891">
    <tag k="addr:postcode" v="KW14 8QX"/>
    <tag k="removemelater" v="yes"/>
  </node>
  <node id="-849" lat="58.587541525139876" lon="-3.520896194326365">
    <tag k="addr:postcode" v="KW14 8QY"/>
    <tag k="removemelater" v="yes"/>
  </node>
  <node id="-850" lat="58.58771085553455" lon="-3.5202498366138077">
    <tag k="addr:postcode" v="KW14 8QZ"/>
    <tag k="removemelater" v="yes"/>
  </node>
  <node id="-851" lat="58.58803103021524" lon="-3.5212787039105">
    <tag k="addr:postcode" v="KW14 8RA"/>
    <tag k="removemelater" v="yes"/>
  </node>
  <node id="-852" lat="58.588210154060484" lon="-3.520563951731709">
    <tag k="addr:postcode" v="KW14 8RB"/>
    <tag k="removemelater" v="yes"/>
  </node>
  <node id="-853" lat="58.587774075433785" lon="-3.519461248166688">
    <tag k="addr:postcode" v="KW14 8RD"/>
    <tag k="removemelater" v="yes"/>
  </node>
  <node id="-854" lat="58.588654541940265" lon="-3.516402839091208">
    <tag k="addr:postcode" v="KW14 8RE"/>
    <tag k="removemelater" v="yes"/>
  </node>
  <node id="-855" lat="58.58887873065104" lon="-3.5156727960780545">
    <tag k="addr:postcode" v="KW14 8RF"/>
    <tag k="removemelater" v="yes"/>
  </node>
  <node id="-856" lat="58.58495787740526" lon="-3.3738512692941587">
    <tag k="addr:postcode" v="KW14 8SL"/>
    <tag k="removemelater" v="yes"/>
  </node>
  <node id="-857" lat="58.57734710259253" lon="-3.401567348692976">
    <tag k="addr:postcode" v="KW14 8SN"/>
    <tag k="removemelater" v="yes"/>
  </node>
  <node id="-858" lat="58.58939603958937" lon="-3.4378149433024725">
    <tag k="addr:postcode" v="KW14 8SP"/>
    <tag k="removemelater" v="yes"/>
  </node>
  <node id="-859" lat="58.59423023671168" lon="-3.432025757278352">
    <tag k="addr:postcode" v="KW14 8SR"/>
    <tag k="removemelater" v="yes"/>
  </node>
  <node id="-860" lat="58.5928873905113" lon="-3.41049900429078">
    <tag k="addr:postcode" v="KW14 8SS"/>
    <tag k="removemelater" v="yes"/>
  </node>
  <node id="-861" lat="58.59692252285165" lon="-3.4386745009817385">
    <tag k="addr:postcode" v="KW14 8ST"/>
    <tag k="removemelater" v="yes"/>
  </node>
  <node id="-862" lat="58.5755652066992" lon="-3.436043894901483">
    <tag k="addr:postcode" v="KW14 8SW"/>
    <tag k="removemelater" v="yes"/>
  </node>
  <node id="-863" lat="58.59053007977499" lon="-3.316902159727621">
    <tag k="addr:postcode" v="KW14 8SX"/>
    <tag k="removemelater" v="yes"/>
  </node>
  <node id="-864" lat="58.61948863485911" lon="-3.2812835279588173">
    <tag k="addr:postcode" v="KW14 8SY"/>
    <tag k="removemelater" v="yes"/>
  </node>
  <node id="-865" lat="58.623106406555024" lon="-3.2823802806012283">
    <tag k="addr:postcode" v="KW14 8SZ"/>
    <tag k="removemelater" v="yes"/>
  </node>
  <node id="-866" lat="58.594923539320824" lon="-3.2630761657134393">
    <tag k="addr:postcode" v="KW14 8TA"/>
    <tag k="removemelater" v="yes"/>
  </node>
  <node id="-867" lat="58.57534068612496" lon="-3.331790833828508">
    <tag k="addr:postcode" v="KW14 8TB"/>
    <tag k="removemelater" v="yes"/>
  </node>
  <node id="-868" lat="58.56338988965665" lon="-3.35115742855035">
    <tag k="addr:postcode" v="KW14 8TD"/>
    <tag k="removemelater" v="yes"/>
  </node>
  <node id="-869" lat="58.556320651394046" lon="-3.3882495158691603">
    <tag k="addr:postcode" v="KW14 8TE"/>
    <tag k="removemelater" v="yes"/>
  </node>
  <node id="-870" lat="58.59635237528471" lon="-3.403308483173465">
    <tag k="addr:postcode" v="KW14 8TF"/>
    <tag k="removemelater" v="yes"/>
  </node>
  <node id="-871" lat="58.594938372353504" lon="-3.390433411369003">
    <tag k="addr:postcode" v="KW14 8TG"/>
    <tag k="removemelater" v="yes"/>
  </node>
  <node id="-872" lat="58.59406072939366" lon="-3.394338636218865">
    <tag k="addr:postcode" v="KW14 8TP"/>
    <tag k="removemelater" v="yes"/>
  </node>
  <node id="-873" lat="58.59609008249156" lon="-3.5150384352716277">
    <tag k="addr:postcode" v="KW14 8TQ"/>
    <tag k="removemelater" v="yes"/>
  </node>
  <node id="-874" lat="58.594456541479964" lon="-3.3951114411921073">
    <tag k="addr:postcode" v="KW14 8TS"/>
    <tag k="removemelater" v="yes"/>
  </node>
  <node id="-875" lat="58.59547579213272" lon="-3.398851368235715">
    <tag k="addr:postcode" v="KW14 8TT"/>
    <tag k="removemelater" v="yes"/>
  </node>
  <node id="-876" lat="58.59169120976803" lon="-3.387534644778266">
    <tag k="addr:postcode" v="KW14 8TU"/>
    <tag k="removemelater" v="yes"/>
  </node>
  <node id="-877" lat="58.591170432645804" lon="-3.3833506391804264">
    <tag k="addr:postcode" v="KW14 8TX"/>
    <tag k="removemelater" v="yes"/>
  </node>
  <node id="-878" lat="58.59198594559138" lon="-3.389352786377707">
    <tag k="addr:postcode" v="KW14 8TY"/>
    <tag k="removemelater" v="yes"/>
  </node>
  <node id="-879" lat="58.586483613640745" lon="-3.380671364074528">
    <tag k="addr:postcode" v="KW14 8UA"/>
    <tag k="removemelater" v="yes"/>
  </node>
  <node id="-880" lat="58.58908152680952" lon="-3.382149971449615">
    <tag k="addr:postcode" v="KW14 8UD"/>
    <tag k="removemelater" v="yes"/>
  </node>
  <node id="-881" lat="58.59194761413273" lon="-3.3870802794878516">
    <tag k="addr:postcode" v="KW14 8UE"/>
    <tag k="removemelater" v="yes"/>
  </node>
  <node id="-882" lat="58.59373336900146" lon="-3.389731782373202">
    <tag k="addr:postcode" v="KW14 8UF"/>
    <tag k="removemelater" v="yes"/>
  </node>
  <node id="-883" lat="58.59304705886464" lon="-3.3892400226060486">
    <tag k="addr:postcode" v="KW14 8UG"/>
    <tag k="removemelater" v="yes"/>
  </node>
  <node id="-884" lat="58.593325448711774" lon="-3.387582165215889">
    <tag k="addr:postcode" v="KW14 8UH"/>
    <tag k="removemelater" v="yes"/>
  </node>
  <node id="-885" lat="58.59177891330175" lon="-3.38523273438401">
    <tag k="addr:postcode" v="KW14 8UJ"/>
    <tag k="removemelater" v="yes"/>
  </node>
  <node id="-886" lat="58.59212758519237" lon="-3.3853841565853835">
    <tag k="addr:postcode" v="KW14 8UL"/>
    <tag k="removemelater" v="yes"/>
  </node>
  <node id="-887" lat="58.5916238849196" lon="-3.3837814458390527">
    <tag k="addr:postcode" v="KW14 8UN"/>
    <tag k="removemelater" v="yes"/>
  </node>
  <node id="-888" lat="58.59255494078383" lon="-3.3849021184867856">
    <tag k="addr:postcode" v="KW14 8UP"/>
    <tag k="removemelater" v="yes"/>
  </node>
  <node id="-889" lat="58.59300340846848" lon="-3.3882920185507737">
    <tag k="addr:postcode" v="KW14 8UQ"/>
    <tag k="removemelater" v="yes"/>
  </node>
  <node id="-890" lat="58.59384538466353" lon="-3.3893405022282916">
    <tag k="addr:postcode" v="KW14 8UR"/>
    <tag k="removemelater" v="yes"/>
  </node>
  <node id="-891" lat="58.59120419492268" lon="-3.386053011048335">
    <tag k="addr:postcode" v="KW14 8US"/>
    <tag k="removemelater" v="yes"/>
  </node>
  <node id="-892" lat="58.591859979559395" lon="-3.381038069493038">
    <tag k="addr:postcode" v="KW14 8UT"/>
    <tag k="removemelater" v="yes"/>
  </node>
  <node id="-893" lat="58.59076417719706" lon="-3.3852098188259276">
    <tag k="addr:postcode" v="KW14 8UU"/>
    <tag k="removemelater" v="yes"/>
  </node>
  <node id="-894" lat="58.59220627202046" lon="-3.3830818571526624">
    <tag k="addr:postcode" v="KW14 8UW"/>
    <tag k="removemelater" v="yes"/>
  </node>
  <node id="-895" lat="58.591820933195685" lon="-3.388830111078171">
    <tag k="addr:postcode" v="KW14 8UX"/>
    <tag k="removemelater" v="yes"/>
  </node>
  <node id="-896" lat="58.63683428001109" lon="-3.2314636836282085">
    <tag k="addr:postcode" v="KW14 8XA"/>
    <tag k="removemelater" v="yes"/>
  </node>
  <node id="-897" lat="58.6208091744291" lon="-3.3446094514376226">
    <tag k="addr:postcode" v="KW14 8XD"/>
    <tag k="removemelater" v="yes"/>
  </node>
  <node id="-898" lat="58.62287855592042" lon="-3.3408317993200582">
    <tag k="addr:postcode" v="KW14 8XE"/>
    <tag k="removemelater" v="yes"/>
  </node>
  <node id="-899" lat="58.62224610984905" lon="-3.3403254289990163">
    <tag k="addr:postcode" v="KW14 8XF"/>
    <tag k="removemelater" v="yes"/>
  </node>
  <node id="-900" lat="58.62318274840532" lon="-3.3418077554860686">
    <tag k="addr:postcode" v="KW14 8XG"/>
    <tag k="removemelater" v="yes"/>
  </node>
  <node id="-901" lat="58.637143835372946" lon="-3.2291490497909865">
    <tag k="addr:postcode" v="KW14 8XH"/>
    <tag k="removemelater" v="yes"/>
  </node>
  <node id="-902" lat="58.637316966082395" lon="-3.2279492966500913">
    <tag k="addr:postcode" v="KW14 8XJ"/>
    <tag k="removemelater" v="yes"/>
  </node>
  <node id="-903" lat="58.648611970199944" lon="-3.1969325055422675">
    <tag k="addr:postcode" v="KW14 8XL"/>
    <tag k="removemelater" v="yes"/>
  </node>
  <node id="-904" lat="58.64572902962161" lon="-3.2681677102353577">
    <tag k="addr:postcode" v="KW14 8XN"/>
    <tag k="removemelater" v="yes"/>
  </node>
  <node id="-905" lat="58.64095378673279" lon="-3.3055692795116443">
    <tag k="addr:postcode" v="KW14 8XP"/>
    <tag k="removemelater" v="yes"/>
  </node>
  <node id="-906" lat="58.62957568189582" lon="-3.312429826196641">
    <tag k="addr:postcode" v="KW14 8XQ"/>
    <tag k="removemelater" v="yes"/>
  </node>
  <node id="-907" lat="58.648126052298956" lon="-3.3512259248163883">
    <tag k="addr:postcode" v="KW14 8XR"/>
    <tag k="removemelater" v="yes"/>
  </node>
  <node id="-908" lat="58.67065279397859" lon="-3.3724614304334084">
    <tag k="addr:postcode" v="KW14 8XS"/>
    <tag k="removemelater" v="yes"/>
  </node>
  <node id="-909" lat="58.64041787732046" lon="-3.2684574735371035">
    <tag k="addr:postcode" v="KW14 8XT"/>
    <tag k="removemelater" v="yes"/>
  </node>
  <node id="-910" lat="58.64484492674451" lon="-3.276733459843121">
    <tag k="addr:postcode" v="KW14 8XW"/>
    <tag k="removemelater" v="yes"/>
  </node>
  <node id="-911" lat="58.62618975388215" lon="-3.353995097355474">
    <tag k="addr:postcode" v="KW14 8YD"/>
    <tag k="removemelater" v="yes"/>
  </node>
  <node id="-912" lat="58.643314697583364" lon="-3.3389103645136897">
    <tag k="addr:postcode" v="KW14 8YE"/>
    <tag k="removemelater" v="yes"/>
  </node>
  <node id="-913" lat="58.56939951565166" lon="-3.5061994444072098">
    <tag k="addr:postcode" v="KW14 8YH"/>
    <tag k="removemelater" v="yes"/>
  </node>
  <node id="-914" lat="58.56174859273369" lon="-3.4632741653120935">
    <tag k="addr:postcode" v="KW14 8YJ"/>
    <tag k="removemelater" v="yes"/>
  </node>
  <node id="-915" lat="58.56138791360826" lon="-3.4673330822016366">
    <tag k="addr:postcode" v="KW14 8YL"/>
    <tag k="removemelater" v="yes"/>
  </node>
  <node id="-916" lat="58.57520889128232" lon="-3.4667937404769966">
    <tag k="addr:postcode" v="KW14 8YN"/>
    <tag k="removemelater" v="yes"/>
  </node>
  <node id="-917" lat="58.59266786987428" lon="-3.469382794529351">
    <tag k="addr:postcode" v="KW14 8YS"/>
    <tag k="removemelater" v="yes"/>
  </node>
  <node id="-918" lat="58.59810693939935" lon="-3.449976959852787">
    <tag k="addr:postcode" v="KW14 8YT"/>
    <tag k="removemelater" v="yes"/>
  </node>
  <node id="-919" lat="58.5933240550028" lon="-3.5218354527020397">
    <tag k="addr:postcode" v="KW14 9AE"/>
    <tag k="removemelater" v="yes"/>
  </node>
  <node id="-920" lat="58.98331075514806" lon="-2.96072054891194">
    <tag k="addr:postcode" v="KW15 1AA"/>
    <tag k="removemelater" v="yes"/>
  </node>
  <node id="-921" lat="58.98200509857807" lon="-2.9623891256220682">
    <tag k="addr:postcode" v="KW15 1AG"/>
    <tag k="removemelater" v="yes"/>
  </node>
  <node id="-922" lat="58.98116745238153" lon="-2.962713697653091">
    <tag k="addr:postcode" v="KW15 1AQ"/>
    <tag k="removemelater" v="yes"/>
  </node>
  <node id="-923" lat="58.980115211648105" lon="-2.962910489983029">
    <tag k="addr:postcode" v="KW15 1AS"/>
    <tag k="removemelater" v="yes"/>
  </node>
  <node id="-924" lat="58.97901276765853" lon="-2.96381909690629">
    <tag k="addr:postcode" v="KW15 1AT"/>
    <tag k="removemelater" v="yes"/>
  </node>
  <node id="-925" lat="58.97637686194871" lon="-2.965624076870656">
    <tag k="addr:postcode" v="KW15 1BH"/>
    <tag k="removemelater" v="yes"/>
  </node>
  <node id="-926" lat="58.97462817975765" lon="-2.962861747687035">
    <tag k="addr:postcode" v="KW15 1BQ"/>
    <tag k="removemelater" v="yes"/>
  </node>
  <node id="-927" lat="58.97892990316038" lon="-2.972497268325942">
    <tag k="addr:postcode" v="KW15 1BY"/>
    <tag k="removemelater" v="yes"/>
  </node>
  <node id="-928" lat="58.982260841097265" lon="-2.960604324671063">
    <tag k="addr:postcode" v="KW15 1DF"/>
    <tag k="removemelater" v="yes"/>
  </node>
  <node id="-929" lat="58.98188998551188" lon="-2.960959340839511">
    <tag k="addr:postcode" v="KW15 1DJ"/>
    <tag k="removemelater" v="yes"/>
  </node>
  <node id="-930" lat="58.98331075514806" lon="-2.96072054891194">
    <tag k="addr:postcode" v="KW15 1DP"/>
    <tag k="removemelater" v="yes"/>
  </node>
  <node id="-931" lat="58.9794756288936" lon="-2.960752929936556">
    <tag k="addr:postcode" v="KW15 1DZ"/>
    <tag k="removemelater" v="yes"/>
  </node>
  <node id="-932" lat="58.97437598442655" lon="-2.9556886110223926">
    <tag k="addr:postcode" v="KW15 1ER"/>
    <tag k="removemelater" v="yes"/>
  </node>
  <node id="-933" lat="58.9791491520212" lon="-2.9611787357589927">
    <tag k="addr:postcode" v="KW15 1EZ"/>
    <tag k="removemelater" v="yes"/>
  </node>
  <node id="-934" lat="58.970693021508374" lon="-2.9472386783256725">
    <tag k="addr:postcode" v="KW15 1FB"/>
    <tag k="removemelater" v="yes"/>
  </node>
  <node id="-935" lat="58.970497260565864" lon="-2.94698982546142">
    <tag k="addr:postcode" v="KW15 1FD"/>
    <tag k="removemelater" v="yes"/>
  </node>
  <node id="-936" lat="58.97038289175599" lon="-2.94789104081608">
    <tag k="addr:postcode" v="KW15 1FE"/>
    <tag k="removemelater" v="yes"/>
  </node>
  <node id="-937" lat="58.989026238258" lon="-2.971076643485486">
    <tag k="addr:postcode" v="KW15 1GT"/>
    <tag k="removemelater" v="yes"/>
  </node>
  <node id="-938" lat="58.98301619064718" lon="-2.961686623109388">
    <tag k="addr:postcode" v="KW15 1GU"/>
    <tag k="removemelater" v="yes"/>
  </node>
  <node id="-939" lat="58.98174257411635" lon="-2.9614597527180604">
    <tag k="addr:postcode" v="KW15 1GY"/>
    <tag k="removemelater" v="yes"/>
  </node>
  <node id="-940" lat="58.982751079101575" lon="-2.9611051097364096">
    <tag k="addr:postcode" v="KW15 1HD"/>
    <tag k="removemelater" v="yes"/>
  </node>
  <node id="-941" lat="58.98229216530097" lon="-2.9600136838967166">
    <tag k="addr:postcode" v="KW15 1HE"/>
    <tag k="removemelater" v="yes"/>
  </node>
  <node id="-942" lat="58.98361596776988" lon="-2.959528579235827">
    <tag k="addr:postcode" v="KW15 1HW"/>
    <tag k="removemelater" v="yes"/>
  </node>
  <node id="-943" lat="58.97881447949746" lon="-2.9578642328288227">
    <tag k="addr:postcode" v="KW15 1JH"/>
    <tag k="removemelater" v="yes"/>
  </node>
  <node id="-944" lat="58.98365861772999" lon="-2.9610434027019727">
    <tag k="addr:postcode" v="KW15 1JY"/>
    <tag k="removemelater" v="yes"/>
  </node>
  <node id="-945" lat="58.9836450964982" lon="-2.9592336213853567">
    <tag k="addr:postcode" v="KW15 1LA"/>
    <tag k="removemelater" v="yes"/>
  </node>
  <node id="-946" lat="58.98270952459716" lon="-2.9484732675117584">
    <tag k="addr:postcode" v="KW15 1LJ"/>
    <tag k="removemelater" v="yes"/>
  </node>
  <node id="-947" lat="58.9824781791934" lon="-2.9735889484240934">
    <tag k="addr:postcode" v="KW15 1LR"/>
    <tag k="removemelater" v="yes"/>
  </node>
  <node id="-948" lat="58.984043943906585" lon="-2.9731807797863516">
    <tag k="addr:postcode" v="KW15 1NQ"/>
    <tag k="removemelater" v="yes"/>
  </node>
  <node id="-949" lat="58.9804007895263" lon="-2.9595261447350634">
    <tag k="addr:postcode" v="KW15 1PD"/>
    <tag k="removemelater" v="yes"/>
  </node>
  <node id="-950" lat="58.97798291782145" lon="-2.9549361408569466">
    <tag k="addr:postcode" v="KW15 1PS"/>
    <tag k="removemelater" v="yes"/>
  </node>
  <node id="-951" lat="58.96997465185791" lon="-2.9348712213768797">
    <tag k="addr:postcode" v="KW15 1QU"/>
    <tag k="removemelater" v="yes"/>
  </node>
  <node id="-952" lat="58.97953681722926" lon="-2.9364697853972124">
    <tag k="addr:postcode" v="KW15 1RB"/>
    <tag k="removemelater" v="yes"/>
  </node>
  <node id="-953" lat="58.98941711989123" lon="-2.9776130487858987">
    <tag k="addr:postcode" v="KW15 1RE"/>
    <tag k="removemelater" v="yes"/>
  </node>
  <node id="-954" lat="58.99308018646759" lon="-2.9730006996013625">
    <tag k="addr:postcode" v="KW15 1RG"/>
    <tag k="removemelater" v="yes"/>
  </node>
  <node id="-955" lat="58.96965478638433" lon="-2.9911400864389646">
    <tag k="addr:postcode" v="KW15 1SA"/>
    <tag k="removemelater" v="yes"/>
  </node>
  <node id="-956" lat="58.974201616158815" lon="-2.951318052558237">
    <tag k="addr:postcode" v="KW15 1SN"/>
    <tag k="removemelater" v="yes"/>
  </node>
  <node id="-957" lat="58.94915690938368" lon="-2.9533049036548076">
    <tag k="addr:postcode" v="KW15 1ST"/>
    <tag k="removemelater" v="yes"/>
  </node>
  <node id="-958" lat="58.95374257608825" lon="-2.902464557739406">
    <tag k="addr:postcode" v="KW15 1TH"/>
    <tag k="removemelater" v="yes"/>
  </node>
  <node id="-959" lat="58.99189420240483" lon="-2.9896560759500304">
    <tag k="addr:postcode" v="KW15 1UB"/>
    <tag k="removemelater" v="yes"/>
  </node>
  <node id="-960" lat="58.99819108799646" lon="-2.9425461406234494">
    <tag k="addr:postcode" v="KW15 1UE"/>
    <tag k="removemelater" v="yes"/>
  </node>
  <node id="-961" lat="58.97405887222207" lon="-2.9524098937545737">
    <tag k="addr:postcode" v="KW15 1UR"/>
    <tag k="removemelater" v="yes"/>
  </node>
  <node id="-962" lat="58.97565542980651" lon="-2.9453397829956667">
    <tag k="addr:postcode" v="KW15 1UZ"/>
    <tag k="removemelater" v="yes"/>
  </node>
  <node id="-963" lat="58.970342710897064" lon="-2.941089907622904">
    <tag k="addr:postcode" v="KW15 1WA"/>
    <tag k="removemelater" v="yes"/>
  </node>
  <node id="-964" lat="58.98331075514806" lon="-2.96072054891194">
    <tag k="addr:postcode" v="KW15 1WQ"/>
    <tag k="removemelater" v="yes"/>
  </node>
  <node id="-965" lat="58.9834828274996" lon="-2.9593160996402905">
    <tag k="addr:postcode" v="KW15 1WZ"/>
    <tag k="removemelater" v="yes"/>
  </node>
  <node id="-966" lat="59.00101750887371" lon="-2.9416660390013707">
    <tag k="addr:postcode" v="KW15 1XZ"/>
    <tag k="removemelater" v="yes"/>
  </node>
  <node id="-967" lat="58.98331075514806" lon="-2.96072054891194">
    <tag k="addr:postcode" v="KW15 1YA"/>
    <tag k="removemelater" v="yes"/>
  </node>
  <node id="-968" lat="58.978791000623275" lon="-2.981382563739829">
    <tag k="addr:postcode" v="KW15 1ZU"/>
    <tag k="removemelater" v="yes"/>
  </node>
  <node id="-969" lat="58.98331075514806" lon="-2.96072054891194">
    <tag k="addr:postcode" v="KW15 9BD"/>
    <tag k="removemelater" v="yes"/>
  </node>
  <node id="-970" lat="58.98331075514806" lon="-2.96072054891194">
    <tag k="addr:postcode" v="KW15 9BP"/>
    <tag k="removemelater" v="yes"/>
  </node>
  <node id="-971" lat="58.98331075514806" lon="-2.96072054891194">
    <tag k="addr:postcode" v="KW15 9BR"/>
    <tag k="removemelater" v="yes"/>
  </node>
  <node id="-972" lat="58.98147168987392" lon="-2.956807198581801">
    <tag k="addr:postcode" v="KW15 9SA"/>
    <tag k="removemelater" v="yes"/>
  </node>
  <node id="-973" lat="58.96200130922482" lon="-3.3006824547638356">
    <tag k="addr:postcode" v="KW16 3AP"/>
    <tag k="removemelater" v="yes"/>
  </node>
  <node id="-974" lat="58.96258072474556" lon="-3.299330593982498">
    <tag k="addr:postcode" v="KW16 3BB"/>
    <tag k="removemelater" v="yes"/>
  </node>
  <node id="-975" lat="58.96832450650183" lon="-3.281755466704156">
    <tag k="addr:postcode" v="KW16 3BL"/>
    <tag k="removemelater" v="yes"/>
  </node>
  <node id="-976" lat="58.96073801469325" lon="-3.300374054198564">
    <tag k="addr:postcode" v="KW16 3DB"/>
    <tag k="removemelater" v="yes"/>
  </node>
  <node id="-977" lat="58.95979170945495" lon="-3.3015902855736514">
    <tag k="addr:postcode" v="KW16 3DE"/>
    <tag k="removemelater" v="yes"/>
  </node>
  <node id="-978" lat="58.97707562557341" lon="-3.288673488149816">
    <tag k="addr:postcode" v="KW16 3EU"/>
    <tag k="removemelater" v="yes"/>
  </node>
  <node id="-979" lat="58.973707241411766" lon="-3.293209310581674">
    <tag k="addr:postcode" v="KW16 3HR"/>
    <tag k="removemelater" v="yes"/>
  </node>
  <node id="-980" lat="58.95959046853746" lon="-3.289394454762276">
    <tag k="addr:postcode" v="KW16 3JJ"/>
    <tag k="removemelater" v="yes"/>
  </node>
  <node id="-981" lat="58.95732650748223" lon="-3.306469716860949">
    <tag k="addr:postcode" v="KW16 3JR"/>
    <tag k="removemelater" v="yes"/>
  </node>
  <node id="-982" lat="58.911933058724856" lon="-3.3303134950640003">
    <tag k="addr:postcode" v="KW16 3NJ"/>
    <tag k="removemelater" v="yes"/>
  </node>
  <node id="-983" lat="58.79081300553918" lon="-3.2542681401592586">
    <tag k="addr:postcode" v="KW16 3NQ"/>
    <tag k="removemelater" v="yes"/>
  </node>
  <node id="-984" lat="58.81726178247111" lon="-3.20163207847544">
    <tag k="addr:postcode" v="KW16 3NX"/>
    <tag k="removemelater" v="yes"/>
  </node>
  <node id="-985" lat="58.803046103220225" lon="-3.2271720856030908">
    <tag k="addr:postcode" v="KW16 3NY"/>
    <tag k="removemelater" v="yes"/>
  </node>
  <node id="-986" lat="58.78142385640885" lon="-3.2397454157055794">
    <tag k="addr:postcode" v="KW16 3NZ"/>
    <tag k="removemelater" v="yes"/>
  </node>
  <node id="-987" lat="58.79269024872139" lon="-3.192701993263714">
    <tag k="addr:postcode" v="KW16 3PA"/>
    <tag k="removemelater" v="yes"/>
  </node>
  <node id="-988" lat="58.79905995788207" lon="-3.2002584572285713">
    <tag k="addr:postcode" v="KW16 3PG"/>
    <tag k="removemelater" v="yes"/>
  </node>
  <node id="-989" lat="58.79899628654628" lon="-3.2061230758176276">
    <tag k="addr:postcode" v="KW16 3PH"/>
    <tag k="removemelater" v="yes"/>
  </node>
  <node id="-990" lat="58.80059710399793" lon="-3.160851640377606">
    <tag k="addr:postcode" v="KW16 3PQ"/>
    <tag k="removemelater" v="yes"/>
  </node>
  <node id="-991" lat="58.963686811991316" lon="-3.3018762394889736">
    <tag k="addr:postcode" v="KW16 9AB"/>
    <tag k="removemelater" v="yes"/>
  </node>
  <node id="-992" lat="58.963686811991316" lon="-3.3018762394889736">
    <tag k="addr:postcode" v="KW16 9AF"/>
    <tag k="removemelater" v="yes"/>
  </node>
  <node id="-993" lat="59.09949206183702" lon="-2.5884821941724376">
    <tag k="addr:postcode" v="KW17 2AF"/>
    <tag k="removemelater" v="yes"/>
  </node>
  <node id="-994" lat="59.09431664287202" lon="-2.5949734479385573">
    <tag k="addr:postcode" v="KW17 2AJ"/>
    <tag k="removemelater" v="yes"/>
  </node>
  <node id="-995" lat="59.100423945040966" lon="-2.6580800561739224">
    <tag k="addr:postcode" v="KW17 2AN"/>
    <tag k="removemelater" v="yes"/>
  </node>
  <node id="-996" lat="59.038062480417466" lon="-2.575129614910903">
    <tag k="addr:postcode" v="KW17 2AU"/>
    <tag k="removemelater" v="yes"/>
  </node>
  <node id="-997" lat="59.041673226857505" lon="-3.0788873877957066">
    <tag k="addr:postcode" v="KW17 2AW"/>
    <tag k="removemelater" v="yes"/>
  </node>
  <node id="-998" lat="58.84390039027421" lon="-2.9208492380498754">
    <tag k="addr:postcode" v="KW17 2AX"/>
    <tag k="removemelater" v="yes"/>
  </node>
  <node id="-999" lat="59.25472894076188" lon="-2.5978029665207925">
    <tag k="addr:postcode" v="KW17 2AY"/>
    <tag k="removemelater" v="yes"/>
  </node>
  <node id="-1000" lat="59.28259165469128" lon="-2.580601458436643">
    <tag k="addr:postcode" v="KW17 2AZ"/>
    <tag k="removemelater" v="yes"/>
  </node>
  <node id="-1001" lat="59.22743363234274" lon="-2.6599642981944918">
    <tag k="addr:postcode" v="KW17 2BA"/>
    <tag k="removemelater" v="yes"/>
  </node>
  <node id="-1002" lat="59.25553131148192" lon="-2.550277616638086">
    <tag k="addr:postcode" v="KW17 2BB"/>
    <tag k="removemelater" v="yes"/>
  </node>
  <node id="-1003" lat="59.364260491040454" lon="-2.4262394440449904">
    <tag k="addr:postcode" v="KW17 2BE"/>
    <tag k="removemelater" v="yes"/>
  </node>
  <node id="-1004" lat="59.38076352724352" lon="-2.410113685848731">
    <tag k="addr:postcode" v="KW17 2BG"/>
    <tag k="removemelater" v="yes"/>
  </node>
  <node id="-1005" lat="59.23338554789316" lon="-2.5991642645935467">
    <tag k="addr:postcode" v="KW17 2BJ"/>
    <tag k="removemelater" v="yes"/>
  </node>
  <node id="-1006" lat="59.24521040806267" lon="-2.559314706491109">
    <tag k="addr:postcode" v="KW17 2BL"/>
    <tag k="removemelater" v="yes"/>
  </node>
  <node id="-1007" lat="59.25591889716667" lon="-2.5748692379561695">
    <tag k="addr:postcode" v="KW17 2BN"/>
    <tag k="removemelater" v="yes"/>
  </node>
  <node id="-1008" lat="59.28323423234604" lon="-2.457763004625107">
    <tag k="addr:postcode" v="KW17 2BP"/>
    <tag k="removemelater" v="yes"/>
  </node>
  <node id="-1009" lat="59.34738550271075" lon="-2.89319687316484">
    <tag k="addr:postcode" v="KW17 2BU"/>
    <tag k="removemelater" v="yes"/>
  </node>
  <node id="-1010" lat="59.255691523060676" lon="-2.5442128171774643">
    <tag k="addr:postcode" v="KW17 2BW"/>
    <tag k="removemelater" v="yes"/>
  </node>
  <node id="-1011" lat="59.252742375498975" lon="-2.8703433296912086">
    <tag k="addr:postcode" v="KW17 2DE"/>
    <tag k="removemelater" v="yes"/>
  </node>
  <node id="-1012" lat="59.32239923989019" lon="-2.9881091329050973">
    <tag k="addr:postcode" v="KW17 2DF"/>
    <tag k="removemelater" v="yes"/>
  </node>
  <node id="-1013" lat="59.31852729937177" lon="-2.996535284152571">
    <tag k="addr:postcode" v="KW17 2DQ"/>
    <tag k="removemelater" v="yes"/>
  </node>
  <node id="-1014" lat="59.31758643222691" lon="-3.004448727189302">
    <tag k="addr:postcode" v="KW17 2DW"/>
    <tag k="removemelater" v="yes"/>
  </node>
  <node id="-1015" lat="59.04516783895925" lon="-2.856181653774724">
    <tag k="addr:postcode" v="KW17 2DZ"/>
    <tag k="removemelater" v="yes"/>
  </node>
  <node id="-1016" lat="59.03374613971143" lon="-2.8572566116243485">
    <tag k="addr:postcode" v="KW17 2EA"/>
    <tag k="removemelater" v="yes"/>
  </node>
  <node id="-1017" lat="59.016123942920984" lon="-3.113683211643205">
    <tag k="addr:postcode" v="KW17 2ER"/>
    <tag k="removemelater" v="yes"/>
  </node>
  <node id="-1018" lat="59.01364323365247" lon="-3.1097197874605356">
    <tag k="addr:postcode" v="KW17 2ES"/>
    <tag k="removemelater" v="yes"/>
  </node>
  <node id="-1019" lat="59.028090447709225" lon="-3.071719952484214">
    <tag k="addr:postcode" v="KW17 2ET"/>
    <tag k="removemelater" v="yes"/>
  </node>
  <node id="-1020" lat="59.032872500734506" lon="-3.100164247195025">
    <tag k="addr:postcode" v="KW17 2EU"/>
    <tag k="removemelater" v="yes"/>
  </node>
  <node id="-1021" lat="59.05076356814179" lon="-3.070037877683171">
    <tag k="addr:postcode" v="KW17 2EX"/>
    <tag k="removemelater" v="yes"/>
  </node>
  <node id="-1022" lat="59.06088546327872" lon="-3.0480154400437702">
    <tag k="addr:postcode" v="KW17 2EY"/>
    <tag k="removemelater" v="yes"/>
  </node>
  <node id="-1023" lat="59.06564959071161" lon="-3.0204662794900123">
    <tag k="addr:postcode" v="KW17 2EZ"/>
    <tag k="removemelater" v="yes"/>
  </node>
  <node id="-1024" lat="59.08278228089004" lon="-3.0445304405890465">
    <tag k="addr:postcode" v="KW17 2HA"/>
    <tag k="removemelater" v="yes"/>
  </node>
  <node id="-1025" lat="59.08715519748063" lon="-3.040161102498772">
    <tag k="addr:postcode" v="KW17 2HB"/>
    <tag k="removemelater" v="yes"/>
  </node>
  <node id="-1026" lat="59.08987467997167" lon="-3.0515174969001375">
    <tag k="addr:postcode" v="KW17 2HD"/>
    <tag k="removemelater" v="yes"/>
  </node>
  <node id="-1027" lat="59.07641396132958" lon="-3.0612239356560775">
    <tag k="addr:postcode" v="KW17 2HF"/>
    <tag k="removemelater" v="yes"/>
  </node>
  <node id="-1028" lat="59.06784967210166" lon="-3.0607851809173394">
    <tag k="addr:postcode" v="KW17 2HG"/>
    <tag k="removemelater" v="yes"/>
  </node>
  <node id="-1029" lat="59.08726696813585" lon="-3.249350194254992">
    <tag k="addr:postcode" v="KW17 2HR"/>
    <tag k="removemelater" v="yes"/>
  </node>
  <node id="-1030" lat="59.07414465241577" lon="-3.2438142664312157">
    <tag k="addr:postcode" v="KW17 2HS"/>
    <tag k="removemelater" v="yes"/>
  </node>
  <node id="-1031" lat="59.0719554822051" lon="-3.2084293890606204">
    <tag k="addr:postcode" v="KW17 2JB"/>
    <tag k="removemelater" v="yes"/>
  </node>
  <node id="-1032" lat="59.10198628969238" lon="-3.2096432450393277">
    <tag k="addr:postcode" v="KW17 2JD"/>
    <tag k="removemelater" v="yes"/>
  </node>
  <node id="-1033" lat="59.032920876117664" lon="-3.177438917196528">
    <tag k="addr:postcode" v="KW17 2JR"/>
    <tag k="removemelater" v="yes"/>
  </node>
  <node id="-1034" lat="59.02144911609384" lon="-3.1895353347894857">
    <tag k="addr:postcode" v="KW17 2JS"/>
    <tag k="removemelater" v="yes"/>
  </node>
  <node id="-1035" lat="59.018191273066016" lon="-3.1784680807019896">
    <tag k="addr:postcode" v="KW17 2JT"/>
    <tag k="removemelater" v="yes"/>
  </node>
  <node id="-1036" lat="59.01887579817399" lon="-3.157330500364145">
    <tag k="addr:postcode" v="KW17 2JU"/>
    <tag k="removemelater" v="yes"/>
  </node>
  <node id="-1037" lat="59.0427797890246" lon="-3.169776466112">
    <tag k="addr:postcode" v="KW17 2LA"/>
    <tag k="removemelater" v="yes"/>
  </node>
  <node id="-1038" lat="59.040950854323114" lon="-3.1940433302588565">
    <tag k="addr:postcode" v="KW17 2LD"/>
    <tag k="removemelater" v="yes"/>
  </node>
  <node id="-1039" lat="59.03901671433615" lon="-3.2127622759647796">
    <tag k="addr:postcode" v="KW17 2LE"/>
    <tag k="removemelater" v="yes"/>
  </node>
  <node id="-1040" lat="59.054541938024904" lon="-3.2217304879708117">
    <tag k="addr:postcode" v="KW17 2LF"/>
    <tag k="removemelater" v="yes"/>
  </node>
  <node id="-1041" lat="59.12342177511164" lon="-3.245058790978615">
    <tag k="addr:postcode" v="KW17 2LP"/>
    <tag k="removemelater" v="yes"/>
  </node>
  <node id="-1042" lat="59.050163307235955" lon="-3.193317074642507">
    <tag k="addr:postcode" v="KW17 2LQ"/>
    <tag k="removemelater" v="yes"/>
  </node>
  <node id="-1043" lat="59.10975563953506" lon="-3.2540453537523626">
    <tag k="addr:postcode" v="KW17 2LW"/>
    <tag k="removemelater" v="yes"/>
  </node>
  <node id="-1044" lat="59.12717215053252" lon="-3.3039872974584106">
    <tag k="addr:postcode" v="KW17 2LY"/>
    <tag k="removemelater" v="yes"/>
  </node>
  <node id="-1045" lat="59.10116309815345" lon="-3.3012186713288734">
    <tag k="addr:postcode" v="KW17 2NA"/>
    <tag k="removemelater" v="yes"/>
  </node>
  <node id="-1046" lat="59.09303785976696" lon="-3.327528959212504">
    <tag k="addr:postcode" v="KW17 2NB"/>
    <tag k="removemelater" v="yes"/>
  </node>
  <node id="-1047" lat="59.11779607568943" lon="-3.0745901476963415">
    <tag k="addr:postcode" v="KW17 2NH"/>
    <tag k="removemelater" v="yes"/>
  </node>
  <node id="-1048" lat="59.13342134172389" lon="-3.1542913377498913">
    <tag k="addr:postcode" v="KW17 2NJ"/>
    <tag k="removemelater" v="yes"/>
  </node>
  <node id="-1049" lat="59.127086342479856" lon="-3.183587288437819">
    <tag k="addr:postcode" v="KW17 2NL"/>
    <tag k="removemelater" v="yes"/>
  </node>
  <node id="-1050" lat="59.13607916062253" lon="-3.171402358553129">
    <tag k="addr:postcode" v="KW17 2NN"/>
    <tag k="removemelater" v="yes"/>
  </node>
  <node id="-1051" lat="59.13984436229443" lon="-3.1918927560086274">
    <tag k="addr:postcode" v="KW17 2NW"/>
    <tag k="removemelater" v="yes"/>
  </node>
  <node id="-1052" lat="59.047155356125245" lon="-3.082754532208815">
    <tag k="addr:postcode" v="KW17 2NY"/>
    <tag k="removemelater" v="yes"/>
  </node>
  <node id="-1053" lat="59.06043061573488" lon="-3.07396556390826">
    <tag k="addr:postcode" v="KW17 2NZ"/>
    <tag k="removemelater" v="yes"/>
  </node>
  <node id="-1054" lat="59.05428505887872" lon="-3.1063058441166524">
    <tag k="addr:postcode" v="KW17 2PA"/>
    <tag k="removemelater" v="yes"/>
  </node>
  <node id="-1055" lat="59.054255746044035" lon="-3.0189427719183226">
    <tag k="addr:postcode" v="KW17 2PB"/>
    <tag k="removemelater" v="yes"/>
  </node>
  <node id="-1056" lat="59.10371290923763" lon="-3.0876453202550413">
    <tag k="addr:postcode" v="KW17 2PE"/>
    <tag k="removemelater" v="yes"/>
  </node>
  <node id="-1057" lat="59.09514557426919" lon="-3.0768138070405846">
    <tag k="addr:postcode" v="KW17 2PG"/>
    <tag k="removemelater" v="yes"/>
  </node>
  <node id="-1058" lat="59.11022036899192" lon="-3.0998133680815876">
    <tag k="addr:postcode" v="KW17 2PH"/>
    <tag k="removemelater" v="yes"/>
  </node>
  <node id="-1059" lat="59.11688914432735" lon="-3.1192047608403524">
    <tag k="addr:postcode" v="KW17 2PJ"/>
    <tag k="removemelater" v="yes"/>
  </node>
  <node id="-1060" lat="59.10793094554931" lon="-3.1238368220744532">
    <tag k="addr:postcode" v="KW17 2PL"/>
    <tag k="removemelater" v="yes"/>
  </node>
  <node id="-1061" lat="59.09572912107198" lon="-3.0725032263778616">
    <tag k="addr:postcode" v="KW17 2PQ"/>
    <tag k="removemelater" v="yes"/>
  </node>
  <node id="-1062" lat="59.14940731180259" lon="-2.93180679773839">
    <tag k="addr:postcode" v="KW17 2QD"/>
    <tag k="removemelater" v="yes"/>
  </node>
  <node id="-1063" lat="58.80662375596632" lon="-2.9999342663696154">
    <tag k="addr:postcode" v="KW17 2RH"/>
    <tag k="removemelater" v="yes"/>
  </node>
  <node id="-1064" lat="58.896704746883955" lon="-2.90751968842304">
    <tag k="addr:postcode" v="KW17 2RU"/>
    <tag k="removemelater" v="yes"/>
  </node>
  <node id="-1065" lat="58.89648488959305" lon="-2.9068544656920383">
    <tag k="addr:postcode" v="KW17 2SG"/>
    <tag k="removemelater" v="yes"/>
  </node>
  <node id="-1066" lat="58.897464583416955" lon="-2.9080255398353585">
    <tag k="addr:postcode" v="KW17 2TF"/>
    <tag k="removemelater" v="yes"/>
  </node>
  <node id="-1067" lat="58.82738722994417" lon="-2.9730630912829787">
    <tag k="addr:postcode" v="KW17 2TL"/>
    <tag k="removemelater" v="yes"/>
  </node>
  <node id="-1068" lat="58.82110332977387" lon="-2.9938921036327537">
    <tag k="addr:postcode" v="KW17 2TW"/>
    <tag k="removemelater" v="yes"/>
  </node>
  <node id="-1069" lat="59.0038946850901" lon="-3.1154119460209664">
    <tag k="addr:postcode" v="KW17 2UE"/>
    <tag k="removemelater" v="yes"/>
  </node>
  <node id="-1070" lat="59.003508312947154" lon="-3.114389748286837">
    <tag k="addr:postcode" v="KW17 2UF"/>
    <tag k="removemelater" v="yes"/>
  </node>
  <node id="-1071" lat="58.84614333159647" lon="-2.9148609551836007">
    <tag k="addr:postcode" v="KW17 2UG"/>
    <tag k="removemelater" v="yes"/>
  </node>
  <node id="-1072" lat="58.31020717720513" lon="-3.2856776652973694">
    <tag k="addr:postcode" v="KW3 6AD"/>
    <tag k="removemelater" v="yes"/>
  </node>
  <node id="-1073" lat="58.30202979617288" lon="-3.2851250194240618">
    <tag k="addr:postcode" v="KW3 6AE"/>
    <tag k="removemelater" v="yes"/>
  </node>
  <node id="-1074" lat="58.30163100384667" lon="-3.286373216461619">
    <tag k="addr:postcode" v="KW3 6AF"/>
    <tag k="removemelater" v="yes"/>
  </node>
  <node id="-1075" lat="58.301236892498046" lon="-3.2853692694054453">
    <tag k="addr:postcode" v="KW3 6AG"/>
    <tag k="removemelater" v="yes"/>
  </node>
  <node id="-1076" lat="58.299095466659594" lon="-3.28662241851332">
    <tag k="addr:postcode" v="KW3 6AH"/>
    <tag k="removemelater" v="yes"/>
  </node>
  <node id="-1077" lat="58.29880255872781" lon="-3.283591881799031">
    <tag k="addr:postcode" v="KW3 6AJ"/>
    <tag k="removemelater" v="yes"/>
  </node>
  <node id="-1078" lat="58.29811124070944" lon="-3.2844540301032548">
    <tag k="addr:postcode" v="KW3 6AL"/>
    <tag k="removemelater" v="yes"/>
  </node>
  <node id="-1079" lat="58.29806584999919" lon="-3.282712138544084">
    <tag k="addr:postcode" v="KW3 6AN"/>
    <tag k="removemelater" v="yes"/>
  </node>
  <node id="-1080" lat="58.29960487073281" lon="-3.282409539968162">
    <tag k="addr:postcode" v="KW3 6AP"/>
    <tag k="removemelater" v="yes"/>
  </node>
  <node id="-1081" lat="58.300162416841" lon="-3.2841359403596324">
    <tag k="addr:postcode" v="KW3 6AQ"/>
    <tag k="removemelater" v="yes"/>
  </node>
  <node id="-1082" lat="58.30041717636723" lon="-3.2811251322170674">
    <tag k="addr:postcode" v="KW3 6AR"/>
    <tag k="removemelater" v="yes"/>
  </node>
  <node id="-1083" lat="58.30541038630295" lon="-3.268609494491867">
    <tag k="addr:postcode" v="KW3 6AS"/>
    <tag k="removemelater" v="yes"/>
  </node>
  <node id="-1084" lat="58.31921145158526" lon="-3.283495054905807">
    <tag k="addr:postcode" v="KW3 6AT"/>
    <tag k="removemelater" v="yes"/>
  </node>
  <node id="-1085" lat="58.318648789145676" lon="-3.2560243109875646">
    <tag k="addr:postcode" v="KW3 6AU"/>
    <tag k="removemelater" v="yes"/>
  </node>
  <node id="-1086" lat="58.2986370079377" lon="-3.2821868418406295">
    <tag k="addr:postcode" v="KW3 6AW"/>
    <tag k="removemelater" v="yes"/>
  </node>
  <node id="-1087" lat="58.3056523885429" lon="-3.244898067668091">
    <tag k="addr:postcode" v="KW3 6AX"/>
    <tag k="removemelater" v="yes"/>
  </node>
  <node id="-1088" lat="58.30687533172049" lon="-3.256699088632162">
    <tag k="addr:postcode" v="KW3 6AY"/>
    <tag k="removemelater" v="yes"/>
  </node>
  <node id="-1089" lat="58.307995076246534" lon="-3.2423010381972266">
    <tag k="addr:postcode" v="KW3 6AZ"/>
    <tag k="removemelater" v="yes"/>
  </node>
  <node id="-1090" lat="58.32378584237723" lon="-3.208554453280728">
    <tag k="addr:postcode" v="KW3 6BA"/>
    <tag k="removemelater" v="yes"/>
  </node>
  <node id="-1091" lat="58.32315237556391" lon="-3.2483303782178266">
    <tag k="addr:postcode" v="KW3 6BB"/>
    <tag k="removemelater" v="yes"/>
  </node>
  <node id="-1092" lat="58.3419468774483" lon="-3.2617026616106473">
    <tag k="addr:postcode" v="KW3 6BD"/>
    <tag k="removemelater" v="yes"/>
  </node>
  <node id="-1093" lat="58.30013557526373" lon="-3.2832306691767945">
    <tag k="addr:postcode" v="KW3 6BG"/>
    <tag k="removemelater" v="yes"/>
  </node>
  <node id="-1094" lat="58.306076683877144" lon="-3.2864322294170933">
    <tag k="addr:postcode" v="KW3 6BH"/>
    <tag k="removemelater" v="yes"/>
  </node>
  <node id="-1095" lat="58.30462766928061" lon="-3.2849291462666868">
    <tag k="addr:postcode" v="KW3 6BJ"/>
    <tag k="removemelater" v="yes"/>
  </node>
  <node id="-1096" lat="58.30650607788417" lon="-3.2857140117785164">
    <tag k="addr:postcode" v="KW3 6BL"/>
    <tag k="removemelater" v="yes"/>
  </node>
  <node id="-1097" lat="58.30780266808235" lon="-3.2854026806412273">
    <tag k="addr:postcode" v="KW3 6BN"/>
    <tag k="removemelater" v="yes"/>
  </node>
  <node id="-1098" lat="58.30897999020632" lon="-3.2835510161600743">
    <tag k="addr:postcode" v="KW3 6BP"/>
    <tag k="removemelater" v="yes"/>
  </node>
  <node id="-1099" lat="58.30196094142872" lon="-3.285719731616027">
    <tag k="addr:postcode" v="KW3 6BQ"/>
    <tag k="removemelater" v="yes"/>
  </node>
  <node id="-1100" lat="58.30769679796254" lon="-3.287890459035302">
    <tag k="addr:postcode" v="KW3 6BS"/>
    <tag k="removemelater" v="yes"/>
  </node>
  <node id="-1101" lat="58.30245610748825" lon="-3.304234410786577">
    <tag k="addr:postcode" v="KW3 6BT"/>
    <tag k="removemelater" v="yes"/>
  </node>
  <node id="-1102" lat="58.300408683215764" lon="-3.3112058475660797">
    <tag k="addr:postcode" v="KW3 6BU"/>
    <tag k="removemelater" v="yes"/>
  </node>
  <node id="-1103" lat="58.30859214202538" lon="-3.2854995900814714">
    <tag k="addr:postcode" v="KW3 6BW"/>
    <tag k="removemelater" v="yes"/>
  </node>
  <node id="-1104" lat="58.29363755635782" lon="-3.3232550683299746">
    <tag k="addr:postcode" v="KW3 6BX"/>
    <tag k="removemelater" v="yes"/>
  </node>
  <node id="-1105" lat="58.31176047301359" lon="-3.316643988053342">
    <tag k="addr:postcode" v="KW3 6BY"/>
    <tag k="removemelater" v="yes"/>
  </node>
  <node id="-1106" lat="58.31728824478176" lon="-3.2987205422108934">
    <tag k="addr:postcode" v="KW3 6DA"/>
    <tag k="removemelater" v="yes"/>
  </node>
  <node id="-1107" lat="58.298776735561454" lon="-3.2870544489243967">
    <tag k="addr:postcode" v="KW3 6DB"/>
    <tag k="removemelater" v="yes"/>
  </node>
  <node id="-1108" lat="58.289304227910506" lon="-3.342572623981046">
    <tag k="addr:postcode" v="KW5 6DG"/>
    <tag k="removemelater" v="yes"/>
  </node>
  <node id="-1109" lat="58.28849771331246" lon="-3.3694919206075324">
    <tag k="addr:postcode" v="KW5 6DJ"/>
    <tag k="removemelater" v="yes"/>
  </node>
  <node id="-1110" lat="58.27914697798442" lon="-3.371160085932209">
    <tag k="addr:postcode" v="KW5 6DL"/>
    <tag k="removemelater" v="yes"/>
  </node>
  <node id="-1111" lat="58.281610230384054" lon="-3.369294158326845">
    <tag k="addr:postcode" v="KW5 6DN"/>
    <tag k="removemelater" v="yes"/>
  </node>
  <node id="-1112" lat="58.27451187428427" lon="-3.382012402947372">
    <tag k="addr:postcode" v="KW5 6DP"/>
    <tag k="removemelater" v="yes"/>
  </node>
  <node id="-1113" lat="58.28742363440561" lon="-3.390770957818613">
    <tag k="addr:postcode" v="KW5 6DQ"/>
    <tag k="removemelater" v="yes"/>
  </node>
  <node id="-1114" lat="58.27327602096151" lon="-3.380003552062014">
    <tag k="addr:postcode" v="KW5 6DR"/>
    <tag k="removemelater" v="yes"/>
  </node>
  <node id="-1115" lat="58.277144362235646" lon="-3.3861050174566354">
    <tag k="addr:postcode" v="KW5 6DS"/>
    <tag k="removemelater" v="yes"/>
  </node>
  <node id="-1116" lat="58.26803931836141" lon="-3.3998132142720183">
    <tag k="addr:postcode" v="KW5 6DT"/>
    <tag k="removemelater" v="yes"/>
  </node>
  <node id="-1117" lat="58.288829317360175" lon="-3.4100495183757524">
    <tag k="addr:postcode" v="KW5 6DU"/>
    <tag k="removemelater" v="yes"/>
  </node>
  <node id="-1118" lat="58.275730224563404" lon="-3.384805049552349">
    <tag k="addr:postcode" v="KW5 6DW"/>
    <tag k="removemelater" v="yes"/>
  </node>
  <node id="-1119" lat="58.364646419363396" lon="-3.4031069010797195">
    <tag k="addr:postcode" v="KW5 6DX"/>
    <tag k="removemelater" v="yes"/>
  </node>
  <node id="-1120" lat="58.24599502293727" lon="-3.438707735040548">
    <tag k="addr:postcode" v="KW6 6EA"/>
    <tag k="removemelater" v="yes"/>
  </node>
  <node id="-1121" lat="58.24599833961559" lon="-3.4368167948380415">
    <tag k="addr:postcode" v="KW6 6EB"/>
    <tag k="removemelater" v="yes"/>
  </node>
  <node id="-1122" lat="58.24499937836517" lon="-3.428173093301035">
    <tag k="addr:postcode" v="KW6 6EE"/>
    <tag k="removemelater" v="yes"/>
  </node>
  <node id="-1123" lat="58.246853322746674" lon="-3.4270550552901486">
    <tag k="addr:postcode" v="KW6 6EF"/>
    <tag k="removemelater" v="yes"/>
  </node>
  <node id="-1124" lat="58.24943792731012" lon="-3.4296805983784617">
    <tag k="addr:postcode" v="KW6 6EG"/>
    <tag k="removemelater" v="yes"/>
  </node>
  <node id="-1125" lat="58.25389219684281" lon="-3.413637465149127">
    <tag k="addr:postcode" v="KW6 6EH"/>
    <tag k="removemelater" v="yes"/>
  </node>
  <node id="-1126" lat="58.25562926257271" lon="-3.4270669923986454">
    <tag k="addr:postcode" v="KW6 6EJ"/>
    <tag k="removemelater" v="yes"/>
  </node>
  <node id="-1127" lat="58.26089322119311" lon="-3.4462313998694274">
    <tag k="addr:postcode" v="KW6 6EL"/>
    <tag k="removemelater" v="yes"/>
  </node>
  <node id="-1128" lat="58.28909866238809" lon="-3.4430662533870344">
    <tag k="addr:postcode" v="KW6 6EN"/>
    <tag k="removemelater" v="yes"/>
  </node>
  <node id="-1129" lat="58.24692403805478" lon="-3.4383705546957417">
    <tag k="addr:postcode" v="KW6 6EP"/>
    <tag k="removemelater" v="yes"/>
  </node>
  <node id="-1130" lat="58.249429204606514" lon="-3.4264429660705824">
    <tag k="addr:postcode" v="KW6 6EQ"/>
    <tag k="removemelater" v="yes"/>
  </node>
  <node id="-1131" lat="58.2516709385953" lon="-3.4300090639784484">
    <tag k="addr:postcode" v="KW6 6ER"/>
    <tag k="removemelater" v="yes"/>
  </node>
  <node id="-1132" lat="58.25074484100259" lon="-3.442870274418128">
    <tag k="addr:postcode" v="KW6 6ET"/>
    <tag k="removemelater" v="yes"/>
  </node>
  <node id="-1133" lat="58.24289384607927" lon="-3.4531813202126274">
    <tag k="addr:postcode" v="KW6 6EU"/>
    <tag k="removemelater" v="yes"/>
  </node>
  <node id="-1134" lat="58.25273785662673" lon="-3.586906940796148">
    <tag k="addr:postcode" v="KW6 6EX"/>
    <tag k="removemelater" v="yes"/>
  </node>
  <node id="-1135" lat="58.22736978482699" lon="-3.4533468038100463">
    <tag k="addr:postcode" v="KW6 6EY"/>
    <tag k="removemelater" v="yes"/>
  </node>
  <node id="-1136" lat="58.24660783274009" lon="-3.439328856605661">
    <tag k="addr:postcode" v="KW6 6EZ"/>
    <tag k="removemelater" v="yes"/>
  </node>
  <node id="-1137" lat="58.20150676933641" lon="-3.4823904899584677">
    <tag k="addr:postcode" v="KW7 6HA"/>
    <tag k="removemelater" v="yes"/>
  </node>
  <node id="-1138" lat="58.18253540777432" lon="-3.498504934232335">
    <tag k="addr:postcode" v="KW7 6HB"/>
    <tag k="removemelater" v="yes"/>
  </node>
  <node id="-1139" lat="58.181620792983274" lon="-3.526407535381791">
    <tag k="addr:postcode" v="KW7 6HD"/>
    <tag k="removemelater" v="yes"/>
  </node>
  <node id="-1140" lat="58.184662244301045" lon="-3.50174085979089">
    <tag k="addr:postcode" v="KW7 6HE"/>
    <tag k="removemelater" v="yes"/>
  </node>
  <node id="-1141" lat="58.11694206097769" lon="-3.664300425252624">
    <tag k="addr:postcode" v="KW8 6HH"/>
    <tag k="removemelater" v="yes"/>
  </node>
  <node id="-1142" lat="58.10857173139321" lon="-3.6730580795599854">
    <tag k="addr:postcode" v="KW8 6HJ"/>
    <tag k="removemelater" v="yes"/>
  </node>
  <node id="-1143" lat="58.09823925227767" lon="-3.68748808840098">
    <tag k="addr:postcode" v="KW8 6HL"/>
    <tag k="removemelater" v="yes"/>
  </node>
  <node id="-1144" lat="58.09886745304869" lon="-3.6841412643463025">
    <tag k="addr:postcode" v="KW8 6HN"/>
    <tag k="removemelater" v="yes"/>
  </node>
  <node id="-1145" lat="58.07764969380982" lon="-3.758517233245065">
    <tag k="addr:postcode" v="KW8 6HP"/>
    <tag k="removemelater" v="yes"/>
  </node>
  <node id="-1146" lat="58.08235965295665" lon="-3.745265955035493">
    <tag k="addr:postcode" v="KW8 6HR"/>
    <tag k="removemelater" v="yes"/>
  </node>
  <node id="-1147" lat="58.11622623765723" lon="-3.657188257026315">
    <tag k="addr:postcode" v="KW8 6HT"/>
    <tag k="removemelater" v="yes"/>
  </node>
  <node id="-1148" lat="58.12893237100689" lon="-3.66929195712168">
    <tag k="addr:postcode" v="KW8 6HU"/>
    <tag k="removemelater" v="yes"/>
  </node>
  <node id="-1149" lat="58.09748529707041" lon="-3.690150175631878">
    <tag k="addr:postcode" v="KW8 6HW"/>
    <tag k="removemelater" v="yes"/>
  </node>
  <node id="-1150" lat="58.13522787096967" lon="-3.663930734087012">
    <tag k="addr:postcode" v="KW8 6HX"/>
    <tag k="removemelater" v="yes"/>
  </node>
  <node id="-1151" lat="58.15458250976136" lon="-3.8314107056899736">
    <tag k="addr:postcode" v="KW8 6HY"/>
    <tag k="removemelater" v="yes"/>
  </node>
  <node id="-1152" lat="58.116660805376476" lon="-3.652777776434205">
    <tag k="addr:postcode" v="KW8 6JA"/>
    <tag k="removemelater" v="yes"/>
  </node>
  <node id="-1153" lat="58.11691926251239" lon="-3.651550510583898">
    <tag k="addr:postcode" v="KW8 6JD"/>
    <tag k="removemelater" v="yes"/>
  </node>
  <node id="-1154" lat="58.11754283780749" lon="-3.6526488607563516">
    <tag k="addr:postcode" v="KW8 6JE"/>
    <tag k="removemelater" v="yes"/>
  </node>
  <node id="-1155" lat="58.117409446558305" lon="-3.6532368458127626">
    <tag k="addr:postcode" v="KW8 6JF"/>
    <tag k="removemelater" v="yes"/>
  </node>
  <node id="-1156" lat="58.11822853825304" lon="-3.65449709194451">
    <tag k="addr:postcode" v="KW8 6JG"/>
    <tag k="removemelater" v="yes"/>
  </node>
  <node id="-1157" lat="58.11768285634591" lon="-3.6508558698731046">
    <tag k="addr:postcode" v="KW8 6JH"/>
    <tag k="removemelater" v="yes"/>
  </node>
  <node id="-1158" lat="58.11844366314405" lon="-3.6531489412582223">
    <tag k="addr:postcode" v="KW8 6JJ"/>
    <tag k="removemelater" v="yes"/>
  </node>
  <node id="-1159" lat="58.12008133360093" lon="-3.6563995633435753">
    <tag k="addr:postcode" v="KW8 6JL"/>
    <tag k="removemelater" v="yes"/>
  </node>
  <node id="-1160" lat="58.12149381035285" lon="-3.6596909481711837">
    <tag k="addr:postcode" v="KW8 6JN"/>
    <tag k="removemelater" v="yes"/>
  </node>
  <node id="-1161" lat="58.117593985935855" lon="-3.650087833474793">
    <tag k="addr:postcode" v="KW8 6JP"/>
    <tag k="removemelater" v="yes"/>
  </node>
  <node id="-1162" lat="58.11802130527371" lon="-3.652467300453113">
    <tag k="addr:postcode" v="KW8 6JQ"/>
    <tag k="removemelater" v="yes"/>
  </node>
  <node id="-1163" lat="58.117239725342785" lon="-3.649001969891154">
    <tag k="addr:postcode" v="KW8 6JR"/>
    <tag k="removemelater" v="yes"/>
  </node>
  <node id="-1164" lat="58.122524198837546" lon="-3.636274636369892">
    <tag k="addr:postcode" v="KW8 6JS"/>
    <tag k="removemelater" v="yes"/>
  </node>
  <node id="-1165" lat="58.1153306777437" lon="-3.6500511015563246">
    <tag k="addr:postcode" v="KW8 6JU"/>
    <tag k="removemelater" v="yes"/>
  </node>
  <node id="-1166" lat="58.1187976193946" lon="-3.6514846429556274">
    <tag k="addr:postcode" v="KW8 6JW"/>
    <tag k="removemelater" v="yes"/>
  </node>
  <node id="-1167" lat="58.115758348764324" lon="-3.649629515725029">
    <tag k="addr:postcode" v="KW8 6JX"/>
    <tag k="removemelater" v="yes"/>
  </node>
  <node id="-1168" lat="58.11652166264683" lon="-3.6503438193723685">
    <tag k="addr:postcode" v="KW8 6JY"/>
    <tag k="removemelater" v="yes"/>
  </node>
  <node id="-1169" lat="58.115358900665484" lon="-3.650646533473317">
    <tag k="addr:postcode" v="KW8 6JZ"/>
    <tag k="removemelater" v="yes"/>
  </node>
  <node id="-1170" lat="58.11510960571488" lon="-3.646306395801261">
    <tag k="addr:postcode" v="KW8 6LA"/>
    <tag k="removemelater" v="yes"/>
  </node>
  <node id="-1171" lat="58.115300298486574" lon="-3.6482333688547786">
    <tag k="addr:postcode" v="KW8 6LB"/>
    <tag k="removemelater" v="yes"/>
  </node>
  <node id="-1172" lat="58.11546040644364" lon="-3.6455756717025567">
    <tag k="addr:postcode" v="KW8 6LD"/>
    <tag k="removemelater" v="yes"/>
  </node>
  <node id="-1173" lat="58.11629578229551" lon="-3.643492250136451">
    <tag k="addr:postcode" v="KW8 6LE"/>
    <tag k="removemelater" v="yes"/>
  </node>
  <node id="-1174" lat="58.11614644823205" lon="-3.6460147110627106">
    <tag k="addr:postcode" v="KW8 6LF"/>
    <tag k="removemelater" v="yes"/>
  </node>
  <node id="-1175" lat="58.1168390303068" lon="-3.6480328145741474">
    <tag k="addr:postcode" v="KW8 6LG"/>
    <tag k="removemelater" v="yes"/>
  </node>
  <node id="-1176" lat="58.116850109813264" lon="-3.6506475945817116">
    <tag k="addr:postcode" v="KW8 6LH"/>
    <tag k="removemelater" v="yes"/>
  </node>
  <node id="-1177" lat="58.11597081876237" lon="-3.6470930334760565">
    <tag k="addr:postcode" v="KW8 6LJ"/>
    <tag k="removemelater" v="yes"/>
  </node>
  <node id="-1178" lat="58.1160815762425" lon="-3.6489484629821027">
    <tag k="addr:postcode" v="KW8 6LQ"/>
    <tag k="removemelater" v="yes"/>
  </node>
  <node id="-1179" lat="58.01339914857694" lon="-3.8546758768556004">
    <tag k="addr:postcode" v="KW9 6AD"/>
    <tag k="removemelater" v="yes"/>
  </node>
  <node id="-1180" lat="58.013691883498076" lon="-3.8561637372547204">
    <tag k="addr:postcode" v="KW9 6LA"/>
    <tag k="removemelater" v="yes"/>
  </node>
  <node id="-1181" lat="58.01363619641301" lon="-3.8667237300818584">
    <tag k="addr:postcode" v="KW9 6LE"/>
    <tag k="removemelater" v="yes"/>
  </node>
  <node id="-1182" lat="58.019963692013" lon="-3.8554728449174536">
    <tag k="addr:postcode" v="KW9 6LN"/>
    <tag k="removemelater" v="yes"/>
  </node>
  <node id="-1183" lat="58.026363732067836" lon="-3.8484382504980315">
    <tag k="addr:postcode" v="KW9 6LP"/>
    <tag k="removemelater" v="yes"/>
  </node>
  <node id="-1184" lat="58.02375292281253" lon="-3.87033265047629">
    <tag k="addr:postcode" v="KW9 6LR"/>
    <tag k="removemelater" v="yes"/>
  </node>
  <node id="-1185" lat="58.03172469682279" lon="-3.865837497570811">
    <tag k="addr:postcode" v="KW9 6LS"/>
    <tag k="removemelater" v="yes"/>
  </node>
  <node id="-1186" lat="58.03453514874439" lon="-3.8530267205372004">
    <tag k="addr:postcode" v="KW9 6LT"/>
    <tag k="removemelater" v="yes"/>
  </node>
  <node id="-1187" lat="58.0379534602327" lon="-3.8409566651139806">
    <tag k="addr:postcode" v="KW9 6LU"/>
    <tag k="removemelater" v="yes"/>
  </node>
  <node id="-1188" lat="58.01923278632319" lon="-3.856924857211333">
    <tag k="addr:postcode" v="KW9 6LW"/>
    <tag k="removemelater" v="yes"/>
  </node>
  <node id="-1189" lat="58.0634469901974" lon="-3.9955612616741716">
    <tag k="addr:postcode" v="KW9 6LX"/>
    <tag k="removemelater" v="yes"/>
  </node>
  <node id="-1190" lat="58.01269971762244" lon="-3.853353208448908">
    <tag k="addr:postcode" v="KW9 6LY"/>
    <tag k="removemelater" v="yes"/>
  </node>
  <node id="-1191" lat="58.01462024542631" lon="-3.8491697313941544">
    <tag k="addr:postcode" v="KW9 6LZ"/>
    <tag k="removemelater" v="yes"/>
  </node>
  <node id="-1192" lat="58.00652892892012" lon="-3.8612762653481876">
    <tag k="addr:postcode" v="KW9 6NA"/>
    <tag k="removemelater" v="yes"/>
  </node>
  <node id="-1193" lat="58.012091209877084" lon="-3.8544219876587014">
    <tag k="addr:postcode" v="KW9 6NB"/>
    <tag k="removemelater" v="yes"/>
  </node>
  <node id="-1194" lat="58.012217110758534" lon="-3.857492288840657">
    <tag k="addr:postcode" v="KW9 6ND"/>
    <tag k="removemelater" v="yes"/>
  </node>
  <node id="-1195" lat="58.011978952632084" lon="-3.871901679186627">
    <tag k="addr:postcode" v="KW9 6NE"/>
    <tag k="removemelater" v="yes"/>
  </node>
  <node id="-1196" lat="58.01292428753425" lon="-3.863808991809864">
    <tag k="addr:postcode" v="KW9 6NF"/>
    <tag k="removemelater" v="yes"/>
  </node>
  <node id="-1197" lat="58.01769158706482" lon="-3.87502739290525">
    <tag k="addr:postcode" v="KW9 6NG"/>
    <tag k="removemelater" v="yes"/>
  </node>
  <node id="-1198" lat="58.0266641555366" lon="-3.887943550867796">
    <tag k="addr:postcode" v="KW9 6NH"/>
    <tag k="removemelater" v="yes"/>
  </node>
  <node id="-1199" lat="58.00375496027414" lon="-3.8885645411379346">
    <tag k="addr:postcode" v="KW9 6NJ"/>
    <tag k="removemelater" v="yes"/>
  </node>
  <node id="-1200" lat="57.99257505059111" lon="-3.8936601606568937">
    <tag k="addr:postcode" v="KW9 6NL"/>
    <tag k="removemelater" v="yes"/>
  </node>
  <node id="-1201" lat="58.007135096608714" lon="-3.8986774718866277">
    <tag k="addr:postcode" v="KW9 6NN"/>
    <tag k="removemelater" v="yes"/>
  </node>
  <node id="-1202" lat="58.012074218661695" lon="-3.859279137567939">
    <tag k="addr:postcode" v="KW9 6NP"/>
    <tag k="removemelater" v="yes"/>
  </node>
  <node id="-1203" lat="58.012936532026835" lon="-3.8837162624765313">
    <tag k="addr:postcode" v="KW9 6NQ"/>
    <tag k="removemelater" v="yes"/>
  </node>
  <node id="-1204" lat="58.011348861422285" lon="-3.8529617412686066">
    <tag k="addr:postcode" v="KW9 6NR"/>
    <tag k="removemelater" v="yes"/>
  </node>
  <node id="-1205" lat="58.01120927776909" lon="-3.8532930541602184">
    <tag k="addr:postcode" v="KW9 6NS"/>
    <tag k="removemelater" v="yes"/>
  </node>
  <node id="-1206" lat="58.01082840215591" lon="-3.854153526661173">
    <tag k="addr:postcode" v="KW9 6NT"/>
    <tag k="removemelater" v="yes"/>
  </node>
  <node id="-1207" lat="58.01127370125895" lon="-3.853804181976275">
    <tag k="addr:postcode" v="KW9 6NU"/>
    <tag k="removemelater" v="yes"/>
  </node>
  <node id="-1208" lat="58.00968402070588" lon="-3.8537727309584655">
    <tag k="addr:postcode" v="KW9 6NW"/>
    <tag k="removemelater" v="yes"/>
  </node>
  <node id="-1209" lat="58.009762992761985" lon="-3.8600563022385224">
    <tag k="addr:postcode" v="KW9 6NZ"/>
    <tag k="removemelater" v="yes"/>
  </node>
  <node id="-1210" lat="58.010375333375116" lon="-3.8593433335620255">
    <tag k="addr:postcode" v="KW9 6PA"/>
    <tag k="removemelater" v="yes"/>
  </node>
  <node id="-1211" lat="58.01086909640644" lon="-3.854443380067349">
    <tag k="addr:postcode" v="KW9 6PB"/>
    <tag k="removemelater" v="yes"/>
  </node>
  <node id="-1212" lat="58.01053328698462" lon="-3.853444284357043">
    <tag k="addr:postcode" v="KW9 6PD"/>
    <tag k="removemelater" v="yes"/>
  </node>
  <node id="-1213" lat="58.00907353683111" lon="-3.854976716033345">
    <tag k="addr:postcode" v="KW9 6PF"/>
    <tag k="removemelater" v="yes"/>
  </node>
  <node id="-1214" lat="58.009307717158684" lon="-3.8567829524244033">
    <tag k="addr:postcode" v="KW9 6PG"/>
    <tag k="removemelater" v="yes"/>
  </node>
  <node id="-1215" lat="58.00816349694038" lon="-3.855775870032564">
    <tag k="addr:postcode" v="KW9 6PH"/>
    <tag k="removemelater" v="yes"/>
  </node>
  <node id="-1216" lat="58.007577366735745" lon="-3.8565409878317842">
    <tag k="addr:postcode" v="KW9 6PJ"/>
    <tag k="removemelater" v="yes"/>
  </node>
  <node id="-1217" lat="58.00776960463497" lon="-3.8581418860266643">
    <tag k="addr:postcode" v="KW9 6PL"/>
    <tag k="removemelater" v="yes"/>
  </node>
  <node id="-1218" lat="58.00683459121683" lon="-3.8588042409515984">
    <tag k="addr:postcode" v="KW9 6PN"/>
    <tag k="removemelater" v="yes"/>
  </node>
  <node id="-1219" lat="58.00944656853802" lon="-3.8534219353156534">
    <tag k="addr:postcode" v="KW9 6PP"/>
    <tag k="removemelater" v="yes"/>
  </node>
  <node id="-1220" lat="58.010120002583676" lon="-3.855911032387817">
    <tag k="addr:postcode" v="KW9 6PQ"/>
    <tag k="removemelater" v="yes"/>
  </node>
  <node id="-1221" lat="58.009360384877326" lon="-3.8525542710890046">
    <tag k="addr:postcode" v="KW9 6PR"/>
    <tag k="removemelater" v="yes"/>
  </node>
  <node id="-1222" lat="58.01068986559921" lon="-3.8519459451643523">
    <tag k="addr:postcode" v="KW9 6PS"/>
    <tag k="removemelater" v="yes"/>
  </node>
  <node id="-1223" lat="58.01055497725331" lon="-3.8507202890118517">
    <tag k="addr:postcode" v="KW9 6PT"/>
    <tag k="removemelater" v="yes"/>
  </node>
  <node id="-1224" lat="58.00996900611889" lon="-3.8508592882517236">
    <tag k="addr:postcode" v="KW9 6PU"/>
    <tag k="removemelater" v="yes"/>
  </node>
  <node id="-1225" lat="58.00697278405875" lon="-3.8573389738191963">
    <tag k="addr:postcode" v="KW9 6PW"/>
    <tag k="removemelater" v="yes"/>
  </node>
  <node id="-1226" lat="58.008994804729234" lon="-3.8486594462720634">
    <tag k="addr:postcode" v="KW9 6PX"/>
    <tag k="removemelater" v="yes"/>
  </node>
  <node id="-1227" lat="58.01307968923956" lon="-3.8457555416899427">
    <tag k="addr:postcode" v="KW9 6PY"/>
    <tag k="removemelater" v="yes"/>
  </node>
  <node id="-1228" lat="58.00889295531868" lon="-3.8470124299320716">
    <tag k="addr:postcode" v="KW9 6PZ"/>
    <tag k="removemelater" v="yes"/>
  </node>
  <node id="-1229" lat="58.00893696602643" lon="-3.846456159594369">
    <tag k="addr:postcode" v="KW9 6QA"/>
    <tag k="removemelater" v="yes"/>
  </node>
  <node id="-1230" lat="58.0093825211511" lon="-3.8473253954972093">
    <tag k="addr:postcode" v="KW9 6QB"/>
    <tag k="removemelater" v="yes"/>
  </node>
  <node id="-1231" lat="58.009420414764406" lon="-3.848427515288958">
    <tag k="addr:postcode" v="KW9 6QD"/>
    <tag k="removemelater" v="yes"/>
  </node>
  <node id="-1232" lat="58.01002210581941" lon="-3.8472060299317143">
    <tag k="addr:postcode" v="KW9 6QE"/>
    <tag k="removemelater" v="yes"/>
  </node>
  <node id="-1233" lat="58.01040543767585" lon="-3.8486475808614444">
    <tag k="addr:postcode" v="KW9 6QF"/>
    <tag k="removemelater" v="yes"/>
  </node>
  <node id="-1234" lat="58.00851164702502" lon="-3.859619003613307">
    <tag k="addr:postcode" v="KW9 6QH"/>
    <tag k="removemelater" v="yes"/>
  </node>
  <node id="-1235" lat="58.01241086568043" lon="-3.8528304571235514">
    <tag k="addr:postcode" v="KW9 6QJ"/>
    <tag k="removemelater" v="yes"/>
  </node>
  <node id="-1236" lat="58.015569839194484" lon="-3.8481183824772702">
    <tag k="addr:postcode" v="KW9 6QL"/>
    <tag k="removemelater" v="yes"/>
  </node>
  <node id="-1237" lat="58.014415673951184" lon="-3.853966730492953">
    <tag k="addr:postcode" v="KW9 6QN"/>
    <tag k="removemelater" v="yes"/>
  </node>
  <node id="-1238" lat="58.01573166589512" lon="-3.857979199576835">
    <tag k="addr:postcode" v="KW9 6QP"/>
    <tag k="removemelater" v="yes"/>
  </node>
  <node id="-1239" lat="58.0142951033664" lon="-3.8492883757373186">
    <tag k="addr:postcode" v="KW9 6QQ"/>
    <tag k="removemelater" v="yes"/>
  </node>
  <node id="-1240" lat="58.0171196942142" lon="-3.8552070539512497">
    <tag k="addr:postcode" v="KW9 6QR"/>
    <tag k="removemelater" v="yes"/>
  </node>
  <node id="-1241" lat="58.01311145631305" lon="-3.847280641936167">
    <tag k="addr:postcode" v="KW9 6QS"/>
    <tag k="removemelater" v="yes"/>
  </node>
  <node id="-1242" lat="58.0147368020296" lon="-3.8473305778374054">
    <tag k="addr:postcode" v="KW9 6QT"/>
    <tag k="removemelater" v="yes"/>
  </node>
  <node id="-1243" lat="58.012760009826785" lon="-3.8516805302980424">
    <tag k="addr:postcode" v="KW9 6QU"/>
    <tag k="removemelater" v="yes"/>
  </node>
  <node id="-1244" lat="58.01451141510302" lon="-3.855410570380489">
    <tag k="addr:postcode" v="KW9 6QW"/>
    <tag k="removemelater" v="yes"/>
  </node>
  <node id="-1245" lat="58.01377466553368" lon="-3.8517160344716412">
    <tag k="addr:postcode" v="KW9 6QX"/>
    <tag k="removemelater" v="yes"/>
  </node>
  <node id="-1246" lat="58.015076964620775" lon="-3.8511231300525144">
    <tag k="addr:postcode" v="KW9 6QY"/>
    <tag k="removemelater" v="yes"/>
  </node>
  <node id="-1247" lat="58.01674367664515" lon="-3.856965143034873">
    <tag k="addr:postcode" v="KW9 6QZ"/>
    <tag k="removemelater" v="yes"/>
  </node>
</osm>
