<?xml version="1.0" encoding="UTF-8"?><osm version="0.6" generator="import_postcodes.py" upload="false">
  <node id="-1" lat="60.153221707792945" lon="-1.1415954031387991">
    <tag k="addr:postcode" v="ZE1 0AA"/>
    <tag k="removemelater" v="yes"/>
  </node>
  <node id="-2" lat="60.153221707792945" lon="-1.1415954031387991">
    <tag k="addr:postcode" v="ZE1 0AD"/>
    <tag k="removemelater" v="yes"/>
  </node>
  <node id="-3" lat="60.15232131965549" lon="-1.1384488138045405">
    <tag k="addr:postcode" v="ZE1 0AU"/>
    <tag k="removemelater" v="yes"/>
  </node>
  <node id="-4" lat="60.154905433518" lon="-1.1478741088079307">
    <tag k="addr:postcode" v="ZE1 0AZ"/>
    <tag k="removemelater" v="yes"/>
  </node>
  <node id="-5" lat="60.153689890449975" lon="-1.145960217028066">
    <tag k="addr:postcode" v="ZE1 0EG"/>
    <tag k="removemelater" v="yes"/>
  </node>
  <node id="-6" lat="60.153221707792945" lon="-1.1415954031387991">
    <tag k="addr:postcode" v="ZE1 0EH"/>
    <tag k="removemelater" v="yes"/>
  </node>
  <node id="-7" lat="60.15567679373288" lon="-1.1505381604261677">
    <tag k="addr:postcode" v="ZE1 0ER"/>
    <tag k="removemelater" v="yes"/>
  </node>
  <node id="-8" lat="60.16402533934112" lon="-1.1643227810107621">
    <tag k="addr:postcode" v="ZE1 0FB"/>
    <tag k="removemelater" v="yes"/>
  </node>
  <node id="-9" lat="60.149521080311715" lon="-1.1724710918485761">
    <tag k="addr:postcode" v="ZE1 0GA"/>
    <tag k="removemelater" v="yes"/>
  </node>
  <node id="-10" lat="60.15443690347243" lon="-1.1462290520273801">
    <tag k="addr:postcode" v="ZE1 0HB"/>
    <tag k="removemelater" v="yes"/>
  </node>
  <node id="-11" lat="60.155147838511915" lon="-1.1436887741553723">
    <tag k="addr:postcode" v="ZE1 0HY"/>
    <tag k="removemelater" v="yes"/>
  </node>
  <node id="-12" lat="60.15555854699484" lon="-1.1461099086321627">
    <tag k="addr:postcode" v="ZE1 0JN"/>
    <tag k="removemelater" v="yes"/>
  </node>
  <node id="-13" lat="60.15704700276427" lon="-1.1457830880230793">
    <tag k="addr:postcode" v="ZE1 0LQ"/>
    <tag k="removemelater" v="yes"/>
  </node>
  <node id="-14" lat="60.15704700276427" lon="-1.1457830880230793">
    <tag k="addr:postcode" v="ZE1 0LX"/>
    <tag k="removemelater" v="yes"/>
  </node>
  <node id="-15" lat="60.162741082729305" lon="-1.1685714271865326">
    <tag k="addr:postcode" v="ZE1 0NE"/>
    <tag k="removemelater" v="yes"/>
  </node>
  <node id="-16" lat="60.157603185286" lon="-1.156919657275388">
    <tag k="addr:postcode" v="ZE1 0NT"/>
    <tag k="removemelater" v="yes"/>
  </node>
  <node id="-17" lat="60.16412829200928" lon="-1.162139980574329">
    <tag k="addr:postcode" v="ZE1 0PF"/>
    <tag k="removemelater" v="yes"/>
  </node>
  <node id="-18" lat="60.166964037462" lon="-1.1647166930608748">
    <tag k="addr:postcode" v="ZE1 0PS"/>
    <tag k="removemelater" v="yes"/>
  </node>
  <node id="-19" lat="60.16457923176137" lon="-1.1624528344766731">
    <tag k="addr:postcode" v="ZE1 0PW"/>
    <tag k="removemelater" v="yes"/>
  </node>
  <node id="-20" lat="60.166964037462" lon="-1.1647166930608748">
    <tag k="addr:postcode" v="ZE1 0PX"/>
    <tag k="removemelater" v="yes"/>
  </node>
  <node id="-21" lat="60.16258329553598" lon="-1.1663232589293422">
    <tag k="addr:postcode" v="ZE1 0QF"/>
    <tag k="removemelater" v="yes"/>
  </node>
  <node id="-22" lat="60.15105828041248" lon="-1.15566430650483">
    <tag k="addr:postcode" v="ZE1 0TB"/>
    <tag k="removemelater" v="yes"/>
  </node>
  <node id="-23" lat="60.16592802857932" lon="-1.1670313990369214">
    <tag k="addr:postcode" v="ZE1 0TW"/>
    <tag k="removemelater" v="yes"/>
  </node>
  <node id="-24" lat="60.130448404776295" lon="-1.2668714424100374">
    <tag k="addr:postcode" v="ZE1 0US"/>
    <tag k="removemelater" v="yes"/>
  </node>
  <node id="-25" lat="60.153221707792945" lon="-1.1415954031387991">
    <tag k="addr:postcode" v="ZE1 0WD"/>
    <tag k="removemelater" v="yes"/>
  </node>
  <node id="-26" lat="60.153221707792945" lon="-1.1415954031387991">
    <tag k="addr:postcode" v="ZE1 0WW"/>
    <tag k="removemelater" v="yes"/>
  </node>
  <node id="-27" lat="60.12288133622786" lon="-1.2870504130020923">
    <tag k="addr:postcode" v="ZE1 0XL"/>
    <tag k="removemelater" v="yes"/>
  </node>
  <node id="-28" lat="60.153221707792945" lon="-1.1415954031387991">
    <tag k="addr:postcode" v="ZE1 0YJ"/>
    <tag k="removemelater" v="yes"/>
  </node>
  <node id="-29" lat="60.15443690347243" lon="-1.1462290520273801">
    <tag k="addr:postcode" v="ZE1 9SA"/>
    <tag k="removemelater" v="yes"/>
  </node>
  <node id="-30" lat="60.15443690347243" lon="-1.1462290520273801">
    <tag k="addr:postcode" v="ZE1 9SB"/>
    <tag k="removemelater" v="yes"/>
  </node>
  <node id="-31" lat="60.15443690347243" lon="-1.1462290520273801">
    <tag k="addr:postcode" v="ZE1 9SD"/>
    <tag k="removemelater" v="yes"/>
  </node>
  <node id="-32" lat="60.15443690347243" lon="-1.1462290520273801">
    <tag k="addr:postcode" v="ZE1 9SE"/>
    <tag k="removemelater" v="yes"/>
  </node>
  <node id="-33" lat="60.15443690347243" lon="-1.1462290520273801">
    <tag k="addr:postcode" v="ZE1 9SF"/>
    <tag k="removemelater" v="yes"/>
  </node>
  <node id="-34" lat="60.15443690347243" lon="-1.1462290520273801">
    <tag k="addr:postcode" v="ZE1 9SG"/>
    <tag k="removemelater" v="yes"/>
  </node>
  <node id="-35" lat="60.15443690347243" lon="-1.1462290520273801">
    <tag k="addr:postcode" v="ZE1 9SH"/>
    <tag k="removemelater" v="yes"/>
  </node>
  <node id="-36" lat="60.15443690347243" lon="-1.1462290520273801">
    <tag k="addr:postcode" v="ZE1 9SJ"/>
    <tag k="removemelater" v="yes"/>
  </node>
  <node id="-37" lat="60.15443690347243" lon="-1.1462290520273801">
    <tag k="addr:postcode" v="ZE1 9SL"/>
    <tag k="removemelater" v="yes"/>
  </node>
  <node id="-38" lat="60.15443690347243" lon="-1.1462290520273801">
    <tag k="addr:postcode" v="ZE1 9SN"/>
    <tag k="removemelater" v="yes"/>
  </node>
  <node id="-39" lat="60.15443690347243" lon="-1.1462290520273801">
    <tag k="addr:postcode" v="ZE1 9SP"/>
    <tag k="removemelater" v="yes"/>
  </node>
  <node id="-40" lat="60.15443690347243" lon="-1.1462290520273801">
    <tag k="addr:postcode" v="ZE1 9SQ"/>
    <tag k="removemelater" v="yes"/>
  </node>
  <node id="-41" lat="60.15443690347243" lon="-1.1462290520273801">
    <tag k="addr:postcode" v="ZE1 9SR"/>
    <tag k="removemelater" v="yes"/>
  </node>
  <node id="-42" lat="60.15443690347243" lon="-1.1462290520273801">
    <tag k="addr:postcode" v="ZE1 9SS"/>
    <tag k="removemelater" v="yes"/>
  </node>
  <node id="-43" lat="60.15443690347243" lon="-1.1462290520273801">
    <tag k="addr:postcode" v="ZE1 9ST"/>
    <tag k="removemelater" v="yes"/>
  </node>
  <node id="-44" lat="60.15443690347243" lon="-1.1462290520273801">
    <tag k="addr:postcode" v="ZE1 9SU"/>
    <tag k="removemelater" v="yes"/>
  </node>
  <node id="-45" lat="60.15443690347243" lon="-1.1462290520273801">
    <tag k="addr:postcode" v="ZE1 9SW"/>
    <tag k="removemelater" v="yes"/>
  </node>
  <node id="-46" lat="60.15443690347243" lon="-1.1462290520273801">
    <tag k="addr:postcode" v="ZE1 9SX"/>
    <tag k="removemelater" v="yes"/>
  </node>
  <node id="-47" lat="60.15443690347243" lon="-1.1462290520273801">
    <tag k="addr:postcode" v="ZE1 9SY"/>
    <tag k="removemelater" v="yes"/>
  </node>
  <node id="-48" lat="60.15443690347243" lon="-1.1462290520273801">
    <tag k="addr:postcode" v="ZE1 9SZ"/>
    <tag k="removemelater" v="yes"/>
  </node>
  <node id="-49" lat="60.15443690347243" lon="-1.1462290520273801">
    <tag k="addr:postcode" v="ZE1 9TA"/>
    <tag k="removemelater" v="yes"/>
  </node>
  <node id="-50" lat="60.15443690347243" lon="-1.1462290520273801">
    <tag k="addr:postcode" v="ZE1 9TB"/>
    <tag k="removemelater" v="yes"/>
  </node>
  <node id="-51" lat="60.153221707792945" lon="-1.1415954031387991">
    <tag k="addr:postcode" v="ZE1 9ZZ"/>
    <tag k="removemelater" v="yes"/>
  </node>
  <node id="-52" lat="60.422999575074336" lon="-0.7634895921003535">
    <tag k="addr:postcode" v="ZE2 9AS"/>
    <tag k="removemelater" v="yes"/>
  </node>
  <node id="-53" lat="60.717091132750895" lon="-1.0151721278978032">
    <tag k="addr:postcode" v="ZE2 9BB"/>
    <tag k="removemelater" v="yes"/>
  </node>
  <node id="-54" lat="60.71634327695991" lon="-1.016038042612801">
    <tag k="addr:postcode" v="ZE2 9BZ"/>
    <tag k="removemelater" v="yes"/>
  </node>
  <node id="-55" lat="60.6103166915871" lon="-1.0602935800133135">
    <tag k="addr:postcode" v="ZE2 9DA"/>
    <tag k="removemelater" v="yes"/>
  </node>
  <node id="-56" lat="60.62966728984796" lon="-1.0452549482530926">
    <tag k="addr:postcode" v="ZE2 9DB"/>
    <tag k="removemelater" v="yes"/>
  </node>
  <node id="-57" lat="60.71349279571219" lon="-1.0240599707869482">
    <tag k="addr:postcode" v="ZE2 9DD"/>
    <tag k="removemelater" v="yes"/>
  </node>
  <node id="-58" lat="60.71542178891248" lon="-1.017715576071661">
    <tag k="addr:postcode" v="ZE2 9DE"/>
    <tag k="removemelater" v="yes"/>
  </node>
  <node id="-59" lat="60.66768635761961" lon="-1.0061590529989093">
    <tag k="addr:postcode" v="ZE2 9DF"/>
    <tag k="removemelater" v="yes"/>
  </node>
  <node id="-60" lat="60.66057391360439" lon="-1.0480177646346418">
    <tag k="addr:postcode" v="ZE2 9DG"/>
    <tag k="removemelater" v="yes"/>
  </node>
  <node id="-61" lat="60.14601637772121" lon="-1.1123756585740332">
    <tag k="addr:postcode" v="ZE2 9DH"/>
    <tag k="removemelater" v="yes"/>
  </node>
  <node id="-62" lat="60.59556319851013" lon="-0.8560810066543431">
    <tag k="addr:postcode" v="ZE2 9DJ"/>
    <tag k="removemelater" v="yes"/>
  </node>
  <node id="-63" lat="60.667069807028504" lon="-1.0587869591521841">
    <tag k="addr:postcode" v="ZE2 9DQ"/>
    <tag k="removemelater" v="yes"/>
  </node>
  <node id="-64" lat="60.757284688625596" lon="-0.8849558548082531">
    <tag k="addr:postcode" v="ZE2 9DX"/>
    <tag k="removemelater" v="yes"/>
  </node>
  <node id="-65" lat="60.75867954585414" lon="-0.8810169587551904">
    <tag k="addr:postcode" v="ZE2 9DY"/>
    <tag k="removemelater" v="yes"/>
  </node>
  <node id="-66" lat="60.00154262172324" lon="-1.2337583814904782">
    <tag k="addr:postcode" v="ZE2 9EG"/>
    <tag k="removemelater" v="yes"/>
  </node>
  <node id="-67" lat="60.15578392077594" lon="-1.116111445249853">
    <tag k="addr:postcode" v="ZE2 9EL"/>
    <tag k="removemelater" v="yes"/>
  </node>
  <node id="-68" lat="60.1544951810831" lon="-1.115407501474498">
    <tag k="addr:postcode" v="ZE2 9EN"/>
    <tag k="removemelater" v="yes"/>
  </node>
  <node id="-69" lat="60.17253609416177" lon="-1.107587363898295">
    <tag k="addr:postcode" v="ZE2 9EP"/>
    <tag k="removemelater" v="yes"/>
  </node>
  <node id="-70" lat="60.1398389183031" lon="-1.1137663829230997">
    <tag k="addr:postcode" v="ZE2 9ER"/>
    <tag k="removemelater" v="yes"/>
  </node>
  <node id="-71" lat="60.14823549544296" lon="-1.0926674751448577">
    <tag k="addr:postcode" v="ZE2 9ES"/>
    <tag k="removemelater" v="yes"/>
  </node>
  <node id="-72" lat="60.14392884125947" lon="-1.111729615947637">
    <tag k="addr:postcode" v="ZE2 9ET"/>
    <tag k="removemelater" v="yes"/>
  </node>
  <node id="-73" lat="60.14418158700431" lon="-1.1105883431031078">
    <tag k="addr:postcode" v="ZE2 9EU"/>
    <tag k="removemelater" v="yes"/>
  </node>
  <node id="-74" lat="60.169263879983426" lon="-1.1382396708141422">
    <tag k="addr:postcode" v="ZE2 9EW"/>
    <tag k="removemelater" v="yes"/>
  </node>
  <node id="-75" lat="60.61138238396082" lon="-1.0598972597220528">
    <tag k="addr:postcode" v="ZE2 9FA"/>
    <tag k="removemelater" v="yes"/>
  </node>
  <node id="-76" lat="60.339810787317646" lon="-1.01485827022372">
    <tag k="addr:postcode" v="ZE2 9FB"/>
    <tag k="removemelater" v="yes"/>
  </node>
  <node id="-77" lat="60.12839939712466" lon="-1.2088182391931945">
    <tag k="addr:postcode" v="ZE2 9FG"/>
    <tag k="removemelater" v="yes"/>
  </node>
  <node id="-78" lat="60.12839939712466" lon="-1.2088182391931945">
    <tag k="addr:postcode" v="ZE2 9FJ"/>
    <tag k="removemelater" v="yes"/>
  </node>
  <node id="-79" lat="60.27857358733097" lon="-1.2470887943674995">
    <tag k="addr:postcode" v="ZE2 9FL"/>
    <tag k="removemelater" v="yes"/>
  </node>
  <node id="-80" lat="60.12839939712466" lon="-1.2088182391931945">
    <tag k="addr:postcode" v="ZE2 9FN"/>
    <tag k="removemelater" v="yes"/>
  </node>
  <node id="-81" lat="60.12839939712466" lon="-1.2088182391931945">
    <tag k="addr:postcode" v="ZE2 9FQ"/>
    <tag k="removemelater" v="yes"/>
  </node>
  <node id="-82" lat="59.9164320574524" lon="-1.3147649301635396">
    <tag k="addr:postcode" v="ZE2 9GB"/>
    <tag k="removemelater" v="yes"/>
  </node>
  <node id="-83" lat="60.00098943895517" lon="-1.2328209269793928">
    <tag k="addr:postcode" v="ZE2 9GG"/>
    <tag k="removemelater" v="yes"/>
  </node>
  <node id="-84" lat="60.04798746272615" lon="-1.2281941757635537">
    <tag k="addr:postcode" v="ZE2 9HB"/>
    <tag k="removemelater" v="yes"/>
  </node>
  <node id="-85" lat="60.05335717233183" lon="-1.2266681816070315">
    <tag k="addr:postcode" v="ZE2 9HD"/>
    <tag k="removemelater" v="yes"/>
  </node>
  <node id="-86" lat="60.05296780049728" lon="-1.227646981267545">
    <tag k="addr:postcode" v="ZE2 9HE"/>
    <tag k="removemelater" v="yes"/>
  </node>
  <node id="-87" lat="60.03845454639709" lon="-1.2271959555819074">
    <tag k="addr:postcode" v="ZE2 9HF"/>
    <tag k="removemelater" v="yes"/>
  </node>
  <node id="-88" lat="60.052516422412566" lon="-1.2105084998391236">
    <tag k="addr:postcode" v="ZE2 9HG"/>
    <tag k="removemelater" v="yes"/>
  </node>
  <node id="-89" lat="59.99954550822137" lon="-1.2456013929191998">
    <tag k="addr:postcode" v="ZE2 9HH"/>
    <tag k="removemelater" v="yes"/>
  </node>
  <node id="-90" lat="60.00105744186233" lon="-1.2477722625439782">
    <tag k="addr:postcode" v="ZE2 9HJ"/>
    <tag k="removemelater" v="yes"/>
  </node>
  <node id="-91" lat="59.997139176306014" lon="-1.2567171198005687">
    <tag k="addr:postcode" v="ZE2 9HL"/>
    <tag k="removemelater" v="yes"/>
  </node>
  <node id="-92" lat="60.0042947023329" lon="-1.2376216173227894">
    <tag k="addr:postcode" v="ZE2 9HN"/>
    <tag k="removemelater" v="yes"/>
  </node>
  <node id="-93" lat="60.0080564848302" lon="-1.2267035594978453">
    <tag k="addr:postcode" v="ZE2 9HP"/>
    <tag k="removemelater" v="yes"/>
  </node>
  <node id="-94" lat="60.053988473225864" lon="-1.227138282384209">
    <tag k="addr:postcode" v="ZE2 9HQ"/>
    <tag k="removemelater" v="yes"/>
  </node>
  <node id="-95" lat="59.997783380110995" lon="-1.2547127394041884">
    <tag k="addr:postcode" v="ZE2 9HR"/>
    <tag k="removemelater" v="yes"/>
  </node>
  <node id="-96" lat="60.00505834997677" lon="-1.2299473719033396">
    <tag k="addr:postcode" v="ZE2 9HS"/>
    <tag k="removemelater" v="yes"/>
  </node>
  <node id="-97" lat="60.00030730452485" lon="-1.232872573806667">
    <tag k="addr:postcode" v="ZE2 9HT"/>
    <tag k="removemelater" v="yes"/>
  </node>
  <node id="-98" lat="59.9989817909577" lon="-1.2443771900120584">
    <tag k="addr:postcode" v="ZE2 9HU"/>
    <tag k="removemelater" v="yes"/>
  </node>
  <node id="-99" lat="59.9977582499174" lon="-1.2299735491365065">
    <tag k="addr:postcode" v="ZE2 9HW"/>
    <tag k="removemelater" v="yes"/>
  </node>
  <node id="-100" lat="59.99309187357363" lon="-1.2765609714044677">
    <tag k="addr:postcode" v="ZE2 9HY"/>
    <tag k="removemelater" v="yes"/>
  </node>
  <node id="-101" lat="60.00603268571691" lon="-1.22918952306612">
    <tag k="addr:postcode" v="ZE2 9HZ"/>
    <tag k="removemelater" v="yes"/>
  </node>
  <node id="-102" lat="59.918920282701734" lon="-1.3080605555497582">
    <tag k="addr:postcode" v="ZE2 9JB"/>
    <tag k="removemelater" v="yes"/>
  </node>
  <node id="-103" lat="59.911184953223234" lon="-1.3334329819690405">
    <tag k="addr:postcode" v="ZE2 9JD"/>
    <tag k="removemelater" v="yes"/>
  </node>
  <node id="-104" lat="59.939081366528" lon="-1.327612173253904">
    <tag k="addr:postcode" v="ZE2 9JE"/>
    <tag k="removemelater" v="yes"/>
  </node>
  <node id="-105" lat="59.916232818836065" lon="-1.2906624025429065">
    <tag k="addr:postcode" v="ZE2 9JG"/>
    <tag k="removemelater" v="yes"/>
  </node>
  <node id="-106" lat="59.933577227135785" lon="-1.31197807604521">
    <tag k="addr:postcode" v="ZE2 9JH"/>
    <tag k="removemelater" v="yes"/>
  </node>
  <node id="-107" lat="59.92325561938725" lon="-1.2792258384576884">
    <tag k="addr:postcode" v="ZE2 9JJ"/>
    <tag k="removemelater" v="yes"/>
  </node>
  <node id="-108" lat="60.00225965556466" lon="-1.2319846816592548">
    <tag k="addr:postcode" v="ZE2 9JL"/>
    <tag k="removemelater" v="yes"/>
  </node>
  <node id="-109" lat="60.004787062763825" lon="-1.2499110656069963">
    <tag k="addr:postcode" v="ZE2 9JN"/>
    <tag k="removemelater" v="yes"/>
  </node>
  <node id="-110" lat="60.04491264914802" lon="-1.2275298370793086">
    <tag k="addr:postcode" v="ZE2 9JP"/>
    <tag k="removemelater" v="yes"/>
  </node>
  <node id="-111" lat="59.932236813303234" lon="-1.2828420551589592">
    <tag k="addr:postcode" v="ZE2 9JQ"/>
    <tag k="removemelater" v="yes"/>
  </node>
  <node id="-112" lat="59.92227585545653" lon="-1.293985587134049">
    <tag k="addr:postcode" v="ZE2 9JR"/>
    <tag k="removemelater" v="yes"/>
  </node>
  <node id="-113" lat="60.04472647659779" lon="-1.2264031547117604">
    <tag k="addr:postcode" v="ZE2 9JS"/>
    <tag k="removemelater" v="yes"/>
  </node>
  <node id="-114" lat="59.92247204045518" lon="-1.2970936948592486">
    <tag k="addr:postcode" v="ZE2 9JW"/>
    <tag k="removemelater" v="yes"/>
  </node>
  <node id="-115" lat="60.27857358733097" lon="-1.2470887943674995">
    <tag k="addr:postcode" v="ZE2 9LP"/>
    <tag k="removemelater" v="yes"/>
  </node>
  <node id="-116" lat="60.23066523007114" lon="-1.3037227192479464">
    <tag k="addr:postcode" v="ZE2 9LR"/>
    <tag k="removemelater" v="yes"/>
  </node>
  <node id="-117" lat="60.26248340331454" lon="-1.3868459174882906">
    <tag k="addr:postcode" v="ZE2 9LS"/>
    <tag k="removemelater" v="yes"/>
  </node>
  <node id="-118" lat="60.24292407512071" lon="-1.352118977550374">
    <tag k="addr:postcode" v="ZE2 9LT"/>
    <tag k="removemelater" v="yes"/>
  </node>
  <node id="-119" lat="60.22161940576267" lon="-1.3618886850457512">
    <tag k="addr:postcode" v="ZE2 9LU"/>
    <tag k="removemelater" v="yes"/>
  </node>
  <node id="-120" lat="60.26016020589681" lon="-1.2882788164572978">
    <tag k="addr:postcode" v="ZE2 9LW"/>
    <tag k="removemelater" v="yes"/>
  </node>
  <node id="-121" lat="60.252838191133776" lon="-1.4413876623695887">
    <tag k="addr:postcode" v="ZE2 9LY"/>
    <tag k="removemelater" v="yes"/>
  </node>
  <node id="-122" lat="60.25506776391949" lon="-1.4638617614157767">
    <tag k="addr:postcode" v="ZE2 9LZ"/>
    <tag k="removemelater" v="yes"/>
  </node>
  <node id="-123" lat="60.25353863098599" lon="-1.4042126002777138">
    <tag k="addr:postcode" v="ZE2 9NA"/>
    <tag k="removemelater" v="yes"/>
  </node>
  <node id="-124" lat="60.23727784063659" lon="-1.3982416684857846">
    <tag k="addr:postcode" v="ZE2 9NG"/>
    <tag k="removemelater" v="yes"/>
  </node>
  <node id="-125" lat="60.21472856214593" lon="-1.4035088405406604">
    <tag k="addr:postcode" v="ZE2 9NH"/>
    <tag k="removemelater" v="yes"/>
  </node>
  <node id="-126" lat="60.184068908517304" lon="-1.41641429234913">
    <tag k="addr:postcode" v="ZE2 9NJ"/>
    <tag k="removemelater" v="yes"/>
  </node>
  <node id="-127" lat="60.17916201373692" lon="-1.4511468687472198">
    <tag k="addr:postcode" v="ZE2 9NL"/>
    <tag k="removemelater" v="yes"/>
  </node>
  <node id="-128" lat="60.25306546837009" lon="-1.398837392392471">
    <tag k="addr:postcode" v="ZE2 9NN"/>
    <tag k="removemelater" v="yes"/>
  </node>
  <node id="-129" lat="60.24445494649516" lon="-1.5202607599404065">
    <tag k="addr:postcode" v="ZE2 9NP"/>
    <tag k="removemelater" v="yes"/>
  </node>
  <node id="-130" lat="60.21296030107475" lon="-1.3820500605481736">
    <tag k="addr:postcode" v="ZE2 9NQ"/>
    <tag k="removemelater" v="yes"/>
  </node>
  <node id="-131" lat="60.22671814870782" lon="-1.4927200716691769">
    <tag k="addr:postcode" v="ZE2 9NR"/>
    <tag k="removemelater" v="yes"/>
  </node>
  <node id="-132" lat="60.236399759013224" lon="-1.4569979149446115">
    <tag k="addr:postcode" v="ZE2 9NS"/>
    <tag k="removemelater" v="yes"/>
  </node>
  <node id="-133" lat="59.99596341392151" lon="-1.2425816479161758">
    <tag k="addr:postcode" v="ZE2 9NU"/>
    <tag k="removemelater" v="yes"/>
  </node>
  <node id="-134" lat="60.185864787397435" lon="-1.4393339506631548">
    <tag k="addr:postcode" v="ZE2 9NY"/>
    <tag k="removemelater" v="yes"/>
  </node>
  <node id="-135" lat="59.995929134790956" lon="-1.2491614059926954">
    <tag k="addr:postcode" v="ZE2 9NZ"/>
    <tag k="removemelater" v="yes"/>
  </node>
  <node id="-136" lat="60.205875163555376" lon="-1.5935802131717383">
    <tag k="addr:postcode" v="ZE2 9PA"/>
    <tag k="removemelater" v="yes"/>
  </node>
  <node id="-137" lat="60.22552184521791" lon="-1.573860141920404">
    <tag k="addr:postcode" v="ZE2 9PB"/>
    <tag k="removemelater" v="yes"/>
  </node>
  <node id="-138" lat="60.22049215843666" lon="-1.6053112866720858">
    <tag k="addr:postcode" v="ZE2 9PD"/>
    <tag k="removemelater" v="yes"/>
  </node>
  <node id="-139" lat="60.241018270082805" lon="-1.6469987449707628">
    <tag k="addr:postcode" v="ZE2 9PE"/>
    <tag k="removemelater" v="yes"/>
  </node>
  <node id="-140" lat="60.22505642927698" lon="-1.5578370753447306">
    <tag k="addr:postcode" v="ZE2 9PF"/>
    <tag k="removemelater" v="yes"/>
  </node>
  <node id="-141" lat="60.225420426041595" lon="-1.5702512604745227">
    <tag k="addr:postcode" v="ZE2 9PG"/>
    <tag k="removemelater" v="yes"/>
  </node>
  <node id="-142" lat="60.235199670251944" lon="-1.5651397370792899">
    <tag k="addr:postcode" v="ZE2 9PH"/>
    <tag k="removemelater" v="yes"/>
  </node>
  <node id="-143" lat="60.24221917643392" lon="-1.5564139682208782">
    <tag k="addr:postcode" v="ZE2 9PJ"/>
    <tag k="removemelater" v="yes"/>
  </node>
  <node id="-144" lat="60.27224735978105" lon="-1.1708390441124388">
    <tag k="addr:postcode" v="ZE2 9PP"/>
    <tag k="removemelater" v="yes"/>
  </node>
  <node id="-145" lat="60.22782965313452" lon="-1.568378407031858">
    <tag k="addr:postcode" v="ZE2 9PQ"/>
    <tag k="removemelater" v="yes"/>
  </node>
  <node id="-146" lat="60.26528609862928" lon="-1.1435611819897473">
    <tag k="addr:postcode" v="ZE2 9PS"/>
    <tag k="removemelater" v="yes"/>
  </node>
  <node id="-147" lat="60.36630790348891" lon="-1.261691516650313">
    <tag k="addr:postcode" v="ZE2 9PT"/>
    <tag k="removemelater" v="yes"/>
  </node>
  <node id="-148" lat="60.35751030247486" lon="-1.261999101873425">
    <tag k="addr:postcode" v="ZE2 9PU"/>
    <tag k="removemelater" v="yes"/>
  </node>
  <node id="-149" lat="60.348434658480315" lon="-1.2688720076989894">
    <tag k="addr:postcode" v="ZE2 9PX"/>
    <tag k="removemelater" v="yes"/>
  </node>
  <node id="-150" lat="60.34030935352379" lon="-1.3339773082546962">
    <tag k="addr:postcode" v="ZE2 9PY"/>
    <tag k="removemelater" v="yes"/>
  </node>
  <node id="-151" lat="60.40165741216008" lon="-1.22219755230537">
    <tag k="addr:postcode" v="ZE2 9PZ"/>
    <tag k="removemelater" v="yes"/>
  </node>
  <node id="-152" lat="60.377535522852654" lon="-1.1622353637132428">
    <tag k="addr:postcode" v="ZE2 9QE"/>
    <tag k="removemelater" v="yes"/>
  </node>
  <node id="-153" lat="60.37175858423173" lon="-1.349600485322096">
    <tag k="addr:postcode" v="ZE2 9QL"/>
    <tag k="removemelater" v="yes"/>
  </node>
  <node id="-154" lat="60.42056876689701" lon="-1.317610257446256">
    <tag k="addr:postcode" v="ZE2 9QP"/>
    <tag k="removemelater" v="yes"/>
  </node>
  <node id="-155" lat="60.44499737785259" lon="-1.253455977827992">
    <tag k="addr:postcode" v="ZE2 9QR"/>
    <tag k="removemelater" v="yes"/>
  </node>
  <node id="-156" lat="60.368995926633445" lon="-1.3266839359288938">
    <tag k="addr:postcode" v="ZE2 9QS"/>
    <tag k="removemelater" v="yes"/>
  </node>
  <node id="-157" lat="60.37926733135564" lon="-1.3464402345168178">
    <tag k="addr:postcode" v="ZE2 9QU"/>
    <tag k="removemelater" v="yes"/>
  </node>
  <node id="-158" lat="60.36381376395404" lon="-1.3838751311176898">
    <tag k="addr:postcode" v="ZE2 9QW"/>
    <tag k="removemelater" v="yes"/>
  </node>
  <node id="-159" lat="60.23239544160512" lon="-1.5670184589329645">
    <tag k="addr:postcode" v="ZE2 9QX"/>
    <tag k="removemelater" v="yes"/>
  </node>
  <node id="-160" lat="60.35885998048622" lon="-1.2625123659430724">
    <tag k="addr:postcode" v="ZE2 9QZ"/>
    <tag k="removemelater" v="yes"/>
  </node>
  <node id="-161" lat="60.460154531452524" lon="-1.180217602308174">
    <tag k="addr:postcode" v="ZE2 9RA"/>
    <tag k="removemelater" v="yes"/>
  </node>
  <node id="-162" lat="60.45886092031878" lon="-1.184504575338649">
    <tag k="addr:postcode" v="ZE2 9RB"/>
    <tag k="removemelater" v="yes"/>
  </node>
  <node id="-163" lat="60.45944513449243" lon="-1.377901564811365">
    <tag k="addr:postcode" v="ZE2 9RF"/>
    <tag k="removemelater" v="yes"/>
  </node>
  <node id="-164" lat="60.44290816176781" lon="-1.4454529303924992">
    <tag k="addr:postcode" v="ZE2 9RQ"/>
    <tag k="removemelater" v="yes"/>
  </node>
  <node id="-165" lat="60.58714975711015" lon="-1.3318974104113614">
    <tag k="addr:postcode" v="ZE2 9RY"/>
    <tag k="removemelater" v="yes"/>
  </node>
  <node id="-166" lat="60.54724707199462" lon="-1.333285080599531">
    <tag k="addr:postcode" v="ZE2 9RZ"/>
    <tag k="removemelater" v="yes"/>
  </node>
  <node id="-167" lat="60.46076600361004" lon="-1.1803658317865031">
    <tag k="addr:postcode" v="ZE2 9TG"/>
    <tag k="removemelater" v="yes"/>
  </node>
  <node id="-168" lat="60.4595866052306" lon="-1.1798501027545356">
    <tag k="addr:postcode" v="ZE2 9TH"/>
    <tag k="removemelater" v="yes"/>
  </node>
  <node id="-169" lat="60.46014082031181" lon="-1.1809088565170736">
    <tag k="addr:postcode" v="ZE2 9TQ"/>
    <tag k="removemelater" v="yes"/>
  </node>
  <node id="-170" lat="59.99989390498575" lon="-1.2359120636362795">
    <tag k="addr:postcode" v="ZE2 9UE"/>
    <tag k="removemelater" v="yes"/>
  </node>
  <node id="-171" lat="59.99968673353232" lon="-1.2342494967416195">
    <tag k="addr:postcode" v="ZE2 9UJ"/>
    <tag k="removemelater" v="yes"/>
  </node>
  <node id="-172" lat="60.46971098827886" lon="-1.2573990627192329">
    <tag k="addr:postcode" v="ZE2 9UN"/>
    <tag k="removemelater" v="yes"/>
  </node>
  <node id="-173" lat="60.438421001756794" lon="-1.2705952423392526">
    <tag k="addr:postcode" v="ZE2 9UP"/>
    <tag k="removemelater" v="yes"/>
  </node>
  <node id="-174" lat="60.44436058306826" lon="-1.2763864867114414">
    <tag k="addr:postcode" v="ZE2 9UR"/>
    <tag k="removemelater" v="yes"/>
  </node>
  <node id="-175" lat="60.055161375168225" lon="-1.2083442069010102">
    <tag k="addr:postcode" v="ZE2 9UW"/>
    <tag k="removemelater" v="yes"/>
  </node>
  <node id="-176" lat="60.39940232842573" lon="-1.3473797066065456">
    <tag k="addr:postcode" v="ZE2 9UZ"/>
    <tag k="removemelater" v="yes"/>
  </node>
  <node id="-177" lat="59.999340944958895" lon="-1.2350104711554957">
    <tag k="addr:postcode" v="ZE2 9WJ"/>
    <tag k="removemelater" v="yes"/>
  </node>
  <node id="-178" lat="60.38988846146022" lon="-1.3705199749506853">
    <tag k="addr:postcode" v="ZE2 9WL"/>
    <tag k="removemelater" v="yes"/>
  </node>
  <node id="-179" lat="60.26015523923203" lon="-1.1626876399853536">
    <tag k="addr:postcode" v="ZE2 9XA"/>
    <tag k="removemelater" v="yes"/>
  </node>
  <node id="-180" lat="60.230726168592774" lon="-1.5645129164330398">
    <tag k="addr:postcode" v="ZE2 9XB"/>
    <tag k="removemelater" v="yes"/>
  </node>
  <node id="-181" lat="60.358002997191" lon="-1.2601754980498647">
    <tag k="addr:postcode" v="ZE2 9XF"/>
    <tag k="removemelater" v="yes"/>
  </node>
  <node id="-182" lat="60.5858036011558" lon="-1.3374373184760375">
    <tag k="addr:postcode" v="ZE2 9XG"/>
    <tag k="removemelater" v="yes"/>
  </node>
  <node id="-183" lat="60.35942274445921" lon="-1.2701304995893494">
    <tag k="addr:postcode" v="ZE2 9XQ"/>
    <tag k="removemelater" v="yes"/>
  </node>
  <node id="-184" lat="59.89178480652863" lon="-1.3115731991186583">
    <tag k="addr:postcode" v="ZE3 9JR"/>
    <tag k="removemelater" v="yes"/>
  </node>
  <node id="-185" lat="59.890606394501695" lon="-1.2941926874041676">
    <tag k="addr:postcode" v="ZE3 9JS"/>
    <tag k="removemelater" v="yes"/>
  </node>
  <node id="-186" lat="59.87261539003782" lon="-1.3067721279174644">
    <tag k="addr:postcode" v="ZE3 9JT"/>
    <tag k="removemelater" v="yes"/>
  </node>
  <node id="-187" lat="59.87365135154101" lon="-1.305696809263682">
    <tag k="addr:postcode" v="ZE3 9JW"/>
    <tag k="removemelater" v="yes"/>
  </node>
  <node id="-188" lat="59.87528613934355" lon="-1.3075024472833292">
    <tag k="addr:postcode" v="ZE3 9JX"/>
    <tag k="removemelater" v="yes"/>
  </node>
  <node id="-189" lat="59.89157217283274" lon="-1.313847084332501">
    <tag k="addr:postcode" v="ZE3 9JY"/>
    <tag k="removemelater" v="yes"/>
  </node>
  <node id="-190" lat="59.89239189071423" lon="-1.3108994391200477">
    <tag k="addr:postcode" v="ZE3 9JZ"/>
    <tag k="removemelater" v="yes"/>
  </node>
</osm>
